{
  "type": "FeatureCollection",
  "features": [
    {
      "type": "Feature",
      "properties": {
        "idx": "1011",
        "nama_kewilayahan": "Rakyat Penunggu Kampung Secanggang"
      },
      "geometry": {
        "type": "Polygon",
        "coordinates": [
          [
            [
              98.577080526,
              3.928005358
            ],
            [
              98.577042254,
              3.927991967
            ],
            [
              98.578397359,
              3.927506673
            ],
            [
              98.579849141,
              3.927215818
            ],
            [
              98.581107516,
              3.926633275
            ],
            [
              98.581785236,
              3.926050439
            ],
            [
              98.582366324,
              3.925175964
            ],
            [
              98.583044186,
              3.92430154
            ],
            [
              98.583430903,
              3.925079302
            ],
            [
              98.583333694,
              3.925954019
            ],
            [
              98.583913481,
              3.92770384
            ],
            [
              98.584784127,
              3.928384648
            ],
            [
              98.585558718,
              3.927607464
            ],
            [
              98.585559293,
              3.92644111
            ],
            [
              98.585753276,
              3.925566439
            ],
            [
              98.586431422,
              3.924108833
            ],
            [
              98.587786374,
              3.923915113
            ],
            [
              98.589334828,
              3.923818682
            ],
            [
              98.591076881,
              3.923625145
            ],
            [
              98.592238469,
              3.923042536
            ],
            [
              98.593110059,
              3.921779409
            ],
            [
              98.595336123,
              3.921294512
            ],
            [
              98.596885086,
              3.920128905
            ],
            [
              98.598046526,
              3.919837876
            ],
            [
              98.598724322,
              3.919060631
            ],
            [
              98.598627964,
              3.918185817
            ],
            [
              98.599315327,
              3.916869396
            ],
            [
              98.59819005,
              3.916173156
            ],
            [
              98.597948693,
              3.914958085
            ],
            [
              98.597465517,
              3.913499907
            ],
            [
              98.597345187,
              3.912163399
            ],
            [
              98.596862245,
              3.910219239
            ],
            [
              98.596621123,
              3.908518186
            ],
            [
              98.597589208,
              3.907789679
            ],
            [
              98.599403888,
              3.907426063
            ],
            [
              98.600251175,
              3.906333008
            ],
            [
              98.600735847,
              3.904632302
            ],
            [
              98.600736708,
              3.902809869
            ],
            [
              98.600254392,
              3.899529259
            ],
            [
              98.597834553,
              3.900621562
            ],
            [
              98.596866593,
              3.90110708
            ],
            [
              98.595778362,
              3.900134592
            ],
            [
              98.5948111,
              3.899162161
            ],
            [
              98.59456975,
              3.897947091
            ],
            [
              98.594328401,
              3.896732019
            ],
            [
              98.595175856,
              3.895274482
            ],
            [
              98.595297228,
              3.894424072
            ],
            [
              98.594692693,
              3.893816303
            ],
            [
              98.593120147,
              3.893815543
            ],
            [
              98.592031695,
              3.893329034
            ],
            [
              98.592032397,
              3.891871088
            ],
            [
              98.592032981,
              3.890656134
            ],
            [
              98.592517423,
              3.889441414
            ],
            [
              98.593364931,
              3.887862383
            ],
            [
              98.593970392,
              3.886526225
            ],
            [
              98.593971205,
              3.884825289
            ],
            [
              98.593804848,
              3.883146271
            ],
            [
              98.593730439,
              3.882395263
            ],
            [
              98.593126727,
              3.880086558
            ],
            [
              98.592039283,
              3.877534626
            ],
            [
              98.590588373,
              3.876197473
            ],
            [
              98.589863008,
              3.875346652
            ],
            [
              98.590226304,
              3.874496361
            ],
            [
              98.589985023,
              3.873159794
            ],
            [
              98.589380739,
              3.872066041
            ],
            [
              98.589018674,
              3.870364927
            ],
            [
              98.589141216,
              3.86708461
            ],
            [
              98.588901282,
              3.862953647
            ],
            [
              98.588539337,
              3.861009543
            ],
            [
              98.588298235,
              3.859308491
            ],
            [
              98.587573119,
              3.857971686
            ],
            [
              98.586848299,
              3.856027407
            ],
            [
              98.587211647,
              3.85505562
            ],
            [
              98.586970138,
              3.854205033
            ],
            [
              98.584913771,
              3.854325526
            ],
            [
              98.581526673,
              3.854809844
            ],
            [
              98.57889047,
              3.855215875
            ],
            [
              98.578381491,
              3.855294268
            ],
            [
              98.574389229,
              3.856507228
            ],
            [
              98.571606797,
              3.857234798
            ],
            [
              98.570034324,
              3.857234002
            ],
            [
              98.568703524,
              3.857719307
            ],
            [
              98.567493622,
              3.858326167
            ],
            [
              98.5664048,
              3.858690096
            ],
            [
              98.564590344,
              3.858810661
            ],
            [
              98.562171152,
              3.858809415
            ],
            [
              98.559872607,
              3.8594157
            ],
            [
              98.557210929,
              3.860507767
            ],
            [
              98.555275004,
              3.861600209
            ],
            [
              98.553339329,
              3.862206665
            ],
            [
              98.551525185,
              3.861719726
            ],
            [
              98.549914229,
              3.860909617
            ],
            [
              98.550154484,
              3.859850407
            ],
            [
              98.550851661,
              3.858995454
            ],
            [
              98.551239343,
              3.857829308
            ],
            [
              98.55185898,
              3.857207582
            ],
            [
              98.552323952,
              3.856274747
            ],
            [
              98.552866296,
              3.85541971
            ],
            [
              98.553640798,
              3.854720306
            ],
            [
              98.55472467,
              3.854565362
            ],
            [
              98.555266607,
              3.854487889
            ],
            [
              98.55573129,
              3.854099348
            ],
            [
              98.556428537,
              3.853088875
            ],
            [
              98.556351687,
              3.852000239
            ],
            [
              98.55635205,
              3.851300428
            ],
            [
              98.557435797,
              3.851378751
            ],
            [
              98.558442132,
              3.851457031
            ],
            [
              98.559138852,
              3.851457392
            ],
            [
              98.55975836,
              3.85106893
            ],
            [
              98.560223319,
              3.850136089
            ],
            [
              98.559837171,
              3.848347482
            ],
            [
              98.558831999,
              3.846014256
            ],
            [
              98.558135643,
              3.845314084
            ],
            [
              98.556897158,
              3.845080168
            ],
            [
              98.555968405,
              3.844690899
            ],
            [
              98.554962482,
              3.843835049
            ],
            [
              98.553646709,
              3.843367819
            ],
            [
              98.551866015,
              3.843755667
            ],
            [
              98.551091847,
              3.843833016
            ],
            [
              98.549698419,
              3.84383228
            ],
            [
              98.549234025,
              3.84367652
            ],
            [
              98.549621292,
              3.843287942
            ],
            [
              98.549931228,
              3.842743808
            ],
            [
              98.547996815,
              3.841032135
            ],
            [
              98.547300185,
              3.840876253
            ],
            [
              98.54598397,
              3.841264334
            ],
            [
              98.544048371,
              3.841807597
            ],
            [
              98.541415893,
              3.842661506
            ],
            [
              98.540219892,
              3.839967137
            ],
            [
              98.540214349,
              3.83995465
            ],
            [
              98.540191458,
              3.839882992
            ],
            [
              98.539667396,
              3.838242436
            ],
            [
              98.53990446,
              3.837154549
            ],
            [
              98.539928113,
              3.837132132
            ],
            [
              98.540245758,
              3.836831112
            ],
            [
              98.54073922,
              3.836363475
            ],
            [
              98.541944231,
              3.836150546
            ],
            [
              98.543460917,
              3.835950922
            ],
            [
              98.544637717,
              3.83579603
            ],
            [
              98.550018612,
              3.832408268
            ],
            [
              98.550779896,
              3.831928969
            ],
            [
              98.550789613,
              3.831922851
            ],
            [
              98.550087126,
              3.831020856
            ],
            [
              98.549384593,
              3.830211195
            ],
            [
              98.548964352,
              3.829723279
            ],
            [
              98.548698316,
              3.829272679
            ],
            [
              98.527351814,
              3.828725075
            ],
            [
              98.527113867,
              3.827416371
            ],
            [
              98.515216562,
              3.826702533
            ],
            [
              98.504285916,
              3.827332518
            ],
            [
              98.504963065,
              3.827385234
            ],
            [
              98.505435408,
              3.827427578
            ],
            [
              98.506330633,
              3.827819159
            ],
            [
              98.507138709,
              3.829318704
            ],
            [
              98.507089436,
              3.830758755
            ],
            [
              98.50559217,
              3.833167617
            ],
            [
              98.505585625,
              3.833187036
            ],
            [
              98.505569376,
              3.833213215
            ],
            [
              98.505000055,
              3.834915468
            ],
            [
              98.504999187,
              3.836424673
            ],
            [
              98.504997479,
              3.836725952
            ],
            [
              98.50512005,
              3.836959047
            ],
            [
              98.505765984,
              3.838208522
            ],
            [
              98.506323276,
              3.838613711
            ],
            [
              98.506668405,
              3.838864641
            ],
            [
              98.506673565,
              3.838868394
            ],
            [
              98.506769475,
              3.842763895
            ],
            [
              98.501177742,
              3.842288003
            ],
            [
              98.501177225,
              3.848570488
            ],
            [
              98.501415689,
              3.850616118
            ],
            [
              98.500225958,
              3.852519686
            ],
            [
              98.499631093,
              3.855731957
            ],
            [
              98.501415689,
              3.862394448
            ],
            [
              98.505222826,
              3.866439532
            ],
            [
              98.506412557,
              3.867986182
            ],
            [
              98.506769475,
              3.870127696
            ],
            [
              98.505460772,
              3.872031264
            ],
            [
              98.49469186,
              3.869842611
            ],
            [
              98.496142514,
              3.87390993
            ],
            [
              98.496335822,
              3.874558529
            ],
            [
              98.496663382,
              3.87565758
            ],
            [
              98.496721976,
              3.875854179
            ],
            [
              98.49730098,
              3.878575987
            ],
            [
              98.497664,
              3.87962627
            ],
            [
              98.498071988,
              3.880806655
            ],
            [
              98.498073813,
              3.880811935
            ],
            [
              98.498073411,
              3.881492301
            ],
            [
              98.498076655,
              3.881503675
            ],
            [
              98.498931421,
              3.884500766
            ],
            [
              98.500786617,
              3.886863879
            ],
            [
              98.502913775,
              3.891262158
            ],
            [
              98.507372965,
              3.899683117
            ],
            [
              98.507698041,
              3.90029857
            ],
            [
              98.508184407,
              3.901219385
            ],
            [
              98.509016276,
              3.902794329
            ],
            [
              98.509257109,
              3.904413338
            ],
            [
              98.509305464,
              3.904738403
            ],
            [
              98.509293333,
              3.904823339
            ],
            [
              98.50931905,
              3.905004903
            ],
            [
              98.509220263,
              3.905334933
            ],
            [
              98.509124306,
              3.906006766
            ],
            [
              98.509123851,
              3.906009948
            ],
            [
              98.511760395,
              3.904040965
            ],
            [
              98.51271218,
              3.904278911
            ],
            [
              98.515805479,
              3.909275779
            ],
            [
              98.516281371,
              3.910703455
            ],
            [
              98.519612616,
              3.90856194
            ],
            [
              98.521754132,
              3.910465509
            ],
            [
              98.521953042,
              3.911526368
            ],
            [
              98.52246797,
              3.914272647
            ],
            [
              98.524371539,
              3.917128001
            ],
            [
              98.526513053,
              3.920221299
            ],
            [
              98.532430083,
              3.915140249
            ],
            [
              98.531900435,
              3.914802198
            ],
            [
              98.532537106,
              3.914954824
            ],
            [
              98.533282509,
              3.913663353
            ],
            [
              98.534289083,
              3.913430644
            ],
            [
              98.535373118,
              3.913120223
            ],
            [
              98.536766614,
              3.913198753
            ],
            [
              98.538082479,
              3.91366602
            ],
            [
              98.539088457,
              3.914521897
            ],
            [
              98.540172365,
              3.914444737
            ],
            [
              98.541643072,
              3.914912086
            ],
            [
              98.542726601,
              3.91553473
            ],
            [
              98.54450661,
              3.91670205
            ],
            [
              98.545745024,
              3.917247023
            ],
            [
              98.546286331,
              3.918413666
            ],
            [
              98.546595423,
              3.919502425
            ],
            [
              98.547679212,
              3.919658526
            ],
            [
              98.54884038,
              3.919892424
            ],
            [
              98.549459446,
              3.920437056
            ],
            [
              98.550543404,
              3.920282126
            ],
            [
              98.551240305,
              3.920049231
            ],
            [
              98.551627527,
              3.91981617
            ],
            [
              98.55185962,
              3.920127322
            ],
            [
              98.552479143,
              3.919816628
            ],
            [
              98.552866612,
              3.919117024
            ],
            [
              98.552557306,
              3.91841705
            ],
            [
              98.552635221,
              3.917484012
            ],
            [
              98.553332284,
              3.916940088
            ],
            [
              98.554183897,
              3.916940543
            ],
            [
              98.554725093,
              3.918340452
            ],
            [
              98.555111286,
              3.920051304
            ],
            [
              98.556349222,
              3.92152934
            ],
            [
              98.557973976,
              3.923551877
            ],
            [
              98.559444427,
              3.924563492
            ],
            [
              98.561224562,
              3.925575269
            ],
            [
              98.562773007,
              3.925498326
            ],
            [
              98.563547371,
              3.925187705
            ],
            [
              98.564631576,
              3.924566219
            ],
            [
              98.565792919,
              3.924489067
            ],
            [
              98.568501787,
              3.926123367
            ],
            [
              98.569275194,
              3.927678901
            ],
            [
              98.570358604,
              3.928612544
            ],
            [
              98.572448802,
              3.928924646
            ],
            [
              98.574539239,
              3.928770204
            ],
            [
              98.576475108,
              3.928071379
            ],
            [
              98.577080526,
              3.928005358
            ]
          ]
        ]
      }
    }
  ]
}