{
  "type": "FeatureCollection",
  "features": [
    {
      "type": "Feature",
      "properties": {
        "idx": "1030",
        "nama_kewilayahan": "Kampung Durian"
      },
      "geometry": {
        "type": "Polygon",
        "coordinates": [
          [
            [
              98.45352036,
              3.718071145
            ],
            [
              98.453509005,
              3.718059864
            ],
            [
              98.451510851,
              3.716074773
            ],
            [
              98.451249875,
              3.716349908
            ],
            [
              98.449125151,
              3.714779467
            ],
            [
              98.443278638,
              3.714491374
            ],
            [
              98.43780788,
              3.714635088
            ],
            [
              98.435849431,
              3.714686536
            ],
            [
              98.435312725,
              3.714206289
            ],
            [
              98.43161566,
              3.714189215
            ],
            [
              98.427167631,
              3.714260267
            ],
            [
              98.424930476,
              3.714269047
            ],
            [
              98.42023602,
              3.71428747
            ],
            [
              98.403181838,
              3.714462916
            ],
            [
              98.403177775,
              3.71526508
            ],
            [
              98.401610184,
              3.715324704
            ],
            [
              98.398809726,
              3.715986551
            ],
            [
              98.398644763,
              3.719070562
            ],
            [
              98.398273545,
              3.719031138
            ],
            [
              98.398286384,
              3.719819748
            ],
            [
              98.397209423,
              3.71992048
            ],
            [
              98.397238489,
              3.720293715
            ],
            [
              98.394856918,
              3.720326963
            ],
            [
              98.394798113,
              3.720559877
            ],
            [
              98.394932632,
              3.720820287
            ],
            [
              98.393890216,
              3.72147411
            ],
            [
              98.393889017,
              3.721474862
            ],
            [
              98.393825799,
              3.721514512
            ],
            [
              98.392955083,
              3.722060643
            ],
            [
              98.391557811,
              3.721988204
            ],
            [
              98.389151729,
              3.721579963
            ],
            [
              98.389058837,
              3.721472138
            ],
            [
              98.388772012,
              3.721190377
            ],
            [
              98.387871641,
              3.722021546
            ],
            [
              98.388311335,
              3.72240912
            ],
            [
              98.388316937,
              3.722452519
            ],
            [
              98.388570746,
              3.722958003
            ],
            [
              98.388579755,
              3.723345552
            ],
            [
              98.388582688,
              3.723367967
            ],
            [
              98.388423646,
              3.72394048
            ],
            [
              98.388408812,
              3.723990874
            ],
            [
              98.38795693,
              3.724606548
            ],
            [
              98.387492846,
              3.725021617
            ],
            [
              98.386859124,
              3.725340883
            ],
            [
              98.386006944,
              3.725850652
            ],
            [
              98.385445511,
              3.726078126
            ],
            [
              98.385151701,
              3.72646622
            ],
            [
              98.385097984,
              3.726917508
            ],
            [
              98.385346081,
              3.727452601
            ],
            [
              98.385928145,
              3.728057551
            ],
            [
              98.386412486,
              3.72833332
            ],
            [
              98.387073085,
              3.728731609
            ],
            [
              98.387844295,
              3.728951476
            ],
            [
              98.388990414,
              3.729500081
            ],
            [
              98.389893293,
              3.729874192
            ],
            [
              98.391838268,
              3.730462281
            ],
            [
              98.392774127,
              3.73055435
            ],
            [
              98.393356989,
              3.73053165
            ],
            [
              98.393951382,
              3.730549389
            ],
            [
              98.394453723,
              3.730433938
            ],
            [
              98.394926662,
              3.730459129
            ],
            [
              98.395422586,
              3.730568168
            ],
            [
              98.396266984,
              3.73043873
            ],
            [
              98.397126887,
              3.730271026
            ],
            [
              98.397790859,
              3.730098258
            ],
            [
              98.398235363,
              3.729925072
            ],
            [
              98.398798408,
              3.729723085
            ],
            [
              98.399352603,
              3.729620507
            ],
            [
              98.399908034,
              3.729584976
            ],
            [
              98.400529917,
              3.729872134
            ],
            [
              98.400909033,
              3.730456602
            ],
            [
              98.401081673,
              3.731343793
            ],
            [
              98.400969914,
              3.732279715
            ],
            [
              98.400515416,
              3.733553795
            ],
            [
              98.399585076,
              3.735332185
            ],
            [
              98.398720802,
              3.737101775
            ],
            [
              98.398228969,
              3.738108797
            ],
            [
              98.397917392,
              3.739245865
            ],
            [
              98.397898678,
              3.740223797
            ],
            [
              98.398005608,
              3.74091134
            ],
            [
              98.398808489,
              3.74078647
            ],
            [
              98.406345512,
              3.736255252
            ],
            [
              98.413473998,
              3.731039
            ],
            [
              98.414419799,
              3.729577428
            ],
            [
              98.414458107,
              3.729518228
            ],
            [
              98.415380666,
              3.728092578
            ],
            [
              98.416991914,
              3.725602666
            ],
            [
              98.418769685,
              3.725537937
            ],
            [
              98.421047857,
              3.72551985
            ],
            [
              98.423887678,
              3.7254973
            ],
            [
              98.424709794,
              3.726076936
            ],
            [
              98.425003319,
              3.725826227
            ],
            [
              98.425018285,
              3.725813443
            ],
            [
              98.426440348,
              3.726617104
            ],
            [
              98.426442471,
              3.726618303
            ],
            [
              98.426848633,
              3.726259276
            ],
            [
              98.427556671,
              3.725351761
            ],
            [
              98.427559198,
              3.725351717
            ],
            [
              98.427562996,
              3.725346802
            ],
            [
              98.434067075,
              3.725130565
            ],
            [
              98.434067034,
              3.724810097
            ],
            [
              98.434066946,
              3.724127119
            ],
            [
              98.43406673,
              3.72246274
            ],
            [
              98.435195308,
              3.722302971
            ],
            [
              98.436966686,
              3.722700681
            ],
            [
              98.437799045,
              3.722240208
            ],
            [
              98.437946641,
              3.722237691
            ],
            [
              98.440606827,
              3.722204148
            ],
            [
              98.444731251,
              3.722152138
            ],
            [
              98.449311367,
              3.722421176
            ],
            [
              98.451458508,
              3.720203344
            ],
            [
              98.45189702,
              3.719750392
            ],
            [
              98.453446728,
              3.718149649
            ],
            [
              98.45352036,
              3.718071145
            ]
          ]
        ]
      }
    }
  ]
}