{
  "type": "FeatureCollection",
  "features": [
    {
      "type": "Feature",
      "properties": {
        "idx": "1035",
        "nama_kewilayahan": "Talang Sungai Limau"
      },
      "geometry": {
        "type": "Polygon",
        "coordinates": [
          [
            [
              102.413470981,
              -0.541857971
            ],
            [
              102.406218612,
              -0.551840229
            ],
            [
              102.398805172,
              -0.558670074
            ],
            [
              102.39754603,
              -0.559087986
            ],
            [
              102.395194198,
              -0.559529324
            ],
            [
              102.391475885,
              -0.561416766
            ],
            [
              102.386427571,
              -0.562849254
            ],
            [
              102.385798078,
              -0.562896795
            ],
            [
              102.381783307,
              -0.563791701
            ],
            [
              102.379942342,
              -0.563922386
            ],
            [
              102.376521732,
              -0.564136046
            ],
            [
              102.375749591,
              -0.564470471
            ],
            [
              102.374074802,
              -0.564840349
            ],
            [
              102.372412011,
              -0.564947199
            ],
            [
              102.369572819,
              -0.566404555
            ],
            [
              102.367339687,
              -0.56709699
            ],
            [
              102.366044949,
              -0.567490951
            ],
            [
              102.362588011,
              -0.569318646
            ],
            [
              102.357064039,
              -0.572257283
            ],
            [
              102.352870624,
              -0.57439546
            ],
            [
              102.34931899,
              -0.575577443
            ],
            [
              102.344199346,
              -0.577452121
            ],
            [
              102.340968478,
              -0.578454893
            ],
            [
              102.336683139,
              -0.581729144
            ],
            [
              102.334208871,
              -0.584373121
            ],
            [
              102.331427385,
              -0.58297142
            ],
            [
              102.329263472,
              -0.583022251
            ],
            [
              102.32587183,
              -0.582201849
            ],
            [
              102.325040449,
              -0.582285142
            ],
            [
              102.321109217,
              -0.582665845
            ],
            [
              102.319588953,
              -0.582880316
            ],
            [
              102.317724324,
              -0.58299898
            ],
            [
              102.316607846,
              -0.583237557
            ],
            [
              102.315634051,
              -0.583117534
            ],
            [
              102.312902427,
              -0.583319464
            ],
            [
              102.311726588,
              -0.583522144
            ],
            [
              102.310538772,
              -0.583940019
            ],
            [
              102.308286614,
              -0.586365146
            ],
            [
              102.305192232,
              -0.587674988
            ],
            [
              102.302097223,
              -0.590296156
            ],
            [
              102.299979899,
              -0.591442542
            ],
            [
              102.29688513,
              -0.593571939
            ],
            [
              102.2933014,
              -0.596684579
            ],
            [
              102.291671919,
              -0.599142509
            ],
            [
              102.289717345,
              -0.600452858
            ],
            [
              102.288087859,
              -0.602910774
            ],
            [
              102.285481325,
              -0.605532105
            ],
            [
              102.28401482,
              -0.607662257
            ],
            [
              102.282548396,
              -0.609628488
            ],
            [
              102.27777203,
              -0.61454984
            ],
            [
              102.277754603,
              -0.614526005
            ],
            [
              102.27770599,
              -0.614459519
            ],
            [
              102.277628481,
              -0.614353512
            ],
            [
              102.276608471,
              -0.612958479
            ],
            [
              102.276470479,
              -0.61276975
            ],
            [
              102.274923996,
              -0.611582355
            ],
            [
              102.27451756,
              -0.611270292
            ],
            [
              102.271924189,
              -0.609666863
            ],
            [
              102.269570293,
              -0.608270012
            ],
            [
              102.265735181,
              -0.605994179
            ],
            [
              102.265493692,
              -0.605850876
            ],
            [
              102.262800898,
              -0.604594218
            ],
            [
              102.259502641,
              -0.602957086
            ],
            [
              102.258850493,
              -0.602525703
            ],
            [
              102.255812897,
              -0.600516388
            ],
            [
              102.255476238,
              -0.600273437
            ],
            [
              102.254401448,
              -0.599497813
            ],
            [
              102.253269702,
              -0.598634822
            ],
            [
              102.253031156,
              -0.597400825
            ],
            [
              102.252783545,
              -0.596119927
            ],
            [
              102.252458776,
              -0.5944399
            ],
            [
              102.251447586,
              -0.593159965
            ],
            [
              102.247555142,
              -0.587878152
            ],
            [
              102.247363562,
              -0.587553428
            ],
            [
              102.247207241,
              -0.58728847
            ],
            [
              102.246619786,
              -0.587553059
            ],
            [
              102.246490604,
              -0.587611243
            ],
            [
              102.245870918,
              -0.587890348
            ],
            [
              102.243145007,
              -0.588749765
            ],
            [
              102.242927191,
              -0.588471737
            ],
            [
              102.242613655,
              -0.588071529
            ],
            [
              102.242343897,
              -0.587727201
            ],
            [
              102.242245491,
              -0.587550886
            ],
            [
              102.240902261,
              -0.585144174
            ],
            [
              102.240187582,
              -0.584263955
            ],
            [
              102.239940905,
              -0.583960141
            ],
            [
              102.239086353,
              -0.582937556
            ],
            [
              102.237109609,
              -0.581786649
            ],
            [
              102.23313705,
              -0.579913777
            ],
            [
              102.233098712,
              -0.579895704
            ],
            [
              102.233086584,
              -0.57980994
            ],
            [
              102.232985822,
              -0.579097414
            ],
            [
              102.232942491,
              -0.578791004
            ],
            [
              102.232330453,
              -0.577284397
            ],
            [
              102.232316791,
              -0.576065001
            ],
            [
              102.232844825,
              -0.574472878
            ],
            [
              102.232945207,
              -0.573167463
            ],
            [
              102.232803039,
              -0.572464452
            ],
            [
              102.232532556,
              -0.571890487
            ],
            [
              102.231834663,
              -0.571101134
            ],
            [
              102.231678313,
              -0.570254658
            ],
            [
              102.231722077,
              -0.568131508
            ],
            [
              102.231474275,
              -0.567302915
            ],
            [
              102.231451748,
              -0.567227595
            ],
            [
              102.231441606,
              -0.567200324
            ],
            [
              102.231238264,
              -0.566653662
            ],
            [
              102.230967095,
              -0.566307097
            ],
            [
              102.230654353,
              -0.565907401
            ],
            [
              102.230407855,
              -0.565642888
            ],
            [
              102.22955763,
              -0.564730524
            ],
            [
              102.229215879,
              -0.564185223
            ],
            [
              102.229045471,
              -0.562922718
            ],
            [
              102.229045756,
              -0.562320198
            ],
            [
              102.228618582,
              -0.561602708
            ],
            [
              102.227421897,
              -0.560870504
            ],
            [
              102.227008926,
              -0.560253443
            ],
            [
              102.227237606,
              -0.558818982
            ],
            [
              102.227238002,
              -0.557972587
            ],
            [
              102.22756676,
              -0.555835231
            ],
            [
              102.228650676,
              -0.553927764
            ],
            [
              102.228479879,
              -0.553482965
            ],
            [
              102.227952775,
              -0.553138421
            ],
            [
              102.225368085,
              -0.551027577
            ],
            [
              102.226629059,
              -0.54709741
            ],
            [
              102.226630095,
              -0.547094181
            ],
            [
              102.226630106,
              -0.547094146
            ],
            [
              102.226631131,
              -0.547090952
            ],
            [
              102.227714859,
              -0.543713178
            ],
            [
              102.227883363,
              -0.543174321
            ],
            [
              102.22836464,
              -0.542475177
            ],
            [
              102.228604447,
              -0.537407093
            ],
            [
              102.229216781,
              -0.533545483
            ],
            [
              102.22934482,
              -0.530485057
            ],
            [
              102.227192475,
              -0.528061206
            ],
            [
              102.227152595,
              -0.526469386
            ],
            [
              102.227366868,
              -0.525293136
            ],
            [
              102.227666345,
              -0.524791171
            ],
            [
              102.228179734,
              -0.523930655
            ],
            [
              102.228166044,
              -0.522653882
            ],
            [
              102.228408909,
              -0.521262455
            ],
            [
              102.229113527,
              -0.519682428
            ],
            [
              102.231381146,
              -0.518112936
            ],
            [
              102.231909932,
              -0.517746946
            ],
            [
              102.232838092,
              -0.516740326
            ],
            [
              102.233060478,
              -0.516499141
            ],
            [
              102.233405398,
              -0.51614015
            ],
            [
              102.233433476,
              -0.516194503
            ],
            [
              102.233798418,
              -0.516900961
            ],
            [
              102.233920966,
              -0.517138189
            ],
            [
              102.234203749,
              -0.517211623
            ],
            [
              102.240813427,
              -0.518928071
            ],
            [
              102.241308233,
              -0.519052224
            ],
            [
              102.242582773,
              -0.519372024
            ],
            [
              102.243789865,
              -0.519777671
            ],
            [
              102.243862498,
              -0.519801105
            ],
            [
              102.24579307,
              -0.520754859
            ],
            [
              102.247462329,
              -0.521067451
            ],
            [
              102.247464747,
              -0.521070044
            ],
            [
              102.250908691,
              -0.524764612
            ],
            [
              102.254391183,
              -0.528500555
            ],
            [
              102.254410932,
              -0.528485147
            ],
            [
              102.259201789,
              -0.524747061
            ],
            [
              102.259221638,
              -0.524758107
            ],
            [
              102.264838342,
              -0.527884107
            ],
            [
              102.265069157,
              -0.528012566
            ],
            [
              102.270162742,
              -0.53084743
            ],
            [
              102.27017031,
              -0.530832386
            ],
            [
              102.274286886,
              -0.522649184
            ],
            [
              102.29120712,
              -0.521214711
            ],
            [
              102.293187893,
              -0.521046779
            ],
            [
              102.293919532,
              -0.52098475
            ],
            [
              102.294240662,
              -0.520957525
            ],
            [
              102.295974824,
              -0.520810499
            ],
            [
              102.302849633,
              -0.518519454
            ],
            [
              102.302851489,
              -0.518512961
            ],
            [
              102.303797427,
              -0.515206017
            ],
            [
              102.303804977,
              -0.515202088
            ],
            [
              102.3038052,
              -0.515201306
            ],
            [
              102.310170717,
              -0.511885372
            ],
            [
              102.312222451,
              -0.51006557
            ],
            [
              102.312918717,
              -0.509268822
            ],
            [
              102.313983412,
              -0.507815465
            ],
            [
              102.315409273,
              -0.506037062
            ],
            [
              102.317101078,
              -0.504450059
            ],
            [
              102.31848862,
              -0.503436794
            ],
            [
              102.321529768,
              -0.501314722
            ],
            [
              102.324247563,
              -0.499995929
            ],
            [
              102.326814316,
              -0.498333351
            ],
            [
              102.326824749,
              -0.498333239
            ],
            [
              102.329176618,
              -0.498308285
            ],
            [
              102.341378389,
              -0.498178796
            ],
            [
              102.361031199,
              -0.497970185
            ],
            [
              102.361229454,
              -0.498165273
            ],
            [
              102.362523046,
              -0.499402931
            ],
            [
              102.373953709,
              -0.508927961
            ],
            [
              102.392785416,
              -0.524620406
            ],
            [
              102.403958086,
              -0.533930706
            ],
            [
              102.413470981,
              -0.541857971
            ]
          ]
        ]
      }
    }
  ]
}