{
  "type": "FeatureCollection",
  "features": [
    {
      "type": "Feature",
      "properties": {
        "idx": "1049",
        "nama_kewilayahan": "Patongloan"
      },
      "geometry": {
        "type": "Polygon",
        "coordinates": [
          [
            [
              119.835527425,
              -3.261824668
            ],
            [
              119.835491733,
              -3.262032871
            ],
            [
              119.835484897,
              -3.262094389
            ],
            [
              119.835467938,
              -3.262247022
            ],
            [
              119.835396554,
              -3.262437379
            ],
            [
              119.835319222,
              -3.262657479
            ],
            [
              119.835158608,
              -3.262877579
            ],
            [
              119.83506343,
              -3.263079834
            ],
            [
              119.834932559,
              -3.263252344
            ],
            [
              119.834748151,
              -3.26335942
            ],
            [
              119.834599435,
              -3.263442701
            ],
            [
              119.834361489,
              -3.263508137
            ],
            [
              119.834105697,
              -3.26353788
            ],
            [
              119.833891545,
              -3.263609264
            ],
            [
              119.833665496,
              -3.263722288
            ],
            [
              119.833463242,
              -3.263811518
            ],
            [
              119.833255039,
              -3.263924542
            ],
            [
              119.833058734,
              -3.264031618
            ],
            [
              119.83285648,
              -3.264144642
            ],
            [
              119.832731558,
              -3.264216026
            ],
            [
              119.832672071,
              -3.264358794
            ],
            [
              119.832564996,
              -3.264614586
            ],
            [
              119.832511458,
              -3.264846583
            ],
            [
              119.832434125,
              -3.265096427
            ],
            [
              119.832434125,
              -3.265417654
            ],
            [
              119.832481715,
              -3.265691292
            ],
            [
              119.83254715,
              -3.265840008
            ],
            [
              119.832624482,
              -3.266042262
            ],
            [
              119.832707763,
              -3.266220722
            ],
            [
              119.832749404,
              -3.266345644
            ],
            [
              119.832779147,
              -3.266488411
            ],
            [
              119.832814839,
              -3.266708512
            ],
            [
              119.832749404,
              -3.266821536
            ],
            [
              119.832570944,
              -3.267041636
            ],
            [
              119.832297306,
              -3.267267685
            ],
            [
              119.832101001,
              -3.267392607
            ],
            [
              119.831892798,
              -3.267452093
            ],
            [
              119.831744082,
              -3.267446144
            ],
            [
              119.831565622,
              -3.267434247
            ],
            [
              119.831405008,
              -3.267481836
            ],
            [
              119.831256292,
              -3.26764245
            ],
            [
              119.831119473,
              -3.267844704
            ],
            [
              119.8310005,
              -3.268011266
            ],
            [
              119.83086963,
              -3.26813024
            ],
            [
              119.830697119,
              -3.268177829
            ],
            [
              119.830417532,
              -3.268219469
            ],
            [
              119.830310456,
              -3.26826111
            ],
            [
              119.830221227,
              -3.268374134
            ],
            [
              119.830048716,
              -3.268653721
            ],
            [
              119.82994164,
              -3.268832181
            ],
            [
              119.829775078,
              -3.268974948
            ],
            [
              119.829566875,
              -3.269082024
            ],
            [
              119.82945385,
              -3.26923074
            ],
            [
              119.829394364,
              -3.269367559
            ],
            [
              119.829269442,
              -3.26945084
            ],
            [
              119.829120726,
              -3.269486532
            ],
            [
              119.828966061,
              -3.269528173
            ],
            [
              119.828757858,
              -3.269563865
            ],
            [
              119.828591296,
              -3.269599557
            ],
            [
              119.82835335,
              -3.269700684
            ],
            [
              119.828192736,
              -3.26976017
            ],
            [
              119.827996431,
              -3.269908887
            ],
            [
              119.827693049,
              -3.270128987
            ],
            [
              119.827532436,
              -3.270319344
            ],
            [
              119.827330181,
              -3.270515649
            ],
            [
              119.827199311,
              -3.270670314
            ],
            [
              119.827032749,
              -3.270884466
            ],
            [
              119.826889981,
              -3.271051028
            ],
            [
              119.826771008,
              -3.271277077
            ],
            [
              119.826735316,
              -3.271413896
            ],
            [
              119.826622292,
              -3.271782712
            ],
            [
              119.826479524,
              -3.272157477
            ],
            [
              119.826437884,
              -3.272205066
            ],
            [
              119.826307013,
              -3.272502499
            ],
            [
              119.826080964,
              -3.272788034
            ],
            [
              119.825991735,
              -3.272877264
            ],
            [
              119.825848967,
              -3.27311521
            ],
            [
              119.825753789,
              -3.273263927
            ],
            [
              119.825408767,
              -3.27351377
            ],
            [
              119.825170821,
              -3.273608948
            ],
            [
              119.824932874,
              -3.27369223
            ],
            [
              119.824683031,
              -3.273763613
            ],
            [
              119.824480777,
              -3.273769562
            ],
            [
              119.82429042,
              -3.273781459
            ],
            [
              119.824183344,
              -3.273805254
            ],
            [
              119.823701503,
              -3.273799305
            ],
            [
              119.823445711,
              -3.273834997
            ],
            [
              119.823172073,
              -3.273829049
            ],
            [
              119.822874641,
              -3.273846895
            ],
            [
              119.822487978,
              -3.273864741
            ],
            [
              119.822291673,
              -3.273888535
            ],
            [
              119.822113213,
              -3.273971816
            ],
            [
              119.821899062,
              -3.274084841
            ],
            [
              119.82177414,
              -3.274144327
            ],
            [
              119.821631372,
              -3.27422166
            ],
            [
              119.821316094,
              -3.274417965
            ],
            [
              119.821107891,
              -3.274638065
            ],
            [
              119.820905637,
              -3.274870063
            ],
            [
              119.820733126,
              -3.275066368
            ],
            [
              119.82062605,
              -3.275316212
            ],
            [
              119.820489231,
              -3.275518466
            ],
            [
              119.820376207,
              -3.275714771
            ],
            [
              119.820286977,
              -3.275958666
            ],
            [
              119.820209644,
              -3.276113331
            ],
            [
              119.820072825,
              -3.276309637
            ],
            [
              119.819900314,
              -3.276416712
            ],
            [
              119.819626676,
              -3.276440507
            ],
            [
              119.819591948,
              -3.276437902
            ],
            [
              119.81938873,
              -3.276422661
            ],
            [
              119.819275706,
              -3.276416712
            ],
            [
              119.819073452,
              -3.276482148
            ],
            [
              119.819039998,
              -3.276592545
            ],
            [
              119.819013965,
              -3.276678453
            ],
            [
              119.818906889,
              -3.276898553
            ],
            [
              119.818877146,
              -3.277130551
            ],
            [
              119.818894992,
              -3.277332805
            ],
            [
              119.818900941,
              -3.277445829
            ],
            [
              119.818990171,
              -3.277570751
            ],
            [
              119.819067503,
              -3.277713519
            ],
            [
              119.819132938,
              -3.277778954
            ],
            [
              119.818966376,
              -3.27788603
            ],
            [
              119.81872843,
              -3.278034746
            ],
            [
              119.818680841,
              -3.278070438
            ],
            [
              119.818526176,
              -3.278248897
            ],
            [
              119.818436946,
              -3.2784571
            ],
            [
              119.81828823,
              -3.278576073
            ],
            [
              119.818169257,
              -3.278748584
            ],
            [
              119.818026489,
              -3.278903249
            ],
            [
              119.817996746,
              -3.279123349
            ],
            [
              119.818032438,
              -3.279408885
            ],
            [
              119.818062181,
              -3.27960519
            ],
            [
              119.818056232,
              -3.279831239
            ],
            [
              119.818050284,
              -3.280027545
            ],
            [
              119.818097873,
              -3.280158415
            ],
            [
              119.81824064,
              -3.280289285
            ],
            [
              119.818341768,
              -3.280455848
            ],
            [
              119.818395305,
              -3.280628358
            ],
            [
              119.818436946,
              -3.280890099
            ],
            [
              119.818407203,
              -3.281068559
            ],
            [
              119.818335819,
              -3.281312453
            ],
            [
              119.818276332,
              -3.281514708
            ],
            [
              119.818151411,
              -3.281865678
            ],
            [
              119.818056232,
              -3.282103624
            ],
            [
              119.817984848,
              -3.282288033
            ],
            [
              119.817943208,
              -3.282436749
            ],
            [
              119.817919413,
              -3.28269849
            ],
            [
              119.817949156,
              -3.282882898
            ],
            [
              119.817913465,
              -3.283079203
            ],
            [
              119.817812337,
              -3.283204125
            ],
            [
              119.817639827,
              -3.283239817
            ],
            [
              119.817407829,
              -3.283382585
            ],
            [
              119.817033064,
              -3.283584839
            ],
            [
              119.816854604,
              -3.283662171
            ],
            [
              119.816479839,
              -3.283858477
            ],
            [
              119.816194304,
              -3.284001244
            ],
            [
              119.815944461,
              -3.284126166
            ],
            [
              119.815694617,
              -3.284274882
            ],
            [
              119.815569695,
              -3.284322472
            ],
            [
              119.815397185,
              -3.284405753
            ],
            [
              119.815034317,
              -3.284560418
            ],
            [
              119.814796371,
              -3.284679391
            ],
            [
              119.814528681,
              -3.284875696
            ],
            [
              119.814255043,
              -3.285006567
            ],
            [
              119.813945713,
              -3.285119591
            ],
            [
              119.813856484,
              -3.285185026
            ],
            [
              119.813511969,
              -3.28535275
            ],
            [
              119.813404386,
              -3.285405126
            ],
            [
              119.813118851,
              -3.285607381
            ],
            [
              119.812958237,
              -3.285762046
            ],
            [
              119.812654856,
              -3.285898865
            ],
            [
              119.812529934,
              -3.2859643
            ],
            [
              119.812405012,
              -3.285976197
            ],
            [
              119.812286039,
              -3.285994043
            ],
            [
              119.812210107,
              -3.285989745
            ],
            [
              119.811970761,
              -3.285976197
            ],
            [
              119.811720917,
              -3.285994043
            ],
            [
              119.811245025,
              -3.285886967
            ],
            [
              119.811066565,
              -3.285815583
            ],
            [
              119.810941644,
              -3.285773943
            ],
            [
              119.810828619,
              -3.285773943
            ],
            [
              119.810679903,
              -3.285898865
            ],
            [
              119.810531187,
              -3.285934556
            ],
            [
              119.810305138,
              -3.285934556
            ],
            [
              119.810079089,
              -3.285916711
            ],
            [
              119.809936322,
              -3.285750148
            ],
            [
              119.809823297,
              -3.285619278
            ],
            [
              119.809686478,
              -3.285446767
            ],
            [
              119.8095913,
              -3.285280205
            ],
            [
              119.809478275,
              -3.285107694
            ],
            [
              119.809347405,
              -3.285024413
            ],
            [
              119.809168945,
              -3.284982772
            ],
            [
              119.808829872,
              -3.28503631
            ],
            [
              119.808657361,
              -3.285072002
            ],
            [
              119.808419415,
              -3.285173129
            ],
            [
              119.808252853,
              -3.285292102
            ],
            [
              119.808050599,
              -3.285381332
            ],
            [
              119.807711525,
              -3.285464613
            ],
            [
              119.80738435,
              -3.285607381
            ],
            [
              119.807152352,
              -3.285678764
            ],
            [
              119.806724049,
              -3.285845327
            ],
            [
              119.806521795,
              -3.285970248
            ],
            [
              119.806248157,
              -3.286071375
            ],
            [
              119.805986416,
              -3.286178451
            ],
            [
              119.805790111,
              -3.286291476
            ],
            [
              119.805415346,
              -3.286416397
            ],
            [
              119.805094118,
              -3.286481833
            ],
            [
              119.805106016,
              -3.286463987
            ],
            [
              119.804772891,
              -3.286541319
            ],
            [
              119.804618226,
              -3.286553216
            ],
            [
              119.804564688,
              -3.286505627
            ],
            [
              119.80451115,
              -3.286362859
            ],
            [
              119.804451664,
              -3.28605353
            ],
            [
              119.804463561,
              -3.285666867
            ],
            [
              119.804481407,
              -3.285506254
            ],
            [
              119.804481407,
              -3.285292102
            ],
            [
              119.804481407,
              -3.285119591
            ],
            [
              119.804487356,
              -3.284941132
            ],
            [
              119.804415972,
              -3.284649648
            ],
            [
              119.804356485,
              -3.284500931
            ],
            [
              119.80420182,
              -3.284203499
            ],
            [
              119.804189923,
              -3.284078577
            ],
            [
              119.804183975,
              -3.283858477
            ],
            [
              119.804154231,
              -3.283656223
            ],
            [
              119.804106642,
              -3.283477763
            ],
            [
              119.804011464,
              -3.283162484
            ],
            [
              119.803892491,
              -3.282936436
            ],
            [
              119.80376162,
              -3.282722284
            ],
            [
              119.803618853,
              -3.282531927
            ],
            [
              119.803482034,
              -3.282317776
            ],
            [
              119.803357112,
              -3.282145265
            ],
            [
              119.803220293,
              -3.281883524
            ],
            [
              119.803202447,
              -3.281663424
            ],
            [
              119.80323219,
              -3.281449272
            ],
            [
              119.803261933,
              -3.281217275
            ],
            [
              119.803303574,
              -3.280836561
            ],
            [
              119.80341065,
              -3.280551026
            ],
            [
              119.80345229,
              -3.280259542
            ],
            [
              119.803517725,
              -3.280057288
            ],
            [
              119.803565315,
              -3.279866931
            ],
            [
              119.803601007,
              -3.279593293
            ],
            [
              119.803642647,
              -3.279272066
            ],
            [
              119.803648596,
              -3.279081709
            ],
            [
              119.803696185,
              -3.278867557
            ],
            [
              119.803755672,
              -3.278742636
            ],
            [
              119.803773517,
              -3.278552279
            ],
            [
              119.803702134,
              -3.278355973
            ],
            [
              119.803595058,
              -3.278225103
            ],
            [
              119.803470136,
              -3.278129924
            ],
            [
              119.80332142,
              -3.278022849
            ],
            [
              119.803148909,
              -3.277844389
            ],
            [
              119.802976398,
              -3.27770757
            ],
            [
              119.802762247,
              -3.2775767
            ],
            [
              119.802357738,
              -3.277392291
            ],
            [
              119.801941333,
              -3.277255472
            ],
            [
              119.801709335,
              -3.277100808
            ],
            [
              119.801507081,
              -3.276952091
            ],
            [
              119.801227494,
              -3.276791478
            ],
            [
              119.800971702,
              -3.276654659
            ],
            [
              119.800733756,
              -3.276440507
            ],
            [
              119.800543399,
              -3.276291791
            ],
            [
              119.80040658,
              -3.276125228
            ],
            [
              119.800293556,
              -3.275934872
            ],
            [
              119.800240018,
              -3.275786155
            ],
            [
              119.800245967,
              -3.275298366
            ],
            [
              119.800192429,
              -3.275108009
            ],
            [
              119.799805766,
              -3.274786782
            ],
            [
              119.799627307,
              -3.274733244
            ],
            [
              119.799425053,
              -3.274703501
            ],
            [
              119.799056236,
              -3.27466186
            ],
            [
              119.798806393,
              -3.274584527
            ],
            [
              119.798592241,
              -3.274566682
            ],
            [
              119.798342398,
              -3.274519092
            ],
            [
              119.798152041,
              -3.274465554
            ],
            [
              119.797997376,
              -3.274257352
            ],
            [
              119.797925992,
              -3.274150276
            ],
            [
              119.797789173,
              -3.273793357
            ],
            [
              119.797682097,
              -3.273543513
            ],
            [
              119.797557176,
              -3.273442386
            ],
            [
              119.797396562,
              -3.273353156
            ],
            [
              119.797218102,
              -3.273210389
            ],
            [
              119.796998002,
              -3.273103313
            ],
            [
              119.796932567,
              -3.272990289
            ],
            [
              119.796795748,
              -3.272901059
            ],
            [
              119.796676775,
              -3.272901059
            ],
            [
              119.796528059,
              -3.272990289
            ],
            [
              119.796236575,
              -3.273269875
            ],
            [
              119.796105704,
              -3.273371002
            ],
            [
              119.795754734,
              -3.273632743
            ],
            [
              119.795391866,
              -3.273894484
            ],
            [
              119.795308585,
              -3.2740432
            ],
            [
              119.795142023,
              -3.27417407
            ],
            [
              119.79502305,
              -3.2742633
            ],
            [
              119.794820795,
              -3.274388222
            ],
            [
              119.794566245,
              -3.274460264
            ],
            [
              119.794505517,
              -3.274477452
            ],
            [
              119.794297314,
              -3.274513144
            ],
            [
              119.794057963,
              -3.274475911
            ],
            [
              119.794029625,
              -3.274471503
            ],
            [
              119.793773833,
              -3.274382273
            ],
            [
              119.793601322,
              -3.274388222
            ],
            [
              119.793369324,
              -3.274412017
            ],
            [
              119.793048097,
              -3.274501246
            ],
            [
              119.792845843,
              -3.274435811
            ],
            [
              119.792566256,
              -3.274340633
            ],
            [
              119.792375899,
              -3.274239506
            ],
            [
              119.792227183,
              -3.274150276
            ],
            [
              119.79192975,
              -3.273983714
            ],
            [
              119.791733445,
              -3.273894484
            ],
            [
              119.791549037,
              -3.273852843
            ],
            [
              119.791424115,
              -3.273870689
            ],
            [
              119.791334885,
              -3.27395397
            ],
            [
              119.791227809,
              -3.274072943
            ],
            [
              119.791031504,
              -3.274209762
            ],
            [
              119.790769763,
              -3.274114584
            ],
            [
              119.790662687,
              -3.274037251
            ],
            [
              119.790353357,
              -3.27395397
            ],
            [
              119.790246282,
              -3.273948022
            ],
            [
              119.789972644,
              -3.273995611
            ],
            [
              119.789752544,
              -3.274096738
            ],
            [
              119.789669262,
              -3.27413243
            ],
            [
              119.789478906,
              -3.274156225
            ],
            [
              119.789181473,
              -3.274090789
            ],
            [
              119.788979219,
              -3.274049149
            ],
            [
              119.788717478,
              -3.274007508
            ],
            [
              119.788378405,
              -3.273930176
            ],
            [
              119.78813451,
              -3.273852843
            ],
            [
              119.787878718,
              -3.273674384
            ],
            [
              119.787819231,
              -3.273650589
            ],
            [
              119.787628875,
              -3.273662486
            ],
            [
              119.787319545,
              -3.273710076
            ],
            [
              119.787218418,
              -3.27369223
            ],
            [
              119.787034009,
              -3.273549462
            ],
            [
              119.786754423,
              -3.273418592
            ],
            [
              119.78654622,
              -3.273329362
            ],
            [
              119.786415349,
              -3.27320444
            ],
            [
              119.786189301,
              -3.273067621
            ],
            [
              119.78601679,
              -3.272990289
            ],
            [
              119.785606333,
              -3.272746394
            ],
            [
              119.785362438,
              -3.272627421
            ],
            [
              119.785029313,
              -3.27236568
            ],
            [
              119.784975776,
              -3.272318091
            ],
            [
              119.784797316,
              -3.272181272
            ],
            [
              119.784666446,
              -3.272181272
            ],
            [
              119.784482037,
              -3.27227645
            ],
            [
              119.784238143,
              -3.272407321
            ],
            [
              119.783744404,
              -3.272639318
            ],
            [
              119.783506458,
              -3.272758291
            ],
            [
              119.782941336,
              -3.272966494
            ],
            [
              119.782739082,
              -3.273061672
            ],
            [
              119.78244165,
              -3.273174697
            ],
            [
              119.782144217,
              -3.273192543
            ],
            [
              119.781989552,
              -3.273210389
            ],
            [
              119.781656427,
              -3.273133056
            ],
            [
              119.781347098,
              -3.27307357
            ],
            [
              119.781013973,
              -3.272960545
            ],
            [
              119.780758181,
              -3.272936751
            ],
            [
              119.780419108,
              -3.272924853
            ],
            [
              119.780139521,
              -3.272901059
            ],
            [
              119.780074086,
              -3.272912956
            ],
            [
              119.779639834,
              -3.272978391
            ],
            [
              119.779485169,
              -3.272990289
            ],
            [
              119.779276966,
              -3.272924853
            ],
            [
              119.779183351,
              -3.272878046
            ],
            [
              119.778980847,
              -3.272776794
            ],
            [
              119.778920047,
              -3.272746394
            ],
            [
              119.778759434,
              -3.272669061
            ],
            [
              119.778545282,
              -3.272627421
            ],
            [
              119.778354925,
              -3.272567934
            ],
            [
              119.778221087,
              -3.27253046
            ],
            [
              119.778206209,
              -3.272526294
            ],
            [
              119.777986109,
              -3.272472756
            ],
            [
              119.777557806,
              -3.272341885
            ],
            [
              119.777236579,
              -3.272306194
            ],
            [
              119.776843968,
              -3.272240758
            ],
            [
              119.776487048,
              -3.272163426
            ],
            [
              119.776106335,
              -3.272133683
            ],
            [
              119.775832697,
              -3.272086093
            ],
            [
              119.775755364,
              -3.272050402
            ],
            [
              119.775559059,
              -3.271901685
            ],
            [
              119.775303267,
              -3.271639944
            ],
            [
              119.775148602,
              -3.27139605
            ],
            [
              119.775017731,
              -3.271187847
            ],
            [
              119.774916604,
              -3.271015336
            ],
            [
              119.774839272,
              -3.270771441
            ],
            [
              119.774833323,
              -3.270658417
            ],
            [
              119.774827374,
              -3.270515649
            ],
            [
              119.774732196,
              -3.27037883
            ],
            [
              119.774529942,
              -3.270200371
            ],
            [
              119.774428815,
              -3.270099243
            ],
            [
              119.77427415,
              -3.269914835
            ],
            [
              119.774190869,
              -3.269748273
            ],
            [
              119.774173023,
              -3.269635249
            ],
            [
              119.774214663,
              -3.269468686
            ],
            [
              119.774339585,
              -3.269373508
            ],
            [
              119.774547788,
              -3.269195048
            ],
            [
              119.774631069,
              -3.269028486
            ],
            [
              119.774732196,
              -3.268915462
            ],
            [
              119.774815477,
              -3.268832181
            ],
            [
              119.77493445,
              -3.268499056
            ],
            [
              119.774946347,
              -3.26835034
            ],
            [
              119.774964193,
              -3.268148085
            ],
            [
              119.774952296,
              -3.267927985
            ],
            [
              119.774874964,
              -3.267743577
            ],
            [
              119.774767888,
              -3.26755322
            ],
            [
              119.774696504,
              -3.267380709
            ],
            [
              119.77462512,
              -3.26702379
            ],
            [
              119.774577531,
              -3.266809639
            ],
            [
              119.774523993,
              -3.266553847
            ],
            [
              119.77449425,
              -3.266286157
            ],
            [
              119.774482353,
              -3.265988725
            ],
            [
              119.774458558,
              -3.265816214
            ],
            [
              119.774464507,
              -3.265578268
            ],
            [
              119.774518044,
              -3.265381962
            ],
            [
              119.774702453,
              -3.265251092
            ],
            [
              119.774791682,
              -3.265155913
            ],
            [
              119.774922553,
              -3.265030992
            ],
            [
              119.774970142,
              -3.264876327
            ],
            [
              119.774987988,
              -3.26468597
            ],
            [
              119.77493445,
              -3.264561048
            ],
            [
              119.774910655,
              -3.264370691
            ],
            [
              119.774958245,
              -3.264150591
            ],
            [
              119.774987988,
              -3.26397808
            ],
            [
              119.775130756,
              -3.263752031
            ],
            [
              119.775172396,
              -3.263555726
            ],
            [
              119.775184294,
              -3.263395112
            ],
            [
              119.775225934,
              -3.263222601
            ],
            [
              119.775249729,
              -3.26296086
            ],
            [
              119.775255677,
              -3.262800247
            ],
            [
              119.775273523,
              -3.262627736
            ],
            [
              119.775249729,
              -3.262437379
            ],
            [
              119.775166448,
              -3.262288663
            ],
            [
              119.775011783,
              -3.262056665
            ],
            [
              119.774886861,
              -3.261872257
            ],
            [
              119.774827374,
              -3.261622414
            ],
            [
              119.774815477,
              -3.26137257
            ],
            [
              119.77489281,
              -3.261164367
            ],
            [
              119.774999885,
              -3.261075138
            ],
            [
              119.775096796,
              -3.261058178
            ],
            [
              119.775237831,
              -3.261033497
            ],
            [
              119.775362753,
              -3.261027548
            ],
            [
              119.775475777,
              -3.261015651
            ],
            [
              119.775517418,
              -3.26093237
            ],
            [
              119.775636391,
              -3.260866935
            ],
            [
              119.775820799,
              -3.260920473
            ],
            [
              119.775963567,
              -3.260962113
            ],
            [
              119.77621341,
              -3.261134624
            ],
            [
              119.77630264,
              -3.261182213
            ],
            [
              119.776451356,
              -3.261295238
            ],
            [
              119.776629816,
              -3.26137257
            ],
            [
              119.776772584,
              -3.261426108
            ],
            [
              119.777028376,
              -3.261449903
            ],
            [
              119.777153297,
              -3.261509389
            ],
            [
              119.777313911,
              -3.261509389
            ],
            [
              119.777504268,
              -3.261443954
            ],
            [
              119.777593498,
              -3.261348776
            ],
            [
              119.777551857,
              -3.261176265
            ],
            [
              119.777456679,
              -3.260985908
            ],
            [
              119.777379346,
              -3.260849089
            ],
            [
              119.777355552,
              -3.260771756
            ],
            [
              119.777462627,
              -3.260694424
            ],
            [
              119.777647036,
              -3.260694424
            ],
            [
              119.777825495,
              -3.260706321
            ],
            [
              119.777944468,
              -3.260724167
            ],
            [
              119.778194312,
              -3.260783654
            ],
            [
              119.778259747,
              -3.2608015
            ],
            [
              119.778384669,
              -3.260807448
            ],
            [
              119.77846795,
              -3.260789602
            ],
            [
              119.778527436,
              -3.260646835
            ],
            [
              119.778533385,
              -3.260551656
            ],
            [
              119.778557179,
              -3.260385094
            ],
            [
              119.778586923,
              -3.260218532
            ],
            [
              119.778610717,
              -3.260170942
            ],
            [
              119.778842715,
              -3.260081713
            ],
            [
              119.778931945,
              -3.260028175
            ],
            [
              119.778943102,
              -3.260007454
            ],
            [
              119.778973585,
              -3.259950842
            ],
            [
              119.778973585,
              -3.259760485
            ],
            [
              119.779009277,
              -3.259546334
            ],
            [
              119.779050918,
              -3.259320285
            ],
            [
              119.779056866,
              -3.25916562
            ],
            [
              119.779152045,
              -3.259064493
            ],
            [
              119.779300761,
              -3.258951469
            ],
            [
              119.779538707,
              -3.258909828
            ],
            [
              119.779627937,
              -3.258909828
            ],
            [
              119.779735013,
              -3.258963366
            ],
            [
              119.779824242,
              -3.259153723
            ],
            [
              119.779883729,
              -3.259278645
            ],
            [
              119.779937267,
              -3.259379772
            ],
            [
              119.780008651,
              -3.259486847
            ],
            [
              119.780085983,
              -3.259534437
            ],
            [
              119.780252545,
              -3.259534437
            ],
            [
              119.780359621,
              -3.259534437
            ],
            [
              119.78049644,
              -3.259492796
            ],
            [
              119.780639208,
              -3.259421412
            ],
            [
              119.780722489,
              -3.259350028
            ],
            [
              119.780781976,
              -3.259195363
            ],
            [
              119.780859308,
              -3.258915777
            ],
            [
              119.780877154,
              -3.258719471
            ],
            [
              119.780889051,
              -3.258564806
            ],
            [
              119.780972332,
              -3.258380398
            ],
            [
              119.78102587,
              -3.258201938
            ],
            [
              119.781073459,
              -3.258130555
            ],
            [
              119.781150792,
              -3.258077017
            ],
            [
              119.781358995,
              -3.258077017
            ],
            [
              119.781573146,
              -3.258154349
            ],
            [
              119.781579095,
              -3.258207887
            ],
            [
              119.781727811,
              -3.258523166
            ],
            [
              119.781769452,
              -3.258612395
            ],
            [
              119.782078782,
              -3.258737317
            ],
            [
              119.78217396,
              -3.258743266
            ],
            [
              119.782388112,
              -3.258773009
            ],
            [
              119.782584417,
              -3.258832496
            ],
            [
              119.782875901,
              -3.258969315
            ],
            [
              119.78310195,
              -3.259058544
            ],
            [
              119.783357742,
              -3.259058544
            ],
            [
              119.783649226,
              -3.259112082
            ],
            [
              119.78394071,
              -3.259135877
            ],
            [
              119.784077529,
              -3.259159672
            ],
            [
              119.784267886,
              -3.259266747
            ],
            [
              119.784440397,
              -3.259367874
            ],
            [
              119.784606959,
              -3.259439258
            ],
            [
              119.784803265,
              -3.259558231
            ],
            [
              119.784934135,
              -3.259665307
            ],
            [
              119.785118543,
              -3.259814023
            ],
            [
              119.785356489,
              -3.259909202
            ],
            [
              119.785534949,
              -3.259903253
            ],
            [
              119.785755049,
              -3.259903253
            ],
            [
              119.785945406,
              -3.25991515
            ],
            [
              119.786117917,
              -3.259909202
            ],
            [
              119.786296376,
              -3.259938945
            ],
            [
              119.786403452,
              -3.259980586
            ],
            [
              119.786522425,
              -3.260147148
            ],
            [
              119.786694936,
              -3.260307761
            ],
            [
              119.786915036,
              -3.260462426
            ],
            [
              119.787016163,
              -3.260521913
            ],
            [
              119.787158931,
              -3.260551656
            ],
            [
              119.787438518,
              -3.260676578
            ],
            [
              119.787580325,
              -3.260742417
            ],
            [
              119.78760508,
              -3.26075391
            ],
            [
              119.787831129,
              -3.260884781
            ],
            [
              119.787932256,
              -3.261087035
            ],
            [
              119.788015537,
              -3.261253597
            ],
            [
              119.788098818,
              -3.261408262
            ],
            [
              119.788253483,
              -3.261515338
            ],
            [
              119.788527121,
              -3.261830617
            ],
            [
              119.788580659,
              -3.261937692
            ],
            [
              119.78875317,
              -3.262145895
            ],
            [
              119.788830502,
              -3.262241074
            ],
            [
              119.788985167,
              -3.262336252
            ],
            [
              119.789116038,
              -3.262496866
            ],
            [
              119.789306395,
              -3.262574198
            ],
            [
              119.789568135,
              -3.262657479
            ],
            [
              119.789794184,
              -3.262764555
            ],
            [
              119.790139206,
              -3.262937066
            ],
            [
              119.790276025,
              -3.262996552
            ],
            [
              119.790478279,
              -3.263109577
            ],
            [
              119.790710277,
              -3.263288036
            ],
            [
              119.790924428,
              -3.263472445
            ],
            [
              119.791108836,
              -3.263644956
            ],
            [
              119.791197294,
              -3.263774693
            ],
            [
              119.791198066,
              -3.263775826
            ],
            [
              119.791364628,
              -3.263811518
            ],
            [
              119.791584728,
              -3.26384721
            ],
            [
              119.791739393,
              -3.263894799
            ],
            [
              119.792203388,
              -3.264079207
            ],
            [
              119.792494872,
              -3.264227923
            ],
            [
              119.792732818,
              -3.264358794
            ],
            [
              119.793054046,
              -3.264531305
            ],
            [
              119.793262249,
              -3.264680021
            ],
            [
              119.793327684,
              -3.264822789
            ],
            [
              119.793238454,
              -3.264971505
            ],
            [
              119.793119481,
              -3.265060735
            ],
            [
              119.793048097,
              -3.265161862
            ],
            [
              119.793042148,
              -3.265274886
            ],
            [
              119.793155173,
              -3.265411705
            ],
            [
              119.793393119,
              -3.265608011
            ],
            [
              119.793684603,
              -3.265905443
            ],
            [
              119.793880908,
              -3.266101749
            ],
            [
              119.79409506,
              -3.266280209
            ],
            [
              119.794285417,
              -3.266536001
            ],
            [
              119.794654233,
              -3.266833433
            ],
            [
              119.794862436,
              -3.267059482
            ],
            [
              119.794939769,
              -3.267148712
            ],
            [
              119.794838641,
              -3.267231993
            ],
            [
              119.794767258,
              -3.267249839
            ],
            [
              119.794463876,
              -3.267309325
            ],
            [
              119.794309211,
              -3.267350966
            ],
            [
              119.794178341,
              -3.267535374
            ],
            [
              119.794148598,
              -3.267713834
            ],
            [
              119.794131751,
              -3.267782425
            ],
            [
              119.794065317,
              -3.268052907
            ],
            [
              119.794059368,
              -3.268249213
            ],
            [
              119.794047471,
              -3.268564491
            ],
            [
              119.794106957,
              -3.268838129
            ],
            [
              119.7941367,
              -3.269046332
            ],
            [
              119.794128067,
              -3.2691413
            ],
            [
              119.794118854,
              -3.269242638
            ],
            [
              119.794129289,
              -3.269313072
            ],
            [
              119.794142649,
              -3.269403251
            ],
            [
              119.794249725,
              -3.269653095
            ],
            [
              119.794279468,
              -3.269772068
            ],
            [
              119.794380595,
              -3.269867246
            ],
            [
              119.794565003,
              -3.269920784
            ],
            [
              119.794838641,
              -3.269968373
            ],
            [
              119.79506469,
              -3.270021911
            ],
            [
              119.795219355,
              -3.270152781
            ],
            [
              119.795445404,
              -3.270224165
            ],
            [
              119.79559412,
              -3.270277703
            ],
            [
              119.795760683,
              -3.2702896
            ],
            [
              119.795891553,
              -3.270277703
            ],
            [
              119.796052167,
              -3.270051654
            ],
            [
              119.796040269,
              -3.269867246
            ],
            [
              119.796028372,
              -3.269635249
            ],
            [
              119.796028372,
              -3.269474635
            ],
            [
              119.796206831,
              -3.269290227
            ],
            [
              119.796397188,
              -3.269171254
            ],
            [
              119.796641083,
              -3.269052281
            ],
            [
              119.796837389,
              -3.268951154
            ],
            [
              119.797039643,
              -3.268814335
            ],
            [
              119.797253794,
              -3.26865967
            ],
            [
              119.797372767,
              -3.268600183
            ],
            [
              119.797586919,
              -3.268439569
            ],
            [
              119.797812968,
              -3.268374134
            ],
            [
              119.797985479,
              -3.268255161
            ],
            [
              119.798092554,
              -3.268142137
            ],
            [
              119.798152041,
              -3.26804101
            ],
            [
              119.798056862,
              -3.267832807
            ],
            [
              119.797943838,
              -3.267624604
            ],
            [
              119.797866506,
              -3.267434247
            ],
            [
              119.797765378,
              -3.267190352
            ],
            [
              119.797735635,
              -3.266970252
            ],
            [
              119.79775943,
              -3.266702563
            ],
            [
              119.797795122,
              -3.266190979
            ],
            [
              119.797866506,
              -3.26605416
            ],
            [
              119.797884352,
              -3.265810265
            ],
            [
              119.797955735,
              -3.26556637
            ],
            [
              119.797961684,
              -3.265292732
            ],
            [
              119.79797953,
              -3.265001248
            ],
            [
              119.798009273,
              -3.264804943
            ],
            [
              119.798027119,
              -3.26450751
            ],
            [
              119.797997376,
              -3.264043515
            ],
            [
              119.797997376,
              -3.263829364
            ],
            [
              119.798021171,
              -3.263460547
            ],
            [
              119.797943838,
              -3.263234498
            ],
            [
              119.797908146,
              -3.26291922
            ],
            [
              119.797854608,
              -3.262651531
            ],
            [
              119.797771327,
              -3.262467122
            ],
            [
              119.797705892,
              -3.262258919
            ],
            [
              119.797836762,
              -3.262003127
            ],
            [
              119.797961684,
              -3.261717592
            ],
            [
              119.798027119,
              -3.261443954
            ],
            [
              119.798086606,
              -3.261164367
            ],
            [
              119.798229373,
              -3.260920473
            ],
            [
              119.798348346,
              -3.260706321
            ],
            [
              119.798497063,
              -3.260539759
            ],
            [
              119.798681471,
              -3.260361299
            ],
            [
              119.79881829,
              -3.260307761
            ],
            [
              119.799020544,
              -3.260278018
            ],
            [
              119.799228747,
              -3.260260172
            ],
            [
              119.799407207,
              -3.260218532
            ],
            [
              119.79952618,
              -3.260147148
            ],
            [
              119.799549974,
              -3.260040072
            ],
            [
              119.799484539,
              -3.259855664
            ],
            [
              119.799401258,
              -3.259742639
            ],
            [
              119.799288233,
              -3.259582026
            ],
            [
              119.799264439,
              -3.259350028
            ],
            [
              119.799264439,
              -3.259183466
            ],
            [
              119.799365566,
              -3.259022853
            ],
            [
              119.799454796,
              -3.258808701
            ],
            [
              119.799561872,
              -3.25859455
            ],
            [
              119.799662999,
              -3.258332809
            ],
            [
              119.799752228,
              -3.258231682
            ],
            [
              119.799817664,
              -3.25797589
            ],
            [
              119.799805766,
              -3.257815276
            ],
            [
              119.79978792,
              -3.257613022
            ],
            [
              119.799847407,
              -3.257541638
            ],
            [
              119.800025866,
              -3.257517843
            ],
            [
              119.80009725,
              -3.257595176
            ],
            [
              119.80018648,
              -3.257660611
            ],
            [
              119.800257864,
              -3.257684406
            ],
            [
              119.800394683,
              -3.257660611
            ],
            [
              119.800489861,
              -3.257535689
            ],
            [
              119.800638578,
              -3.257470254
            ],
            [
              119.800811089,
              -3.257464306
            ],
            [
              119.800953856,
              -3.257416716
            ],
            [
              119.801185854,
              -3.257285846
            ],
            [
              119.801263186,
              -3.257149027
            ],
            [
              119.801358365,
              -3.257012208
            ],
            [
              119.801411902,
              -3.25691703
            ],
            [
              119.8014238,
              -3.256905132
            ],
            [
              119.80155467,
              -3.256893235
            ],
            [
              119.801762873,
              -3.257012208
            ],
            [
              119.801917538,
              -3.257077643
            ],
            [
              119.802143587,
              -3.257131181
            ],
            [
              119.802381533,
              -3.257154976
            ],
            [
              119.80257189,
              -3.257107386
            ],
            [
              119.80279199,
              -3.256881338
            ],
            [
              119.802934757,
              -3.256702878
            ],
            [
              119.803166755,
              -3.256411394
            ],
            [
              119.803327369,
              -3.256197243
            ],
            [
              119.803487982,
              -3.255959296
            ],
            [
              119.803666442,
              -3.25567971
            ],
            [
              119.803791363,
              -3.255525045
            ],
            [
              119.803975772,
              -3.255298996
            ],
            [
              119.804106642,
              -3.255072947
            ],
            [
              119.804195872,
              -3.254948026
            ],
            [
              119.804505202,
              -3.254501877
            ],
            [
              119.804630123,
              -3.254341263
            ],
            [
              119.804802634,
              -3.254085471
            ],
            [
              119.805052478,
              -3.253793987
            ],
            [
              119.80521904,
              -3.253579835
            ],
            [
              119.805510524,
              -3.253312146
            ],
            [
              119.805641394,
              -3.253139635
            ],
            [
              119.805790111,
              -3.253068251
            ],
            [
              119.80614703,
              -3.252937381
            ],
            [
              119.806198655,
              -3.252879303
            ],
            [
              119.806242208,
              -3.252830305
            ],
            [
              119.806729998,
              -3.252687538
            ],
            [
              119.806837035,
              -3.252731829
            ],
            [
              119.806902509,
              -3.252758921
            ],
            [
              119.807051225,
              -3.252735127
            ],
            [
              119.807211839,
              -3.252729178
            ],
            [
              119.807449785,
              -3.252705384
            ],
            [
              119.807622296,
              -3.252687538
            ],
            [
              119.807937574,
              -3.252651846
            ],
            [
              119.808127931,
              -3.252520975
            ],
            [
              119.808258801,
              -3.252390105
            ],
            [
              119.80835398,
              -3.252128364
            ],
            [
              119.808413466,
              -3.251908264
            ],
            [
              119.80853244,
              -3.251729805
            ],
            [
              119.808603823,
              -3.251545396
            ],
            [
              119.808675207,
              -3.251355039
            ],
            [
              119.808746591,
              -3.251224169
            ],
            [
              119.808877461,
              -3.251212272
            ],
            [
              119.809055921,
              -3.251325296
            ],
            [
              119.809139202,
              -3.251533499
            ],
            [
              119.80919274,
              -3.251646523
            ],
            [
              119.809317662,
              -3.251813086
            ],
            [
              119.809537762,
              -3.251830932
            ],
            [
              119.809626992,
              -3.251801188
            ],
            [
              119.809817348,
              -3.251694113
            ],
            [
              119.810114781,
              -3.251551345
            ],
            [
              119.810305138,
              -3.251450218
            ],
            [
              119.810584725,
              -3.25130745
            ],
            [
              119.81087026,
              -3.251111145
            ],
            [
              119.811126052,
              -3.250938634
            ],
            [
              119.811328306,
              -3.250754226
            ],
            [
              119.811607893,
              -3.250474639
            ],
            [
              119.811780404,
              -3.250278333
            ],
            [
              119.811976709,
              -3.25007013
            ],
            [
              119.812173015,
              -3.249885722
            ],
            [
              119.812357423,
              -3.249659673
            ],
            [
              119.812464499,
              -3.2495407
            ],
            [
              119.812642958,
              -3.249397933
            ],
            [
              119.81285711,
              -3.249302754
            ],
            [
              119.813136697,
              -3.249165935
            ],
            [
              119.813327053,
              -3.249076706
            ],
            [
              119.813624486,
              -3.248975578
            ],
            [
              119.813927867,
              -3.248886349
            ],
            [
              119.814112276,
              -3.248785222
            ],
            [
              119.814308581,
              -3.248713838
            ],
            [
              119.814433503,
              -3.248678146
            ],
            [
              119.814695244,
              -3.248612711
            ],
            [
              119.814742833,
              -3.248636505
            ],
            [
              119.814784473,
              -3.248856605
            ],
            [
              119.814802319,
              -3.248975578
            ],
            [
              119.814838011,
              -3.249284908
            ],
            [
              119.814832063,
              -3.249344395
            ],
            [
              119.814897498,
              -3.249558546
            ],
            [
              119.814945087,
              -3.249683468
            ],
            [
              119.814956984,
              -3.250076079
            ],
            [
              119.815010522,
              -3.250212898
            ],
            [
              119.815046214,
              -3.250397306
            ],
            [
              119.815099752,
              -3.250623355
            ],
            [
              119.815129495,
              -3.250819661
            ],
            [
              119.815212776,
              -3.251015966
            ],
            [
              119.815296057,
              -3.251170631
            ],
            [
              119.815361493,
              -3.251301502
            ],
            [
              119.815426928,
              -3.251444269
            ],
            [
              119.815480466,
              -3.251551345
            ],
            [
              119.815664874,
              -3.251741702
            ],
            [
              119.815777898,
              -3.251878521
            ],
            [
              119.815861179,
              -3.25205698
            ],
            [
              119.816039639,
              -3.252205697
            ],
            [
              119.816241893,
              -3.252372259
            ],
            [
              119.816360866,
              -3.252538821
            ],
            [
              119.81652148,
              -3.252622102
            ],
            [
              119.816693991,
              -3.252752973
            ],
            [
              119.816854604,
              -3.252901689
            ],
            [
              119.817009269,
              -3.253020662
            ],
            [
              119.817157986,
              -3.25316343
            ],
            [
              119.817300753,
              -3.253335941
            ],
            [
              119.817378086,
              -3.253609579
            ],
            [
              119.817374446,
              -3.253626566
            ],
            [
              119.817342394,
              -3.253776141
            ],
            [
              119.817395932,
              -3.254014087
            ],
            [
              119.817425675,
              -3.254281776
            ],
            [
              119.817445177,
              -3.254350035
            ],
            [
              119.81744947,
              -3.254365058
            ],
            [
              119.817550597,
              -3.25453162
            ],
            [
              119.817651724,
              -3.25475172
            ],
            [
              119.817746902,
              -3.254918282
            ],
            [
              119.817853978,
              -3.255084845
            ],
            [
              119.817895619,
              -3.255257355
            ],
            [
              119.818002694,
              -3.255447712
            ],
            [
              119.818046248,
              -3.255519127
            ],
            [
              119.81805071,
              -3.255525968
            ],
            [
              119.818053902,
              -3.255531506
            ],
            [
              119.818133565,
              -3.255661864
            ],
            [
              119.818196308,
              -3.255765206
            ],
            [
              119.818199247,
              -3.255770046
            ],
            [
              119.818234692,
              -3.255828426
            ],
            [
              119.818401254,
              -3.255935502
            ],
            [
              119.818443873,
              -3.255955627
            ],
            [
              119.818456007,
              -3.255961357
            ],
            [
              119.818615406,
              -3.256036629
            ],
            [
              119.818735234,
              -3.256070866
            ],
            [
              119.818753864,
              -3.256076188
            ],
            [
              119.818781968,
              -3.256084218
            ],
            [
              119.818962158,
              -3.256160662
            ],
            [
              119.818974823,
              -3.256166035
            ],
            [
              119.818978273,
              -3.256167499
            ],
            [
              119.819010748,
              -3.256198169
            ],
            [
              119.81901281,
              -3.256200117
            ],
            [
              119.819061117,
              -3.25624574
            ],
            [
              119.819070647,
              -3.256254741
            ],
            [
              119.819085349,
              -3.256268626
            ],
            [
              119.819240014,
              -3.256387599
            ],
            [
              119.81947796,
              -3.256625546
            ],
            [
              119.819527688,
              -3.256714533
            ],
            [
              119.819552288,
              -3.256758553
            ],
            [
              119.819588497,
              -3.256823349
            ],
            [
              119.819603887,
              -3.256854465
            ],
            [
              119.819680214,
              -3.257012208
            ],
            [
              119.819822982,
              -3.257184719
            ],
            [
              119.819900314,
              -3.257309641
            ],
            [
              119.820078774,
              -3.257339384
            ],
            [
              119.820128105,
              -3.257327777
            ],
            [
              119.820133176,
              -3.257326584
            ],
            [
              119.820170746,
              -3.257317743
            ],
            [
              119.820176999,
              -3.257316671
            ],
            [
              119.820282932,
              -3.257291795
            ],
            [
              119.820497083,
              -3.257268
            ],
            [
              119.820746927,
              -3.257214462
            ],
            [
              119.820990821,
              -3.257208513
            ],
            [
              119.821222819,
              -3.257250154
            ],
            [
              119.821466714,
              -3.257345333
            ],
            [
              119.821538097,
              -3.257339384
            ],
            [
              119.821740352,
              -3.25739887
            ],
            [
              119.821996144,
              -3.257410768
            ],
            [
              119.822162706,
              -3.257422665
            ],
            [
              119.822210295,
              -3.257434562
            ],
            [
              119.822400652,
              -3.25744646
            ],
            [
              119.822638598,
              -3.257535689
            ],
            [
              119.822811109,
              -3.257690354
            ],
            [
              119.822924134,
              -3.257773635
            ],
            [
              119.823191823,
              -3.257898557
            ],
            [
              119.823447615,
              -3.257958044
            ],
            [
              119.823709356,
              -3.258023479
            ],
            [
              119.82395325,
              -3.258059171
            ],
            [
              119.824232837,
              -3.258100811
            ],
            [
              119.824500526,
              -3.25810676
            ],
            [
              119.824803908,
              -3.258082965
            ],
            [
              119.825077546,
              -3.257993736
            ],
            [
              119.825256005,
              -3.257940198
            ],
            [
              119.825535592,
              -3.257850968
            ],
            [
              119.825797333,
              -3.257726046
            ],
            [
              119.825862768,
              -3.257702252
            ],
            [
              119.826104992,
              -3.257613633
            ],
            [
              119.826104759,
              -3.257613022
            ],
            [
              119.826106517,
              -3.257613075
            ],
            [
              119.826106663,
              -3.257613022
            ],
            [
              119.826106685,
              -3.25761308
            ],
            [
              119.826301065,
              -3.257618971
            ],
            [
              119.826420038,
              -3.257684406
            ],
            [
              119.826592549,
              -3.25779743
            ],
            [
              119.826741265,
              -3.257880711
            ],
            [
              119.826848341,
              -3.258035376
            ],
            [
              119.826967314,
              -3.258166247
            ],
            [
              119.827169568,
              -3.258225733
            ],
            [
              119.827401565,
              -3.258332809
            ],
            [
              119.827562179,
              -3.258427987
            ],
            [
              119.827817971,
              -3.258523166
            ],
            [
              119.827972636,
              -3.258642139
            ],
            [
              119.828097558,
              -3.258820598
            ],
            [
              119.828103506,
              -3.258903879
            ],
            [
              119.827936944,
              -3.259058544
            ],
            [
              119.827817971,
              -3.259213209
            ],
            [
              119.827687101,
              -3.25943331
            ],
            [
              119.827615717,
              -3.259599872
            ],
            [
              119.827603819,
              -3.25978428
            ],
            [
              119.827603819,
              -3.259986534
            ],
            [
              119.827621665,
              -3.260188788
            ],
            [
              119.827657357,
              -3.260349402
            ],
            [
              119.82782392,
              -3.260515964
            ],
            [
              119.827990482,
              -3.260527862
            ],
            [
              119.828151096,
              -3.26062304
            ],
            [
              119.828383093,
              -3.260742013
            ],
            [
              119.828442579,
              -3.260884781
            ],
            [
              119.82857345,
              -3.261033497
            ],
            [
              119.828799499,
              -3.261057292
            ],
            [
              119.829031496,
              -3.261069189
            ],
            [
              119.829459799,
              -3.260979959
            ],
            [
              119.829804821,
              -3.260938319
            ],
            [
              119.830185535,
              -3.260837192
            ],
            [
              119.830536505,
              -3.260730116
            ],
            [
              119.830744708,
              -3.260521913
            ],
            [
              119.831042141,
              -3.260343453
            ],
            [
              119.831280087,
              -3.260206634
            ],
            [
              119.831565622,
              -3.260105507
            ],
            [
              119.831863055,
              -3.260051969
            ],
            [
              119.83205936,
              -3.26000438
            ],
            [
              119.832374639,
              -3.259950842
            ],
            [
              119.832582842,
              -3.259855664
            ],
            [
              119.832820788,
              -3.259843767
            ],
            [
              119.833005196,
              -3.259754537
            ],
            [
              119.833326423,
              -3.259742639
            ],
            [
              119.833582215,
              -3.259677204
            ],
            [
              119.833849905,
              -3.259671256
            ],
            [
              119.834028364,
              -3.259706948
            ],
            [
              119.834230618,
              -3.259766434
            ],
            [
              119.834367437,
              -3.259980586
            ],
            [
              119.834551846,
              -3.260159045
            ],
            [
              119.83466487,
              -3.260295864
            ],
            [
              119.83484333,
              -3.260474324
            ],
            [
              119.835033686,
              -3.260664681
            ],
            [
              119.8351943,
              -3.260759859
            ],
            [
              119.835485784,
              -3.260747962
            ],
            [
              119.835759422,
              -3.260694424
            ],
            [
              119.835931933,
              -3.260694424
            ],
            [
              119.836128239,
              -3.260676578
            ],
            [
              119.836384031,
              -3.260747962
            ],
            [
              119.836693361,
              -3.260777705
            ],
            [
              119.836919409,
              -3.260765808
            ],
            [
              119.837193047,
              -3.260765808
            ],
            [
              119.837454788,
              -3.2608015
            ],
            [
              119.837532121,
              -3.260866935
            ],
            [
              119.837341764,
              -3.260896678
            ],
            [
              119.837163304,
              -3.26093237
            ],
            [
              119.83700269,
              -3.260974011
            ],
            [
              119.836800436,
              -3.261027548
            ],
            [
              119.836592233,
              -3.261146521
            ],
            [
              119.836354287,
              -3.261206008
            ],
            [
              119.836223417,
              -3.261259546
            ],
            [
              119.835973574,
              -3.26133093
            ],
            [
              119.835872446,
              -3.261396365
            ],
            [
              119.835777268,
              -3.261485595
            ],
            [
              119.835670192,
              -3.261533184
            ],
            [
              119.835589263,
              -3.261628188
            ],
            [
              119.835533373,
              -3.261693797
            ],
            [
              119.835527425,
              -3.261824668
            ]
          ]
        ]
      }
    }
  ]
}