{
  "type": "FeatureCollection",
  "features": [
    {
      "type": "Feature",
      "properties": {
        "idx": "1160",
        "nama_kewilayahan": "Husagama"
      },
      "geometry": {
        "type": "Polygon",
        "coordinates": [
          [
            [
              139.100247961,
              -4.291940755
            ],
            [
              139.103783095,
              -4.292495008
            ],
            [
              139.106767891,
              -4.292023959
            ],
            [
              139.110095994,
              -4.291496332
            ],
            [
              139.111717172,
              -4.291222837
            ],
            [
              139.112865212,
              -4.289531898
            ],
            [
              139.113468238,
              -4.288519035
            ],
            [
              139.113860801,
              -4.287811869
            ],
            [
              139.114987872,
              -4.283001247
            ],
            [
              139.116382672,
              -4.281741526
            ],
            [
              139.118438763,
              -4.28292363
            ],
            [
              139.119876196,
              -4.283721431
            ],
            [
              139.120590091,
              -4.284144243
            ],
            [
              139.120866107,
              -4.284317172
            ],
            [
              139.122084,
              -4.285238834
            ],
            [
              139.124034487,
              -4.286736463
            ],
            [
              139.126520406,
              -4.287575112
            ],
            [
              139.13163827,
              -4.284085225
            ],
            [
              139.134291701,
              -4.282675426
            ],
            [
              139.135255676,
              -4.282180164
            ],
            [
              139.137077814,
              -4.28158173
            ],
            [
              139.138499131,
              -4.281173704
            ],
            [
              139.142812815,
              -4.279088466
            ],
            [
              139.144043965,
              -4.278479004
            ],
            [
              139.146924741,
              -4.277653437
            ],
            [
              139.151026003,
              -4.276687263
            ],
            [
              139.152351898,
              -4.276317252
            ],
            [
              139.155566989,
              -4.275205364
            ],
            [
              139.159036985,
              -4.275127593
            ],
            [
              139.163249535,
              -4.275463081
            ],
            [
              139.164974496,
              -4.275639474
            ],
            [
              139.169090285,
              -4.276587163
            ],
            [
              139.172767418,
              -4.277610342
            ],
            [
              139.173672371,
              -4.277880455
            ],
            [
              139.17470118,
              -4.278179572
            ],
            [
              139.176709532,
              -4.279457138
            ],
            [
              139.178403724,
              -4.280561696
            ],
            [
              139.181612994,
              -4.281928242
            ],
            [
              139.182736735,
              -4.282399835
            ],
            [
              139.185363116,
              -4.28436788
            ],
            [
              139.186152949,
              -4.284953514
            ],
            [
              139.189266238,
              -4.286616478
            ],
            [
              139.189837478,
              -4.286924067
            ],
            [
              139.191359899,
              -4.288123901
            ],
            [
              139.192492067,
              -4.289073996
            ],
            [
              139.193945384,
              -4.291288066
            ],
            [
              139.193930678,
              -4.293489089
            ],
            [
              139.190739618,
              -4.296496009
            ],
            [
              139.189602727,
              -4.297545983
            ],
            [
              139.187621449,
              -4.300919404
            ],
            [
              139.187123906,
              -4.301693371
            ],
            [
              139.185941393,
              -4.305901253
            ],
            [
              139.185383675,
              -4.307928713
            ],
            [
              139.184348123,
              -4.310452655
            ],
            [
              139.182296853,
              -4.315165635
            ],
            [
              139.181740976,
              -4.316408371
            ],
            [
              139.181136954,
              -4.317851952
            ],
            [
              139.180743865,
              -4.318788844
            ],
            [
              139.18044679,
              -4.319438874
            ],
            [
              139.180178951,
              -4.319821021
            ],
            [
              139.179662659,
              -4.320451382
            ],
            [
              139.178151842,
              -4.322371266
            ],
            [
              139.176354199,
              -4.32463496
            ],
            [
              139.174747803,
              -4.326650295
            ],
            [
              139.173523894,
              -4.328178494
            ],
            [
              139.172384353,
              -4.330300212
            ],
            [
              139.171388424,
              -4.332163893
            ],
            [
              139.16886038,
              -4.336846912
            ],
            [
              139.165078876,
              -4.33946938
            ],
            [
              139.162322503,
              -4.339988997
            ],
            [
              139.158832325,
              -4.340401547
            ],
            [
              139.158202925,
              -4.340486136
            ],
            [
              139.154672504,
              -4.3417694
            ],
            [
              139.153970715,
              -4.344179219
            ],
            [
              139.152923067,
              -4.347679121
            ],
            [
              139.146175641,
              -4.350696079
            ],
            [
              139.14561229,
              -4.351058334
            ],
            [
              139.143835819,
              -4.352393687
            ],
            [
              139.14266095,
              -4.35331903
            ],
            [
              139.142173815,
              -4.353700608
            ],
            [
              139.140752039,
              -4.354232986
            ],
            [
              139.137948855,
              -4.354388727
            ],
            [
              139.136793328,
              -4.355199272
            ],
            [
              139.135660353,
              -4.354593582
            ],
            [
              139.135022333,
              -4.354304914
            ],
            [
              139.133945852,
              -4.35398645
            ],
            [
              139.133192749,
              -4.353975009
            ],
            [
              139.132239143,
              -4.354087475
            ],
            [
              139.13164643,
              -4.354755865
            ],
            [
              139.131426055,
              -4.355205081
            ],
            [
              139.130975936,
              -4.356036505
            ],
            [
              139.127831576,
              -4.355377953
            ],
            [
              139.127843947,
              -4.354229649
            ],
            [
              139.127091156,
              -4.354093802
            ],
            [
              139.123410274,
              -4.354515244
            ],
            [
              139.121893071,
              -4.35508562
            ],
            [
              139.120661937,
              -4.355627997
            ],
            [
              139.119583235,
              -4.356209032
            ],
            [
              139.119066397,
              -4.357030707
            ],
            [
              139.117863905,
              -4.357554011
            ],
            [
              139.116206798,
              -4.360707754
            ],
            [
              139.115451551,
              -4.361557533
            ],
            [
              139.115349702,
              -4.364169719
            ],
            [
              139.114508147,
              -4.365220235
            ],
            [
              139.114523176,
              -4.366837497
            ],
            [
              139.114465117,
              -4.367181849
            ],
            [
              139.114319798,
              -4.368109713
            ],
            [
              139.114165784,
              -4.368702626
            ],
            [
              139.113974183,
              -4.369075349
            ],
            [
              139.113610507,
              -4.369639026
            ],
            [
              139.113160669,
              -4.370346027
            ],
            [
              139.112948685,
              -4.371245013
            ],
            [
              139.111869854,
              -4.375672907
            ],
            [
              139.111916683,
              -4.376007952
            ],
            [
              139.112038819,
              -4.376725962
            ],
            [
              139.112123468,
              -4.377185507
            ],
            [
              139.112541187,
              -4.377885124
            ],
            [
              139.113397446,
              -4.37858585
            ],
            [
              139.113778041,
              -4.378883462
            ],
            [
              139.113805851,
              -4.379199321
            ],
            [
              139.11418472,
              -4.380185922
            ],
            [
              139.114190681,
              -4.381611774
            ],
            [
              139.114453661,
              -4.383191385
            ],
            [
              139.114441321,
              -4.38431097
            ],
            [
              139.113283418,
              -4.386040099
            ],
            [
              139.112549143,
              -4.386114797
            ],
            [
              139.112186653,
              -4.386200004
            ],
            [
              139.111624175,
              -4.386198581
            ],
            [
              139.110899723,
              -4.386158468
            ],
            [
              139.110127894,
              -4.386003405
            ],
            [
              139.109765883,
              -4.385897226
            ],
            [
              139.109423134,
              -4.385714539
            ],
            [
              139.109147384,
              -4.38542676
            ],
            [
              139.108853049,
              -4.384947547
            ],
            [
              139.108511576,
              -4.384257689
            ],
            [
              139.108285132,
              -4.38331932
            ],
            [
              139.108221622,
              -4.382036867
            ],
            [
              139.108089596,
              -4.381462373
            ],
            [
              139.107909809,
              -4.380926034
            ],
            [
              139.107558636,
              -4.380303138
            ],
            [
              139.107216539,
              -4.379862082
            ],
            [
              139.106759898,
              -4.379478152
            ],
            [
              139.105827477,
              -4.378738951
            ],
            [
              139.105437522,
              -4.378374328
            ],
            [
              139.105237825,
              -4.378172866
            ],
            [
              139.104943085,
              -4.377856332
            ],
            [
              139.104638955,
              -4.377482357
            ],
            [
              139.104334754,
              -4.37713709
            ],
            [
              139.103801921,
              -4.376724259
            ],
            [
              139.103126209,
              -4.376263217
            ],
            [
              139.102783756,
              -4.3759657
            ],
            [
              139.102212284,
              -4.375753725
            ],
            [
              139.101640622,
              -4.375618303
            ],
            [
              139.10078296,
              -4.375482156
            ],
            [
              139.100058522,
              -4.375442039
            ],
            [
              139.099476796,
              -4.375517115
            ],
            [
              139.09920016,
              -4.375583398
            ],
            [
              139.098866156,
              -4.375716518
            ],
            [
              139.098350849,
              -4.375916163
            ],
            [
              139.097978639,
              -4.376077894
            ],
            [
              139.097615865,
              -4.376277926
            ],
            [
              139.097291129,
              -4.376516333
            ],
            [
              139.096851894,
              -4.376792723
            ],
            [
              139.096565435,
              -4.376973811
            ],
            [
              139.096317375,
              -4.377049733
            ],
            [
              139.096002727,
              -4.377068072
            ],
            [
              139.095669181,
              -4.377019373
            ],
            [
              139.095259563,
              -4.37689393
            ],
            [
              139.09492638,
              -4.376701697
            ],
            [
              139.094461233,
              -4.375915831
            ],
            [
              139.093825383,
              -4.374775469
            ],
            [
              139.093474296,
              -4.374123865
            ],
            [
              139.093322635,
              -4.373778984
            ],
            [
              139.093066206,
              -4.373395561
            ],
            [
              139.09279037,
              -4.373146057
            ],
            [
              139.092343033,
              -4.372857841
            ],
            [
              139.092029283,
              -4.372522115
            ],
            [
              139.091839491,
              -4.372177138
            ],
            [
              139.091611565,
              -4.371832065
            ],
            [
              139.091478849,
              -4.371535079
            ],
            [
              139.091403334,
              -4.37123824
            ],
            [
              139.091308655,
              -4.370979629
            ],
            [
              139.091261595,
              -4.370740279
            ],
            [
              139.091186636,
              -4.370223348
            ],
            [
              139.090065254,
              -4.368823379
            ],
            [
              139.089808222,
              -4.368679185
            ],
            [
              139.089379591,
              -4.368534553
            ],
            [
              139.088979658,
              -4.368351718
            ],
            [
              139.088550883,
              -4.368264501
            ],
            [
              139.08827442,
              -4.368263796
            ],
            [
              139.08804577,
              -4.368205796
            ],
            [
              139.087855179,
              -4.368176601
            ],
            [
              139.087530785,
              -4.368281036
            ],
            [
              139.087187737,
              -4.368222744
            ],
            [
              139.086130477,
              -4.367856414
            ],
            [
              139.085968486,
              -4.367827292
            ],
            [
              139.085682273,
              -4.367912683
            ],
            [
              139.085405545,
              -4.368017238
            ],
            [
              139.085157805,
              -4.367968758
            ],
            [
              139.084910234,
              -4.367853296
            ],
            [
              139.084824532,
              -4.367814799
            ],
            [
              139.084528958,
              -4.367833183
            ],
            [
              139.084319154,
              -4.367861353
            ],
            [
              139.083976132,
              -4.367793491
            ],
            [
              139.083404507,
              -4.367648492
            ],
            [
              139.083214087,
              -4.367552312
            ],
            [
              139.082890155,
              -4.36747493
            ],
            [
              139.082689959,
              -4.367474417
            ],
            [
              139.082451874,
              -4.367378116
            ],
            [
              139.082004474,
              -4.367118603
            ],
            [
              139.081433361,
              -4.36677265
            ],
            [
              139.080938393,
              -4.366474738
            ],
            [
              139.080776501,
              -4.366407339
            ],
            [
              139.079365651,
              -4.366384587
            ],
            [
              139.079050816,
              -4.366479472
            ],
            [
              139.078602711,
              -4.36649746
            ],
            [
              139.078392836,
              -4.366554337
            ],
            [
              139.078192568,
              -4.366582531
            ],
            [
              139.077963945,
              -4.366514961
            ],
            [
              139.077773575,
              -4.366399642
            ],
            [
              139.077488532,
              -4.366025713
            ],
            [
              139.077174818,
              -4.365680419
            ],
            [
              139.076899065,
              -4.365402205
            ],
            [
              139.076575502,
              -4.365181284
            ],
            [
              139.0762613,
              -4.365027371
            ],
            [
              139.075985352,
              -4.36482571
            ],
            [
              139.075814246,
              -4.364633889
            ],
            [
              139.075576455,
              -4.364422756
            ],
            [
              139.075300216,
              -4.364335926
            ],
            [
              139.075081103,
              -4.364277948
            ],
            [
              139.074823833,
              -4.36422944
            ],
            [
              139.0746143,
              -4.364152349
            ],
            [
              139.074290397,
              -4.364065396
            ],
            [
              139.074004137,
              -4.364169921
            ],
            [
              139.073689155,
              -4.364322219
            ],
            [
              139.073288499,
              -4.364426449
            ],
            [
              139.072668682,
              -4.364491841
            ],
            [
              139.071801003,
              -4.364556593
            ],
            [
              139.071457816,
              -4.364555711
            ],
            [
              139.070829148,
              -4.364353142
            ],
            [
              139.070591702,
              -4.364008042
            ],
            [
              139.070326268,
              -4.363423643
            ],
            [
              139.070089458,
              -4.362829746
            ],
            [
              139.069776458,
              -4.362206948
            ],
            [
              139.069320707,
              -4.361488089
            ],
            [
              139.069054713,
              -4.361123779
            ],
            [
              139.068674152,
              -4.360826156
            ],
            [
              139.068187995,
              -4.360815335
            ],
            [
              139.067787243,
              -4.360957841
            ],
            [
              139.067453077,
              -4.361157932
            ],
            [
              139.067205243,
              -4.361147725
            ],
            [
              139.066909819,
              -4.361108686
            ],
            [
              139.066595353,
              -4.361060031
            ],
            [
              139.066376633,
              -4.360848948
            ],
            [
              139.066101279,
              -4.360417627
            ],
            [
              139.065873247,
              -4.360120398
            ],
            [
              139.065473624,
              -4.359822724
            ],
            [
              139.064693244,
              -4.359303982
            ],
            [
              139.063751444,
              -4.358536025
            ],
            [
              139.063342239,
              -4.358257465
            ],
            [
              139.063086616,
              -4.357567832
            ],
            [
              139.062345255,
              -4.356704701
            ],
            [
              139.061802175,
              -4.356588472
            ],
            [
              139.061402136,
              -4.356453471
            ],
            [
              139.060935638,
              -4.356213041
            ],
            [
              139.06051683,
              -4.355963163
            ],
            [
              139.0601078,
              -4.35561762
            ],
            [
              139.059689531,
              -4.355157225
            ],
            [
              139.058401087,
              -4.35202481
            ],
            [
              139.057869263,
              -4.351238773
            ],
            [
              139.057708211,
              -4.350846026
            ],
            [
              139.05767486,
              -4.348979971
            ],
            [
              139.05739971,
              -4.348472101
            ],
            [
              139.057296026,
              -4.348012519
            ],
            [
              139.057297032,
              -4.347620189
            ],
            [
              139.057374788,
              -4.347036678
            ],
            [
              139.057356262,
              -4.346826109
            ],
            [
              139.056949615,
              -4.345552375
            ],
            [
              139.056541888,
              -4.344699678
            ],
            [
              139.056038935,
              -4.343808457
            ],
            [
              139.05539162,
              -4.343452732
            ],
            [
              139.055229639,
              -4.343423605
            ],
            [
              139.054781627,
              -4.343412879
            ],
            [
              139.054533777,
              -4.343412239
            ],
            [
              139.05435283,
              -4.343344789
            ],
            [
              139.054286517,
              -4.343181943
            ],
            [
              139.054220476,
              -4.342913841
            ],
            [
              139.054278187,
              -4.342713039
            ],
            [
              139.05441304,
              -4.342167951
            ],
            [
              139.054490601,
              -4.341660991
            ],
            [
              139.054606784,
              -4.340962753
            ],
            [
              139.054608303,
              -4.340369475
            ],
            [
              139.054581959,
              -4.339489054
            ],
            [
              139.054526232,
              -4.338914766
            ],
            [
              139.054546327,
              -4.338512919
            ],
            [
              139.054375548,
              -4.3381967
            ],
            [
              139.05422381,
              -4.337890098
            ],
            [
              139.054148334,
              -4.337583694
            ],
            [
              139.054102017,
              -4.337057277
            ],
            [
              139.05409371,
              -4.336578803
            ],
            [
              139.054104026,
              -4.33627262
            ],
            [
              139.054142817,
              -4.336014356
            ],
            [
              139.054029308,
              -4.335669578
            ],
            [
              139.053764111,
              -4.334999062
            ],
            [
              139.05314655,
              -4.334193668
            ],
            [
              139.052747384,
              -4.333723756
            ],
            [
              139.052643285,
              -4.333426848
            ],
            [
              139.052342505,
              -4.33176106
            ],
            [
              139.05176254,
              -4.331166282
            ],
            [
              139.051697479,
              -4.33051542
            ],
            [
              139.051775403,
              -4.329864927
            ],
            [
              139.05180503,
              -4.329463104
            ],
            [
              139.051720411,
              -4.329003572
            ],
            [
              139.051293973,
              -4.328016863
            ],
            [
              139.051268239,
              -4.326897218
            ],
            [
              139.051347849,
              -4.325586466
            ],
            [
              139.051559055,
              -4.325003299
            ],
            [
              139.051645629,
              -4.324697314
            ],
            [
              139.051675645,
              -4.324142386
            ],
            [
              139.051211661,
              -4.322925924
            ],
            [
              139.05107909,
              -4.322581097
            ],
            [
              139.050643167,
              -4.321575227
            ],
            [
              139.050207513,
              -4.320464097
            ],
            [
              139.049837194,
              -4.319898571
            ],
            [
              139.049867966,
              -4.319047006
            ],
            [
              139.049945204,
              -4.318664445
            ],
            [
              139.050127076,
              -4.318368273
            ],
            [
              139.050566906,
              -4.317843107
            ],
            [
              139.051303873,
              -4.316677581
            ],
            [
              139.051306828,
              -4.315519735
            ],
            [
              139.051129081,
              -4.314198751
            ],
            [
              139.050948943,
              -4.313815526
            ],
            [
              139.050883829,
              -4.313183803
            ],
            [
              139.050932758,
              -4.312686338
            ],
            [
              139.050990732,
              -4.312380279
            ],
            [
              139.050992464,
              -4.311700882
            ],
            [
              139.050946608,
              -4.310992656
            ],
            [
              139.050881759,
              -4.310255673
            ],
            [
              139.050806817,
              -4.309738753
            ],
            [
              139.050760595,
              -4.30917406
            ],
            [
              139.050723977,
              -4.308580686
            ],
            [
              139.051269384,
              -4.307768718
            ],
            [
              139.05175599,
              -4.307588155
            ],
            [
              139.052443089,
              -4.307283707
            ],
            [
              139.053047072,
              -4.30592645
            ],
            [
              139.053058137,
              -4.305323629
            ],
            [
              139.052773729,
              -4.304710481
            ],
            [
              139.052843931,
              -4.303342286
            ],
            [
              139.053217048,
              -4.302807377
            ],
            [
              139.054095877,
              -4.302072807
            ],
            [
              139.05547957,
              -4.301473496
            ],
            [
              139.055937961,
              -4.301139749
            ],
            [
              139.05633009,
              -4.300624022
            ],
            [
              139.056826804,
              -4.30021382
            ],
            [
              139.057143037,
              -4.299554362
            ],
            [
              139.057534219,
              -4.299411824
            ],
            [
              139.057848803,
              -4.299403059
            ],
            [
              139.058173671,
              -4.299097677
            ],
            [
              139.058574409,
              -4.298945595
            ],
            [
              139.059243159,
              -4.298354016
            ],
            [
              139.059978683,
              -4.297743469
            ],
            [
              139.06043724,
              -4.297342736
            ],
            [
              139.06083805,
              -4.297161944
            ],
            [
              139.061565198,
              -4.296092057
            ],
            [
              139.061930874,
              -4.294724605
            ],
            [
              139.061960945,
              -4.294140967
            ],
            [
              139.0617148,
              -4.293470503
            ],
            [
              139.061658163,
              -4.29325027
            ],
            [
              139.061468102,
              -4.293020128
            ],
            [
              139.061308808,
              -4.291928847
            ],
            [
              139.061319621,
              -4.291421711
            ],
            [
              139.061282242,
              -4.291124974
            ],
            [
              139.061349932,
              -4.290742384
            ],
            [
              139.061617963,
              -4.290293316
            ],
            [
              139.062133224,
              -4.290084105
            ],
            [
              139.063251223,
              -4.288996067
            ],
            [
              139.063356822,
              -4.288699693
            ],
            [
              139.063929563,
              -4.288375796
            ],
            [
              139.064321848,
              -4.287793075
            ],
            [
              139.064560749,
              -4.287554453
            ],
            [
              139.0647427,
              -4.287219997
            ],
            [
              139.064942994,
              -4.287172658
            ],
            [
              139.065162568,
              -4.287039247
            ],
            [
              139.065192006,
              -4.286704403
            ],
            [
              139.065669208,
              -4.286466384
            ],
            [
              139.066127684,
              -4.286094349
            ],
            [
              139.066548344,
              -4.28559782
            ],
            [
              139.066825805,
              -4.28518705
            ],
            [
              139.067008381,
              -4.284603795
            ],
            [
              139.066952966,
              -4.283895539
            ],
            [
              139.06690658,
              -4.283388258
            ],
            [
              139.066737359,
              -4.282450055
            ],
            [
              139.066596974,
              -4.281416233
            ],
            [
              139.066264558,
              -4.280936936
            ],
            [
              139.066284846,
              -4.280448962
            ],
            [
              139.066086596,
              -4.27968293
            ],
            [
              139.066021098,
              -4.27919474
            ],
            [
              139.065908493,
              -4.278486339
            ],
            [
              139.065910004,
              -4.277883487
            ],
            [
              139.065902921,
              -4.276907418
            ],
            [
              139.066151543,
              -4.276592266
            ],
            [
              139.066476107,
              -4.276401703
            ],
            [
              139.066914671,
              -4.276364535
            ],
            [
              139.067191121,
              -4.276355666
            ],
            [
              139.067611149,
              -4.276107928
            ],
            [
              139.068022819,
              -4.275391281
            ],
            [
              139.068500756,
              -4.274856616
            ],
            [
              139.069043163,
              -4.275221612
            ],
            [
              139.069918206,
              -4.275979782
            ],
            [
              139.071190745,
              -4.277877685
            ],
            [
              139.072007452,
              -4.279095028
            ],
            [
              139.074110285,
              -4.280593117
            ],
            [
              139.076406138,
              -4.281144342
            ],
            [
              139.076863412,
              -4.281250754
            ],
            [
              139.078263473,
              -4.281713599
            ],
            [
              139.079834924,
              -4.282253424
            ],
            [
              139.081253792,
              -4.282821572
            ],
            [
              139.082548677,
              -4.283418115
            ],
            [
              139.084814051,
              -4.284734783
            ],
            [
              139.085965604,
              -4.285474501
            ],
            [
              139.087278421,
              -4.286530408
            ],
            [
              139.088116036,
              -4.287020538
            ],
            [
              139.088934589,
              -4.287510622
            ],
            [
              139.089343877,
              -4.287750877
            ],
            [
              139.090874114,
              -4.289544159
            ],
            [
              139.093522218,
              -4.290297186
            ],
            [
              139.094436647,
              -4.290567413
            ],
            [
              139.095579497,
              -4.290981746
            ],
            [
              139.096055635,
              -4.291174321
            ],
            [
              139.098618699,
              -4.291630474
            ],
            [
              139.100247961,
              -4.291940755
            ]
          ]
        ]
      }
    }
  ]
}