{
  "type": "FeatureCollection",
  "features": [
    {
      "type": "Feature",
      "properties": {
        "idx": "1164",
        "nama_kewilayahan": "Uwelesi"
      },
      "geometry": {
        "type": "MultiPolygon",
        "coordinates": [
          [
            [
              [
                138.912337664,
                -4.143825687
              ],
              [
                138.912229729,
                -4.144527267
              ],
              [
                138.911478347,
                -4.147157105
              ],
              [
                138.910100812,
                -4.151039247
              ],
              [
                138.907345744,
                -4.157050304
              ],
              [
                138.906719593,
                -4.159680143
              ],
              [
                138.908472817,
                -4.161934289
              ],
              [
                138.908730546,
                -4.162277928
              ],
              [
                138.909975582,
                -4.163937975
              ],
              [
                138.910772551,
                -4.164796251
              ],
              [
                138.911603577,
                -4.1656912
              ],
              [
                138.91260542,
                -4.167820116
              ],
              [
                138.913106341,
                -4.170074264
              ],
              [
                138.913482033,
                -4.172203179
              ],
              [
                138.913356803,
                -4.174206866
              ],
              [
                138.912981111,
                -4.175960091
              ],
              [
                138.912855881,
                -4.177588086
              ],
              [
                138.913231571,
                -4.178965621
              ],
              [
                138.914108185,
                -4.180343154
              ],
              [
                138.915360488,
                -4.181720689
              ],
              [
                138.916284706,
                -4.183507198
              ],
              [
                138.917379828,
                -4.184307479
              ],
              [
                138.918295576,
                -4.184941457
              ],
              [
                138.919563533,
                -4.186138972
              ],
              [
                138.921535912,
                -4.187125162
              ],
              [
                138.922803869,
                -4.188463562
              ],
              [
                138.92421271,
                -4.190717708
              ],
              [
                138.924564921,
                -4.193324065
              ],
              [
                138.925339784,
                -4.195859981
              ],
              [
                138.927030394,
                -4.197761917
              ],
              [
                138.92724172,
                -4.200016063
              ],
              [
                138.926959952,
                -4.201988442
              ],
              [
                138.926748625,
                -4.204524357
              ],
              [
                138.926185089,
                -4.206848946
              ],
              [
                138.926255531,
                -4.209243977
              ],
              [
                138.926325973,
                -4.211991218
              ],
              [
                138.92622408,
                -4.212065322
              ],
              [
                138.926224506,
                -4.212081933
              ],
              [
                138.924674781,
                -4.213209006
              ],
              [
                138.923054613,
                -4.214265638
              ],
              [
                138.921082233,
                -4.215815364
              ],
              [
                138.920130484,
                -4.216409793
              ],
              [
                138.919980173,
                -4.216503672
              ],
              [
                138.919924816,
                -4.216538246
              ],
              [
                138.919841855,
                -4.216787129
              ],
              [
                138.919792731,
                -4.216934497
              ],
              [
                138.91934264,
                -4.218284769
              ],
              [
                138.919365395,
                -4.218368205
              ],
              [
                138.919390807,
                -4.218461384
              ],
              [
                138.919807514,
                -4.219989316
              ],
              [
                138.919881089,
                -4.22025909
              ],
              [
                138.920233167,
                -4.221550036
              ],
              [
                138.920233167,
                -4.221745446
              ],
              [
                138.920233167,
                -4.221936582
              ],
              [
                138.920233168,
                -4.223222423
              ],
              [
                138.920131701,
                -4.223313137
              ],
              [
                138.918785648,
                -4.223092965
              ],
              [
                138.917235918,
                -4.22250354
              ],
              [
                138.914730155,
                -4.221082757
              ],
              [
                138.91115777,
                -4.220503538
              ],
              [
                138.908184464,
                -4.220757466
              ],
              [
                138.903902355,
                -4.221017984
              ],
              [
                138.899618431,
                -4.220920119
              ],
              [
                138.895693222,
                -4.221178798
              ],
              [
                138.8900179,
                -4.21994725
              ],
              [
                138.885790815,
                -4.219216174
              ],
              [
                138.880617194,
                -4.21992603
              ],
              [
                138.878166265,
                -4.220211875
              ],
              [
                138.875717367,
                -4.220908055
              ],
              [
                138.873477911,
                -4.222629062
              ],
              [
                138.871313015,
                -4.225649149
              ],
              [
                138.868670583,
                -4.228534851
              ],
              [
                138.866907933,
                -4.230253486
              ],
              [
                138.864946686,
                -4.233135791
              ],
              [
                138.864834577,
                -4.237992229
              ],
              [
                138.863216997,
                -4.241488366
              ],
              [
                138.862075592,
                -4.244845339
              ],
              [
                138.861264246,
                -4.24608048
              ],
              [
                138.858408866,
                -4.247257484
              ],
              [
                138.855409401,
                -4.24686216
              ],
              [
                138.852404154,
                -4.24530416
              ],
              [
                138.850214359,
                -4.243331696
              ],
              [
                138.84814964,
                -4.23910159
              ],
              [
                138.84684514,
                -4.23705628
              ],
              [
                138.845742653,
                -4.234531194
              ],
              [
                138.843270964,
                -4.230645029
              ],
              [
                138.841283252,
                -4.228192715
              ],
              [
                138.84052918,
                -4.227238938
              ],
              [
                138.840384508,
                -4.225529792
              ],
              [
                138.839124474,
                -4.222574515
              ],
              [
                138.839075023,
                -4.222458532
              ],
              [
                138.834639649,
                -4.220975831
              ],
              [
                138.830409313,
                -4.219628865
              ],
              [
                138.825226586,
                -4.21856015
              ],
              [
                138.822770459,
                -4.217819919
              ],
              [
                138.821910964,
                -4.217633526
              ],
              [
                138.815677905,
                -4.216281763
              ],
              [
                138.811312626,
                -4.215208891
              ],
              [
                138.808176908,
                -4.21481392
              ],
              [
                138.804018982,
                -4.214355548
              ],
              [
                138.800200334,
                -4.213621898
              ],
              [
                138.797875779,
                -4.211923335
              ],
              [
                138.796028106,
                -4.210222424
              ],
              [
                138.794913269,
                -4.209576796
              ],
              [
                138.793568641,
                -4.208798085
              ],
              [
                138.790496386,
                -4.207445119
              ],
              [
                138.785111507,
                -4.206855791
              ],
              [
                138.78108813,
                -4.206054594
              ],
              [
                138.779064534,
                -4.20431161
              ],
              [
                138.778549331,
                -4.202304973
              ],
              [
                138.77774127,
                -4.201334264
              ],
              [
                138.777637811,
                -4.20120998
              ],
              [
                138.776904758,
                -4.200329372
              ],
              [
                138.7760836,
                -4.199966618
              ],
              [
                138.77188858,
                -4.198113401
              ],
              [
                138.771238149,
                -4.197826059
              ],
              [
                138.765376577,
                -4.196031241
              ],
              [
                138.761403399,
                -4.192743579
              ],
              [
                138.758049839,
                -4.189544902
              ],
              [
                138.756506391,
                -4.187626781
              ],
              [
                138.753663647,
                -4.184093905
              ],
              [
                138.747125967,
                -4.17794962
              ],
              [
                138.743550713,
                -4.177781035
              ],
              [
                138.737622087,
                -4.177467376
              ],
              [
                138.733801801,
                -4.176391171
              ],
              [
                138.730253374,
                -4.175176838
              ],
              [
                138.724066738,
                -4.1732726
              ],
              [
                138.720438319,
                -4.171318837
              ],
              [
                138.716530793,
                -4.170621064
              ],
              [
                138.714716584,
                -4.168806856
              ],
              [
                138.712902376,
                -4.166992648
              ],
              [
                138.711088167,
                -4.166853093
              ],
              [
                138.70871574,
                -4.166573985
              ],
              [
                138.706761977,
                -4.165317994
              ],
              [
                138.705087323,
                -4.163503785
              ],
              [
                138.705205772,
                -4.162330601
              ],
              [
                138.705205772,
                -4.160598443
              ],
              [
                138.705570437,
                -4.158866287
              ],
              [
                138.705570437,
                -4.156678299
              ],
              [
                138.705752769,
                -4.154125644
              ],
              [
                138.706755596,
                -4.151481826
              ],
              [
                138.707576093,
                -4.149658502
              ],
              [
                138.709217084,
                -4.147744012
              ],
              [
                138.710311079,
                -4.146011855
              ],
              [
                138.71049341,
                -4.14446203
              ],
              [
                138.711860904,
                -4.141635878
              ],
              [
                138.712499067,
                -4.13944789
              ],
              [
                138.712863732,
                -4.137259902
              ],
              [
                138.712863731,
                -4.136074741
              ],
              [
                138.713097345,
                -4.133137482
              ],
              [
                138.713420445,
                -4.133393886
              ],
              [
                138.714533212,
                -4.133393886
              ],
              [
                138.714608827,
                -4.133353558
              ],
              [
                138.714687101,
                -4.133353558
              ],
              [
                138.715456316,
                -4.13294331
              ],
              [
                138.715815282,
                -4.132379219
              ],
              [
                138.716260062,
                -4.131736762
              ],
              [
                138.7169947,
                -4.131650333
              ],
              [
                138.71755879,
                -4.131650333
              ],
              [
                138.717639447,
                -4.131610005
              ],
              [
                138.717712679,
                -4.131610004
              ],
              [
                138.718105399,
                -4.131413645
              ],
              [
                138.718686972,
                -4.131752894
              ],
              [
                138.719302344,
                -4.132214423
              ],
              [
                138.720122839,
                -4.132214424
              ],
              [
                138.721045897,
                -4.132368267
              ],
              [
                138.721139463,
                -4.132317884
              ],
              [
                138.721199786,
                -4.132327938
              ],
              [
                138.721799206,
                -4.132005173
              ],
              [
                138.722789451,
                -4.131958019
              ],
              [
                138.723507385,
                -4.131958018
              ],
              [
                138.724276599,
                -4.131958018
              ],
              [
                138.725148376,
                -4.13257339
              ],
              [
                138.726071433,
                -4.132624671
              ],
              [
                138.726121706,
                -4.132578587
              ],
              [
                138.726225322,
                -4.132584343
              ],
              [
                138.726840694,
                -4.132020252
              ],
              [
                138.727341744,
                -4.131519202
              ],
              [
                138.728276516,
                -4.131752895
              ],
              [
                138.728686764,
                -4.132368266
              ],
              [
                138.729369809,
                -4.132801795
              ],
              [
                138.730063427,
                -4.133005139
              ],
              [
                138.731231671,
                -4.133481091
              ],
              [
                138.731967232,
                -4.13384887
              ],
              [
                138.732875868,
                -4.134281554
              ],
              [
                138.732977702,
                -4.134301137
              ],
              [
                138.734000845,
                -4.134497896
              ],
              [
                138.734606601,
                -4.134497896
              ],
              [
                138.735298895,
                -4.134844043
              ],
              [
                138.735660279,
                -4.135299771
              ],
              [
                138.735709944,
                -4.136055555
              ],
              [
                138.736164261,
                -4.136250263
              ],
              [
                138.736661846,
                -4.136250263
              ],
              [
                138.737094529,
                -4.136682946
              ],
              [
                138.737483945,
                -4.136964191
              ],
              [
                138.737765188,
                -4.137180532
              ],
              [
                138.738370945,
                -4.137375239
              ],
              [
                138.738903899,
                -4.137666736
              ],
              [
                138.739885337,
                -4.138175704
              ],
              [
                138.74046946,
                -4.138565119
              ],
              [
                138.741269924,
                -4.138673288
              ],
              [
                138.741637705,
                -4.138694923
              ],
              [
                138.742005486,
                -4.138976168
              ],
              [
                138.742156925,
                -4.139279045
              ],
              [
                138.742351632,
                -4.139430485
              ],
              [
                138.742719412,
                -4.139668461
              ],
              [
                138.742851465,
                -4.139734487
              ],
              [
                138.743065559,
                -4.139841534
              ],
              [
                138.743368437,
                -4.140230949
              ],
              [
                138.743216998,
                -4.140533826
              ],
              [
                138.743138822,
                -4.140557279
              ],
              [
                138.742851667,
                -4.140536768
              ],
              [
                138.74239735,
                -4.140363694
              ],
              [
                138.741950745,
                -4.140344036
              ],
              [
                138.741923175,
                -4.140389924
              ],
              [
                138.741796856,
                -4.140384363
              ],
              [
                138.74161607,
                -4.140685266
              ],
              [
                138.74161607,
                -4.141031413
              ],
              [
                138.741897315,
                -4.14122612
              ],
              [
                138.742059852,
                -4.141261017
              ],
              [
                138.742979023,
                -4.141572267
              ],
              [
                138.74343334,
                -4.141766975
              ],
              [
                138.744082365,
                -4.14163717
              ],
              [
                138.744092705,
                -4.141625552
              ],
              [
                138.744236254,
                -4.141596843
              ],
              [
                138.744432813,
                -4.141376019
              ],
              [
                138.744882829,
                -4.141507364
              ],
              [
                138.745466951,
                -4.14137756
              ],
              [
                138.745486209,
                -4.141367151
              ],
              [
                138.74562084,
                -4.141337233
              ],
              [
                138.74575221,
                -4.141266222
              ],
              [
                138.746037544,
                -4.14140889
              ],
              [
                138.746094342,
                -4.141658804
              ],
              [
                138.746591928,
                -4.141983315
              ],
              [
                138.746916441,
                -4.141961681
              ],
              [
                138.747073379,
                -4.141926806
              ],
              [
                138.747144446,
                -4.14196234
              ],
              [
                138.747553457,
                -4.142003241
              ],
              [
                138.747803442,
                -4.142199658
              ],
              [
                138.748127954,
                -4.142221292
              ],
              [
                138.748155054,
                -4.142172512
              ],
              [
                138.748281843,
                -4.142180965
              ],
              [
                138.748390014,
                -4.141986257
              ],
              [
                138.748390013,
                -4.141830491
              ],
              [
                138.748390013,
                -4.141705013
              ],
              [
                138.748390013,
                -4.141467037
              ],
              [
                138.748454916,
                -4.141250695
              ],
              [
                138.748578231,
                -4.141106828
              ],
              [
                138.748702387,
                -4.141079237
              ],
              [
                138.748704298,
                -4.141072683
              ],
              [
                138.748856276,
                -4.141038911
              ],
              [
                138.749077277,
                -4.14028119
              ],
              [
                138.74899577,
                -4.139995914
              ],
              [
                138.74899577,
                -4.139519962
              ],
              [
                138.749125575,
                -4.13919545
              ],
              [
                138.749314639,
                -4.13901899
              ],
              [
                138.749314639,
                -4.138152401
              ],
              [
                138.749212112,
                -4.137270009
              ],
              [
                138.749314639,
                -4.136749755
              ],
              [
                138.74951499,
                -4.136274838
              ],
              [
                138.749840631,
                -4.136048431
              ],
              [
                138.75029382,
                -4.135777252
              ],
              [
                138.750531796,
                -4.135344568
              ],
              [
                138.750588677,
                -4.135185302
              ],
              [
                138.750639966,
                -4.13504169
              ],
              [
                138.750769772,
                -4.134652275
              ],
              [
                138.751094283,
                -4.134349397
              ],
              [
                138.75133226,
                -4.134089787
              ],
              [
                138.751375528,
                -4.133808543
              ],
              [
                138.751548601,
                -4.133570567
              ],
              [
                138.751938017,
                -4.133397494
              ],
              [
                138.752329072,
                -4.133284156
              ],
              [
                138.752757665,
                -4.133308017
              ],
              [
                138.753190348,
                -4.133459456
              ],
              [
                138.753623031,
                -4.13348109
              ],
              [
                138.754250422,
                -4.133481091
              ],
              [
                138.754335558,
                -4.133440762
              ],
              [
                138.754404311,
                -4.133440763
              ],
              [
                138.754584782,
                -4.133355275
              ],
              [
                138.754710506,
                -4.133295722
              ],
              [
                138.755115789,
                -4.13337292
              ],
              [
                138.755461935,
                -4.133567627
              ],
              [
                138.756086316,
                -4.133809458
              ],
              [
                138.756457107,
                -4.134346456
              ],
              [
                138.756738351,
                -4.134714238
              ],
              [
                138.757322474,
                -4.134995482
              ],
              [
                138.757798426,
                -4.134973847
              ],
              [
                138.75794154,
                -4.134973848
              ],
              [
                138.758122938,
                -4.134973848
              ],
              [
                138.758533987,
                -4.135168555
              ],
              [
                138.758728694,
                -4.135384897
              ],
              [
                138.758765606,
                -4.135680189
              ],
              [
                138.758771963,
                -4.135731043
              ],
              [
                138.758923402,
                -4.135990653
              ],
              [
                138.759183012,
                -4.13618536
              ],
              [
                138.759389364,
                -4.136214839
              ],
              [
                138.75948589,
                -4.136228629
              ],
              [
                138.759630679,
                -4.136421681
              ],
              [
                138.759680598,
                -4.136488239
              ],
              [
                138.759805393,
                -4.136571436
              ],
              [
                138.759948336,
                -4.136666732
              ],
              [
                138.760070012,
                -4.136747849
              ],
              [
                138.760102033,
                -4.136753185
              ],
              [
                138.760459427,
                -4.136812751
              ],
              [
                138.760783939,
                -4.136920922
              ],
              [
                138.761000281,
                -4.137180533
              ],
              [
                138.761432964,
                -4.137505044
              ],
              [
                138.761585515,
                -4.1376217
              ],
              [
                138.762168526,
                -4.138067533
              ],
              [
                138.763293503,
                -4.13878146
              ],
              [
                138.764202138,
                -4.139192509
              ],
              [
                138.764345582,
                -4.139192508
              ],
              [
                138.764483382,
                -4.139192508
              ],
              [
                138.765002602,
                -4.139192508
              ],
              [
                138.765413651,
                -4.13914924
              ],
              [
                138.765803066,
                -4.139127606
              ],
              [
                138.766041042,
                -4.139322314
              ],
              [
                138.76613992,
                -4.13950771
              ],
              [
                138.766214115,
                -4.139646827
              ],
              [
                138.76660353,
                -4.13966846
              ],
              [
                138.766649834,
                -4.139622157
              ],
              [
                138.766757419,
                -4.139628133
              ],
              [
                138.76691817,
                -4.139467382
              ],
              [
                138.767060297,
                -4.139325255
              ],
              [
                138.767276639,
                -4.139173815
              ],
              [
                138.767577228,
                -4.139013501
              ],
              [
                138.76816119,
                -4.138889631
              ],
              [
                138.768593873,
                -4.138846363
              ],
              [
                138.769134728,
                -4.139084338
              ],
              [
                138.76971885,
                -4.139214143
              ],
              [
                138.770259703,
                -4.13914924
              ],
              [
                138.770288134,
                -4.139123968
              ],
              [
                138.770413592,
                -4.139108913
              ],
              [
                138.770600211,
                -4.138943031
              ],
              [
                138.770930362,
                -4.138867996
              ],
              [
                138.771363047,
                -4.138846363
              ],
              [
                138.771665925,
                -4.138997801
              ],
              [
                138.771994679,
                -4.139345895
              ],
              [
                138.772033705,
                -4.139387217
              ],
              [
                138.772444754,
                -4.139603558
              ],
              [
                138.772877438,
                -4.139603558
              ],
              [
                138.773310121,
                -4.139646827
              ],
              [
                138.773384702,
                -4.139598569
              ],
              [
                138.773464009,
                -4.139606499
              ],
              [
                138.773831791,
                -4.139368524
              ],
              [
                138.773858644,
                -4.139319291
              ],
              [
                138.773961596,
                -4.139130547
              ],
              [
                138.774166989,
                -4.13904839
              ],
              [
                138.774543268,
                -4.139127607
              ],
              [
                138.775040854,
                -4.138997802
              ],
              [
                138.775460369,
                -4.139157048
              ],
              [
                138.775884586,
                -4.139235777
              ],
              [
                138.776274002,
                -4.139235777
              ],
              [
                138.776641782,
                -4.139235777
              ],
              [
                138.776700032,
                -4.13919545
              ],
              [
                138.776795671,
                -4.13919545
              ],
              [
                138.776909391,
                -4.13911672
              ],
              [
                138.777076915,
                -4.139000742
              ],
              [
                138.777464006,
                -4.138828702
              ],
              [
                138.777896563,
                -4.138716558
              ],
              [
                138.778221076,
                -4.138738191
              ],
              [
                138.778610491,
                -4.138911265
              ],
              [
                138.779064808,
                -4.139214143
              ],
              [
                138.779369852,
                -4.139551297
              ],
              [
                138.779475858,
                -4.139668461
              ],
              [
                138.779757102,
                -4.140057876
              ],
              [
                138.780016712,
                -4.140360754
              ],
              [
                138.781055152,
                -4.140750168
              ],
              [
                138.781260102,
                -4.140750168
              ],
              [
                138.781639274,
                -4.140750169
              ],
              [
                138.782180128,
                -4.140793437
              ],
              [
                138.782634446,
                -4.140771803
              ],
              [
                138.783002226,
                -4.140901608
              ],
              [
                138.783305105,
                -4.141139584
              ],
              [
                138.78369452,
                -4.141291022
              ],
              [
                138.784019032,
                -4.14148573
              ],
              [
                138.784489904,
                -4.14178701
              ],
              [
                138.784884399,
                -4.142156389
              ],
              [
                138.785791585,
                -4.142065941
              ],
              [
                138.786182449,
                -4.142199657
              ],
              [
                138.786744937,
                -4.142502536
              ],
              [
                138.787307426,
                -4.142589072
              ],
              [
                138.787913182,
                -4.142524169
              ],
              [
                138.78794345,
                -4.142497088
              ],
              [
                138.788067071,
                -4.142483843
              ],
              [
                138.78847812,
                -4.142116062
              ],
              [
                138.789027063,
                -4.141746682
              ],
              [
                138.789408389,
                -4.141510306
              ],
              [
                138.789559828,
                -4.140926183
              ],
              [
                138.78956464,
                -4.140825122
              ],
              [
                138.789581462,
                -4.140471866
              ],
              [
                138.789682263,
                -4.140438266
              ],
              [
                138.789682263,
                -4.140438266
              ],
              [
                138.789841072,
                -4.140385329
              ],
              [
                138.79014395,
                -4.140298792
              ],
              [
                138.790490097,
                -4.140277158
              ],
              [
                138.790792975,
                -4.140471865
              ],
              [
                138.791160756,
                -4.140753109
              ],
              [
                138.791233571,
                -4.140833206
              ],
              [
                138.791377097,
                -4.140991085
              ],
              [
                138.791723245,
                -4.141207427
              ],
              [
                138.792026123,
                -4.141185793
              ],
              [
                138.792220831,
                -4.14101272
              ],
              [
                138.792415538,
                -4.141164159
              ],
              [
                138.792610246,
                -4.141445403
              ],
              [
                138.792804952,
                -4.141575208
              ],
              [
                138.793216002,
                -4.141575208
              ],
              [
                138.793497246,
                -4.141488671
              ],
              [
                138.79377849,
                -4.141207427
              ],
              [
                138.794211173,
                -4.141185793
              ],
              [
                138.794752027,
                -4.141185793
              ],
              [
                138.795163076,
                -4.141164159
              ],
              [
                138.795574126,
                -4.141185793
              ],
              [
                138.796006809,
                -4.14127233
              ],
              [
                138.796266419,
                -4.141207427
              ],
              [
                138.796439492,
                -4.140991086
              ],
              [
                138.796699103,
                -4.140709842
              ],
              [
                138.797045249,
                -4.140688207
              ],
              [
                138.797369762,
                -4.140753109
              ],
              [
                138.797521201,
                -4.140536768
              ],
              [
                138.797737542,
                -4.140320426
              ],
              [
                138.79805885,
                -4.14023389
              ],
              [
                138.798386567,
                -4.14023389
              ],
              [
                138.798624543,
                -4.140168987
              ],
              [
                138.798819251,
                -4.139887744
              ],
              [
                138.798927422,
                -4.139433426
              ],
              [
                138.799100495,
                -4.139152181
              ],
              [
                138.799574211,
                -4.138965494
              ],
              [
                138.799900959,
                -4.138979108
              ],
              [
                138.800182203,
                -4.139022377
              ],
              [
                138.800420179,
                -4.139173816
              ],
              [
                138.800787959,
                -4.139173816
              ],
              [
                138.801134106,
                -4.139238718
              ],
              [
                138.801480252,
                -4.139173816
              ],
              [
                138.801739862,
                -4.138957474
              ],
              [
                138.802001542,
                -4.138678393
              ],
              [
                138.802129277,
                -4.138459889
              ],
              [
                138.802172546,
                -4.138092108
              ],
              [
                138.802432156,
                -4.13774596
              ],
              [
                138.802799937,
                -4.137399814
              ],
              [
                138.803167717,
                -4.137161838
              ],
              [
                138.803362425,
                -4.137161838
              ],
              [
                138.803535498,
                -4.137464717
              ],
              [
                138.803730206,
                -4.137789229
              ],
              [
                138.804141255,
                -4.138092107
              ],
              [
                138.804595572,
                -4.138243547
              ],
              [
                138.805006622,
                -4.138221912
              ],
              [
                138.805352768,
                -4.138070473
              ],
              [
                138.805698915,
                -4.137940668
              ],
              [
                138.805798396,
                -4.13793072
              ],
              [
                138.806131598,
                -4.1378974
              ],
              [
                138.806585916,
                -4.137854132
              ],
              [
                138.807472916,
                -4.137616156
              ],
              [
                138.807862331,
                -4.137486351
              ],
              [
                138.808186844,
                -4.137248375
              ],
              [
                138.808424819,
                -4.137053667
              ],
              [
                138.808706064,
                -4.137183472
              ],
              [
                138.808787511,
                -4.137242707
              ],
              [
                138.80894404,
                -4.137356546
              ],
              [
                138.809376722,
                -4.137399814
              ],
              [
                138.809657967,
                -4.137161838
              ],
              [
                138.810112284,
                -4.137096936
              ],
              [
                138.811294074,
                -4.137188082
              ],
              [
                138.811367066,
                -4.136967131
              ],
              [
                138.811518505,
                -4.136729156
              ],
              [
                138.811799749,
                -4.136534448
              ],
              [
                138.817654808,
                -4.132160238
              ],
              [
                138.819544964,
                -4.132092733
              ],
              [
                138.821826392,
                -4.132001475
              ],
              [
                138.823377763,
                -4.131362675
              ],
              [
                138.825202906,
                -4.129720047
              ],
              [
                138.828488163,
                -4.127256104
              ],
              [
                138.830678335,
                -4.124883418
              ],
              [
                138.833142277,
                -4.12260199
              ],
              [
                138.833781077,
                -4.120046789
              ],
              [
                138.834123083,
                -4.116414699
              ],
              [
                138.832979515,
                -4.112808064
              ],
              [
                138.831220181,
                -4.108233795
              ],
              [
                138.830956281,
                -4.10515496
              ],
              [
                138.830868314,
                -4.101636292
              ],
              [
                138.831332561,
                -4.10053441
              ],
              [
                138.83151849,
                -4.100351064
              ],
              [
                138.831722495,
                -4.100237441
              ],
              [
                138.831869689,
                -4.10015997
              ],
              [
                138.832282864,
                -4.099824265
              ],
              [
                138.83243264,
                -4.099560866
              ],
              [
                138.832577251,
                -4.09941109
              ],
              [
                138.832603075,
                -4.099070221
              ],
              [
                138.832907791,
                -4.098796492
              ],
              [
                138.833197014,
                -4.098476281
              ],
              [
                138.833197014,
                -4.097464002
              ],
              [
                138.832881968,
                -4.097174779
              ],
              [
                138.833057567,
                -4.097123133
              ],
              [
                138.833233167,
                -4.096957862
              ],
              [
                138.833326131,
                -4.096802922
              ],
              [
                138.833439754,
                -4.096818416
              ],
              [
                138.833543048,
                -4.097226426
              ],
              [
                138.833641177,
                -4.097438179
              ],
              [
                138.833832271,
                -4.097613778
              ],
              [
                138.834720597,
                -4.097515649
              ],
              [
                138.835335196,
                -4.097386532
              ],
              [
                138.835861994,
                -4.097345214
              ],
              [
                138.836409451,
                -4.097510484
              ],
              [
                138.837473377,
                -4.097717072
              ],
              [
                138.837969187,
                -4.09792366
              ],
              [
                138.838211928,
                -4.097964977
              ],
              [
                138.83843401,
                -4.097830695
              ],
              [
                138.838630268,
                -4.097786795
              ],
              [
                138.840995696,
                -4.097066321
              ],
              [
                138.84192534,
                -4.096870063
              ],
              [
                138.842396618,
                -4.096904924
              ],
              [
                138.842865314,
                -4.097074068
              ],
              [
                138.843102889,
                -4.097365873
              ],
              [
                138.843195854,
                -4.097551802
              ],
              [
                138.843392112,
                -4.097665425
              ],
              [
                138.843599991,
                -4.097664134
              ],
              [
                138.843727817,
                -4.097758389
              ],
              [
                138.844124207,
                -4.097865557
              ],
              [
                138.844510267,
                -4.097763554
              ],
              [
                138.845135195,
                -4.098114753
              ],
              [
                138.845288844,
                -4.098165109
              ],
              [
                138.845461861,
                -4.098190932
              ],
              [
                138.845593561,
                -4.098041156
              ],
              [
                138.845621967,
                -4.09793528
              ],
              [
                138.845714931,
                -4.097780339
              ],
              [
                138.845851796,
                -4.097684793
              ],
              [
                138.846084207,
                -4.097687375
              ],
              [
                138.846223653,
                -4.097669299
              ],
              [
                138.846276591,
                -4.097629272
              ],
              [
                138.846497382,
                -4.09742914
              ],
              [
                138.846590346,
                -4.097170906
              ],
              [
                138.846776275,
                -4.096964318
              ],
              [
                138.847055168,
                -4.096866189
              ],
              [
                138.847220438,
                -4.096822289
              ],
              [
                138.847318568,
                -4.096749984
              ],
              [
                138.84731082,
                -4.096638943
              ],
              [
                138.847318568,
                -4.096396202
              ],
              [
                138.847388291,
                -4.096086321
              ],
              [
                138.847494167,
                -4.095918469
              ],
              [
                138.847561308,
                -4.09577644
              ],
              [
                138.847935748,
                -4.095345188
              ],
              [
                138.84799256,
                -4.095249641
              ],
              [
                138.848005471,
                -4.095133436
              ],
              [
                138.84790476,
                -4.094986242
              ],
              [
                138.847793719,
                -4.094864872
              ],
              [
                138.847631031,
                -4.094761578
              ],
              [
                138.847460597,
                -4.094702184
              ],
              [
                138.847339226,
                -4.094580814
              ],
              [
                138.847359885,
                -4.094498179
              ],
              [
                138.847452849,
                -4.094451697
              ],
              [
                138.847581967,
                -4.094436203
              ],
              [
                138.847711084,
                -4.094348403
              ],
              [
                138.847762731,
                -4.094162474
              ],
              [
                138.847700755,
                -4.093465241
              ],
              [
                138.847535485,
                -4.093093383
              ],
              [
                138.847483838,
                -4.09289196
              ],
              [
                138.847509661,
                -4.092654385
              ],
              [
                138.847602625,
                -4.092452962
              ],
              [
                138.847917672,
                -4.092303186
              ],
              [
                138.848072612,
                -4.092267033
              ],
              [
                138.8481914,
                -4.092094016
              ],
              [
                138.848232718,
                -4.091962316
              ],
              [
                138.848292112,
                -4.091665346
              ],
              [
                138.84826887,
                -4.091602079
              ],
              [
                138.848307606,
                -4.09155947
              ],
              [
                138.848350214,
                -4.091474253
              ],
              [
                138.848351506,
                -4.091365794
              ],
              [
                138.848325682,
                -4.091310274
              ],
              [
                138.848300556,
                -4.091295916
              ],
              [
                138.848226262,
                -4.091253462
              ],
              [
                138.848168159,
                -4.091234095
              ],
              [
                138.848057118,
                -4.091164371
              ],
              [
                138.847917672,
                -4.090957784
              ],
              [
                138.847912507,
                -4.090725373
              ],
              [
                138.84793833,
                -4.090487797
              ],
              [
                138.847958989,
                -4.090141763
              ],
              [
                138.848067448,
                -4.089873199
              ],
              [
                138.848165577,
                -4.089537494
              ],
              [
                138.848248212,
                -4.089289589
              ],
              [
                138.848181071,
                -4.089155307
              ],
              [
                138.848217224,
                -4.089033937
              ],
              [
                138.848289529,
                -4.088899655
              ],
              [
                138.848289529,
                -4.088760208
              ],
              [
                138.848330847,
                -4.08873955
              ],
              [
                138.848330847,
                -4.088662079
              ],
              [
                138.848361835,
                -4.088631091
              ],
              [
                138.848439305,
                -4.088548456
              ],
              [
                138.848408317,
                -4.088452909
              ],
              [
                138.848418646,
                -4.088409009
              ],
              [
                138.848501282,
                -4.088285057
              ],
              [
                138.84852194,
                -4.088122369
              ],
              [
                138.848604575,
                -4.088124951
              ],
              [
                138.848701413,
                -4.088025531
              ],
              [
                138.849385735,
                -4.088126243
              ],
              [
                138.849751137,
                -4.08832121
              ],
              [
                138.850066183,
                -4.088605268
              ],
              [
                138.850531005,
                -4.089163054
              ],
              [
                138.850825392,
                -4.089596888
              ],
              [
                138.851739542,
                -4.089617547
              ],
              [
                138.853041044,
                -4.090619497
              ],
              [
                138.853371584,
                -4.091125636
              ],
              [
                138.854311558,
                -4.091972645
              ],
              [
                138.854838356,
                -4.09190034
              ],
              [
                138.855210214,
                -4.092055281
              ],
              [
                138.855298014,
                -4.092370327
              ],
              [
                138.85569053,
                -4.092592408
              ],
              [
                138.855886788,
                -4.092876466
              ],
              [
                138.855907447,
                -4.093119207
              ],
              [
                138.8559436,
                -4.093315465
              ],
              [
                138.856217328,
                -4.093315465
              ],
              [
                138.856356775,
                -4.093547876
              ],
              [
                138.85676995,
                -4.093702817
              ],
              [
                138.856971373,
                -4.093986875
              ],
              [
                138.85727609,
                -4.094054016
              ],
              [
                138.857552401,
                -4.094239944
              ],
              [
                138.8579036,
                -4.094425873
              ],
              [
                138.859898811,
                -4.096442521
              ],
              [
                138.861815852,
                -4.09764864
              ],
              [
                138.862249686,
                -4.095789351
              ],
              [
                138.86235298,
                -4.094963001
              ],
              [
                138.86284879,
                -4.094384556
              ],
              [
                138.86386107,
                -4.094054016
              ],
              [
                138.865410477,
                -4.093000419
              ],
              [
                138.866505391,
                -4.092587244
              ],
              [
                138.868426656,
                -4.092256703
              ],
              [
                138.869253006,
                -4.091802211
              ],
              [
                138.869542229,
                -4.091327059
              ],
              [
                138.869810792,
                -4.090686638
              ],
              [
                138.870781754,
                -4.090893225
              ],
              [
                138.871773375,
                -4.090604003
              ],
              [
                138.872620384,
                -4.089839628
              ],
              [
                138.873116194,
                -4.088827349
              ],
              [
                138.873157512,
                -4.088083634
              ],
              [
                138.873983862,
                -4.087856388
              ],
              [
                138.874397037,
                -4.087443212
              ],
              [
                138.874706919,
                -4.087339919
              ],
              [
                138.875739857,
                -4.087587824
              ],
              [
                138.876101385,
                -4.087644635
              ],
              [
                138.876586866,
                -4.087670459
              ],
              [
                138.876860594,
                -4.087582659
              ],
              [
                138.877149817,
                -4.087334754
              ],
              [
                138.877294428,
                -4.087479365
              ],
              [
                138.87735124,
                -4.087644635
              ],
              [
                138.878275719,
                -4.088212751
              ],
              [
                138.878750871,
                -4.087908034
              ],
              [
                138.879050423,
                -4.087763423
              ],
              [
                138.879845785,
                -4.088171434
              ],
              [
                138.88000589,
                -4.08798034
              ],
              [
                138.880088526,
                -4.087665294
              ],
              [
                138.880233137,
                -4.08748453
              ],
              [
                138.880408736,
                -4.087339919
              ],
              [
                138.880770265,
                -4.087520683
              ],
              [
                138.880894217,
                -4.087293436
              ],
              [
                138.881204099,
                -4.087298601
              ],
              [
                138.881410686,
                -4.087334754
              ],
              [
                138.881581121,
                -4.087086849
              ],
              [
                138.881663756,
                -4.087019708
              ],
              [
                138.881865179,
                -4.087024872
              ],
              [
                138.882195719,
                -4.087252119
              ],
              [
                138.882479777,
                -4.087252119
              ],
              [
                138.882856799,
                -4.086875096
              ],
              [
                138.883032399,
                -4.086627191
              ],
              [
                138.883197669,
                -4.086544556
              ],
              [
                138.883631503,
                -4.086627191
              ],
              [
                138.883863914,
                -4.086425768
              ],
              [
                138.883982702,
                -4.086219181
              ],
              [
                138.884297748,
                -4.086115887
              ],
              [
                138.884308077,
                -4.085764688
              ],
              [
                138.884302913,
                -4.085682053
              ],
              [
                138.884726417,
                -4.0857337
              ],
              [
                138.884788393,
                -4.085578759
              ],
              [
                138.885046628,
                -4.085434148
              ],
              [
                138.885217063,
                -4.085320525
              ],
              [
                138.885418486,
                -4.085188825
              ],
              [
                138.885536702,
                -4.08504362
              ],
              [
                138.885604923,
                -4.084772801
              ],
              [
                138.885619394,
                -4.084557799
              ],
              [
                138.885801319,
                -4.08443376
              ],
              [
                138.885826127,
                -4.083999622
              ],
              [
                138.885904685,
                -4.083660581
              ],
              [
                138.886065936,
                -4.083429041
              ],
              [
                138.8861631,
                -4.083477623
              ],
              [
                138.886232356,
                -4.083495195
              ],
              [
                138.886335248,
                -4.08353004
              ],
              [
                138.886406011,
                -4.083554114
              ],
              [
                138.886555892,
                -4.083536542
              ],
              [
                138.886564161,
                -4.08326779
              ],
              [
                138.886617911,
                -4.083176828
              ],
              [
                138.88668731,
                -4.083191694
              ],
              [
                138.886849073,
                -4.083219716
              ],
              [
                138.886920008,
                -4.083224545
              ],
              [
                138.887023382,
                -4.083192145
              ],
              [
                138.887052697,
                -4.083169001
              ],
              [
                138.887109784,
                -4.083088771
              ],
              [
                138.88711287,
                -4.083065627
              ],
              [
                138.887088184,
                -4.082945281
              ],
              [
                138.887068126,
                -4.082885107
              ],
              [
                138.887080469,
                -4.082811049
              ],
              [
                138.887157614,
                -4.082681445
              ],
              [
                138.887202358,
                -4.082650587
              ],
              [
                138.887260989,
                -4.082633615
              ],
              [
                138.887347391,
                -4.082632072
              ],
              [
                138.887426079,
                -4.082624358
              ],
              [
                138.887464651,
                -4.082591956
              ],
              [
                138.88746928,
                -4.082537955
              ],
              [
                138.88745848,
                -4.082457724
              ],
              [
                138.88748008,
                -4.082396008
              ],
              [
                138.887507853,
                -4.08233892
              ],
              [
                138.887742535,
                -4.08187028
              ],
              [
                138.888044658,
                -4.081569438
              ],
              [
                138.888900235,
                -4.081241814
              ],
              [
                138.88938089,
                -4.080670508
              ],
              [
                138.88976834,
                -4.081242903
              ],
              [
                138.890470346,
                -4.082720201
              ],
              [
                138.891589767,
                -4.084328785
              ],
              [
                138.893682714,
                -4.086086015
              ],
              [
                138.897411735,
                -4.086618498
              ],
              [
                138.89842472,
                -4.086763145
              ],
              [
                138.903755097,
                -4.087451025
              ],
              [
                138.903061349,
                -4.089083184
              ],
              [
                138.902511322,
                -4.090629786
              ],
              [
                138.90243159,
                -4.090853982
              ],
              [
                138.903052897,
                -4.092332653
              ],
              [
                138.903197637,
                -4.09323772
              ],
              [
                138.903158654,
                -4.094086917
              ],
              [
                138.903266908,
                -4.094881111
              ],
              [
                138.903430179,
                -4.095730839
              ],
              [
                138.903281209,
                -4.096450505
              ],
              [
                138.906720125,
                -4.102398186
              ],
              [
                138.912655164,
                -4.104240079
              ],
              [
                138.915677861,
                -4.105068219
              ],
              [
                138.916953007,
                -4.10541757
              ],
              [
                138.917939509,
                -4.105758364
              ],
              [
                138.920191108,
                -4.106536187
              ],
              [
                138.922663839,
                -4.107713679
              ],
              [
                138.925313195,
                -4.109303292
              ],
              [
                138.925833318,
                -4.109725892
              ],
              [
                138.926255188,
                -4.110068661
              ],
              [
                138.927079432,
                -4.11083403
              ],
              [
                138.927370357,
                -4.111041167
              ],
              [
                138.928354429,
                -4.111660063
              ],
              [
                138.931550988,
                -4.114727366
              ],
              [
                138.936298976,
                -4.116810121
              ],
              [
                138.938621697,
                -4.118069148
              ],
              [
                138.940621885,
                -4.119662192
              ],
              [
                138.942778284,
                -4.121292567
              ],
              [
                138.943667014,
                -4.122494996
              ],
              [
                138.944417086,
                -4.123541858
              ],
              [
                138.945025821,
                -4.125028015
              ],
              [
                138.945227626,
                -4.126084669
              ],
              [
                138.94516776,
                -4.126109317
              ],
              [
                138.94507471,
                -4.126162899
              ],
              [
                138.944913856,
                -4.126180423
              ],
              [
                138.944713554,
                -4.126251667
              ],
              [
                138.944598999,
                -4.126330309
              ],
              [
                138.944430518,
                -4.126534398
              ],
              [
                138.944344522,
                -4.126623879
              ],
              [
                138.944305771,
                -4.126870466
              ],
              [
                138.944857497,
                -4.127715117
              ],
              [
                138.945316661,
                -4.128299484
              ],
              [
                138.946034515,
                -4.129286562
              ],
              [
                138.946680102,
                -4.130360818
              ],
              [
                138.946530326,
                -4.130670699
              ],
              [
                138.945776281,
                -4.130949592
              ],
              [
                138.945094542,
                -4.130732675
              ],
              [
                138.944660708,
                -4.130789487
              ],
              [
                138.944164898,
                -4.1303195
              ],
              [
                138.943849851,
                -4.130247195
              ],
              [
                138.943762052,
                -4.130030278
              ],
              [
                138.943348876,
                -4.130050936
              ],
              [
                138.943085477,
                -4.129844349
              ],
              [
                138.942822078,
                -4.129865008
              ],
              [
                138.942584502,
                -4.129978631
              ],
              [
                138.942439891,
                -4.129963137
              ],
              [
                138.942222974,
                -4.129854678
              ],
              [
                138.942184239,
                -4.129772043
              ],
              [
                138.942099022,
                -4.12973589
              ],
              [
                138.941977651,
                -4.129834019
              ],
              [
                138.941946663,
                -4.129932149
              ],
              [
                138.941768481,
                -4.130123242
              ],
              [
                138.9413708,
                -4.130226536
              ],
              [
                138.94095246,
                -4.130391806
              ],
              [
                138.940539285,
                -4.13066037
              ],
              [
                138.939947928,
                -4.130882451
              ],
              [
                138.939767164,
                -4.131021898
              ],
              [
                138.9396303,
                -4.131192333
              ],
              [
                138.939501182,
                -4.131316285
              ],
              [
                138.939302342,
                -4.131352438
              ],
              [
                138.938734226,
                -4.131109698
              ],
              [
                138.938233251,
                -4.131083874
              ],
              [
                138.937414648,
                -4.131391173
              ],
              [
                138.937068613,
                -4.131605508
              ],
              [
                138.936939496,
                -4.131615837
              ],
              [
                138.936710959,
                -4.131511252
              ],
              [
                138.936454015,
                -4.13149705
              ],
              [
                138.93642561,
                -4.131528038
              ],
              [
                138.93616221,
                -4.131786272
              ],
              [
                138.935909141,
                -4.131936048
              ],
              [
                138.935630247,
                -4.13199286
              ],
              [
                138.935289378,
                -4.131977366
              ],
              [
                138.934966585,
                -4.132103901
              ],
              [
                138.93491752,
                -4.132282082
              ],
              [
                138.934969167,
                -4.132535152
              ],
              [
                138.934881367,
                -4.132767563
              ],
              [
                138.934535333,
                -4.132974151
              ],
              [
                138.933951723,
                -4.132865692
              ],
              [
                138.933440419,
                -4.132679764
              ],
              [
                138.933011749,
                -4.132793387
              ],
              [
                138.932479786,
                -4.13314975
              ],
              [
                138.932391987,
                -4.133588749
              ],
              [
                138.93213117,
                -4.133960607
              ],
              [
                138.931976229,
                -4.13398643
              ],
              [
                138.931772224,
                -4.133888301
              ],
              [
                138.931516572,
                -4.133720449
              ],
              [
                138.931299655,
                -4.133725613
              ],
              [
                138.931124055,
                -4.133921872
              ],
              [
                138.93104142,
                -4.134748222
              ],
              [
                138.93087615,
                -4.135016786
              ],
              [
                138.930638574,
                -4.135099421
              ],
              [
                138.930256387,
                -4.134748222
              ],
              [
                138.929316414,
                -4.13495481
              ],
              [
                138.928696651,
                -4.134624269
              ],
              [
                138.928128535,
                -4.134417682
              ],
              [
                138.927503608,
                -4.134040659
              ],
              [
                138.92696648,
                -4.134319553
              ],
              [
                138.926496493,
                -4.1342834
              ],
              [
                138.926233094,
                -4.134368617
              ],
              [
                138.926057494,
                -4.134412517
              ],
              [
                138.925861236,
                -4.134557128
              ],
              [
                138.925706295,
                -4.134815363
              ],
              [
                138.925453226,
                -4.134784375
              ],
              [
                138.925205321,
                -4.134861845
              ],
              [
                138.925161421,
                -4.134949645
              ],
              [
                138.925158838,
                -4.135269856
              ],
              [
                138.925140762,
                -4.135641713
              ],
              [
                138.924722422,
                -4.135688196
              ],
              [
                138.92451067,
                -4.135502267
              ],
              [
                138.924433199,
                -4.13536282
              ],
              [
                138.924293753,
                -4.135213044
              ],
              [
                138.924061342,
                -4.135249197
              ],
              [
                138.923834095,
                -4.135491937
              ],
              [
                138.923240156,
                -4.135688196
              ],
              [
                138.923162686,
                -4.135827642
              ],
              [
                138.923100709,
                -4.136039394
              ],
              [
                138.922542923,
                -4.136209829
              ],
              [
                138.922496441,
                -4.136385429
              ],
              [
                138.922553252,
                -4.136664322
              ],
              [
                138.922424135,
                -4.136891568
              ],
              [
                138.921907666,
                -4.136938051
              ],
              [
                138.921355044,
                -4.136912227
              ],
              [
                138.92034793,
                -4.136953545
              ],
              [
                138.920151671,
                -4.137015521
              ],
              [
                138.920053542,
                -4.137139473
              ],
              [
                138.919784978,
                -4.137103321
              ],
              [
                138.919539656,
                -4.137116232
              ],
              [
                138.919413121,
                -4.137227273
              ],
              [
                138.919278839,
                -4.137408037
              ],
              [
                138.919056757,
                -4.137506166
              ],
              [
                138.918984451,
                -4.137945165
              ],
              [
                138.918726217,
                -4.138043294
              ],
              [
                138.91817876,
                -4.138244717
              ],
              [
                138.917863714,
                -4.138187905
              ],
              [
                138.917497021,
                -4.138022635
              ],
              [
                138.917194886,
                -4.138123347
              ],
              [
                138.916686164,
                -4.138156917
              ],
              [
                138.916058655,
                -4.138397075
              ],
              [
                138.915968273,
                -4.138505534
              ],
              [
                138.915831408,
                -4.138678551
              ],
              [
                138.915733279,
                -4.138673386
              ],
              [
                138.915650644,
                -4.138621739
              ],
              [
                138.915521527,
                -4.138621739
              ],
              [
                138.915454386,
                -4.138704374
              ],
              [
                138.915428562,
                -4.138843821
              ],
              [
                138.915438892,
                -4.139034915
              ],
              [
                138.915335598,
                -4.139174361
              ],
              [
                138.91513934,
                -4.139205349
              ],
              [
                138.914452436,
                -4.139380949
              ],
              [
                138.914152884,
                -4.139546219
              ],
              [
                138.913662238,
                -4.139636601
              ],
              [
                138.913558945,
                -4.13977863
              ],
              [
                138.913600262,
                -4.1400317
              ],
              [
                138.913703556,
                -4.140227958
              ],
              [
                138.913781026,
                -4.140429381
              ],
              [
                138.913770697,
                -4.140506851
              ],
              [
                138.913543451,
                -4.140734098
              ],
              [
                138.913156099,
                -4.140920026
              ],
              [
                138.912877206,
                -4.140930356
              ],
              [
                138.912665453,
                -4.140997497
              ],
              [
                138.912531171,
                -4.141245402
              ],
              [
                138.91229876,
                -4.141384849
              ],
              [
                138.912190302,
                -4.141632754
              ],
              [
                138.912092173,
                -4.14169473
              ],
              [
                138.911973385,
                -4.141715389
              ],
              [
                138.911673833,
                -4.141751542
              ],
              [
                138.911565374,
                -4.141898735
              ],
              [
                138.911555045,
                -4.142071752
              ],
              [
                138.911668668,
                -4.142283505
              ],
              [
                138.911730644,
                -4.142624374
              ],
              [
                138.911808115,
                -4.142903267
              ],
              [
                138.911957891,
                -4.143130514
              ],
              [
                138.911921738,
                -4.143399078
              ],
              [
                138.912009538,
                -4.143574677
              ],
              [
                138.912297962,
                -4.143679567
              ],
              [
                138.912354965,
                -4.143713231
              ],
              [
                138.912337664,
                -4.143825687
              ]
            ]
          ]
        ]
      }
    }
  ]
}