{
  "type": "FeatureCollection",
  "features": [
    {
      "type": "Feature",
      "properties": {
        "idx": "1174",
        "nama_kewilayahan": "Wio"
      },
      "geometry": {
        "type": "MultiPolygon",
        "coordinates": [
          [
            [
              [
                138.96853163,
                -4.066115251
              ],
              [
                138.968675631,
                -4.066282308
              ],
              [
                138.969034344,
                -4.067004246
              ],
              [
                138.970452627,
                -4.068334381
              ],
              [
                138.970683862,
                -4.068655541
              ],
              [
                138.970838018,
                -4.068938161
              ],
              [
                138.970992174,
                -4.069362091
              ],
              [
                138.971146331,
                -4.069644711
              ],
              [
                138.97136472,
                -4.069978717
              ],
              [
                138.971480337,
                -4.070235645
              ],
              [
                138.971403259,
                -4.070556804
              ],
              [
                138.971403258,
                -4.070661823
              ],
              [
                138.971403258,
                -4.07067372
              ],
              [
                138.971403259,
                -4.070826578
              ],
              [
                138.971390413,
                -4.071070659
              ],
              [
                138.971390412,
                -4.07149459
              ],
              [
                138.971300488,
                -4.07173867
              ],
              [
                138.971249102,
                -4.07205983
              ],
              [
                138.970890506,
                -4.072327453
              ],
              [
                138.970890506,
                -4.072327453
              ],
              [
                138.970683862,
                -4.072544981
              ],
              [
                138.970542552,
                -4.072737677
              ],
              [
                138.970426935,
                -4.073097375
              ],
              [
                138.97029847,
                -4.073457074
              ],
              [
                138.970436595,
                -4.074098942
              ],
              [
                138.970516859,
                -4.074471938
              ],
              [
                138.971128667,
                -4.076678302
              ],
              [
                138.97115436,
                -4.076999461
              ],
              [
                138.971385595,
                -4.077834476
              ],
              [
                138.97189945,
                -4.07927327
              ],
              [
                138.972271995,
                -4.079902742
              ],
              [
                138.972824389,
                -4.081277304
              ],
              [
                138.97306847,
                -4.081958161
              ],
              [
                138.973325397,
                -4.082844561
              ],
              [
                138.973325398,
                -4.082960179
              ],
              [
                138.973441015,
                -4.083499727
              ],
              [
                138.973710789,
                -4.084501744
              ],
              [
                138.973916331,
                -4.085221141
              ],
              [
                138.973890638,
                -4.086004769
              ],
              [
                138.973839252,
                -4.086325929
              ],
              [
                138.973839252,
                -4.08689117
              ],
              [
                138.973903484,
                -4.087199483
              ],
              [
                138.974365954,
                -4.087777569
              ],
              [
                138.974564337,
                -4.087983192
              ],
              [
                138.974805942,
                -4.088233616
              ],
              [
                138.974876597,
                -4.088683239
              ],
              [
                138.975082139,
                -4.089203517
              ],
              [
                138.975268412,
                -4.089454022
              ],
              [
                138.975435414,
                -4.089743064
              ],
              [
                138.975494873,
                -4.089907283
              ],
              [
                138.975570301,
                -4.090115609
              ],
              [
                138.975846498,
                -4.090892815
              ],
              [
                138.975968538,
                -4.091971911
              ],
              [
                138.976084156,
                -4.092440803
              ],
              [
                138.97623189,
                -4.092851887
              ],
              [
                138.976334661,
                -4.093301511
              ],
              [
                138.976379623,
                -4.093783249
              ],
              [
                138.976296122,
                -4.094322797
              ],
              [
                138.976167657,
                -4.095029348
              ],
              [
                138.975820806,
                -4.095992826
              ],
              [
                138.975332643,
                -4.096558066
              ],
              [
                138.97474171,
                -4.097136153
              ],
              [
                138.97450084,
                -4.097377022
              ],
              [
                138.97430654,
                -4.097638767
              ],
              [
                138.974050214,
                -4.0975943
              ],
              [
                138.973796461,
                -4.0975943
              ],
              [
                138.973415831,
                -4.09764914
              ],
              [
                138.973119786,
                -4.097763037
              ],
              [
                138.972895602,
                -4.09796323
              ],
              [
                138.972608051,
                -4.098252371
              ],
              [
                138.972337381,
                -4.098619372
              ],
              [
                138.971774896,
                -4.099070741
              ],
              [
                138.9714281,
                -4.099319626
              ],
              [
                138.971030554,
                -4.099538983
              ],
              [
                138.970827551,
                -4.099593822
              ],
              [
                138.970472224,
                -4.09952616
              ],
              [
                138.970389629,
                -4.099674485
              ],
              [
                138.970050966,
                -4.099868826
              ],
              [
                138.969663076,
                -4.100256716
              ],
              [
                138.969081239,
                -4.100810846
              ],
              [
                138.968859587,
                -4.101087912
              ],
              [
                138.968305458,
                -4.101642041
              ],
              [
                138.967751327,
                -4.101974519
              ],
              [
                138.96733573,
                -4.102057638
              ],
              [
                138.966920133,
                -4.102057638
              ],
              [
                138.966860132,
                -4.102069638
              ],
              [
                138.966755626,
                -4.102073993
              ],
              [
                138.966607857,
                -4.102092464
              ],
              [
                138.966497031,
                -4.102166348
              ],
              [
                138.966432383,
                -4.102249467
              ],
              [
                138.96637697,
                -4.102535768
              ],
              [
                138.966303086,
                -4.102840539
              ],
              [
                138.966219967,
                -4.103251519
              ],
              [
                138.966136847,
                -4.10347317
              ],
              [
                138.965956755,
                -4.103921092
              ],
              [
                138.965882871,
                -4.10415198
              ],
              [
                138.965841311,
                -4.104373632
              ],
              [
                138.965832076,
                -4.104442898
              ],
              [
                138.965855165,
                -4.104562959
              ],
              [
                138.965929048,
                -4.104687639
              ],
              [
                138.966130498,
                -4.104897554
              ],
              [
                138.966282883,
                -4.105091499
              ],
              [
                138.96635215,
                -4.105188472
              ],
              [
                138.96639371,
                -4.105299298
              ],
              [
                138.966379857,
                -4.105465537
              ],
              [
                138.966338297,
                -4.105617923
              ],
              [
                138.966269031,
                -4.105714895
              ],
              [
                138.965991965,
                -4.10599196
              ],
              [
                138.965894993,
                -4.106130493
              ],
              [
                138.965922699,
                -4.106338291
              ],
              [
                138.966088938,
                -4.106601503
              ],
              [
                138.966282884,
                -4.107127927
              ],
              [
                138.96639371,
                -4.107709763
              ],
              [
                138.966255177,
                -4.108305452
              ],
              [
                138.965950406,
                -4.108831875
              ],
              [
                138.965451689,
                -4.109261327
              ],
              [
                138.965027433,
                -4.109585146
              ],
              [
                138.964362477,
                -4.109862211
              ],
              [
                138.96394688,
                -4.110139275
              ],
              [
                138.963752935,
                -4.110277808
              ],
              [
                138.963642108,
                -4.11058258
              ],
              [
                138.96362444,
                -4.110732768
              ],
              [
                138.963588132,
                -4.110785645
              ],
              [
                138.963501786,
                -4.11101507
              ],
              [
                138.963501075,
                -4.111294948
              ],
              [
                138.963678529,
                -4.111776224
              ],
              [
                138.963835234,
                -4.112129647
              ],
              [
                138.96384889,
                -4.112235951
              ],
              [
                138.963940033,
                -4.112932299
              ],
              [
                138.964216762,
                -4.113722415
              ],
              [
                138.964590407,
                -4.11453411
              ],
              [
                138.964880275,
                -4.114871936
              ],
              [
                138.965250389,
                -4.115409338
              ],
              [
                138.966048694,
                -4.116796048
              ],
              [
                138.966534965,
                -4.11795726
              ],
              [
                138.966566608,
                -4.118638259
              ],
              [
                138.966144324,
                -4.11898095
              ],
              [
                138.965383143,
                -4.119382099
              ],
              [
                138.964933157,
                -4.119838454
              ],
              [
                138.964626888,
                -4.120776579
              ],
              [
                138.964490114,
                -4.121279132
              ],
              [
                138.964340333,
                -4.121210379
              ],
              [
                138.964290905,
                -4.12118769
              ],
              [
                138.964091993,
                -4.12109855
              ],
              [
                138.964012427,
                -4.121062895
              ],
              [
                138.963799937,
                -4.12093158
              ],
              [
                138.963693691,
                -4.120865922
              ],
              [
                138.963666358,
                -4.120850889
              ],
              [
                138.963265464,
                -4.120630394
              ],
              [
                138.963071892,
                -4.120530601
              ],
              [
                138.963032297,
                -4.120510188
              ],
              [
                138.962808491,
                -4.120456986
              ],
              [
                138.962701291,
                -4.120454319
              ],
              [
                138.962536835,
                -4.120482603
              ],
              [
                138.962436553,
                -4.120477837
              ],
              [
                138.962377236,
                -4.120475017
              ],
              [
                138.962350857,
                -4.120464344
              ],
              [
                138.962291506,
                -4.120440328
              ],
              [
                138.962291505,
                -4.120440328
              ],
              [
                138.962284097,
                -4.120437331
              ],
              [
                138.962282039,
                -4.120436498
              ],
              [
                138.962275728,
                -4.120429657
              ],
              [
                138.962264368,
                -4.120417342
              ],
              [
                138.962217893,
                -4.120366961
              ],
              [
                138.962153569,
                -4.120366796
              ],
              [
                138.962084316,
                -4.120431207
              ],
              [
                138.962003274,
                -4.120447743
              ],
              [
                138.961941345,
                -4.1204428
              ],
              [
                138.961846044,
                -4.120444947
              ],
              [
                138.961764971,
                -4.120473445
              ],
              [
                138.96166002,
                -4.12052341
              ],
              [
                138.961581238,
                -4.120587796
              ],
              [
                138.96153576,
                -4.120671404
              ],
              [
                138.961406571,
                -4.120883972
              ],
              [
                138.961339603,
                -4.120986662
              ],
              [
                138.961251212,
                -4.121082121
              ],
              [
                138.961100837,
                -4.121194166
              ],
              [
                138.960981598,
                -4.121241702
              ],
              [
                138.960795573,
                -4.121320165
              ],
              [
                138.960602365,
                -4.121412962
              ],
              [
                138.960557076,
                -4.121422414
              ],
              [
                138.960361448,
                -4.121529557
              ],
              [
                138.960320796,
                -4.121589256
              ],
              [
                138.960284786,
                -4.12169681
              ],
              [
                138.960201239,
                -4.121761183
              ],
              [
                138.960134613,
                -4.121729913
              ],
              [
                138.960089323,
                -4.121739365
              ],
              [
                138.96008206,
                -4.121784797
              ],
              [
                138.960089073,
                -4.121837443
              ],
              [
                138.960081859,
                -4.121863737
              ],
              [
                138.960034102,
                -4.121906674
              ],
              [
                138.959991098,
                -4.121954405
              ],
              [
                138.959948155,
                -4.121978216
              ],
              [
                138.95994328,
                -4.122021263
              ],
              [
                138.959957446,
                -4.122071533
              ],
              [
                138.960004965,
                -4.122121891
              ],
              [
                138.960021532,
                -4.122164992
              ],
              [
                138.960004764,
                -4.122200831
              ],
              [
                138.959940306,
                -4.122253293
              ],
              [
                138.959863735,
                -4.122384663
              ],
              [
                138.959796797,
                -4.122475392
              ],
              [
                138.959746542,
                -4.122563772
              ],
              [
                138.95961762,
                -4.122671086
              ],
              [
                138.959448224,
                -4.122768728
              ],
              [
                138.959340804,
                -4.122852177
              ],
              [
                138.959199843,
                -4.123009695
              ],
              [
                138.959085148,
                -4.12314336
              ],
              [
                138.959032589,
                -4.123200636
              ],
              [
                138.959027709,
                -4.123246074
              ],
              [
                138.959034679,
                -4.123315464
              ],
              [
                138.959053518,
                -4.123401629
              ],
              [
                138.958999906,
                -4.123405079
              ],
              [
                138.958921206,
                -4.123437171
              ],
              [
                138.958846052,
                -4.123480036
              ],
              [
                138.958777999,
                -4.12354086
              ],
              [
                138.95873858,
                -4.123583817
              ],
              [
                138.958691968,
                -4.123644697
              ],
              [
                138.958659678,
                -4.123694848
              ],
              [
                138.958602356,
                -4.123752112
              ],
              [
                138.958541477,
                -4.12380219
              ],
              [
                138.958466377,
                -4.123823526
              ],
              [
                138.958384196,
                -4.123819727
              ],
              [
                138.958335305,
                -4.123805564
              ],
              [
                138.958334203,
                -4.123805244
              ],
              [
                138.958294985,
                -4.123769261
              ],
              [
                138.958248667,
                -4.12371532
              ],
              [
                138.958209422,
                -4.123690101
              ],
              [
                138.958152374,
                -4.123639719
              ],
              [
                138.958059682,
                -4.123553364
              ],
              [
                138.95796327,
                -4.12352441
              ],
              [
                138.957856028,
                -4.123538487
              ],
              [
                138.957791539,
                -4.123602909
              ],
              [
                138.957734152,
                -4.123685289
              ],
              [
                138.957641084,
                -4.123746049
              ],
              [
                138.957555256,
                -4.123770945
              ],
              [
                138.957462289,
                -4.123792235
              ],
              [
                138.957380015,
                -4.123824318
              ],
              [
                138.957304824,
                -4.123881535
              ],
              [
                138.957258166,
                -4.123960355
              ],
              [
                138.957218647,
                -4.124042782
              ],
              [
                138.957139827,
                -4.124121519
              ],
              [
                138.957093307,
                -4.124146516
              ],
              [
                138.95698972,
                -4.124128309
              ],
              [
                138.956936182,
                -4.124103054
              ],
              [
                138.956875459,
                -4.124092133
              ],
              [
                138.95681108,
                -4.124113496
              ],
              [
                138.95674322,
                -4.124098969
              ],
              [
                138.95666813,
                -4.124116716
              ],
              [
                138.956575035,
                -4.12418824
              ],
              [
                138.956464062,
                -4.124263306
              ],
              [
                138.956335232,
                -4.124334738
              ],
              [
                138.956224333,
                -4.124381099
              ],
              [
                138.95614928,
                -4.124384494
              ],
              [
                138.95609565,
                -4.12439512
              ],
              [
                138.956074107,
                -4.124434535
              ],
              [
                138.956073906,
                -4.124513475
              ],
              [
                138.956126351,
                -4.12455465
              ],
              [
                138.956126351,
                -4.12455465
              ],
              [
                138.95613276,
                -4.124559682
              ],
              [
                138.956138101,
                -4.124563875
              ],
              [
                138.95613826,
                -4.124566718
              ],
              [
                138.956138642,
                -4.12457354
              ],
              [
                138.956138642,
                -4.12457354
              ],
              [
                138.956141519,
                -4.124624883
              ],
              [
                138.956111567,
                -4.124654803
              ],
              [
                138.956102108,
                -4.124664252
              ],
              [
                138.956026973,
                -4.124699939
              ],
              [
                138.955932969,
                -4.124736844
              ],
              [
                138.955908927,
                -4.124746282
              ],
              [
                138.955826726,
                -4.124749659
              ],
              [
                138.95577085,
                -4.124765213
              ],
              [
                138.955737324,
                -4.124774546
              ],
              [
                138.955721197,
                -4.124792445
              ],
              [
                138.95570507,
                -4.124810344
              ],
              [
                138.955704951,
                -4.12485699
              ],
              [
                138.955733338,
                -4.124936004
              ],
              [
                138.955765362,
                -4.124989909
              ],
              [
                138.955774829,
                -4.125014386
              ],
              [
                138.955797313,
                -4.12507252
              ],
              [
                138.955814131,
                -4.125133435
              ],
              [
                138.955822098,
                -4.125162289
              ],
              [
                138.955871833,
                -4.12527724
              ],
              [
                138.955806243,
                -4.125306972
              ],
              [
                138.955743668,
                -4.125321762
              ],
              [
                138.955681446,
                -4.125360809
              ],
              [
                138.955639271,
                -4.125387276
              ],
              [
                138.955537975,
                -4.125404956
              ],
              [
                138.955475323,
                -4.125449647
              ],
              [
                138.955382678,
                -4.125577985
              ],
              [
                138.955369875,
                -4.125586232
              ],
              [
                138.955290209,
                -4.12563755
              ],
              [
                138.955223562,
                -4.125669644
              ],
              [
                138.955203742,
                -4.125679189
              ],
              [
                138.955155934,
                -4.125741859
              ],
              [
                138.955105163,
                -4.125798542
              ],
              [
                138.955093146,
                -4.125803276
              ],
              [
                138.954976982,
                -4.125849043
              ],
              [
                138.954842152,
                -4.125930309
              ],
              [
                138.954818905,
                -4.125944321
              ],
              [
                138.954810856,
                -4.125941266
              ],
              [
                138.954747504,
                -4.125917225
              ],
              [
                138.954601638,
                -4.125895918
              ],
              [
                138.954531071,
                -4.125879683
              ],
              [
                138.954443898,
                -4.125859628
              ],
              [
                138.954399321,
                -4.125823631
              ],
              [
                138.954289076,
                -4.12584727
              ],
              [
                138.954235773,
                -4.125828123
              ],
              [
                138.954213776,
                -4.125768758
              ],
              [
                138.954213767,
                -4.125768753
              ],
              [
                138.954171508,
                -4.125745765
              ],
              [
                138.954161354,
                -4.125718362
              ],
              [
                138.954084034,
                -4.125676301
              ],
              [
                138.95401254,
                -4.125685087
              ],
              [
                138.953976675,
                -4.125735827
              ],
              [
                138.953973506,
                -4.125810573
              ],
              [
                138.953860359,
                -4.125804301
              ],
              [
                138.95377199,
                -4.125772558
              ],
              [
                138.953769592,
                -4.125771697
              ],
              [
                138.953768127,
                -4.12577117
              ],
              [
                138.953705751,
                -4.125708217
              ],
              [
                138.953698265,
                -4.125696121
              ],
              [
                138.953692815,
                -4.125687315
              ],
              [
                138.953661265,
                -4.125636338
              ],
              [
                138.953562986,
                -4.125639074
              ],
              [
                138.953482474,
                -4.125680729
              ],
              [
                138.953393021,
                -4.12572535
              ],
              [
                138.953351184,
                -4.125782055
              ],
              [
                138.953303392,
                -4.125838744
              ],
              [
                138.953193193,
                -4.125844441
              ],
              [
                138.953086063,
                -4.125814262
              ],
              [
                138.952996618,
                -4.125855894
              ],
              [
                138.952919183,
                -4.125858684
              ],
              [
                138.952829754,
                -4.125894335
              ],
              [
                138.952716446,
                -4.125950855
              ],
              [
                138.952653787,
                -4.125998536
              ],
              [
                138.952555354,
                -4.126061075
              ],
              [
                138.952457021,
                -4.126084742
              ],
              [
                138.952349784,
                -4.126096426
              ],
              [
                138.952236515,
                -4.126137995
              ],
              [
                138.952167777,
                -4.126233503
              ],
              [
                138.95209309,
                -4.126326005
              ],
              [
                138.952030416,
                -4.126379666
              ],
              [
                138.951884428,
                -4.1264062
              ],
              [
                138.951821968,
                -4.126376137
              ],
              [
                138.951791147,
                -4.126352096
              ],
              [
                138.951779326,
                -4.126336583
              ],
              [
                138.951743736,
                -4.126279678
              ],
              [
                138.951734414,
                -4.12626513
              ],
              [
                138.951711108,
                -4.126228761
              ],
              [
                138.951711108,
                -4.126228761
              ],
              [
                138.951688358,
                -4.126224669
              ],
              [
                138.951658686,
                -4.126178365
              ],
              [
                138.951557483,
                -4.126160162
              ],
              [
                138.951471394,
                -4.126183196
              ],
              [
                138.951402523,
                -4.126201624
              ],
              [
                138.951386805,
                -4.126215897
              ],
              [
                138.951336854,
                -4.126261257
              ],
              [
                138.951274687,
                -4.126265554
              ],
              [
                138.951255968,
                -4.126225611
              ],
              [
                138.951255491,
                -4.126224593
              ],
              [
                138.951255491,
                -4.126224593
              ],
              [
                138.951254886,
                -4.126223282
              ],
              [
                138.951234761,
                -4.126179687
              ],
              [
                138.951203045,
                -4.126174143
              ],
              [
                138.951182339,
                -4.126129291
              ],
              [
                138.951078157,
                -4.126111081
              ],
              [
                138.951000662,
                -4.126137792
              ],
              [
                138.950961771,
                -4.126123478
              ],
              [
                138.950955935,
                -4.12612133
              ],
              [
                138.950935209,
                -4.126113701
              ],
              [
                138.950893185,
                -4.126047691
              ],
              [
                138.95088182,
                -4.126029839
              ],
              [
                138.950859477,
                -4.12599223
              ],
              [
                138.950828447,
                -4.125939997
              ],
              [
                138.950788428,
                -4.125859109
              ],
              [
                138.950788427,
                -4.125859108
              ],
              [
                138.950769195,
                -4.125820237
              ],
              [
                138.950688859,
                -4.125792341
              ],
              [
                138.950612798,
                -4.12576593
              ],
              [
                138.950458684,
                -4.125754234
              ],
              [
                138.950464471,
                -4.125829097
              ],
              [
                138.950464326,
                -4.12588591
              ],
              [
                138.950446251,
                -4.125966597
              ],
              [
                138.950413379,
                -4.126011364
              ],
              [
                138.950356782,
                -4.126017198
              ],
              [
                138.950303226,
                -4.125999119
              ],
              [
                138.950240811,
                -4.125951115
              ],
              [
                138.950190187,
                -4.125950984
              ],
              [
                138.950160369,
                -4.125965857
              ],
              [
                138.950106705,
                -4.12598964
              ],
              [
                138.950029962,
                -4.125966448
              ],
              [
                138.949978169,
                -4.125945951
              ],
              [
                138.949952227,
                -4.126004927
              ],
              [
                138.949891701,
                -4.125987589
              ],
              [
                138.949829218,
                -4.125966497
              ],
              [
                138.949775699,
                -4.125933466
              ],
              [
                138.949749044,
                -4.125876584
              ],
              [
                138.94973133,
                -4.125816736
              ],
              [
                138.949696343,
                -4.12575744
              ],
              [
                138.949677369,
                -4.125723901
              ],
              [
                138.949579662,
                -4.125735609
              ],
              [
                138.94953188,
                -4.125788113
              ],
              [
                138.949477062,
                -4.125797539
              ],
              [
                138.949434278,
                -4.125759154
              ],
              [
                138.94938208,
                -4.125675296
              ],
              [
                138.949322651,
                -4.125624907
              ],
              [
                138.949244095,
                -4.125600783
              ],
              [
                138.94917018,
                -4.125624512
              ],
              [
                138.949124683,
                -4.125715296
              ],
              [
                138.949088733,
                -4.125798927
              ],
              [
                138.949060003,
                -4.125853871
              ],
              [
                138.948990804,
                -4.12589675
              ],
              [
                138.948878816,
                -4.125903636
              ],
              [
                138.948778696,
                -4.125927299
              ],
              [
                138.948716644,
                -4.125970196
              ],
              [
                138.948611809,
                -4.125974709
              ],
              [
                138.948545005,
                -4.12601281
              ],
              [
                138.94846161,
                -4.126017379
              ],
              [
                138.948361595,
                -4.126000376
              ],
              [
                138.948278083,
                -4.126050394
              ],
              [
                138.948223179,
                -4.126093309
              ],
              [
                138.948127885,
                -4.126093063
              ],
              [
                138.948032518,
                -4.126121522
              ],
              [
                138.94793944,
                -4.126185868
              ],
              [
                138.947867853,
                -4.126231133
              ],
              [
                138.947786614,
                -4.126324215
              ],
              [
                138.947715057,
                -4.12635752
              ],
              [
                138.947638798,
                -4.12636689
              ],
              [
                138.947531475,
                -4.126412063
              ],
              [
                138.947457487,
                -4.126464498
              ],
              [
                138.94740491,
                -4.126528949
              ],
              [
                138.947364299,
                -4.126571902
              ],
              [
                138.947311796,
                -4.126607648
              ],
              [
                138.947228389,
                -4.126617001
              ],
              [
                138.94709507,
                -4.126580773
              ],
              [
                138.946940395,
                -4.126511002
              ],
              [
                138.946852457,
                -4.126429442
              ],
              [
                138.946802686,
                -4.126328844
              ],
              [
                138.946764863,
                -4.126213925
              ],
              [
                138.946731744,
                -4.126122939
              ],
              [
                138.946703212,
                -4.126101336
              ],
              [
                138.946629519,
                -4.126038949
              ],
              [
                138.946515203,
                -4.126024301
              ],
              [
                138.946407924,
                -4.126052728
              ],
              [
                138.946267169,
                -4.126128911
              ],
              [
                138.94619094,
                -4.126126322
              ],
              [
                138.946112489,
                -4.126061531
              ],
              [
                138.9460009,
                -4.125912931
              ],
              [
                138.945936816,
                -4.125819472
              ],
              [
                138.945856025,
                -4.125737931
              ],
              [
                138.945784653,
                -4.125699472
              ],
              [
                138.945696384,
                -4.125747086
              ],
              [
                138.945641325,
                -4.125849804
              ],
              [
                138.945479053,
                -4.125955832
              ],
              [
                138.945332317,
                -4.126041568
              ],
              [
                138.945227626,
                -4.126084669
              ],
              [
                138.945025821,
                -4.125028015
              ],
              [
                138.944417086,
                -4.123541858
              ],
              [
                138.942778284,
                -4.121292567
              ],
              [
                138.940621885,
                -4.119662192
              ],
              [
                138.938621697,
                -4.118069148
              ],
              [
                138.936298976,
                -4.116810121
              ],
              [
                138.931550988,
                -4.114727366
              ],
              [
                138.928354429,
                -4.111660063
              ],
              [
                138.927370357,
                -4.111041167
              ],
              [
                138.927079432,
                -4.11083403
              ],
              [
                138.926255188,
                -4.110068661
              ],
              [
                138.925313195,
                -4.109303292
              ],
              [
                138.922663839,
                -4.107713679
              ],
              [
                138.920191108,
                -4.106536187
              ],
              [
                138.916953007,
                -4.10541757
              ],
              [
                138.912655164,
                -4.104240079
              ],
              [
                138.904118353,
                -4.101590725
              ],
              [
                138.89699453,
                -4.098293749
              ],
              [
                138.892478511,
                -4.096386987
              ],
              [
                138.893139111,
                -4.095844186
              ],
              [
                138.894169162,
                -4.094945414
              ],
              [
                138.894649572,
                -4.094191622
              ],
              [
                138.895212484,
                -4.09330838
              ],
              [
                138.895656465,
                -4.092611744
              ],
              [
                138.896412187,
                -4.091425964
              ],
              [
                138.897318231,
                -4.091041564
              ],
              [
                138.89814775,
                -4.090689629
              ],
              [
                138.898422718,
                -4.090080326
              ],
              [
                138.899559478,
                -4.090597583
              ],
              [
                138.900454455,
                -4.09100482
              ],
              [
                138.901968182,
                -4.091112031
              ],
              [
                138.902740858,
                -4.090425985
              ],
              [
                138.903549158,
                -4.089708305
              ],
              [
                138.904633209,
                -4.089778095
              ],
              [
                138.905921774,
                -4.090434322
              ],
              [
                138.907043382,
                -4.09100552
              ],
              [
                138.908244827,
                -4.090864698
              ],
              [
                138.909102621,
                -4.090764156
              ],
              [
                138.909908546,
                -4.090669691
              ],
              [
                138.911041308,
                -4.090536917
              ],
              [
                138.912146541,
                -4.091485317
              ],
              [
                138.91314235,
                -4.092339817
              ],
              [
                138.914384078,
                -4.092480888
              ],
              [
                138.915508234,
                -4.092608602
              ],
              [
                138.917000254,
                -4.092213247
              ],
              [
                138.917655794,
                -4.092039542
              ],
              [
                138.91832829,
                -4.091861342
              ],
              [
                138.918792676,
                -4.091368787
              ],
              [
                138.919451759,
                -4.09044731
              ],
              [
                138.920701699,
                -4.089593311
              ],
              [
                138.922212958,
                -4.089267527
              ],
              [
                138.923463743,
                -4.088083811
              ],
              [
                138.924845187,
                -4.087164199
              ],
              [
                138.926422112,
                -4.086838574
              ],
              [
                138.92832688,
                -4.086711622
              ],
              [
                138.929643157,
                -4.085594002
              ],
              [
                138.930302393,
                -4.084606565
              ],
              [
                138.931487999,
                -4.083224829
              ],
              [
                138.931495765,
                -4.080191479
              ],
              [
                138.933471922,
                -4.077822632
              ],
              [
                138.934196141,
                -4.077099125
              ],
              [
                138.934657174,
                -4.076572769
              ],
              [
                138.935315551,
                -4.075915033
              ],
              [
                138.936039597,
                -4.075257466
              ],
              [
                138.93702716,
                -4.074270859
              ],
              [
                138.938014384,
                -4.073416135
              ],
              [
                138.938278572,
                -4.072823325
              ],
              [
                138.937492557,
                -4.07202999
              ],
              [
                138.938150927,
                -4.071372249
              ],
              [
                138.938939461,
                -4.071176443
              ],
              [
                138.940056173,
                -4.071047421
              ],
              [
                138.940713704,
                -4.070719391
              ],
              [
                138.941437908,
                -4.069995871
              ],
              [
                138.942030941,
                -4.069206071
              ],
              [
                138.942885478,
                -4.068878542
              ],
              [
                138.943805348,
                -4.068683065
              ],
              [
                138.94459388,
                -4.068487252
              ],
              [
                138.945775759,
                -4.068556216
              ],
              [
                138.946498455,
                -4.068426176
              ],
              [
                138.947418493,
                -4.068164752
              ],
              [
                138.948273362,
                -4.067705329
              ],
              [
                138.949324072,
                -4.06770801
              ],
              [
                138.950571289,
                -4.067909021
              ],
              [
                138.951002081,
                -4.068039995
              ],
              [
                138.950823058,
                -4.068732844
              ],
              [
                138.950366541,
                -4.070274602
              ],
              [
                138.949970756,
                -4.071350048
              ],
              [
                138.949586972,
                -4.072389643
              ],
              [
                138.949191366,
                -4.073393325
              ],
              [
                138.94879588,
                -4.074349164
              ],
              [
                138.948747241,
                -4.074476212
              ],
              [
                138.948702096,
                -4.074604555
              ],
              [
                138.948652659,
                -4.074759889
              ],
              [
                138.94860834,
                -4.074916773
              ],
              [
                138.948569189,
                -4.075075037
              ],
              [
                138.948535247,
                -4.075234509
              ],
              [
                138.948506551,
                -4.075395017
              ],
              [
                138.948483132,
                -4.075556386
              ],
              [
                138.948474592,
                -4.075644678
              ],
              [
                138.94847246,
                -4.07573336
              ],
              [
                138.948476746,
                -4.075821963
              ],
              [
                138.94848743,
                -4.07591002
              ],
              [
                138.948504453,
                -4.075997065
              ],
              [
                138.948527727,
                -4.076082639
              ],
              [
                138.948557128,
                -4.076166289
              ],
              [
                138.948592501,
                -4.076247575
              ],
              [
                138.948633659,
                -4.076326067
              ],
              [
                138.948680385,
                -4.076401349
              ],
              [
                138.948732432,
                -4.076473026
              ],
              [
                138.948789525,
                -4.076540718
              ],
              [
                138.948851364,
                -4.076604068
              ],
              [
                138.948909452,
                -4.076655961
              ],
              [
                138.948958952,
                -4.076695271
              ],
              [
                138.949010417,
                -4.076731947
              ],
              [
                138.949063708,
                -4.076765893
              ],
              [
                138.949188392,
                -4.0767978
              ],
              [
                138.949314602,
                -4.076822938
              ],
              [
                138.949441975,
                -4.076841235
              ],
              [
                138.949570142,
                -4.076852637
              ],
              [
                138.949698733,
                -4.076857112
              ],
              [
                138.949827379,
                -4.076854647
              ],
              [
                138.949955707,
                -4.076845249
              ],
              [
                138.950071475,
                -4.076830758
              ],
              [
                138.950186403,
                -4.076810624
              ],
              [
                138.950300218,
                -4.076784895
              ],
              [
                138.950412651,
                -4.076753632
              ],
              [
                138.950523434,
                -4.076716909
              ],
              [
                138.950632306,
                -4.076674813
              ],
              [
                138.950739007,
                -4.076627444
              ],
              [
                138.950843285,
                -4.076574914
              ],
              [
                138.950944892,
                -4.076517348
              ],
              [
                138.951053973,
                -4.07644602
              ],
              [
                138.951159251,
                -4.076369145
              ],
              [
                138.951260446,
                -4.076286927
              ],
              [
                138.951357289,
                -4.076199585
              ],
              [
                138.951449524,
                -4.07610735
              ],
              [
                138.951536906,
                -4.076010467
              ],
              [
                138.951619202,
                -4.075909193
              ],
              [
                138.951696195,
                -4.075803798
              ],
              [
                138.95176768,
                -4.07569456
              ],
              [
                138.951823192,
                -4.075600292
              ],
              [
                138.9518746,
                -4.075503706
              ],
              [
                138.95192181,
                -4.075404982
              ],
              [
                138.951969307,
                -4.07529282
              ],
              [
                138.952011384,
                -4.075178497
              ],
              [
                138.952047946,
                -4.075062277
              ],
              [
                138.952078906,
                -4.074944427
              ],
              [
                138.952104194,
                -4.074825221
              ],
              [
                138.952211607,
                -4.074555188
              ],
              [
                138.952325618,
                -4.074287896
              ],
              [
                138.952446157,
                -4.074023509
              ],
              [
                138.952573152,
                -4.073762186
              ],
              [
                138.952706524,
                -4.073504087
              ],
              [
                138.952845401,
                -4.073313878
              ],
              [
                138.952989752,
                -4.073127823
              ],
              [
                138.953139452,
                -4.072946081
              ],
              [
                138.953294374,
                -4.072768807
              ],
              [
                138.953454387,
                -4.072596153
              ],
              [
                138.953619353,
                -4.072428266
              ],
              [
                138.953789133,
                -4.072265288
              ],
              [
                138.95396358,
                -4.072107359
              ],
              [
                138.954142546,
                -4.071954614
              ],
              [
                138.954885586,
                -4.071459254
              ],
              [
                138.95500228,
                -4.071372933
              ],
              [
                138.95512303,
                -4.071292433
              ],
              [
                138.955247548,
                -4.071217946
              ],
              [
                138.955284374,
                -4.071197466
              ],
              [
                138.955403746,
                -4.071135659
              ],
              [
                138.95552578,
                -4.071079335
              ],
              [
                138.955650225,
                -4.071028611
              ],
              [
                138.955725279,
                -4.071004714
              ],
              [
                138.955802106,
                -4.070987408
              ],
              [
                138.955880133,
                -4.070976822
              ],
              [
                138.955958779,
                -4.070973035
              ],
              [
                138.956037457,
                -4.070976075
              ],
              [
                138.95611558,
                -4.07098592
              ],
              [
                138.956192567,
                -4.071002496
              ],
              [
                138.956267842,
                -4.071025679
              ],
              [
                138.956340845,
                -4.071055298
              ],
              [
                138.956411031,
                -4.07109113
              ],
              [
                138.956477877,
                -4.071132908
              ],
              [
                138.956540884,
                -4.071180322
              ],
              [
                138.956599583,
                -4.071233017
              ],
              [
                138.956653536,
                -4.071290601
              ],
              [
                138.95670234,
                -4.071352645
              ],
              [
                138.956821732,
                -4.07131525
              ],
              [
                138.957028171,
                -4.07129539
              ],
              [
                138.957238003,
                -4.071272141
              ],
              [
                138.957464692,
                -4.071272717
              ],
              [
                138.957630428,
                -4.071293524
              ],
              [
                138.957806373,
                -4.071290574
              ],
              [
                138.957951989,
                -4.071239981
              ],
              [
                138.958073835,
                -4.071223303
              ],
              [
                138.958202361,
                -4.071240617
              ],
              [
                138.958334349,
                -4.071227362
              ],
              [
                138.958432605,
                -4.071173252
              ],
              [
                138.958460024,
                -4.071034023
              ],
              [
                138.958477343,
                -4.070874383
              ],
              [
                138.958352816,
                -4.070612456
              ],
              [
                138.958244864,
                -4.070486474
              ],
              [
                138.958096259,
                -4.070380773
              ],
              [
                138.958001635,
                -4.070336365
              ],
              [
                138.957910376,
                -4.070298759
              ],
              [
                138.957831404,
                -4.07029082
              ],
              [
                138.957703349,
                -4.070223511
              ],
              [
                138.957655825,
                -4.070175548
              ],
              [
                138.957632184,
                -4.070103723
              ],
              [
                138.957632365,
                -4.07003196
              ],
              [
                138.957642075,
                -4.06996022
              ],
              [
                138.957675594,
                -4.069893326
              ],
              [
                138.95778139,
                -4.069861771
              ],
              [
                138.95790134,
                -4.069857058
              ],
              [
                138.958073722,
                -4.069925447
              ],
              [
                138.958147986,
                -4.069993586
              ],
              [
                138.958296753,
                -4.070034734
              ],
              [
                138.958503269,
                -4.069984297
              ],
              [
                138.958723397,
                -4.069903315
              ],
              [
                138.958926692,
                -4.069788315
              ],
              [
                138.959133654,
                -4.069561206
              ],
              [
                138.959374466,
                -4.069327388
              ],
              [
                138.959540655,
                -4.069168126
              ],
              [
                138.959666124,
                -4.069056326
              ],
              [
                138.959798256,
                -4.068985313
              ],
              [
                138.959939251,
                -4.068922815
              ],
              [
                138.959979349,
                -4.068884909
              ],
              [
                138.960060477,
                -4.068832489
              ],
              [
                138.96015112,
                -4.068784876
              ],
              [
                138.960255902,
                -4.068799494
              ],
              [
                138.960346184,
                -4.06889541
              ],
              [
                138.960360176,
                -4.069015052
              ],
              [
                138.960331325,
                -4.069120233
              ],
              [
                138.96030725,
                -4.069220642
              ],
              [
                138.96023073,
                -4.069335271
              ],
              [
                138.960130377,
                -4.069454622
              ],
              [
                138.960010906,
                -4.069597848
              ],
              [
                138.959936165,
                -4.069728887
              ],
              [
                138.959901141,
                -4.069780596
              ],
              [
                138.959870442,
                -4.069879047
              ],
              [
                138.959904044,
                -4.069970866
              ],
              [
                138.959951292,
                -4.070018551
              ],
              [
                138.960012032,
                -4.070083259
              ],
              [
                138.960093096,
                -4.070137825
              ],
              [
                138.960180886,
                -4.070209396
              ],
              [
                138.960342018,
                -4.070311388
              ],
              [
                138.960542399,
                -4.070441231
              ],
              [
                138.960680458,
                -4.07048464
              ],
              [
                138.960813826,
                -4.070499331
              ],
              [
                138.960909186,
                -4.070470867
              ],
              [
                138.960971268,
                -4.070413613
              ],
              [
                138.960995307,
                -4.070327557
              ],
              [
                138.960995583,
                -4.070217519
              ],
              [
                138.960977031,
                -4.070016532
              ],
              [
                138.960948794,
                -4.069877716
              ],
              [
                138.960939554,
                -4.06976287
              ],
              [
                138.960959106,
                -4.069566764
              ],
              [
                138.961002575,
                -4.069332444
              ],
              [
                138.961069794,
                -4.069126891
              ],
              [
                138.9611322,
                -4.068940463
              ],
              [
                138.961242275,
                -4.068744585
              ],
              [
                138.961351988,
                -4.068692237
              ],
              [
                138.961509346,
                -4.068640009
              ],
              [
                138.961671335,
                -4.068640419
              ],
              [
                138.961914235,
                -4.068674526
              ],
              [
                138.962085489,
                -4.068780214
              ],
              [
                138.962180657,
                -4.068828298
              ],
              [
                138.96223286,
                -4.068909763
              ],
              [
                138.962256418,
                -4.069015078
              ],
              [
                138.962227567,
                -4.069120258
              ],
              [
                138.96220354,
                -4.069201531
              ],
              [
                138.962184314,
                -4.069268462
              ],
              [
                138.962188753,
                -4.069397649
              ],
              [
                138.96222184,
                -4.069502987
              ],
              [
                138.962288301,
                -4.069598841
              ],
              [
                138.962359526,
                -4.069694708
              ],
              [
                138.962459483,
                -4.069733235
              ],
              [
                138.962578545,
                -4.069752674
              ],
              [
                138.96273109,
                -4.069719571
              ],
              [
                138.962869522,
                -4.069614668
              ],
              [
                138.962965231,
                -4.06944746
              ],
              [
                138.963099331,
                -4.069170311
              ],
              [
                138.963190397,
                -4.068955249
              ],
              [
                138.963248086,
                -4.068749671
              ],
              [
                138.963248531,
                -4.068572653
              ],
              [
                138.963187195,
                -4.068333283
              ],
              [
                138.963116114,
                -4.068180006
              ],
              [
                138.96296879,
                -4.068031319
              ],
              [
                138.962864093,
                -4.067983211
              ],
              [
                138.962726035,
                -4.067939803
              ],
              [
                138.962556413,
                -4.067896764
              ],
              [
                138.96235658,
                -4.067705257
              ],
              [
                138.962379003,
                -4.067632729
              ],
              [
                138.962464931,
                -4.067565966
              ],
              [
                138.962641417,
                -4.067485081
              ],
              [
                138.962774989,
                -4.06741844
              ],
              [
                138.96290868,
                -4.067303956
              ],
              [
                138.962970942,
                -4.067174937
              ],
              [
                138.96299024,
                -4.0670793
              ],
              [
                138.962999949,
                -4.06700756
              ],
              [
                138.963037981,
                -4.066943009
              ],
              [
                138.963123886,
                -4.066901458
              ],
              [
                138.963183479,
                -4.066886657
              ],
              [
                138.963263878,
                -4.066886861
              ],
              [
                138.96335606,
                -4.066937928
              ],
              [
                138.963388681,
                -4.066991834
              ],
              [
                138.963394554,
                -4.067024741
              ],
              [
                138.963378689,
                -4.067119968
              ],
              [
                138.96336434,
                -4.067198094
              ],
              [
                138.963369943,
                -4.067338647
              ],
              [
                138.96339948,
                -4.067434408
              ],
              [
                138.963458622,
                -4.067599018
              ],
              [
                138.963532675,
                -4.067754694
              ],
              [
                138.963612728,
                -4.067892446
              ],
              [
                138.963705099,
                -4.067994726
              ],
              [
                138.963757857,
                -4.068203792
              ],
              [
                138.963781251,
                -4.068374292
              ],
              [
                138.963798712,
                -4.068535806
              ],
              [
                138.963795314,
                -4.068703247
              ],
              [
                138.963812759,
                -4.068870742
              ],
              [
                138.963810232,
                -4.06908265
              ],
              [
                138.963808795,
                -4.069344344
              ],
              [
                138.963817987,
                -4.069478327
              ],
              [
                138.963841569,
                -4.069574072
              ],
              [
                138.96390335,
                -4.069636425
              ],
              [
                138.963984309,
                -4.069650983
              ],
              [
                138.964136938,
                -4.06958439
              ],
              [
                138.964261113,
                -4.069465097
              ],
              [
                138.964361358,
                -4.069388802
              ],
              [
                138.964485329,
                -4.069350841
              ],
              [
                138.964633014,
                -4.069356
              ],
              [
                138.964742499,
                -4.069394551
              ],
              [
                138.964875734,
                -4.069461869
              ],
              [
                138.964951688,
                -4.0695721
              ],
              [
                138.965051657,
                -4.069605843
              ],
              [
                138.96517558,
                -4.06958702
              ],
              [
                138.965309403,
                -4.069419908
              ],
              [
                138.96536696,
                -4.069266957
              ],
              [
                138.965367297,
                -4.069132997
              ],
              [
                138.965382131,
                -4.068917741
              ],
              [
                138.965420762,
                -4.068712114
              ],
              [
                138.965506978,
                -4.06853053
              ],
              [
                138.965621624,
                -4.068411212
              ],
              [
                138.965745643,
                -4.068354114
              ],
              [
                138.965917257,
                -4.068316274
              ],
              [
                138.966112598,
                -4.068316768
              ],
              [
                138.96624126,
                -4.068307526
              ],
              [
                138.966312895,
                -4.068240726
              ],
              [
                138.966375049,
                -4.068154766
              ],
              [
                138.966361019,
                -4.068049476
              ],
              [
                138.966294605,
                -4.067934484
              ],
              [
                138.966199689,
                -4.067785932
              ],
              [
                138.966152453,
                -4.067623146
              ],
              [
                138.966143525,
                -4.067383908
              ],
              [
                138.966196713,
                -4.067073063
              ],
              [
                138.9662833,
                -4.066743166
              ],
              [
                138.966388657,
                -4.066528139
              ],
              [
                138.966527136,
                -4.066404097
              ],
              [
                138.966722704,
                -4.06631369
              ],
              [
                138.966861016,
                -4.066256628
              ],
              [
                138.967023245,
                -4.066161351
              ],
              [
                138.967185582,
                -4.066023017
              ],
              [
                138.967276561,
                -4.065841444
              ],
              [
                138.967348459,
                -4.065669391
              ],
              [
                138.967434179,
                -4.065515525
              ],
              [
                138.967459293,
                -4.065461925
              ],
              [
                138.967505574,
                -4.065415684
              ],
              [
                138.96757294,
                -4.065398471
              ],
              [
                138.967638344,
                -4.065396705
              ],
              [
                138.967728658,
                -4.065433632
              ],
              [
                138.967791959,
                -4.065503328
              ],
              [
                138.967812949,
                -4.065570985
              ],
              [
                138.967826186,
                -4.065661802
              ],
              [
                138.967827921,
                -4.065737137
              ],
              [
                138.967827722,
                -4.06581633
              ],
              [
                138.967812107,
                -4.065907073
              ],
              [
                138.967796612,
                -4.065949528
              ],
              [
                138.967767493,
                -4.06605569
              ],
              [
                138.967747426,
                -4.066178244
              ],
              [
                138.967713807,
                -4.066273136
              ],
              [
                138.967694485,
                -4.066378342
              ],
              [
                138.967708575,
                -4.066459711
              ],
              [
                138.967751311,
                -4.06651723
              ],
              [
                138.967813176,
                -4.066546093
              ],
              [
                138.967922817,
                -4.066522447
              ],
              [
                138.968023038,
                -4.066455721
              ],
              [
                138.968175714,
                -4.066369989
              ],
              [
                138.968361909,
                -4.066217361
              ],
              [
                138.96853163,
                -4.066115251
              ]
            ]
          ]
        ]
      }
    }
  ]
}