{
  "type": "FeatureCollection",
  "features": [
    {
      "type": "Feature",
      "properties": {
        "idx": "1184",
        "nama_kewilayahan": "Kanayatn Julak"
      },
      "geometry": {
        "type": "Polygon",
        "coordinates": [
          [
            [
              109.301819524,
              0.658945777
            ],
            [
              109.301551894,
              0.659225181
            ],
            [
              109.301180406,
              0.659462369
            ],
            [
              109.301180356,
              0.659462377
            ],
            [
              109.300940932,
              0.659498389
            ],
            [
              109.300608823,
              0.659511275
            ],
            [
              109.300265485,
              0.659526417
            ],
            [
              109.299811536,
              0.659552684
            ],
            [
              109.299375611,
              0.659414554
            ],
            [
              109.299156661,
              0.659356898
            ],
            [
              109.298808855,
              0.659298985
            ],
            [
              109.298352768,
              0.659012341
            ],
            [
              109.297944074,
              0.658867437
            ],
            [
              109.297549149,
              0.658688342
            ],
            [
              109.297201367,
              0.658566421
            ],
            [
              109.296952965,
              0.658435632
            ],
            [
              109.296822158,
              0.658396447
            ],
            [
              109.296559158,
              0.658272365
            ],
            [
              109.296282095,
              0.658221542
            ],
            [
              109.296080566,
              0.658120017
            ],
            [
              109.295850928,
              0.658124532
            ],
            [
              109.295652225,
              0.657967689
            ],
            [
              109.295442562,
              0.657842637
            ],
            [
              109.295103792,
              0.657638482
            ],
            [
              109.295049625,
              0.657592681
            ],
            [
              109.294950554,
              0.657517051
            ],
            [
              109.294797032,
              0.657407066
            ],
            [
              109.29427107,
              0.657044873
            ],
            [
              109.294088961,
              0.656796331
            ],
            [
              109.293961538,
              0.656710871
            ],
            [
              109.293919221,
              0.65649714
            ],
            [
              109.293451856,
              0.656355324
            ],
            [
              109.293446863,
              0.656179968
            ],
            [
              109.29344691,
              0.656038313
            ],
            [
              109.293443301,
              0.655916793
            ],
            [
              109.293432393,
              0.655802549
            ],
            [
              109.293274758,
              0.655400211
            ],
            [
              109.293225102,
              0.65530411
            ],
            [
              109.293116816,
              0.65508456
            ],
            [
              109.293067461,
              0.654926851
            ],
            [
              109.292954682,
              0.654705042
            ],
            [
              109.292918835,
              0.654453724
            ],
            [
              109.292864995,
              0.654275383
            ],
            [
              109.292849312,
              0.654161137
            ],
            [
              109.29276347,
              0.653980526
            ],
            [
              109.292561623,
              0.653163243
            ],
            [
              109.292349506,
              0.652821293
            ],
            [
              109.292164676,
              0.652320811
            ],
            [
              109.291883059,
              0.651624526
            ],
            [
              109.291778688,
              0.651456272
            ],
            [
              109.291670944,
              0.651282576
            ],
            [
              109.290567279,
              0.650812092
            ],
            [
              109.290291634,
              0.650726512
            ],
            [
              109.28999832,
              0.650584191
            ],
            [
              109.289855161,
              0.650550866
            ],
            [
              109.289749896,
              0.650526455
            ],
            [
              109.289458512,
              0.650491455
            ],
            [
              109.289255296,
              0.650399611
            ],
            [
              109.289061061,
              0.650312363
            ],
            [
              109.288921287,
              0.650229796
            ],
            [
              109.28864119,
              0.65002121
            ],
            [
              109.288480366,
              0.64992599
            ],
            [
              109.288311681,
              0.649826316
            ],
            [
              109.288090498,
              0.649741246
            ],
            [
              109.287758746,
              0.649537166
            ],
            [
              109.287336608,
              0.649307693
            ],
            [
              109.287081482,
              0.649144897
            ],
            [
              109.286901028,
              0.648989122
            ],
            [
              109.286844962,
              0.648752143
            ],
            [
              109.286562606,
              0.648584041
            ],
            [
              109.286551206,
              0.648258904
            ],
            [
              109.286481891,
              0.648184133
            ],
            [
              109.286418862,
              0.647784229
            ],
            [
              109.286462216,
              0.647423505
            ],
            [
              109.286422233,
              0.646943706
            ],
            [
              109.286397598,
              0.646735844
            ],
            [
              109.286388967,
              0.646523396
            ],
            [
              109.286368797,
              0.646397703
            ],
            [
              109.286328157,
              0.646203471
            ],
            [
              109.286302348,
              0.64614553
            ],
            [
              109.286269809,
              0.646073102
            ],
            [
              109.286258089,
              0.645859027
            ],
            [
              109.286094998,
              0.64582612
            ],
            [
              109.286127585,
              0.645760357
            ],
            [
              109.285540258,
              0.645897784
            ],
            [
              109.285362035,
              0.645783127
            ],
            [
              109.285219726,
              0.645723381
            ],
            [
              109.284973576,
              0.645581148
            ],
            [
              109.284646322,
              0.645363364
            ],
            [
              109.284463615,
              0.645223626
            ],
            [
              109.284366515,
              0.6451297
            ],
            [
              109.284280074,
              0.645060998
            ],
            [
              109.28397787,
              0.644648934
            ],
            [
              109.283977921,
              0.644648897
            ],
            [
              109.284073059,
              0.644579377
            ],
            [
              109.284157312,
              0.644477738
            ],
            [
              109.284323318,
              0.644188978
            ],
            [
              109.284343153,
              0.64363431
            ],
            [
              109.284135236,
              0.643330586
            ],
            [
              109.284189655,
              0.642618663
            ],
            [
              109.284295092,
              0.642126125
            ],
            [
              109.284555714,
              0.64180073
            ],
            [
              109.284948535,
              0.640702957
            ],
            [
              109.284718992,
              0.64042812
            ],
            [
              109.284389009,
              0.639975073
            ],
            [
              109.284138878,
              0.639138842
            ],
            [
              109.284392671,
              0.63824591
            ],
            [
              109.284760849,
              0.637803975
            ],
            [
              109.285005436,
              0.637579249
            ],
            [
              109.285298362,
              0.637195644
            ],
            [
              109.28657281,
              0.636494374
            ],
            [
              109.286883889,
              0.635544445
            ],
            [
              109.286922724,
              0.635258252
            ],
            [
              109.287046629,
              0.634939592
            ],
            [
              109.28724883,
              0.634701143
            ],
            [
              109.28753808,
              0.634391086
            ],
            [
              109.287984824,
              0.634068574
            ],
            [
              109.288196245,
              0.633964294
            ],
            [
              109.288406833,
              0.633832319
            ],
            [
              109.288768227,
              0.633532953
            ],
            [
              109.289263824,
              0.633182975
            ],
            [
              109.289465683,
              0.633135917
            ],
            [
              109.289986188,
              0.633020081
            ],
            [
              109.290647103,
              0.632768646
            ],
            [
              109.290797326,
              0.632663495
            ],
            [
              109.29084478,
              0.632625643
            ],
            [
              109.290793148,
              0.632564161
            ],
            [
              109.290885298,
              0.632345315
            ],
            [
              109.290893746,
              0.632262729
            ],
            [
              109.290834008,
              0.632091312
            ],
            [
              109.290757468,
              0.631789891
            ],
            [
              109.290876296,
              0.631540112
            ],
            [
              109.291310523,
              0.630859466
            ],
            [
              109.291422397,
              0.630418009
            ],
            [
              109.291542985,
              0.629933176
            ],
            [
              109.291985111,
              0.629135396
            ],
            [
              109.291999258,
              0.628794865
            ],
            [
              109.292066438,
              0.628528605
            ],
            [
              109.292218417,
              0.628199847
            ],
            [
              109.292388318,
              0.628015082
            ],
            [
              109.292544179,
              0.627838719
            ],
            [
              109.292769652,
              0.627682161
            ],
            [
              109.293029959,
              0.627458286
            ],
            [
              109.2932574,
              0.627299537
            ],
            [
              109.293467247,
              0.626853872
            ],
            [
              109.293895696,
              0.626671029
            ],
            [
              109.294204827,
              0.626516546
            ],
            [
              109.294336,
              0.626290507
            ],
            [
              109.294455426,
              0.625930087
            ],
            [
              109.294608569,
              0.625476915
            ],
            [
              109.294738122,
              0.625047898
            ],
            [
              109.294831166,
              0.624667685
            ],
            [
              109.294933177,
              0.624336367
            ],
            [
              109.295017785,
              0.62399494
            ],
            [
              109.295066732,
              0.623683882
            ],
            [
              109.295120987,
              0.623449198
            ],
            [
              109.295191215,
              0.623309898
            ],
            [
              109.295379079,
              0.623130648
            ],
            [
              109.295513063,
              0.622890904
            ],
            [
              109.295706313,
              0.622550503
            ],
            [
              109.295849843,
              0.622304331
            ],
            [
              109.295939746,
              0.622083084
            ],
            [
              109.295972408,
              0.621780426
            ],
            [
              109.296012342,
              0.621558879
            ],
            [
              109.296031513,
              0.62130624
            ],
            [
              109.296018102,
              0.621107213
            ],
            [
              109.295973548,
              0.620853562
            ],
            [
              109.295852609,
              0.620681206
            ],
            [
              109.295642678,
              0.620518076
            ],
            [
              109.295456601,
              0.620376925
            ],
            [
              109.295239368,
              0.620220366
            ],
            [
              109.29508305,
              0.620073856
            ],
            [
              109.294968551,
              0.619952581
            ],
            [
              109.294749667,
              0.619692164
            ],
            [
              109.294437926,
              0.619235448
            ],
            [
              109.294301315,
              0.618914721
            ],
            [
              109.29416048,
              0.618632993
            ],
            [
              109.293959042,
              0.618246681
            ],
            [
              109.293867298,
              0.618078149
            ],
            [
              109.293633069,
              0.617521771
            ],
            [
              109.293607358,
              0.617158408
            ],
            [
              109.293700385,
              0.61682433
            ],
            [
              109.294017931,
              0.616686382
            ],
            [
              109.294294491,
              0.616546373
            ],
            [
              109.294559523,
              0.61646104
            ],
            [
              109.294843102,
              0.616323647
            ],
            [
              109.295072474,
              0.616266423
            ],
            [
              109.295473095,
              0.616192793
            ],
            [
              109.295679725,
              0.616141355
            ],
            [
              109.295975662,
              0.615983831
            ],
            [
              109.296220208,
              0.615881041
            ],
            [
              109.296220769,
              0.61588422
            ],
            [
              109.296374614,
              0.615858199
            ],
            [
              109.296545307,
              0.615828935
            ],
            [
              109.296674738,
              0.615777754
            ],
            [
              109.29679404,
              0.615797433
            ],
            [
              109.296897591,
              0.615917643
            ],
            [
              109.296866639,
              0.61614626
            ],
            [
              109.296780406,
              0.616300886
            ],
            [
              109.296700913,
              0.616451134
            ],
            [
              109.296568021,
              0.616785269
            ],
            [
              109.296558694,
              0.616987398
            ],
            [
              109.296595925,
              0.617318407
            ],
            [
              109.296683989,
              0.61758055
            ],
            [
              109.296733016,
              0.617900612
            ],
            [
              109.296712708,
              0.618198822
            ],
            [
              109.296720227,
              0.618385624
            ],
            [
              109.296835807,
              0.618637673
            ],
            [
              109.297043491,
              0.618808998
            ],
            [
              109.297230162,
              0.618850458
            ],
            [
              109.297428062,
              0.618885495
            ],
            [
              109.297706257,
              0.618908475
            ],
            [
              109.297857281,
              0.61892972
            ],
            [
              109.298168531,
              0.619170598
            ],
            [
              109.298450554,
              0.619506774
            ],
            [
              109.29868685,
              0.619748617
            ],
            [
              109.298935221,
              0.619977252
            ],
            [
              109.299112848,
              0.620209327
            ],
            [
              109.299168042,
              0.620548043
            ],
            [
              109.299185411,
              0.620661726
            ],
            [
              109.299113233,
              0.620757152
            ],
            [
              109.298503329,
              0.620395576
            ],
            [
              109.298341955,
              0.620251821
            ],
            [
              109.29810676,
              0.620083737
            ],
            [
              109.297912787,
              0.620055767
            ],
            [
              109.2978103,
              0.620117412
            ],
            [
              109.297693463,
              0.620291247
            ],
            [
              109.297573861,
              0.620326745
            ],
            [
              109.297378189,
              0.620344697
            ],
            [
              109.297169296,
              0.620444883
            ],
            [
              109.297123735,
              0.620702742
            ],
            [
              109.297317597,
              0.621078313
            ],
            [
              109.297543779,
              0.621344953
            ],
            [
              109.29766947,
              0.621579058
            ],
            [
              109.297740418,
              0.621815055
            ],
            [
              109.297717081,
              0.621931267
            ],
            [
              109.297453991,
              0.622077146
            ],
            [
              109.297168462,
              0.622173563
            ],
            [
              109.296954212,
              0.622344821
            ],
            [
              109.29681994,
              0.622602934
            ],
            [
              109.29676573,
              0.622699213
            ],
            [
              109.296842882,
              0.622848028
            ],
            [
              109.297001159,
              0.623012342
            ],
            [
              109.29717464,
              0.623037057
            ],
            [
              109.297452286,
              0.623018496
            ],
            [
              109.297562056,
              0.623003199
            ],
            [
              109.297704663,
              0.623007909
            ],
            [
              109.298064268,
              0.623034873
            ],
            [
              109.298353725,
              0.622950187
            ],
            [
              109.29852614,
              0.622799827
            ],
            [
              109.298648351,
              0.622506597
            ],
            [
              109.298721141,
              0.622250086
            ],
            [
              109.298750116,
              0.622062801
            ],
            [
              109.299188916,
              0.621994626
            ],
            [
              109.299424226,
              0.621805993
            ],
            [
              109.299483494,
              0.621698411
            ],
            [
              109.299576793,
              0.621392311
            ],
            [
              109.299767124,
              0.621397036
            ],
            [
              109.299828291,
              0.621499075
            ],
            [
              109.299761439,
              0.62162234
            ],
            [
              109.299755235,
              0.621707259
            ],
            [
              109.299777958,
              0.621758984
            ],
            [
              109.299939314,
              0.621953395
            ],
            [
              109.29992273,
              0.622017046
            ],
            [
              109.29971129,
              0.622179263
            ],
            [
              109.299428256,
              0.622370141
            ],
            [
              109.299250219,
              0.622540915
            ],
            [
              109.299304881,
              0.622792168
            ],
            [
              109.29932864,
              0.623115613
            ],
            [
              109.299170014,
              0.623160778
            ],
            [
              109.298994003,
              0.623142847
            ],
            [
              109.298810392,
              0.623191323
            ],
            [
              109.298382771,
              0.623416562
            ],
            [
              109.298195468,
              0.623593763
            ],
            [
              109.298105861,
              0.623766614
            ],
            [
              109.298055492,
              0.624132428
            ],
            [
              109.298117176,
              0.624372519
            ],
            [
              109.298626293,
              0.624756743
            ],
            [
              109.298775041,
              0.624874565
            ],
            [
              109.298949885,
              0.625025886
            ],
            [
              109.299014429,
              0.625100443
            ],
            [
              109.298979862,
              0.625213826
            ],
            [
              109.298707524,
              0.625315474
            ],
            [
              109.298532612,
              0.625373564
            ],
            [
              109.29836637,
              0.625533461
            ],
            [
              109.298336277,
              0.625702307
            ],
            [
              109.298253407,
              0.625875446
            ],
            [
              109.298148093,
              0.625999119
            ],
            [
              109.298136524,
              0.62618528
            ],
            [
              109.298191765,
              0.626379942
            ],
            [
              109.298341656,
              0.626434532
            ],
            [
              109.298412967,
              0.626415056
            ],
            [
              109.298669289,
              0.626360951
            ],
            [
              109.298861032,
              0.626338122
            ],
            [
              109.299106077,
              0.626435419
            ],
            [
              109.299405266,
              0.626643512
            ],
            [
              109.299566006,
              0.627003599
            ],
            [
              109.299671473,
              0.627278113
            ],
            [
              109.299760919,
              0.627607092
            ],
            [
              109.299830202,
              0.627780846
            ],
            [
              109.29997133,
              0.628024918
            ],
            [
              109.299995701,
              0.628187212
            ],
            [
              109.300088007,
              0.628352917
            ],
            [
              109.300170763,
              0.628529644
            ],
            [
              109.300250161,
              0.628683192
            ],
            [
              109.300427187,
              0.629032548
            ],
            [
              109.300592421,
              0.629388328
            ],
            [
              109.300639829,
              0.62949651
            ],
            [
              109.300750035,
              0.629867957
            ],
            [
              109.300880766,
              0.630141419
            ],
            [
              109.301015142,
              0.630426539
            ],
            [
              109.301185448,
              0.630724953
            ],
            [
              109.301259803,
              0.630841411
            ],
            [
              109.301386909,
              0.631038779
            ],
            [
              109.301473311,
              0.631231756
            ],
            [
              109.30155888,
              0.631397106
            ],
            [
              109.301664043,
              0.631736053
            ],
            [
              109.30186321,
              0.632194714
            ],
            [
              109.301927171,
              0.632338297
            ],
            [
              109.30197007,
              0.632494661
            ],
            [
              109.302080826,
              0.632900657
            ],
            [
              109.302178372,
              0.633354337
            ],
            [
              109.302330714,
              0.633647236
            ],
            [
              109.302383162,
              0.63379025
            ],
            [
              109.302436726,
              0.633963222
            ],
            [
              109.302492786,
              0.634226131
            ],
            [
              109.302581099,
              0.634584925
            ],
            [
              109.302613321,
              0.634772938
            ],
            [
              109.302694964,
              0.63492663
            ],
            [
              109.302804969,
              0.635049458
            ],
            [
              109.302988813,
              0.635152882
            ],
            [
              109.303170129,
              0.635256164
            ],
            [
              109.303331236,
              0.635356186
            ],
            [
              109.303485023,
              0.635513435
            ],
            [
              109.30370899,
              0.635683284
            ],
            [
              109.303889428,
              0.635903985
            ],
            [
              109.304045975,
              0.636206284
            ],
            [
              109.304221571,
              0.636638511
            ],
            [
              109.304173764,
              0.636893968
            ],
            [
              109.304349973,
              0.637162784
            ],
            [
              109.304507671,
              0.63738461
            ],
            [
              109.304496377,
              0.637582004
            ],
            [
              109.304620903,
              0.637942648
            ],
            [
              109.304779599,
              0.638544364
            ],
            [
              109.305046468,
              0.638863655
            ],
            [
              109.305345075,
              0.639136182
            ],
            [
              109.305598236,
              0.639309784
            ],
            [
              109.305813522,
              0.639412513
            ],
            [
              109.305925215,
              0.639527358
            ],
            [
              109.306082365,
              0.639703048
            ],
            [
              109.306178332,
              0.639834845
            ],
            [
              109.306256612,
              0.639966563
            ],
            [
              109.306354847,
              0.640031806
            ],
            [
              109.306117522,
              0.64036188
            ],
            [
              109.306097351,
              0.641088305
            ],
            [
              109.306342233,
              0.641683411
            ],
            [
              109.306697464,
              0.642209526
            ],
            [
              109.307130067,
              0.643066595
            ],
            [
              109.307384197,
              0.643707696
            ],
            [
              109.307549089,
              0.644245406
            ],
            [
              109.307367519,
              0.644905296
            ],
            [
              109.307182254,
              0.645705429
            ],
            [
              109.307171876,
              0.646526035
            ],
            [
              109.307246351,
              0.647125887
            ],
            [
              109.307402528,
              0.647698142
            ],
            [
              109.307712021,
              0.64815762
            ],
            [
              109.307894694,
              0.649252913
            ],
            [
              109.308062121,
              0.649759679
            ],
            [
              109.308515815,
              0.650503082
            ],
            [
              109.308399026,
              0.650518938
            ],
            [
              109.308257189,
              0.650718763
            ],
            [
              109.308086701,
              0.65097559
            ],
            [
              109.308029916,
              0.651203986
            ],
            [
              109.307888071,
              0.651432356
            ],
            [
              109.307821453,
              0.651685968
            ],
            [
              109.307768622,
              0.651849296
            ],
            [
              109.307505869,
              0.652660139
            ],
            [
              109.307455007,
              0.652806581
            ],
            [
              109.307321251,
              0.653190596
            ],
            [
              109.307357451,
              0.65407219
            ],
            [
              109.307305299,
              0.654715947
            ],
            [
              109.306894697,
              0.655233183
            ],
            [
              109.30669417,
              0.655485763
            ],
            [
              109.305751297,
              0.656021468
            ],
            [
              109.304874061,
              0.656715527
            ],
            [
              109.304489642,
              0.657008103
            ],
            [
              109.304237483,
              0.657200188
            ],
            [
              109.304177954,
              0.657241568
            ],
            [
              109.303988697,
              0.657372773
            ],
            [
              109.303659643,
              0.657486337
            ],
            [
              109.303405813,
              0.657634759
            ],
            [
              109.302943147,
              0.657698964
            ],
            [
              109.302640948,
              0.658090619
            ],
            [
              109.302337865,
              0.658612554
            ],
            [
              109.301822053,
              0.658940693
            ],
            [
              109.301817841,
              0.658943374
            ],
            [
              109.301818547,
              0.658944384
            ],
            [
              109.301819524,
              0.658945777
            ]
          ]
        ]
      }
    }
  ]
}