{
  "type": "FeatureCollection",
  "features": [
    {
      "type": "Feature",
      "properties": {
        "idx": "1196",
        "nama_kewilayahan": "Kanayatn Palanyo Skg"
      },
      "geometry": {
        "type": "Polygon",
        "coordinates": [
          [
            [
              109.119364021,
              0.57240246
            ],
            [
              109.119213832,
              0.572454228
            ],
            [
              109.118976346,
              0.572504658
            ],
            [
              109.118851427,
              0.572531144
            ],
            [
              109.11854799,
              0.572540335
            ],
            [
              109.118210309,
              0.572544426
            ],
            [
              109.11798912,
              0.572543435
            ],
            [
              109.117682677,
              0.572301097
            ],
            [
              109.117430656,
              0.572164706
            ],
            [
              109.117141639,
              0.57185632
            ],
            [
              109.116972749,
              0.571579447
            ],
            [
              109.116853219,
              0.571433637
            ],
            [
              109.116685152,
              0.571216209
            ],
            [
              109.116590603,
              0.571077646
            ],
            [
              109.116446095,
              0.570919991
            ],
            [
              109.116333587,
              0.570762879
            ],
            [
              109.116150342,
              0.570606943
            ],
            [
              109.115794192,
              0.570443886
            ],
            [
              109.115676025,
              0.570419265
            ],
            [
              109.115554505,
              0.570358011
            ],
            [
              109.115350455,
              0.570306938
            ],
            [
              109.115184853,
              0.570274742
            ],
            [
              109.11497799,
              0.570241965
            ],
            [
              109.114706587,
              0.570151028
            ],
            [
              109.114216271,
              0.569960801
            ],
            [
              109.114091936,
              0.569920104
            ],
            [
              109.113892947,
              0.56984625
            ],
            [
              109.113891825,
              0.569843919
            ],
            [
              109.113891825,
              0.569844061
            ],
            [
              109.113754097,
              0.569553812
            ],
            [
              109.113718489,
              0.569427558
            ],
            [
              109.11361357,
              0.569240779
            ],
            [
              109.113420807,
              0.569006991
            ],
            [
              109.11337761,
              0.568912598
            ],
            [
              109.113282497,
              0.568783183
            ],
            [
              109.113159615,
              0.568587
            ],
            [
              109.113047107,
              0.568432149
            ],
            [
              109.112898993,
              0.568144157
            ],
            [
              109.112801913,
              0.568016932
            ],
            [
              109.112673688,
              0.567852714
            ],
            [
              109.112510933,
              0.567701661
            ],
            [
              109.112426252,
              0.567428348
            ],
            [
              109.111906181,
              0.566376331
            ],
            [
              109.111835212,
              0.566232937
            ],
            [
              109.111783039,
              0.566122398
            ],
            [
              109.111699461,
              0.565906237
            ],
            [
              109.111566179,
              0.56575795
            ],
            [
              109.111378726,
              0.56559509
            ],
            [
              109.111205601,
              0.565395889
            ],
            [
              109.111123984,
              0.565193504
            ],
            [
              109.110996867,
              0.565074994
            ],
            [
              109.110844772,
              0.564946975
            ],
            [
              109.11072695,
              0.56472575
            ],
            [
              109.110548795,
              0.564460143
            ],
            [
              109.110320708,
              0.564093219
            ],
            [
              109.110169778,
              0.563830339
            ],
            [
              109.110022801,
              0.563498938
            ],
            [
              109.110009456,
              0.563100893
            ],
            [
              109.110056124,
              0.562870682
            ],
            [
              109.110259694,
              0.562670228
            ],
            [
              109.110328503,
              0.562550087
            ],
            [
              109.110408563,
              0.562356938
            ],
            [
              109.110425476,
              0.562137702
            ],
            [
              109.110431675,
              0.562062363
            ],
            [
              109.110513951,
              0.561960698
            ],
            [
              109.110651499,
              0.561939866
            ],
            [
              109.110801953,
              0.561935254
            ],
            [
              109.111008278,
              0.561894878
            ],
            [
              109.111161828,
              0.561860595
            ],
            [
              109.111411665,
              0.561807164
            ],
            [
              109.111685913,
              0.561783801
            ],
            [
              109.112140052,
              0.561868332
            ],
            [
              109.112293573,
              0.561927757
            ],
            [
              109.112460277,
              0.5620194
            ],
            [
              109.112497562,
              0.562166281
            ],
            [
              109.11260251,
              0.562268466
            ],
            [
              109.112783287,
              0.562241432
            ],
            [
              109.112811681,
              0.562102379
            ],
            [
              109.112796596,
              0.561878081
            ],
            [
              109.112795011,
              0.561567144
            ],
            [
              109.112833554,
              0.561295639
            ],
            [
              109.112879898,
              0.561204276
            ],
            [
              109.112965565,
              0.561034687
            ],
            [
              109.113175275,
              0.560939494
            ],
            [
              109.113405475,
              0.56084918
            ],
            [
              109.113638485,
              0.560745199
            ],
            [
              109.1138204,
              0.560674757
            ],
            [
              109.11393101,
              0.560623785
            ],
            [
              109.114105617,
              0.560576088
            ],
            [
              109.11418002,
              0.560520055
            ],
            [
              109.114450378,
              0.56037091
            ],
            [
              109.114586851,
              0.560199184
            ],
            [
              109.114589411,
              0.560094032
            ],
            [
              109.114489836,
              0.559870766
            ],
            [
              109.114451159,
              0.559684996
            ],
            [
              109.114486288,
              0.559555201
            ],
            [
              109.114608723,
              0.559392441
            ],
            [
              109.114747439,
              0.559227604
            ],
            [
              109.115033259,
              0.559003226
            ],
            [
              109.115262097,
              0.558784836
            ],
            [
              109.115414282,
              0.55863166
            ],
            [
              109.115503836,
              0.558598698
            ],
            [
              109.115613622,
              0.558492874
            ],
            [
              109.115739122,
              0.558401006
            ],
            [
              109.115809858,
              0.558397463
            ],
            [
              109.115944342,
              0.558305739
            ],
            [
              109.116045431,
              0.55818377
            ],
            [
              109.11608954,
              0.558056414
            ],
            [
              109.116109267,
              0.55781436
            ],
            [
              109.116125644,
              0.557510527
            ],
            [
              109.116135251,
              0.557309443
            ],
            [
              109.116164531,
              0.557035531
            ],
            [
              109.116177837,
              0.556679069
            ],
            [
              109.116190888,
              0.55623801
            ],
            [
              109.116366215,
              0.555691884
            ],
            [
              109.11664786,
              0.555359986
            ],
            [
              109.116816616,
              0.55517732
            ],
            [
              109.117142051,
              0.554836921
            ],
            [
              109.117342524,
              0.554657021
            ],
            [
              109.117486871,
              0.554441958
            ],
            [
              109.117680893,
              0.554248208
            ],
            [
              109.11792431,
              0.554080366
            ],
            [
              109.118055724,
              0.553926864
            ],
            [
              109.118119752,
              0.553836354
            ],
            [
              109.118179579,
              0.55371151
            ],
            [
              109.118219764,
              0.553563489
            ],
            [
              109.118255745,
              0.553401693
            ],
            [
              109.118374802,
              0.553272416
            ],
            [
              109.118510985,
              0.553124285
            ],
            [
              109.118729076,
              0.55315724
            ],
            [
              109.118781252,
              0.553265482
            ],
            [
              109.118894614,
              0.553388332
            ],
            [
              109.119015569,
              0.553472473
            ],
            [
              109.118973704,
              0.553602161
            ],
            [
              109.118926537,
              0.553633406
            ],
            [
              109.119345343,
              0.55360998
            ],
            [
              109.119491904,
              0.553493253
            ],
            [
              109.119580633,
              0.55340314
            ],
            [
              109.119669359,
              0.55331988
            ],
            [
              109.119702808,
              0.553169453
            ],
            [
              109.119857276,
              0.552904271
            ],
            [
              109.119997667,
              0.55276688
            ],
            [
              109.120115328,
              0.552613159
            ],
            [
              109.120359341,
              0.552335573
            ],
            [
              109.120570186,
              0.552196966
            ],
            [
              109.120818092,
              0.552036047
            ],
            [
              109.120946409,
              0.551916805
            ],
            [
              109.121104223,
              0.551717923
            ],
            [
              109.12119491,
              0.551648403
            ],
            [
              109.121268747,
              0.551605652
            ],
            [
              109.121322089,
              0.551574866
            ],
            [
              109.121446168,
              0.551535558
            ],
            [
              109.121569424,
              0.551441359
            ],
            [
              109.121683703,
              0.55133105
            ],
            [
              109.121769361,
              0.551183713
            ],
            [
              109.121801704,
              0.55098299
            ],
            [
              109.121741116,
              0.550847192
            ],
            [
              109.121664526,
              0.550717996
            ],
            [
              109.121578672,
              0.550593284
            ],
            [
              109.121512204,
              0.550411672
            ],
            [
              109.121573986,
              0.550316569
            ],
            [
              109.121671753,
              0.550048224
            ],
            [
              109.121602754,
              0.549882577
            ],
            [
              109.121521957,
              0.549741901
            ],
            [
              109.121378045,
              0.549469982
            ],
            [
              109.121174055,
              0.54922231
            ],
            [
              109.121180025,
              0.548984631
            ],
            [
              109.121401843,
              0.548768424
            ],
            [
              109.121659009,
              0.548609946
            ],
            [
              109.121870425,
              0.548448453
            ],
            [
              109.122051232,
              0.548323115
            ],
            [
              109.122133251,
              0.548143707
            ],
            [
              109.122213595,
              0.547939147
            ],
            [
              109.122316961,
              0.547714355
            ],
            [
              109.122362518,
              0.547442956
            ],
            [
              109.122419874,
              0.547141995
            ],
            [
              109.122469699,
              0.546687772
            ],
            [
              109.122553993,
              0.54641695
            ],
            [
              109.122607423,
              0.546097655
            ],
            [
              109.122608307,
              0.545962761
            ],
            [
              109.122713093,
              0.545689966
            ],
            [
              109.122790622,
              0.545501372
            ],
            [
              109.122952671,
              0.545222555
            ],
            [
              109.123084431,
              0.544861009
            ],
            [
              109.123079175,
              0.544607146
            ],
            [
              109.122998153,
              0.54428813
            ],
            [
              109.122936484,
              0.544012845
            ],
            [
              109.122916052,
              0.543825066
            ],
            [
              109.122915601,
              0.543466091
            ],
            [
              109.122586184,
              0.543077906
            ],
            [
              109.122427638,
              0.542918201
            ],
            [
              109.122422873,
              0.542914705
            ],
            [
              109.122503478,
              0.542774771
            ],
            [
              109.12262227,
              0.542568538
            ],
            [
              109.122663046,
              0.542518781
            ],
            [
              109.122752843,
              0.542409208
            ],
            [
              109.122989572,
              0.542214457
            ],
            [
              109.12304036,
              0.542172678
            ],
            [
              109.123069548,
              0.542149195
            ],
            [
              109.123206562,
              0.542040412
            ],
            [
              109.123206846,
              0.542040205
            ],
            [
              109.12320658,
              0.542039729
            ],
            [
              109.123205774,
              0.542036595
            ],
            [
              109.123204632,
              0.542032161
            ],
            [
              109.123217233,
              0.54202717
            ],
            [
              109.123264716,
              0.54199813
            ],
            [
              109.123336272,
              0.541946106
            ],
            [
              109.123574077,
              0.541772043
            ],
            [
              109.123747316,
              0.541612443
            ],
            [
              109.123819484,
              0.541518118
            ],
            [
              109.123966653,
              0.541244987
            ],
            [
              109.124004296,
              0.541145636
            ],
            [
              109.124065536,
              0.540989462
            ],
            [
              109.124004411,
              0.540776488
            ],
            [
              109.123910466,
              0.54048777
            ],
            [
              109.123912138,
              0.540486769
            ],
            [
              109.124093287,
              0.540378252
            ],
            [
              109.124107832,
              0.54036954
            ],
            [
              109.124116896,
              0.540364773
            ],
            [
              109.124314739,
              0.540260742
            ],
            [
              109.12435807,
              0.540132191
            ],
            [
              109.124413634,
              0.539967352
            ],
            [
              109.124415481,
              0.539824249
            ],
            [
              109.124415394,
              0.539717379
            ],
            [
              109.124416985,
              0.539515005
            ],
            [
              109.124412713,
              0.539309727
            ],
            [
              109.124416423,
              0.53910949
            ],
            [
              109.124416472,
              0.538949412
            ],
            [
              109.124414829,
              0.53881416
            ],
            [
              109.124419818,
              0.538763119
            ],
            [
              109.124441578,
              0.538540529
            ],
            [
              109.124455574,
              0.538368255
            ],
            [
              109.124455667,
              0.538367422
            ],
            [
              109.124455715,
              0.538366517
            ],
            [
              109.12446357,
              0.538222143
            ],
            [
              109.12447149,
              0.538025827
            ],
            [
              109.124472657,
              0.537882737
            ],
            [
              109.124472698,
              0.537747454
            ],
            [
              109.124466281,
              0.537618597
            ],
            [
              109.124467399,
              0.537600831
            ],
            [
              109.124472769,
              0.53751553
            ],
            [
              109.124472801,
              0.537410127
            ],
            [
              109.124472808,
              0.537386711
            ],
            [
              109.124479311,
              0.537232108
            ],
            [
              109.124498432,
              0.537122616
            ],
            [
              109.124511389,
              0.536974446
            ],
            [
              109.124511725,
              0.536974349
            ],
            [
              109.12472614,
              0.536913404
            ],
            [
              109.124775546,
              0.53690632
            ],
            [
              109.124899062,
              0.536870859
            ],
            [
              109.124990574,
              0.536856688
            ],
            [
              109.125107069,
              0.536835424
            ],
            [
              109.125262872,
              0.536781501
            ],
            [
              109.125396781,
              0.536727536
            ],
            [
              109.125504304,
              0.536673561
            ],
            [
              109.12562503,
              0.536592603
            ],
            [
              109.125759235,
              0.536484631
            ],
            [
              109.125866478,
              0.536430658
            ],
            [
              109.125987207,
              0.536336208
            ],
            [
              109.126175017,
              0.536255238
            ],
            [
              109.12630893,
              0.536187778
            ],
            [
              109.126470075,
              0.536106834
            ],
            [
              109.12672498,
              0.535998898
            ],
            [
              109.126939437,
              0.535985472
            ],
            [
              109.126993062,
              0.535944972
            ],
            [
              109.127073639,
              0.53589099
            ],
            [
              109.127234523,
              0.535742546
            ],
            [
              109.127408882,
              0.535594071
            ],
            [
              109.12752961,
              0.535499622
            ],
            [
              109.127757854,
              0.535378185
            ],
            [
              109.128052898,
              0.535270259
            ],
            [
              109.128374607,
              0.535175837
            ],
            [
              109.128629495,
              0.535121909
            ],
            [
              109.128884389,
              0.535054486
            ],
            [
              109.129139279,
              0.535000557
            ],
            [
              109.129340271,
              0.534960102
            ],
            [
              109.129460974,
              0.534946649
            ],
            [
              109.129595131,
              0.535000697
            ],
            [
              109.129863466,
              0.535041292
            ],
            [
              109.130213497,
              0.535037339
            ],
            [
              109.13062415,
              0.535061766
            ],
            [
              109.130761975,
              0.53505485
            ],
            [
              109.130930957,
              0.535047944
            ],
            [
              109.131069057,
              0.535054945
            ],
            [
              109.131248424,
              0.535051537
            ],
            [
              109.131517331,
              0.535058543
            ],
            [
              109.131655424,
              0.535093342
            ],
            [
              109.131814005,
              0.535135037
            ],
            [
              109.13200739,
              0.535187196
            ],
            [
              109.131941643,
              0.535395542
            ],
            [
              109.131956435,
              0.535678476
            ],
            [
              109.131990025,
              0.53598992
            ],
            [
              109.132068461,
              0.536512394
            ],
            [
              109.131993206,
              0.536607282
            ],
            [
              109.131825902,
              0.536634534
            ],
            [
              109.131673203,
              0.536632263
            ],
            [
              109.131501408,
              0.536659407
            ],
            [
              109.131250974,
              0.536829442
            ],
            [
              109.131118452,
              0.536932646
            ],
            [
              109.131004743,
              0.537017844
            ],
            [
              109.130980598,
              0.53703896
            ],
            [
              109.130909282,
              0.537100999
            ],
            [
              109.130845539,
              0.537182361
            ],
            [
              109.130713555,
              0.537363311
            ],
            [
              109.130568358,
              0.537617232
            ],
            [
              109.1305043,
              0.537806433
            ],
            [
              109.130479859,
              0.537878836
            ],
            [
              109.130423133,
              0.537960305
            ],
            [
              109.130373683,
              0.538110481
            ],
            [
              109.130456923,
              0.538532395
            ],
            [
              109.130558178,
              0.538780811
            ],
            [
              109.130608965,
              0.538852387
            ],
            [
              109.130820519,
              0.539150537
            ],
            [
              109.131033238,
              0.539309164
            ],
            [
              109.131450267,
              0.5395989
            ],
            [
              109.131898724,
              0.53992107
            ],
            [
              109.132091241,
              0.540061146
            ],
            [
              109.132415903,
              0.54040433
            ],
            [
              109.132500025,
              0.540691385
            ],
            [
              109.132645329,
              0.541009048
            ],
            [
              109.13261887,
              0.541248733
            ],
            [
              109.132678804,
              0.541690881
            ],
            [
              109.132662435,
              0.541983307
            ],
            [
              109.132467187,
              0.542510817
            ],
            [
              109.132420236,
              0.542757069
            ],
            [
              109.132391846,
              0.542884679
            ],
            [
              109.132363993,
              0.54309459
            ],
            [
              109.132355237,
              0.54326823
            ],
            [
              109.132339749,
              0.543432615
            ],
            [
              109.132275091,
              0.543749471
            ],
            [
              109.132202592,
              0.544006732
            ],
            [
              109.132088452,
              0.544576621
            ],
            [
              109.13201118,
              0.544838404
            ],
            [
              109.131854726,
              0.545181298
            ],
            [
              109.131774099,
              0.545395042
            ],
            [
              109.131789325,
              0.546083439
            ],
            [
              109.131834482,
              0.546200724
            ],
            [
              109.13189254,
              0.546345634
            ],
            [
              109.131958732,
              0.546520356
            ],
            [
              109.131995191,
              0.546623792
            ],
            [
              109.132092783,
              0.546917914
            ],
            [
              109.132185335,
              0.547173287
            ],
            [
              109.132257697,
              0.547361613
            ],
            [
              109.132362618,
              0.547555141
            ],
            [
              109.132405497,
              0.54777069
            ],
            [
              109.132454228,
              0.548127882
            ],
            [
              109.132622534,
              0.548494968
            ],
            [
              109.132637682,
              0.54852821
            ],
            [
              109.132680587,
              0.548657574
            ],
            [
              109.132753808,
              0.548793056
            ],
            [
              109.132833182,
              0.54899629
            ],
            [
              109.132840471,
              0.549029566
            ],
            [
              109.132912789,
              0.549359675
            ],
            [
              109.132863627,
              0.549482791
            ],
            [
              109.132802383,
              0.549655215
            ],
            [
              109.132756579,
              0.549815421
            ],
            [
              109.132698399,
              0.550055452
            ],
            [
              109.132710687,
              0.550258701
            ],
            [
              109.13273046,
              0.550760421
            ],
            [
              109.132906965,
              0.55093829
            ],
            [
              109.133077607,
              0.551009483
            ],
            [
              109.133330763,
              0.551116236
            ],
            [
              109.133607514,
              0.551175593
            ],
            [
              109.133860637,
              0.551394953
            ],
            [
              109.134077832,
              0.551603847
            ],
            [
              109.134125537,
              0.551649886
            ],
            [
              109.13483195,
              0.55198793
            ],
            [
              109.135026218,
              0.551910954
            ],
            [
              109.135137946,
              0.551881355
            ],
            [
              109.135255841,
              0.551875458
            ],
            [
              109.135561773,
              0.551976294
            ],
            [
              109.13581496,
              0.551982306
            ],
            [
              109.136121195,
              0.552012039
            ],
            [
              109.136403547,
              0.552112866
            ],
            [
              109.136883484,
              0.552302629
            ],
            [
              109.137058344,
              0.552351568
            ],
            [
              109.137252841,
              0.552439654
            ],
            [
              109.137447055,
              0.552537522
            ],
            [
              109.137621896,
              0.55264517
            ],
            [
              109.137816065,
              0.552889731
            ],
            [
              109.13795214,
              0.553095172
            ],
            [
              109.138038529,
              0.553308405
            ],
            [
              109.13803937,
              0.553310384
            ],
            [
              109.138078187,
              0.553955911
            ],
            [
              109.138087619,
              0.55430804
            ],
            [
              109.138223686,
              0.5545428
            ],
            [
              109.138388689,
              0.554699365
            ],
            [
              109.138524789,
              0.554826532
            ],
            [
              109.138612059,
              0.554914583
            ],
            [
              109.138660582,
              0.555031976
            ],
            [
              109.138621804,
              0.555168907
            ],
            [
              109.138495464,
              0.555247106
            ],
            [
              109.138378948,
              0.555325307
            ],
            [
              109.138271987,
              0.555374194
            ],
            [
              109.13816505,
              0.555344807
            ],
            [
              109.138077773,
              0.555276325
            ],
            [
              109.137961043,
              0.555149128
            ],
            [
              109.137883312,
              0.555070865
            ],
            [
              109.137805589,
              0.554973033
            ],
            [
              109.137728159,
              0.554836066
            ],
            [
              109.137630793,
              0.554718658
            ],
            [
              109.137533693,
              0.554650173
            ],
            [
              109.13744642,
              0.554571908
            ],
            [
              109.137252206,
              0.554474037
            ],
            [
              109.137057709,
              0.554385953
            ],
            [
              109.136873341,
              0.554219634
            ],
            [
              109.136650009,
              0.553887004
            ],
            [
              109.136475145,
              0.553847811
            ],
            [
              109.136349634,
              0.553970657
            ],
            [
              109.136400417,
              0.554046828
            ],
            [
              109.136445007,
              0.554177817
            ],
            [
              109.136471094,
              0.554235365
            ],
            [
              109.136533076,
              0.554400904
            ],
            [
              109.136636322,
              0.554567058
            ],
            [
              109.136731131,
              0.554785699
            ],
            [
              109.136770091,
              0.554969174
            ],
            [
              109.136803182,
              0.555068934
            ],
            [
              109.136551661,
              0.555113713
            ],
            [
              109.1364753,
              0.555145126
            ],
            [
              109.136294787,
              0.555218397
            ],
            [
              109.136180245,
              0.55527424
            ],
            [
              109.136114264,
              0.555330099
            ],
            [
              109.136058669,
              0.5553825
            ],
            [
              109.135958136,
              0.555518671
            ],
            [
              109.135899168,
              0.555581526
            ],
            [
              109.135843568,
              0.555654836
            ],
            [
              109.135803971,
              0.555712257
            ],
            [
              109.135667283,
              0.555672971
            ],
            [
              109.135504182,
              0.555718556
            ],
            [
              109.135346678,
              0.555821365
            ],
            [
              109.135270568,
              0.555950549
            ],
            [
              109.135198381,
              0.556100397
            ],
            [
              109.135140769,
              0.556316729
            ],
            [
              109.135099759,
              0.556405268
            ],
            [
              109.135012393,
              0.556625756
            ],
            [
              109.134791905,
              0.557063751
            ],
            [
              109.134725915,
              0.557149635
            ],
            [
              109.13465458,
              0.557265186
            ],
            [
              109.134519212,
              0.5574941
            ],
            [
              109.134427643,
              0.557689332
            ],
            [
              109.134412196,
              0.557711227
            ],
            [
              109.134337778,
              0.55781604
            ],
            [
              109.134265588,
              0.557979594
            ],
            [
              109.134086965,
              0.55829016
            ],
            [
              109.133873842,
              0.558515625
            ],
            [
              109.133701986,
              0.558732553
            ],
            [
              109.133605923,
              0.558934602
            ],
            [
              109.133512674,
              0.55911383
            ],
            [
              109.133080205,
              0.559724695
            ],
            [
              109.132856081,
              0.560123764
            ],
            [
              109.132587305,
              0.560586185
            ],
            [
              109.132423294,
              0.560851226
            ],
            [
              109.132255866,
              0.561262569
            ],
            [
              109.132050272,
              0.56165048
            ],
            [
              109.131921324,
              0.561984656
            ],
            [
              109.131800221,
              0.562366944
            ],
            [
              109.131791512,
              0.562390749
            ],
            [
              109.131702735,
              0.562630699
            ],
            [
              109.131613976,
              0.562810001
            ],
            [
              109.131527436,
              0.563078527
            ],
            [
              109.13155119,
              0.563410385
            ],
            [
              109.131472429,
              0.563928217
            ],
            [
              109.131416207,
              0.564185733
            ],
            [
              109.131365272,
              0.564585068
            ],
            [
              109.131353387,
              0.564888976
            ],
            [
              109.13151779,
              0.565156666
            ],
            [
              109.131619897,
              0.565368526
            ],
            [
              109.131830878,
              0.565696313
            ],
            [
              109.131992184,
              0.565995966
            ],
            [
              109.132112505,
              0.56630412
            ],
            [
              109.132228878,
              0.566673946
            ],
            [
              109.132316065,
              0.567020485
            ],
            [
              109.132277237,
              0.567305699
            ],
            [
              109.132297635,
              0.567594075
            ],
            [
              109.132285209,
              0.567824831
            ],
            [
              109.132225703,
              0.567933094
            ],
            [
              109.132225386,
              0.567933673
            ],
            [
              109.132058665,
              0.56786722
            ],
            [
              109.131945284,
              0.567822036
            ],
            [
              109.131723584,
              0.567661
            ],
            [
              109.131558865,
              0.567498501
            ],
            [
              109.13133916,
              0.567241425
            ],
            [
              109.131055481,
              0.566903405
            ],
            [
              109.130880389,
              0.566704168
            ],
            [
              109.130700498,
              0.566589454
            ],
            [
              109.130349687,
              0.566394468
            ],
            [
              109.129944934,
              0.566342695
            ],
            [
              109.129444719,
              0.566376406
            ],
            [
              109.128948681,
              0.566510751
            ],
            [
              109.128597435,
              0.566793602
            ],
            [
              109.128204357,
              0.567110136
            ],
            [
              109.127965398,
              0.567371797
            ],
            [
              109.127737442,
              0.567457554
            ],
            [
              109.127650978,
              0.56748822
            ],
            [
              109.127458957,
              0.567556294
            ],
            [
              109.126892717,
              0.567776484
            ],
            [
              109.126703755,
              0.567942858
            ],
            [
              109.126471531,
              0.568209182
            ],
            [
              109.126379104,
              0.568447894
            ],
            [
              109.126402856,
              0.568782048
            ],
            [
              109.126472077,
              0.569126036
            ],
            [
              109.126679137,
              0.569419488
            ],
            [
              109.126873578,
              0.569683019
            ],
            [
              109.126944225,
              0.569958412
            ],
            [
              109.126933474,
              0.570214352
            ],
            [
              109.126862585,
              0.570691141
            ],
            [
              109.126702143,
              0.571196299
            ],
            [
              109.126538381,
              0.571548229
            ],
            [
              109.126289337,
              0.571750296
            ],
            [
              109.125649038,
              0.571825356
            ],
            [
              109.125194295,
              0.571862011
            ],
            [
              109.124753051,
              0.571816584
            ],
            [
              109.12437047,
              0.571783433
            ],
            [
              109.123981724,
              0.57171743
            ],
            [
              109.123514388,
              0.571638083
            ],
            [
              109.122927438,
              0.571668197
            ],
            [
              109.122368311,
              0.571598145
            ],
            [
              109.121939151,
              0.571511713
            ],
            [
              109.121597262,
              0.571508916
            ],
            [
              109.121235138,
              0.571585833
            ],
            [
              109.121060276,
              0.571546639
            ],
            [
              109.120825613,
              0.571545433
            ],
            [
              109.120663367,
              0.57155216
            ],
            [
              109.120448597,
              0.571660986
            ],
            [
              109.120335173,
              0.571732441
            ],
            [
              109.120133876,
              0.571846041
            ],
            [
              109.120018489,
              0.571906085
            ],
            [
              109.119881476,
              0.572009179
            ],
            [
              109.119780101,
              0.572142592
            ],
            [
              109.119647008,
              0.572268648
            ],
            [
              109.119429994,
              0.572379699
            ],
            [
              109.119364021,
              0.57240246
            ]
          ]
        ]
      }
    }
  ]
}