{
  "type": "FeatureCollection",
  "features": [
    {
      "type": "Feature",
      "properties": {
        "idx": "1275",
        "nama_kewilayahan": "Pana "
      },
      "geometry": {
        "type": "Polygon",
        "coordinates": [
          [
            [
              119.817930938,
              -3.2829831
            ],
            [
              119.817931895,
              -3.282977832
            ],
            [
              119.817949157,
              -3.282882897
            ],
            [
              119.817945396,
              -3.282859581
            ],
            [
              119.817942526,
              -3.282841792
            ],
            [
              119.817919413,
              -3.28269849
            ],
            [
              119.817943208,
              -3.282436749
            ],
            [
              119.817984848,
              -3.282288033
            ],
            [
              119.81803886,
              -3.282148505
            ],
            [
              119.818056233,
              -3.282103624
            ],
            [
              119.818151411,
              -3.281865679
            ],
            [
              119.818276333,
              -3.281514708
            ],
            [
              119.818335818,
              -3.281312454
            ],
            [
              119.818407203,
              -3.281068559
            ],
            [
              119.818436945,
              -3.280890099
            ],
            [
              119.818395305,
              -3.280628358
            ],
            [
              119.818341767,
              -3.280455847
            ],
            [
              119.818297492,
              -3.280382923
            ],
            [
              119.81824064,
              -3.280289286
            ],
            [
              119.818097873,
              -3.280158416
            ],
            [
              119.818050284,
              -3.280027544
            ],
            [
              119.818056232,
              -3.27983124
            ],
            [
              119.818059268,
              -3.279715874
            ],
            [
              119.818056613,
              -3.279714682
            ],
            [
              119.818059801,
              -3.279593531
            ],
            [
              119.818030058,
              -3.279397225
            ],
            [
              119.817994366,
              -3.27911169
            ],
            [
              119.81802411,
              -3.27889159
            ],
            [
              119.818033448,
              -3.278881473
            ],
            [
              119.818038566,
              -3.278890166
            ],
            [
              119.818169257,
              -3.278748584
            ],
            [
              119.81828823,
              -3.278576073
            ],
            [
              119.818436946,
              -3.2784571
            ],
            [
              119.818526176,
              -3.278248898
            ],
            [
              119.818680841,
              -3.278070438
            ],
            [
              119.81872843,
              -3.278034746
            ],
            [
              119.818966375,
              -3.277886029
            ],
            [
              119.819132938,
              -3.277778954
            ],
            [
              119.819067502,
              -3.277713519
            ],
            [
              119.818990171,
              -3.277570751
            ],
            [
              119.818900941,
              -3.277445829
            ],
            [
              119.818894993,
              -3.277332805
            ],
            [
              119.818877146,
              -3.27713055
            ],
            [
              119.81890689,
              -3.276898554
            ],
            [
              119.819013965,
              -3.276678453
            ],
            [
              119.819039998,
              -3.276592545
            ],
            [
              119.819073451,
              -3.276482148
            ],
            [
              119.819275706,
              -3.276416712
            ],
            [
              119.81938873,
              -3.276422661
            ],
            [
              119.819591948,
              -3.276437902
            ],
            [
              119.819626677,
              -3.276440507
            ],
            [
              119.819900315,
              -3.276416712
            ],
            [
              119.820072825,
              -3.276309636
            ],
            [
              119.820209644,
              -3.276113332
            ],
            [
              119.820286978,
              -3.275958666
            ],
            [
              119.820376207,
              -3.275714772
            ],
            [
              119.820489231,
              -3.275518466
            ],
            [
              119.82062605,
              -3.275316211
            ],
            [
              119.820733126,
              -3.275066368
            ],
            [
              119.820905637,
              -3.274870063
            ],
            [
              119.821107891,
              -3.274638065
            ],
            [
              119.821316093,
              -3.274417965
            ],
            [
              119.821631372,
              -3.27422166
            ],
            [
              119.821774141,
              -3.274144327
            ],
            [
              119.821899062,
              -3.274084841
            ],
            [
              119.822113213,
              -3.273971816
            ],
            [
              119.822291673,
              -3.273888536
            ],
            [
              119.822487978,
              -3.27386474
            ],
            [
              119.822874641,
              -3.273846894
            ],
            [
              119.823172073,
              -3.273829049
            ],
            [
              119.823445711,
              -3.273834997
            ],
            [
              119.823701503,
              -3.273799305
            ],
            [
              119.824183344,
              -3.273805254
            ],
            [
              119.82429042,
              -3.27378146
            ],
            [
              119.824480776,
              -3.273769563
            ],
            [
              119.824683031,
              -3.273763613
            ],
            [
              119.824932874,
              -3.27369223
            ],
            [
              119.825170821,
              -3.273608948
            ],
            [
              119.825408767,
              -3.27351377
            ],
            [
              119.825753789,
              -3.273263927
            ],
            [
              119.825848967,
              -3.27311521
            ],
            [
              119.825991734,
              -3.272877264
            ],
            [
              119.826080964,
              -3.272788034
            ],
            [
              119.826307012,
              -3.2725025
            ],
            [
              119.826437884,
              -3.272205066
            ],
            [
              119.826479524,
              -3.272157477
            ],
            [
              119.826622292,
              -3.271782712
            ],
            [
              119.826735316,
              -3.271413895
            ],
            [
              119.826771008,
              -3.271277077
            ],
            [
              119.826889981,
              -3.271051028
            ],
            [
              119.827032748,
              -3.270884466
            ],
            [
              119.827199312,
              -3.270670314
            ],
            [
              119.827330182,
              -3.27051565
            ],
            [
              119.827532436,
              -3.270319343
            ],
            [
              119.827693049,
              -3.270128987
            ],
            [
              119.82799643,
              -3.269908886
            ],
            [
              119.828192736,
              -3.26976017
            ],
            [
              119.828353351,
              -3.269700684
            ],
            [
              119.828591296,
              -3.269599557
            ],
            [
              119.828757857,
              -3.269563865
            ],
            [
              119.828966061,
              -3.269528173
            ],
            [
              119.829120726,
              -3.269486532
            ],
            [
              119.829269442,
              -3.26945084
            ],
            [
              119.829394363,
              -3.269367559
            ],
            [
              119.82945385,
              -3.269230741
            ],
            [
              119.829566875,
              -3.269082024
            ],
            [
              119.829775077,
              -3.268974948
            ],
            [
              119.82994164,
              -3.268832181
            ],
            [
              119.830048716,
              -3.268653721
            ],
            [
              119.830221227,
              -3.268374135
            ],
            [
              119.830310456,
              -3.26826111
            ],
            [
              119.830417532,
              -3.268219469
            ],
            [
              119.830697119,
              -3.268177829
            ],
            [
              119.830869629,
              -3.26813024
            ],
            [
              119.8310005,
              -3.268011266
            ],
            [
              119.831119473,
              -3.267844704
            ],
            [
              119.831256293,
              -3.26764245
            ],
            [
              119.831405008,
              -3.267481836
            ],
            [
              119.831565622,
              -3.267434248
            ],
            [
              119.831744082,
              -3.267446144
            ],
            [
              119.831892798,
              -3.267452093
            ],
            [
              119.832101001,
              -3.267392607
            ],
            [
              119.832297307,
              -3.267267685
            ],
            [
              119.832570944,
              -3.267041635
            ],
            [
              119.832749404,
              -3.266821536
            ],
            [
              119.83281484,
              -3.266708511
            ],
            [
              119.832779147,
              -3.266488412
            ],
            [
              119.832749404,
              -3.266345644
            ],
            [
              119.832707764,
              -3.266220723
            ],
            [
              119.832624482,
              -3.266042262
            ],
            [
              119.832547149,
              -3.265840009
            ],
            [
              119.832481714,
              -3.265691293
            ],
            [
              119.832434125,
              -3.265417654
            ],
            [
              119.832434125,
              -3.265096427
            ],
            [
              119.832511458,
              -3.264846583
            ],
            [
              119.832564995,
              -3.264614585
            ],
            [
              119.832672071,
              -3.264358793
            ],
            [
              119.832731558,
              -3.264216027
            ],
            [
              119.83285648,
              -3.264144642
            ],
            [
              119.833058734,
              -3.264031618
            ],
            [
              119.83325504,
              -3.263924542
            ],
            [
              119.833463243,
              -3.263811518
            ],
            [
              119.833665497,
              -3.263722288
            ],
            [
              119.833891545,
              -3.263609263
            ],
            [
              119.834105697,
              -3.263537879
            ],
            [
              119.834361488,
              -3.263508136
            ],
            [
              119.834599434,
              -3.263442701
            ],
            [
              119.834748151,
              -3.263359421
            ],
            [
              119.834932559,
              -3.263252345
            ],
            [
              119.83506343,
              -3.263079833
            ],
            [
              119.835158608,
              -3.26287758
            ],
            [
              119.835319222,
              -3.262657479
            ],
            [
              119.835396555,
              -3.262437379
            ],
            [
              119.835467938,
              -3.262247022
            ],
            [
              119.835484897,
              -3.262094388
            ],
            [
              119.835491733,
              -3.26203287
            ],
            [
              119.835527425,
              -3.261824668
            ],
            [
              119.835533373,
              -3.261693797
            ],
            [
              119.835589262,
              -3.261628188
            ],
            [
              119.835670192,
              -3.261533184
            ],
            [
              119.835777268,
              -3.261485594
            ],
            [
              119.835872446,
              -3.261396365
            ],
            [
              119.835973574,
              -3.26133093
            ],
            [
              119.836223418,
              -3.261259546
            ],
            [
              119.836354288,
              -3.261206008
            ],
            [
              119.836592233,
              -3.261146522
            ],
            [
              119.836800436,
              -3.261027549
            ],
            [
              119.83700269,
              -3.26097401
            ],
            [
              119.837163304,
              -3.26093237
            ],
            [
              119.837341764,
              -3.260896678
            ],
            [
              119.837532121,
              -3.260866934
            ],
            [
              119.837728473,
              -3.261003849
            ],
            [
              119.837975636,
              -3.260926645
            ],
            [
              119.83807054,
              -3.260840308
            ],
            [
              119.838307921,
              -3.260667501
            ],
            [
              119.838555459,
              -3.260724178
            ],
            [
              119.838783729,
              -3.260694841
            ],
            [
              119.839011729,
              -3.260569876
            ],
            [
              119.839268353,
              -3.260473518
            ],
            [
              119.839477351,
              -3.260358169
            ],
            [
              119.839724299,
              -3.26020446
            ],
            [
              119.840094776,
              -3.259993023
            ],
            [
              119.840256254,
              -3.259896935
            ],
            [
              119.840550721,
              -3.259723966
            ],
            [
              119.84070399,
              -3.25965639
            ],
            [
              119.841798978,
              -3.260267047
            ],
            [
              119.841839576,
              -3.260438254
            ],
            [
              119.841917082,
              -3.260509756
            ],
            [
              119.841982528,
              -3.260521524
            ],
            [
              119.842042246,
              -3.260611007
            ],
            [
              119.842162671,
              -3.260686933
            ],
            [
              119.842194977,
              -3.260818914
            ],
            [
              119.842257996,
              -3.261076374
            ],
            [
              119.842290421,
              -3.261105786
            ],
            [
              119.842373767,
              -3.26113902
            ],
            [
              119.842407209,
              -3.26118913
            ],
            [
              119.842416912,
              -3.261256044
            ],
            [
              119.842436176,
              -3.261339666
            ],
            [
              119.842474509,
              -3.261437577
            ],
            [
              119.842380684,
              -3.261907387
            ],
            [
              119.842345534,
              -3.262095878
            ],
            [
              119.842345702,
              -3.262155646
            ],
            [
              119.842331632,
              -3.262227409
            ],
            [
              119.842322413,
              -3.262332628
            ],
            [
              119.842296644,
              -3.262473756
            ],
            [
              119.842282661,
              -3.262576598
            ],
            [
              119.842282978,
              -3.262688962
            ],
            [
              119.842288037,
              -3.26279653
            ],
            [
              119.842285908,
              -3.262884995
            ],
            [
              119.842324248,
              -3.262985297
            ],
            [
              119.842358977,
              -3.263070071
            ],
            [
              119.842407003,
              -3.263231309
            ],
            [
              119.842413555,
              -3.263446458
            ],
            [
              119.842419905,
              -3.263589885
            ],
            [
              119.84238473,
              -3.263769291
            ],
            [
              119.842331883,
              -3.264008516
            ],
            [
              119.842290895,
              -3.264235754
            ],
            [
              119.842232035,
              -3.264451089
            ],
            [
              119.842179205,
              -3.264696292
            ],
            [
              119.842167547,
              -3.26478
            ],
            [
              119.842151886,
              -3.264787049
            ],
            [
              119.842128523,
              -3.264997326
            ],
            [
              119.842071415,
              -3.265282861
            ],
            [
              119.842090451,
              -3.265663575
            ],
            [
              119.842138039,
              -3.265930074
            ],
            [
              119.842252254,
              -3.266320306
            ],
            [
              119.842352053,
              -3.26664692
            ],
            [
              119.84235845,
              -3.266639735
            ],
            [
              119.842364088,
              -3.26665819
            ],
            [
              119.84253541,
              -3.267076974
            ],
            [
              119.842592516,
              -3.267429135
            ],
            [
              119.842592266,
              -3.267435765
            ],
            [
              119.842686386,
              -3.267500042
            ],
            [
              119.842745873,
              -3.267666606
            ],
            [
              119.842769667,
              -3.267940242
            ],
            [
              119.842698284,
              -3.268172241
            ],
            [
              119.84258526,
              -3.268487519
            ],
            [
              119.842584665,
              -3.268488584
            ],
            [
              119.842580839,
              -3.268484695
            ],
            [
              119.842578121,
              -3.268492278
            ],
            [
              119.842435354,
              -3.26874807
            ],
            [
              119.842352072,
              -3.268962221
            ],
            [
              119.842305673,
              -3.269260606
            ],
            [
              119.84214149,
              -3.269653217
            ],
            [
              119.842041553,
              -3.270060105
            ],
            [
              119.842048691,
              -3.270438439
            ],
            [
              119.84214149,
              -3.270695421
            ],
            [
              119.842194559,
              -3.270805349
            ],
            [
              119.842201948,
              -3.27080111
            ],
            [
              119.842248566,
              -3.270897675
            ],
            [
              119.842427026,
              -3.271218902
            ],
            [
              119.84258407,
              -3.271491589
            ],
            [
              119.842705422,
              -3.271712879
            ],
            [
              119.842791083,
              -3.271955583
            ],
            [
              119.842955266,
              -3.272248257
            ],
            [
              119.843090895,
              -3.272505238
            ],
            [
              119.843276493,
              -3.272697975
            ],
            [
              119.843460553,
              -3.272853718
            ],
            [
              119.843479096,
              -3.27284685
            ],
            [
              119.843700386,
              -3.272918234
            ],
            [
              119.843871707,
              -3.272961064
            ],
            [
              119.843921675,
              -3.273103832
            ],
            [
              119.843957369,
              -3.273253737
            ],
            [
              119.843968889,
              -3.273334382
            ],
            [
              119.843961479,
              -3.273337247
            ],
            [
              119.843971644,
              -3.273408403
            ],
            [
              119.843992313,
              -3.273518635
            ],
            [
              119.84399306,
              -3.273522617
            ],
            [
              119.844071583,
              -3.273715353
            ],
            [
              119.844157242,
              -3.273886675
            ],
            [
              119.844250041,
              -3.27399375
            ],
            [
              119.844364255,
              -3.274079411
            ],
            [
              119.844499885,
              -3.274086549
            ],
            [
              119.844556992,
              -3.274000889
            ],
            [
              119.844635514,
              -3.273850983
            ],
            [
              119.844665689,
              -3.273832877
            ],
            [
              119.84474259,
              -3.273786738
            ],
            [
              119.844878219,
              -3.273751045
            ],
            [
              119.845149478,
              -3.273872398
            ],
            [
              119.845320799,
              -3.274015166
            ],
            [
              119.845413599,
              -3.274186486
            ],
            [
              119.84553495,
              -3.274457745
            ],
            [
              119.845642026,
              -3.274693312
            ],
            [
              119.845720549,
              -3.274928879
            ],
            [
              119.845806208,
              -3.275114477
            ],
            [
              119.84589187,
              -3.275314351
            ],
            [
              119.846277343,
              -3.27581047
            ],
            [
              119.846355865,
              -3.276024621
            ],
            [
              119.846462941,
              -3.27629588
            ],
            [
              119.846470079,
              -3.276538583
            ],
            [
              119.846493626,
              -3.27669164
            ],
            [
              119.846501336,
              -3.276690597
            ],
            [
              119.84650577,
              -3.276719422
            ],
            [
              119.846541462,
              -3.276855052
            ],
            [
              119.84653611,
              -3.276890735
            ],
            [
              119.846552356,
              -3.276933381
            ],
            [
              119.846671103,
              -3.277040254
            ],
            [
              119.846722978,
              -3.277126712
            ],
            [
              119.84672142,
              -3.277140771
            ],
            [
              119.846753195,
              -3.277193729
            ],
            [
              119.846925706,
              -3.277372188
            ],
            [
              119.847044679,
              -3.277485213
            ],
            [
              119.847193395,
              -3.277610134
            ],
            [
              119.847330214,
              -3.277711261
            ],
            [
              119.847586006,
              -3.277836183
            ],
            [
              119.847752569,
              -3.277907567
            ],
            [
              119.848050002,
              -3.277883772
            ],
            [
              119.848198717,
              -3.277949208
            ],
            [
              119.848180872,
              -3.278097924
            ],
            [
              119.848222512,
              -3.278205
            ],
            [
              119.848168974,
              -3.278318024
            ],
            [
              119.847901285,
              -3.278258538
            ],
            [
              119.847728407,
              -3.278253866
            ],
            [
              119.847681185,
              -3.278252588
            ],
            [
              119.847490827,
              -3.278323972
            ],
            [
              119.847455136,
              -3.27846674
            ],
            [
              119.847461085,
              -3.278573816
            ],
            [
              119.847467033,
              -3.27869279
            ],
            [
              119.847461084,
              -3.278782019
            ],
            [
              119.847425789,
              -3.278903031
            ],
            [
              119.847425789,
              -3.278929347
            ],
            [
              119.847425789,
              -3.278979912
            ],
            [
              119.847434712,
              -3.279012629
            ],
            [
              119.847455533,
              -3.279033448
            ],
            [
              119.847520967,
              -3.279045346
            ],
            [
              119.847525657,
              -3.279053109
            ],
            [
              119.847580057,
              -3.279049709
            ],
            [
              119.847758518,
              -3.27895453
            ],
            [
              119.847841799,
              -3.278829609
            ],
            [
              119.847883984,
              -3.278867959
            ],
            [
              119.847910604,
              -3.278869861
            ],
            [
              119.84795974,
              -3.278862841
            ],
            [
              119.848038104,
              -3.27882366
            ],
            [
              119.848079745,
              -3.278770122
            ],
            [
              119.848220313,
              -3.27862393
            ],
            [
              119.848218814,
              -3.27862073
            ],
            [
              119.84822846,
              -3.278610698
            ],
            [
              119.848335536,
              -3.278521468
            ],
            [
              119.848469869,
              -3.278407802
            ],
            [
              119.848490201,
              -3.278390598
            ],
            [
              119.848494075,
              -3.278398603
            ],
            [
              119.848513733,
              -3.278391133
            ],
            [
              119.84857372,
              -3.278303152
            ],
            [
              119.848640345,
              -3.278207974
            ],
            [
              119.848673658,
              -3.278146108
            ],
            [
              119.848730765,
              -3.278074724
            ],
            [
              119.848825943,
              -3.277993823
            ],
            [
              119.848916363,
              -3.277922438
            ],
            [
              119.849011541,
              -3.277855814
            ],
            [
              119.849087684,
              -3.277798707
            ],
            [
              119.849178104,
              -3.277774912
            ],
            [
              119.849282799,
              -3.277770153
            ],
            [
              119.849392255,
              -3.27778443
            ],
            [
              119.849535022,
              -3.277836779
            ],
            [
              119.849620683,
              -3.277879608
            ],
            [
              119.849730138,
              -3.277912921
            ],
            [
              119.84976821,
              -3.277993823
            ],
            [
              119.84976756,
              -3.277997202
            ],
            [
              119.84976821,
              -3.277998581
            ],
            [
              119.849744415,
              -3.278122314
            ],
            [
              119.849712395,
              -3.278148997
            ],
            [
              119.849630201,
              -3.278217492
            ],
            [
              119.849525505,
              -3.278341224
            ],
            [
              119.849473157,
              -3.278417367
            ],
            [
              119.849473157,
              -3.278507786
            ],
            [
              119.849496951,
              -3.278607724
            ],
            [
              119.849596889,
              -3.278655313
            ],
            [
              119.849730138,
              -3.278664831
            ],
            [
              119.84994905,
              -3.278560134
            ],
            [
              119.850034709,
              -3.278541098
            ],
            [
              119.850101334,
              -3.278636277
            ],
            [
              119.850206031,
              -3.278702902
            ],
            [
              119.85030121,
              -3.27875525
            ],
            [
              119.850362207,
              -3.278761561
            ],
            [
              119.850439218,
              -3.278769527
            ],
            [
              119.850520119,
              -3.278760009
            ],
            [
              119.850624816,
              -3.278802839
            ],
            [
              119.850710476,
              -3.27884567
            ],
            [
              119.850734271,
              -3.278940848
            ],
            [
              119.850733637,
              -3.278943069
            ],
            [
              119.850734271,
              -3.278945607
            ],
            [
              119.850715235,
              -3.279012232
            ],
            [
              119.850634334,
              -3.279140723
            ],
            [
              119.8506195,
              -3.279161119
            ],
            [
              119.850437843,
              -3.279567683
            ],
            [
              119.850348798,
              -3.279576164
            ],
            [
              119.850286932,
              -3.2795952
            ],
            [
              119.850244102,
              -3.279666584
            ],
            [
              119.850225066,
              -3.279828387
            ],
            [
              119.850225066,
              -3.279956878
            ],
            [
              119.850158441,
              -3.280190065
            ],
            [
              119.850159004,
              -3.280191753
            ],
            [
              119.850143126,
              -3.280227289
            ],
            [
              119.850143774,
              -3.280230805
            ],
            [
              119.850189612,
              -3.280479645
            ],
            [
              119.85020321,
              -3.280511939
            ],
            [
              119.850204964,
              -3.280511348
            ],
            [
              119.850246719,
              -3.280610516
            ],
            [
              119.850246719,
              -3.280739007
            ],
            [
              119.850246719,
              -3.280743766
            ],
            [
              119.850161059,
              -3.28090081
            ],
            [
              119.849968323,
              -3.281177779
            ],
            [
              119.849854109,
              -3.281363377
            ],
            [
              119.849739894,
              -3.281541836
            ],
            [
              119.849618542,
              -3.281741712
            ],
            [
              119.849540002,
              -3.281861589
            ],
            [
              119.849482913,
              -3.281948725
            ],
            [
              119.849347284,
              -3.282141461
            ],
            [
              119.849197377,
              -3.282305644
            ],
            [
              119.84901178,
              -3.282391305
            ],
            [
              119.848869011,
              -3.282462688
            ],
            [
              119.848653076,
              -3.282515037
            ],
            [
              119.848486514,
              -3.282538831
            ],
            [
              119.848467124,
              -3.282532918
            ],
            [
              119.84842822,
              -3.28256822
            ],
            [
              119.848385683,
              -3.282575118
            ],
            [
              119.847969278,
              -3.282717886
            ],
            [
              119.847624256,
              -3.282908242
            ],
            [
              119.84738631,
              -3.283217573
            ],
            [
              119.847282881,
              -3.283377417
            ],
            [
              119.84712457,
              -3.283622081
            ],
            [
              119.846596397,
              -3.283821612
            ],
            [
              119.846589191,
              -3.283824335
            ],
            [
              119.846279861,
              -3.283860027
            ],
            [
              119.846053812,
              -3.283812437
            ],
            [
              119.845827763,
              -3.283717259
            ],
            [
              119.845587438,
              -3.283622081
            ],
            [
              119.84544467,
              -3.283467416
            ],
            [
              119.845313799,
              -3.283265162
            ],
            [
              119.844933085,
              -3.283074805
            ],
            [
              119.844623755,
              -3.283003421
            ],
            [
              119.844326324,
              -3.283015318
            ],
            [
              119.844005097,
              -3.283122394
            ],
            [
              119.843767149,
              -3.283222332
            ],
            [
              119.843564896,
              -3.283388894
            ],
            [
              119.843350744,
              -3.283591148
            ],
            [
              119.843303155,
              -3.28375771
            ],
            [
              119.843338847,
              -3.283948067
            ],
            [
              119.843396545,
              -3.284092315
            ],
            [
              119.84341023,
              -3.284126527
            ],
            [
              119.843529203,
              -3.284304985
            ],
            [
              119.843648176,
              -3.284519137
            ],
            [
              119.843743355,
              -3.284757083
            ],
            [
              119.843802842,
              -3.285018824
            ],
            [
              119.843802841,
              -3.285268667
            ],
            [
              119.843719561,
              -3.285411435
            ],
            [
              119.843551148,
              -3.285395395
            ],
            [
              119.843469717,
              -3.285387641
            ],
            [
              119.843184181,
              -3.285268667
            ],
            [
              119.842577419,
              -3.285268668
            ],
            [
              119.842101527,
              -3.285268667
            ],
            [
              119.841827889,
              -3.285316257
            ],
            [
              119.841375791,
              -3.285387641
            ],
            [
              119.840828516,
              -3.285411435
            ],
            [
              119.840471595,
              -3.285506614
            ],
            [
              119.840305035,
              -3.285661278
            ],
            [
              119.84023365,
              -3.285970609
            ],
            [
              119.840174164,
              -3.286327527
            ],
            [
              119.84010278,
              -3.286696344
            ],
            [
              119.839981213,
              -3.287072094
            ],
            [
              119.83997191,
              -3.287100853
            ],
            [
              119.839841039,
              -3.28742208
            ],
            [
              119.839686374,
              -3.287671923
            ],
            [
              119.83948412,
              -3.287897972
            ],
            [
              119.839281866,
              -3.288016945
            ],
            [
              119.839195837,
              -3.288053815
            ],
            [
              119.838948741,
              -3.288159713
            ],
            [
              119.838942699,
              -3.288167481
            ],
            [
              119.838760445,
              -3.288234983
            ],
            [
              119.838503462,
              -3.288270675
            ],
            [
              119.838275035,
              -3.288342058
            ],
            [
              119.837932392,
              -3.288413442
            ],
            [
              119.837703964,
              -3.288520518
            ],
            [
              119.837432705,
              -3.288677563
            ],
            [
              119.837175723,
              -3.288870299
            ],
            [
              119.836993695,
              -3.289093016
            ],
            [
              119.836822373,
              -3.289235784
            ],
            [
              119.836665329,
              -3.289342861
            ],
            [
              119.836465455,
              -3.289442798
            ],
            [
              119.836222749,
              -3.289514182
            ],
            [
              119.835851553,
              -3.289449937
            ],
            [
              119.835551741,
              -3.289392829
            ],
            [
              119.83533759,
              -3.289485628
            ],
            [
              119.835137715,
              -3.289642672
            ],
            [
              119.834987808,
              -3.289721195
            ],
            [
              119.83489501,
              -3.289856823
            ],
            [
              119.834766519,
              -3.290070975
            ],
            [
              119.834666581,
              -3.290235158
            ],
            [
              119.834580922,
              -3.290427894
            ],
            [
              119.834295386,
              -3.290662033
            ],
            [
              119.834088373,
              -3.290854769
            ],
            [
              119.833817114,
              -3.291011814
            ],
            [
              119.833552994,
              -3.29120455
            ],
            [
              119.833403088,
              -3.291368733
            ],
            [
              119.833324565,
              -3.291532916
            ],
            [
              119.833267459,
              -3.291725652
            ],
            [
              119.833210351,
              -3.29186842
            ],
            [
              119.833089,
              -3.292061156
            ],
            [
              119.832981924,
              -3.292232478
            ],
            [
              119.832917678,
              -3.292432352
            ],
            [
              119.832860571,
              -3.292660781
            ],
            [
              119.832796325,
              -3.292960593
            ],
            [
              119.832717803,
              -3.293238989
            ],
            [
              119.832722895,
              -3.293247987
            ],
            [
              119.832670214,
              -3.293352728
            ],
            [
              119.832620245,
              -3.293481219
            ],
            [
              119.832448924,
              -3.293666816
            ],
            [
              119.83224905,
              -3.293788169
            ],
            [
              119.832120558,
              -3.293859553
            ],
            [
              119.832020621,
              -3.293952352
            ],
            [
              119.831963514,
              -3.294066567
            ],
            [
              119.831884992,
              -3.294195057
            ],
            [
              119.8317565,
              -3.294394932
            ],
            [
              119.831578042,
              -3.294516284
            ],
            [
              119.831449551,
              -3.294609083
            ],
            [
              119.831306783,
              -3.294773266
            ],
            [
              119.831199708,
              -3.294987418
            ],
            [
              119.831199708,
              -3.295165877
            ],
            [
              119.831242538,
              -3.295394306
            ],
            [
              119.831313921,
              -3.295738376
            ],
            [
              119.831328198,
              -3.29585259
            ],
            [
              119.831242538,
              -3.295995357
            ],
            [
              119.831194135,
              -3.296021758
            ],
            [
              119.831085494,
              -3.296081018
            ],
            [
              119.830971279,
              -3.296245201
            ],
            [
              119.830947832,
              -3.296344851
            ],
            [
              119.830942725,
              -3.296366552
            ],
            [
              119.830899895,
              -3.296537874
            ],
            [
              119.830785681,
              -3.296673504
            ],
            [
              119.830528699,
              -3.296837687
            ],
            [
              119.830278856,
              -3.29690907
            ],
            [
              119.830193195,
              -3.296994731
            ],
            [
              119.830200333,
              -3.297137498
            ],
            [
              119.830221749,
              -3.297315959
            ],
            [
              119.830221749,
              -3.297530109
            ],
            [
              119.830186057,
              -3.297715707
            ],
            [
              119.830007598,
              -3.297851337
            ],
            [
              119.82981486,
              -3.297951274
            ],
            [
              119.829679232,
              -3.298165426
            ],
            [
              119.829600709,
              -3.298336747
            ],
            [
              119.829529326,
              -3.298536622
            ],
            [
              119.829500772,
              -3.298822158
            ],
            [
              119.829500772,
              -3.299064862
            ],
            [
              119.829500772,
              -3.299350397
            ],
            [
              119.829515049,
              -3.299664486
            ],
            [
              119.829415112,
              -3.300035681
            ],
            [
              119.82928662,
              -3.300349771
            ],
            [
              119.82920096,
              -3.300692413
            ],
            [
              119.829143853,
              -3.301092163
            ],
            [
              119.828986809,
              -3.301434805
            ],
            [
              119.82884404,
              -3.301691786
            ],
            [
              119.82875838,
              -3.301905938
            ],
            [
              119.828829764,
              -3.302120089
            ],
            [
              119.828817701,
              -3.302397546
            ],
            [
              119.828833334,
              -3.302444444
            ],
            [
              119.828638889,
              -3.302944444
            ],
            [
              119.828083334,
              -3.303666667
            ],
            [
              119.827574797,
              -3.30364124
            ],
            [
              119.827497365,
              -3.303604368
            ],
            [
              119.827402187,
              -3.303646008
            ],
            [
              119.827354597,
              -3.303699546
            ],
            [
              119.827299215,
              -3.303810311
            ],
            [
              119.827295111,
              -3.303818519
            ],
            [
              119.827223727,
              -3.303955338
            ],
            [
              119.827176138,
              -3.303979134
            ],
            [
              119.827123583,
              -3.303942036
            ],
            [
              119.827075011,
              -3.303907749
            ],
            [
              119.826997678,
              -3.303824467
            ],
            [
              119.826932244,
              -3.303723341
            ],
            [
              119.826813271,
              -3.303675752
            ],
            [
              119.826640759,
              -3.30364006
            ],
            [
              119.826486094,
              -3.303610316
            ],
            [
              119.826367121,
              -3.303586522
            ],
            [
              119.826212457,
              -3.303532984
            ],
            [
              119.82614702,
              -3.303473498
            ],
            [
              119.826081586,
              -3.303408062
            ],
            [
              119.82597451,
              -3.303354525
            ],
            [
              119.825887704,
              -3.303364169
            ],
            [
              119.825867435,
              -3.303366421
            ],
            [
              119.825623539,
              -3.303443754
            ],
            [
              119.825456977,
              -3.30350324
            ],
            [
              119.825296363,
              -3.303509189
            ],
            [
              119.825141699,
              -3.303479446
            ],
            [
              119.825040572,
              -3.303419959
            ],
            [
              119.824897804,
              -3.303324782
            ],
            [
              119.824772882,
              -3.303229603
            ],
            [
              119.82460632,
              -3.303068989
            ],
            [
              119.824415963,
              -3.302926222
            ],
            [
              119.824415878,
              -3.302925545
            ],
            [
              119.824392169,
              -3.302735864
            ],
            [
              119.824332682,
              -3.302646634
            ],
            [
              119.824148274,
              -3.302479478
            ],
            [
              119.824047147,
              -3.302384299
            ],
            [
              119.823957917,
              -3.302295069
            ],
            [
              119.823809201,
              -3.302176096
            ],
            [
              119.823666433,
              -3.302039277
            ],
            [
              119.823535562,
              -3.301967893
            ],
            [
              119.82341666,
              -3.301908443
            ],
            [
              119.823377249,
              -3.301844399
            ],
            [
              119.823201849,
              -3.301830367
            ],
            [
              119.823198789,
              -3.301830124
            ],
            [
              119.823006053,
              -3.301773016
            ],
            [
              119.822870423,
              -3.301658801
            ],
            [
              119.822777624,
              -3.301558865
            ],
            [
              119.822727656,
              -3.301437511
            ],
            [
              119.82270149,
              -3.301387193
            ],
            [
              119.822634857,
              -3.301259052
            ],
            [
              119.822477813,
              -3.3011377
            ],
            [
              119.822363599,
              -3.301052039
            ],
            [
              119.82235442,
              -3.301038272
            ],
            [
              119.822320767,
              -3.300987793
            ],
            [
              119.822307217,
              -3.30093544
            ],
            [
              119.822263661,
              -3.300894994
            ],
            [
              119.822085202,
              -3.300752227
            ],
            [
              119.821842496,
              -3.300573767
            ],
            [
              119.821628345,
              -3.300366754
            ],
            [
              119.821506993,
              -3.30025254
            ],
            [
              119.821307118,
              -3.30016688
            ],
            [
              119.82107869,
              -3.30020971
            ],
            [
              119.820843123,
              -3.300281094
            ],
            [
              119.820657525,
              -3.300509522
            ],
            [
              119.8204757,
              -3.300647458
            ],
            [
              119.820416667,
              -3.300638889
            ],
            [
              119.819388889,
              -3.30088889
            ],
            [
              119.8185,
              -3.301027777
            ],
            [
              119.817472222,
              -3.300388889
            ],
            [
              119.816527778,
              -3.299388889
            ],
            [
              119.816694445,
              -3.298611111
            ],
            [
              119.816916667,
              -3.298166667
            ],
            [
              119.816472223,
              -3.297361112
            ],
            [
              119.816138889,
              -3.296555555
            ],
            [
              119.816055555,
              -3.296416667
            ],
            [
              119.815916666,
              -3.296055556
            ],
            [
              119.815666667,
              -3.295472222
            ],
            [
              119.815805555,
              -3.295333333
            ],
            [
              119.815972222,
              -3.294833333
            ],
            [
              119.816444444,
              -3.293638889
            ],
            [
              119.816611111,
              -3.292694444
            ],
            [
              119.816805555,
              -3.292194445
            ],
            [
              119.816861111,
              -3.291916666
            ],
            [
              119.817083333,
              -3.291138889
            ],
            [
              119.816777778,
              -3.290333333
            ],
            [
              119.816027778,
              -3.290305555
            ],
            [
              119.816194445,
              -3.288833334
            ],
            [
              119.815388889,
              -3.287833332
            ],
            [
              119.815916667,
              -3.286527778
            ],
            [
              119.816111111,
              -3.286083334
            ],
            [
              119.816194445,
              -3.285499999
            ],
            [
              119.8165,
              -3.285277778
            ],
            [
              119.817277778,
              -3.284972222
            ],
            [
              119.817777778,
              -3.284833333
            ],
            [
              119.818027777,
              -3.284194444
            ],
            [
              119.817960832,
              -3.283357623
            ],
            [
              119.817956206,
              -3.2832998
            ],
            [
              119.817931642,
              -3.282992747
            ],
            [
              119.817930938,
              -3.2829831
            ]
          ]
        ]
      }
    }
  ]
}