{
  "type": "FeatureCollection",
  "features": [
    {
      "type": "Feature",
      "properties": {
        "idx": "1278",
        "nama_kewilayahan": "Tangsa"
      },
      "geometry": {
        "type": "Polygon",
        "coordinates": [
          [
            [
              119.814742833,
              -3.248636505
            ],
            [
              119.814739559,
              -3.248634868
            ],
            [
              119.814720429,
              -3.248625303
            ],
            [
              119.814715923,
              -3.24862305
            ],
            [
              119.814695243,
              -3.248612711
            ],
            [
              119.814604976,
              -3.248635278
            ],
            [
              119.814596158,
              -3.248637482
            ],
            [
              119.814433503,
              -3.248678146
            ],
            [
              119.814380365,
              -3.248693328
            ],
            [
              119.814346997,
              -3.248702862
            ],
            [
              119.814308581,
              -3.248713837
            ],
            [
              119.814112276,
              -3.248785221
            ],
            [
              119.813927867,
              -3.248886349
            ],
            [
              119.813624486,
              -3.248975579
            ],
            [
              119.813327053,
              -3.249076705
            ],
            [
              119.813136697,
              -3.249165936
            ],
            [
              119.81285711,
              -3.249302754
            ],
            [
              119.812642958,
              -3.249397933
            ],
            [
              119.812464498,
              -3.249540701
            ],
            [
              119.812357423,
              -3.249659674
            ],
            [
              119.812173014,
              -3.249885723
            ],
            [
              119.81197671,
              -3.250070131
            ],
            [
              119.811780404,
              -3.250278334
            ],
            [
              119.811607892,
              -3.250474638
            ],
            [
              119.811328306,
              -3.250754226
            ],
            [
              119.811126052,
              -3.250938634
            ],
            [
              119.81087026,
              -3.251111144
            ],
            [
              119.810584725,
              -3.25130745
            ],
            [
              119.810305138,
              -3.251450218
            ],
            [
              119.810114781,
              -3.251551346
            ],
            [
              119.809817348,
              -3.251694113
            ],
            [
              119.809626992,
              -3.251801189
            ],
            [
              119.809537762,
              -3.251830931
            ],
            [
              119.809317662,
              -3.251813085
            ],
            [
              119.80919274,
              -3.251646523
            ],
            [
              119.809139202,
              -3.251533499
            ],
            [
              119.80905592,
              -3.251325296
            ],
            [
              119.808877461,
              -3.251212271
            ],
            [
              119.808746591,
              -3.251224169
            ],
            [
              119.808675207,
              -3.251355039
            ],
            [
              119.808603823,
              -3.251545397
            ],
            [
              119.80853244,
              -3.251729804
            ],
            [
              119.808413467,
              -3.251908264
            ],
            [
              119.80835398,
              -3.252128364
            ],
            [
              119.808258802,
              -3.252390105
            ],
            [
              119.808127931,
              -3.252520975
            ],
            [
              119.807937575,
              -3.252651846
            ],
            [
              119.807622296,
              -3.252687537
            ],
            [
              119.807449785,
              -3.252705384
            ],
            [
              119.807211839,
              -3.252729179
            ],
            [
              119.807051225,
              -3.252735127
            ],
            [
              119.806902509,
              -3.252758921
            ],
            [
              119.806837035,
              -3.252731829
            ],
            [
              119.806729998,
              -3.252687538
            ],
            [
              119.806242208,
              -3.252830305
            ],
            [
              119.806198654,
              -3.252879303
            ],
            [
              119.806175245,
              -3.25290564
            ],
            [
              119.806147031,
              -3.252937382
            ],
            [
              119.806133036,
              -3.252942511
            ],
            [
              119.805790111,
              -3.253068252
            ],
            [
              119.805641394,
              -3.253139635
            ],
            [
              119.805510524,
              -3.253312146
            ],
            [
              119.80521904,
              -3.253579836
            ],
            [
              119.805052478,
              -3.253793988
            ],
            [
              119.804802635,
              -3.25408547
            ],
            [
              119.804630123,
              -3.254341263
            ],
            [
              119.804505202,
              -3.254501877
            ],
            [
              119.804195871,
              -3.254948026
            ],
            [
              119.804106643,
              -3.255072948
            ],
            [
              119.803975771,
              -3.255298996
            ],
            [
              119.803791363,
              -3.255525044
            ],
            [
              119.803666441,
              -3.25567971
            ],
            [
              119.803487983,
              -3.255959296
            ],
            [
              119.803327368,
              -3.256197242
            ],
            [
              119.803166755,
              -3.256411393
            ],
            [
              119.802934758,
              -3.256702878
            ],
            [
              119.80279199,
              -3.256881338
            ],
            [
              119.80257189,
              -3.257107386
            ],
            [
              119.802381532,
              -3.257154975
            ],
            [
              119.802143587,
              -3.257131181
            ],
            [
              119.801917537,
              -3.257077643
            ],
            [
              119.801762873,
              -3.257012208
            ],
            [
              119.80155467,
              -3.256893235
            ],
            [
              119.801423799,
              -3.256905133
            ],
            [
              119.801411902,
              -3.256917029
            ],
            [
              119.801358365,
              -3.257012208
            ],
            [
              119.801263186,
              -3.257149026
            ],
            [
              119.801185854,
              -3.257285846
            ],
            [
              119.800953856,
              -3.257416717
            ],
            [
              119.800811089,
              -3.257464305
            ],
            [
              119.800638577,
              -3.257470254
            ],
            [
              119.800489862,
              -3.257535689
            ],
            [
              119.800394684,
              -3.257660611
            ],
            [
              119.800257864,
              -3.257684405
            ],
            [
              119.80018648,
              -3.257660611
            ],
            [
              119.80009725,
              -3.257595176
            ],
            [
              119.800025866,
              -3.257517844
            ],
            [
              119.799847407,
              -3.257541638
            ],
            [
              119.79978792,
              -3.257613022
            ],
            [
              119.799805766,
              -3.257815276
            ],
            [
              119.799817663,
              -3.257975889
            ],
            [
              119.799752229,
              -3.258231681
            ],
            [
              119.799662999,
              -3.258332808
            ],
            [
              119.799561872,
              -3.25859455
            ],
            [
              119.799454796,
              -3.258808701
            ],
            [
              119.799365566,
              -3.259022853
            ],
            [
              119.799264439,
              -3.259183465
            ],
            [
              119.799264438,
              -3.259350029
            ],
            [
              119.799288233,
              -3.259582026
            ],
            [
              119.799401258,
              -3.25974264
            ],
            [
              119.799484539,
              -3.259855664
            ],
            [
              119.799549975,
              -3.260040072
            ],
            [
              119.799526179,
              -3.260147147
            ],
            [
              119.799407206,
              -3.260218532
            ],
            [
              119.799228747,
              -3.260260172
            ],
            [
              119.799020545,
              -3.260278019
            ],
            [
              119.79881829,
              -3.260307762
            ],
            [
              119.798681471,
              -3.260361299
            ],
            [
              119.798497063,
              -3.260539759
            ],
            [
              119.798348346,
              -3.260706321
            ],
            [
              119.798229373,
              -3.260920473
            ],
            [
              119.798086606,
              -3.261164368
            ],
            [
              119.798027119,
              -3.261443955
            ],
            [
              119.797961684,
              -3.261717592
            ],
            [
              119.797836763,
              -3.262003128
            ],
            [
              119.797705891,
              -3.26225892
            ],
            [
              119.797771327,
              -3.262467122
            ],
            [
              119.797854609,
              -3.262651531
            ],
            [
              119.797908146,
              -3.26291922
            ],
            [
              119.797943838,
              -3.263234498
            ],
            [
              119.79802117,
              -3.263460547
            ],
            [
              119.797997376,
              -3.263829364
            ],
            [
              119.797997376,
              -3.264043515
            ],
            [
              119.798027119,
              -3.26450751
            ],
            [
              119.798009273,
              -3.264804942
            ],
            [
              119.79797953,
              -3.265001249
            ],
            [
              119.797961684,
              -3.265292733
            ],
            [
              119.797955735,
              -3.26556637
            ],
            [
              119.797884351,
              -3.265810265
            ],
            [
              119.797866506,
              -3.266054159
            ],
            [
              119.797795122,
              -3.266190979
            ],
            [
              119.79775943,
              -3.266702563
            ],
            [
              119.797735635,
              -3.266970252
            ],
            [
              119.797765379,
              -3.267190353
            ],
            [
              119.797866506,
              -3.267434247
            ],
            [
              119.797943838,
              -3.267624605
            ],
            [
              119.798056863,
              -3.267832807
            ],
            [
              119.798152041,
              -3.26804101
            ],
            [
              119.798092554,
              -3.268142137
            ],
            [
              119.797985479,
              -3.268255162
            ],
            [
              119.797812967,
              -3.268374134
            ],
            [
              119.797586919,
              -3.268439569
            ],
            [
              119.797372767,
              -3.268600183
            ],
            [
              119.797253795,
              -3.26865967
            ],
            [
              119.797039643,
              -3.268814335
            ],
            [
              119.796837389,
              -3.268951154
            ],
            [
              119.796641083,
              -3.26905228
            ],
            [
              119.796397188,
              -3.269171253
            ],
            [
              119.796206831,
              -3.269290227
            ],
            [
              119.796028372,
              -3.269474635
            ],
            [
              119.796028372,
              -3.269635249
            ],
            [
              119.796040269,
              -3.269867247
            ],
            [
              119.796052167,
              -3.270051655
            ],
            [
              119.795891552,
              -3.270277704
            ],
            [
              119.795760683,
              -3.2702896
            ],
            [
              119.79559412,
              -3.270277703
            ],
            [
              119.795445404,
              -3.270224165
            ],
            [
              119.795219356,
              -3.270152782
            ],
            [
              119.79506469,
              -3.270021911
            ],
            [
              119.794838641,
              -3.269968374
            ],
            [
              119.794565004,
              -3.269920784
            ],
            [
              119.794380595,
              -3.269867247
            ],
            [
              119.794279468,
              -3.269772068
            ],
            [
              119.794249725,
              -3.269653095
            ],
            [
              119.79414265,
              -3.269403251
            ],
            [
              119.794129289,
              -3.269313073
            ],
            [
              119.794118855,
              -3.269242638
            ],
            [
              119.794128066,
              -3.2691413
            ],
            [
              119.7941367,
              -3.269046332
            ],
            [
              119.794106957,
              -3.268838129
            ],
            [
              119.79404747,
              -3.268564491
            ],
            [
              119.794059368,
              -3.268249213
            ],
            [
              119.794065316,
              -3.268052908
            ],
            [
              119.794131751,
              -3.267782425
            ],
            [
              119.794148598,
              -3.267713834
            ],
            [
              119.794178341,
              -3.267535375
            ],
            [
              119.794309211,
              -3.267350966
            ],
            [
              119.794463877,
              -3.267309326
            ],
            [
              119.794767258,
              -3.267249838
            ],
            [
              119.794838641,
              -3.267231993
            ],
            [
              119.794939768,
              -3.267148712
            ],
            [
              119.794862437,
              -3.267059482
            ],
            [
              119.794654233,
              -3.266833433
            ],
            [
              119.794285417,
              -3.266536001
            ],
            [
              119.79409506,
              -3.266280209
            ],
            [
              119.793880908,
              -3.266101749
            ],
            [
              119.793684603,
              -3.265905444
            ],
            [
              119.793393119,
              -3.265608011
            ],
            [
              119.793155173,
              -3.265411706
            ],
            [
              119.793042148,
              -3.265274886
            ],
            [
              119.793048097,
              -3.265161862
            ],
            [
              119.79311948,
              -3.265060735
            ],
            [
              119.793238454,
              -3.264971505
            ],
            [
              119.793327683,
              -3.264822789
            ],
            [
              119.793262249,
              -3.264680021
            ],
            [
              119.793054046,
              -3.264531305
            ],
            [
              119.792732818,
              -3.264358794
            ],
            [
              119.792494872,
              -3.264227924
            ],
            [
              119.792203389,
              -3.264079206
            ],
            [
              119.79191905,
              -3.263966201
            ],
            [
              119.791740888,
              -3.263895393
            ],
            [
              119.791739393,
              -3.263894799
            ],
            [
              119.791584728,
              -3.26384721
            ],
            [
              119.791364629,
              -3.263811518
            ],
            [
              119.791198066,
              -3.263775826
            ],
            [
              119.791197294,
              -3.263774693
            ],
            [
              119.791108836,
              -3.263644955
            ],
            [
              119.790924429,
              -3.263472445
            ],
            [
              119.790710277,
              -3.263288036
            ],
            [
              119.790478279,
              -3.263109576
            ],
            [
              119.790276025,
              -3.262996553
            ],
            [
              119.790139205,
              -3.262937066
            ],
            [
              119.789794184,
              -3.262764555
            ],
            [
              119.789568135,
              -3.262657479
            ],
            [
              119.789306395,
              -3.262574198
            ],
            [
              119.789116038,
              -3.262496866
            ],
            [
              119.788985167,
              -3.262336252
            ],
            [
              119.788830502,
              -3.262241074
            ],
            [
              119.78875317,
              -3.262145895
            ],
            [
              119.788580659,
              -3.261937692
            ],
            [
              119.788527121,
              -3.261830616
            ],
            [
              119.788253483,
              -3.261515338
            ],
            [
              119.788098818,
              -3.261408262
            ],
            [
              119.788015537,
              -3.261253597
            ],
            [
              119.787932256,
              -3.261087035
            ],
            [
              119.787831129,
              -3.26088478
            ],
            [
              119.78760508,
              -3.260753911
            ],
            [
              119.787580325,
              -3.260742417
            ],
            [
              119.787438518,
              -3.260676578
            ],
            [
              119.787158931,
              -3.260551656
            ],
            [
              119.787016164,
              -3.260521913
            ],
            [
              119.786915037,
              -3.260462426
            ],
            [
              119.786694937,
              -3.260307762
            ],
            [
              119.786522425,
              -3.260147147
            ],
            [
              119.786403452,
              -3.259980586
            ],
            [
              119.786296377,
              -3.259938945
            ],
            [
              119.786117917,
              -3.259909201
            ],
            [
              119.785945407,
              -3.25991515
            ],
            [
              119.785755049,
              -3.259903253
            ],
            [
              119.785534949,
              -3.259903253
            ],
            [
              119.785356489,
              -3.259909202
            ],
            [
              119.785118543,
              -3.259814023
            ],
            [
              119.784934134,
              -3.259665308
            ],
            [
              119.784860447,
              -3.259605015
            ],
            [
              119.784803264,
              -3.259558231
            ],
            [
              119.784606959,
              -3.259439259
            ],
            [
              119.784440397,
              -3.259367874
            ],
            [
              119.784267886,
              -3.259266747
            ],
            [
              119.784077529,
              -3.259159672
            ],
            [
              119.78394071,
              -3.259135877
            ],
            [
              119.783649226,
              -3.259112082
            ],
            [
              119.783357742,
              -3.259058544
            ],
            [
              119.78310195,
              -3.259058545
            ],
            [
              119.782875902,
              -3.258969314
            ],
            [
              119.782584417,
              -3.258832496
            ],
            [
              119.782388111,
              -3.258773009
            ],
            [
              119.78217396,
              -3.258743265
            ],
            [
              119.782078782,
              -3.258737317
            ],
            [
              119.781769451,
              -3.258612396
            ],
            [
              119.781727811,
              -3.258523166
            ],
            [
              119.781579095,
              -3.258207887
            ],
            [
              119.781573147,
              -3.258154349
            ],
            [
              119.781358995,
              -3.258077016
            ],
            [
              119.781150792,
              -3.258077017
            ],
            [
              119.78107346,
              -3.258130554
            ],
            [
              119.78102587,
              -3.258201939
            ],
            [
              119.780972333,
              -3.258380398
            ],
            [
              119.780889051,
              -3.258564807
            ],
            [
              119.780877154,
              -3.258719471
            ],
            [
              119.780859308,
              -3.258915777
            ],
            [
              119.780781976,
              -3.259195363
            ],
            [
              119.78072249,
              -3.259350028
            ],
            [
              119.780639208,
              -3.259421412
            ],
            [
              119.78049644,
              -3.259492796
            ],
            [
              119.780359621,
              -3.259534437
            ],
            [
              119.780252545,
              -3.259534437
            ],
            [
              119.780085984,
              -3.259534437
            ],
            [
              119.780008651,
              -3.259486847
            ],
            [
              119.779937267,
              -3.259379772
            ],
            [
              119.779883729,
              -3.259278644
            ],
            [
              119.779824243,
              -3.259153723
            ],
            [
              119.779735012,
              -3.258963366
            ],
            [
              119.779627937,
              -3.258909828
            ],
            [
              119.779538707,
              -3.258909828
            ],
            [
              119.779300761,
              -3.258951469
            ],
            [
              119.779152045,
              -3.259064493
            ],
            [
              119.779056866,
              -3.25916562
            ],
            [
              119.779050917,
              -3.259320285
            ],
            [
              119.779009277,
              -3.259546335
            ],
            [
              119.778973585,
              -3.259760485
            ],
            [
              119.778973585,
              -3.259950842
            ],
            [
              119.778943102,
              -3.260007454
            ],
            [
              119.778931945,
              -3.260028175
            ],
            [
              119.778842715,
              -3.260081713
            ],
            [
              119.778610718,
              -3.260170942
            ],
            [
              119.778586923,
              -3.260218531
            ],
            [
              119.778557179,
              -3.260385094
            ],
            [
              119.778533384,
              -3.260551656
            ],
            [
              119.778527436,
              -3.260646835
            ],
            [
              119.778467949,
              -3.260789602
            ],
            [
              119.778384669,
              -3.260807449
            ],
            [
              119.778259746,
              -3.2608015
            ],
            [
              119.778194311,
              -3.260783653
            ],
            [
              119.777944468,
              -3.260724167
            ],
            [
              119.777825495,
              -3.260706321
            ],
            [
              119.777740053,
              -3.260700625
            ],
            [
              119.777647036,
              -3.260694424
            ],
            [
              119.777462627,
              -3.260694424
            ],
            [
              119.777355551,
              -3.260771756
            ],
            [
              119.777379346,
              -3.260849088
            ],
            [
              119.777456679,
              -3.260985908
            ],
            [
              119.777551857,
              -3.261176265
            ],
            [
              119.777593498,
              -3.261348776
            ],
            [
              119.777504268,
              -3.261443955
            ],
            [
              119.777313911,
              -3.261509389
            ],
            [
              119.777153297,
              -3.261509389
            ],
            [
              119.777028376,
              -3.261449903
            ],
            [
              119.776772584,
              -3.261426108
            ],
            [
              119.776629816,
              -3.261372571
            ],
            [
              119.776451356,
              -3.261295238
            ],
            [
              119.77630264,
              -3.261182213
            ],
            [
              119.77621341,
              -3.261134624
            ],
            [
              119.775963567,
              -3.260962113
            ],
            [
              119.775820799,
              -3.260920473
            ],
            [
              119.775636391,
              -3.260866934
            ],
            [
              119.775517419,
              -3.26093237
            ],
            [
              119.775475777,
              -3.261015651
            ],
            [
              119.775362753,
              -3.261027549
            ],
            [
              119.775237832,
              -3.261033498
            ],
            [
              119.775096796,
              -3.261058178
            ],
            [
              119.775001329,
              -3.261074885
            ],
            [
              119.774999886,
              -3.261075138
            ],
            [
              119.774948739,
              -3.26111776
            ],
            [
              119.774921922,
              -3.261140107
            ],
            [
              119.77489281,
              -3.261164367
            ],
            [
              119.774818546,
              -3.261364306
            ],
            [
              119.774815477,
              -3.26137257
            ],
            [
              119.774805556,
              -3.261305555
            ],
            [
              119.774583333,
              -3.260888889
            ],
            [
              119.775027778,
              -3.260138889
            ],
            [
              119.774805556,
              -3.259527777
            ],
            [
              119.774472222,
              -3.259
            ],
            [
              119.773611111,
              -3.25825
            ],
            [
              119.773472222,
              -3.257861111
            ],
            [
              119.773166666,
              -3.257499999
            ],
            [
              119.772916667,
              -3.256944444
            ],
            [
              119.772611111,
              -3.256361111
            ],
            [
              119.772305556,
              -3.255694444
            ],
            [
              119.77225,
              -3.255444444
            ],
            [
              119.772305556,
              -3.255138889
            ],
            [
              119.772527778,
              -3.254694445
            ],
            [
              119.772861112,
              -3.25425
            ],
            [
              119.773111111,
              -3.253444445
            ],
            [
              119.772972222,
              -3.253027778
            ],
            [
              119.772972222,
              -3.252638888
            ],
            [
              119.773055555,
              -3.251944445
            ],
            [
              119.772833333,
              -3.251361111
            ],
            [
              119.772833333,
              -3.251027777
            ],
            [
              119.773055555,
              -3.250638889
            ],
            [
              119.773305556,
              -3.250166667
            ],
            [
              119.773277778,
              -3.250166667
            ],
            [
              119.773777778,
              -3.242333333
            ],
            [
              119.773861111,
              -3.241527778
            ],
            [
              119.775027777,
              -3.240638889
            ],
            [
              119.776805556,
              -3.241138889
            ],
            [
              119.781279603,
              -3.237731329
            ],
            [
              119.781583333,
              -3.2375
            ],
            [
              119.781767175,
              -3.237363321
            ],
            [
              119.781768662,
              -3.237362215
            ],
            [
              119.781769631,
              -3.237361495
            ],
            [
              119.781769524,
              -3.237360291
            ],
            [
              119.782055556,
              -3.236722222
            ],
            [
              119.78207728,
              -3.236005328
            ],
            [
              119.782083333,
              -3.235805556
            ],
            [
              119.782555555,
              -3.235583333
            ],
            [
              119.782694445,
              -3.234944444
            ],
            [
              119.783555555,
              -3.233861112
            ],
            [
              119.783638889,
              -3.233083333
            ],
            [
              119.783472222,
              -3.232111111
            ],
            [
              119.784055556,
              -3.231833333
            ],
            [
              119.784527777,
              -3.231111112
            ],
            [
              119.784888889,
              -3.230722222
            ],
            [
              119.785,
              -3.228916667
            ],
            [
              119.784694444,
              -3.228777777
            ],
            [
              119.785472222,
              -3.228
            ],
            [
              119.785888889,
              -3.227249999
            ],
            [
              119.784555556,
              -3.226055556
            ],
            [
              119.784,
              -3.224694444
            ],
            [
              119.783527778,
              -3.223222223
            ],
            [
              119.783694444,
              -3.222444444
            ],
            [
              119.783472222,
              -3.22175
            ],
            [
              119.782638888,
              -3.221305556
            ],
            [
              119.782195496,
              -3.220992572
            ],
            [
              119.782166667,
              -3.220972222
            ],
            [
              119.781444445,
              -3.219972222
            ],
            [
              119.781550162,
              -3.219179346
            ],
            [
              119.781570282,
              -3.219158582
            ],
            [
              119.781589626,
              -3.219151993
            ],
            [
              119.78160834,
              -3.219145618
            ],
            [
              119.781622258,
              -3.219142967
            ],
            [
              119.781652715,
              -3.219144871
            ],
            [
              119.781659784,
              -3.219146285
            ],
            [
              119.781690786,
              -3.219152485
            ],
            [
              119.781738375,
              -3.219171521
            ],
            [
              119.781782158,
              -3.219203882
            ],
            [
              119.781829747,
              -3.219241953
            ],
            [
              119.781846946,
              -3.219250961
            ],
            [
              119.781909696,
              -3.219283831
            ],
            [
              119.781953479,
              -3.219306674
            ],
            [
              119.782020104,
              -3.219329517
            ],
            [
              119.782024016,
              -3.219329796
            ],
            [
              119.782058279,
              -3.219332244
            ],
            [
              119.782073403,
              -3.219333324
            ],
            [
              119.78214574,
              -3.219356168
            ],
            [
              119.782206653,
              -3.219371396
            ],
            [
              119.782299928,
              -3.219388528
            ],
            [
              119.782417949,
              -3.219388528
            ],
            [
              119.782423125,
              -3.219388229
            ],
            [
              119.782516936,
              -3.219382817
            ],
            [
              119.782567818,
              -3.21935992
            ],
            [
              119.782593078,
              -3.219348552
            ],
            [
              119.782651825,
              -3.219327282
            ],
            [
              119.782667622,
              -3.219321563
            ],
            [
              119.782703486,
              -3.219308578
            ],
            [
              119.782779628,
              -3.219281928
            ],
            [
              119.782857673,
              -3.219264796
            ],
            [
              119.782937624,
              -3.219243857
            ],
            [
              119.783023284,
              -3.219230531
            ],
            [
              119.783033209,
              -3.219228795
            ],
            [
              119.783099426,
              -3.219217207
            ],
            [
              119.783187942,
              -3.219211496
            ],
            [
              119.783273604,
              -3.219207689
            ],
            [
              119.783357361,
              -3.219196267
            ],
            [
              119.7834316,
              -3.219175328
            ],
            [
              119.78351155,
              -3.219158196
            ],
            [
              119.783551525,
              -3.219148678
            ],
            [
              119.783601008,
              -3.219164142
            ],
            [
              119.783612438,
              -3.219167714
            ],
            [
              119.783673353,
              -3.219194364
            ],
            [
              119.783736171,
              -3.219209592
            ],
            [
              119.783808506,
              -3.219211495
            ],
            [
              119.783903685,
              -3.219201979
            ],
            [
              119.78399696,
              -3.219179135
            ],
            [
              119.784101656,
              -3.219150582
            ],
            [
              119.784161767,
              -3.219132988
            ],
            [
              119.784179703,
              -3.219127739
            ],
            [
              119.784264411,
              -3.219114414
            ],
            [
              119.784334843,
              -3.219102993
            ],
            [
              119.78441289,
              -3.219083956
            ],
            [
              119.784469996,
              -3.219055403
            ],
            [
              119.784544236,
              -3.219047789
            ],
            [
              119.784549934,
              -3.219049214
            ],
            [
              119.784563483,
              -3.219052601
            ],
            [
              119.784627992,
              -3.219068728
            ],
            [
              119.784685099,
              -3.219089668
            ],
            [
              119.784728882,
              -3.219085861
            ],
            [
              119.784763146,
              -3.219089668
            ],
            [
              119.784793393,
              -3.219099219
            ],
            [
              119.784799313,
              -3.219101088
            ],
            [
              119.784864036,
              -3.2191068
            ],
            [
              119.784938275,
              -3.219108704
            ],
            [
              119.78503726,
              -3.219122028
            ],
            [
              119.785103885,
              -3.219122028
            ],
            [
              119.7851343,
              -3.219124793
            ],
            [
              119.785145764,
              -3.219125835
            ],
            [
              119.785264737,
              -3.219125835
            ],
            [
              119.785367529,
              -3.219127739
            ],
            [
              119.785470322,
              -3.219127739
            ],
            [
              119.785584537,
              -3.219118221
            ],
            [
              119.785646783,
              -3.219116317
            ],
            [
              119.785709601,
              -3.219106799
            ],
            [
              119.785799069,
              -3.219089668
            ],
            [
              119.785865693,
              -3.219072535
            ],
            [
              119.785868857,
              -3.219072083
            ],
            [
              119.785883576,
              -3.219069981
            ],
            [
              119.785932318,
              -3.219063017
            ],
            [
              119.786014172,
              -3.219045886
            ],
            [
              119.786101736,
              -3.219034464
            ],
            [
              119.786107187,
              -3.219033529
            ],
            [
              119.786168361,
              -3.219023042
            ],
            [
              119.786246407,
              -3.219011621
            ],
            [
              119.786335875,
              -3.219002103
            ],
            [
              119.786391078,
              -3.218981165
            ],
            [
              119.786438667,
              -3.218958322
            ],
            [
              119.786472932,
              -3.218939286
            ],
            [
              119.786516714,
              -3.218924058
            ],
            [
              119.786554785,
              -3.218912635
            ],
            [
              119.786600471,
              -3.218912636
            ],
            [
              119.786655675,
              -3.218925961
            ],
            [
              119.786716589,
              -3.218943093
            ],
            [
              119.78678406,
              -3.218963151
            ],
            [
              119.786797047,
              -3.218967573
            ],
            [
              119.786845553,
              -3.218984706
            ],
            [
              119.786873252,
              -3.218994489
            ],
            [
              119.786937974,
              -3.219017332
            ],
            [
              119.786998888,
              -3.219051596
            ],
            [
              119.787055995,
              -3.219083956
            ],
            [
              119.787077006,
              -3.21909146
            ],
            [
              119.787109295,
              -3.219102992
            ],
            [
              119.787158787,
              -3.219112511
            ],
            [
              119.787253929,
              -3.219096043
            ],
            [
              119.787257773,
              -3.219095378
            ],
            [
              119.787261956,
              -3.219093636
            ],
            [
              119.787326301,
              -3.219066824
            ],
            [
              119.787410059,
              -3.219045886
            ],
            [
              119.787450186,
              -3.219049229
            ],
            [
              119.787458343,
              -3.219049909
            ],
            [
              119.787478588,
              -3.219051596
            ],
            [
              119.787560441,
              -3.219063017
            ],
            [
              119.787614853,
              -3.219079341
            ],
            [
              119.787636584,
              -3.219085861
            ],
            [
              119.787693691,
              -3.219089667
            ],
            [
              119.787699055,
              -3.219088205
            ],
            [
              119.787714629,
              -3.219083956
            ],
            [
              119.787760316,
              -3.219080149
            ],
            [
              119.787838362,
              -3.219074439
            ],
            [
              119.787901179,
              -3.21908015
            ],
            [
              119.787963997,
              -3.219099184
            ],
            [
              119.787981129,
              -3.21913345
            ],
            [
              119.787988744,
              -3.219173424
            ],
            [
              119.787988744,
              -3.219187051
            ],
            [
              119.787988744,
              -3.219200614
            ],
            [
              119.787988744,
              -3.219217207
            ],
            [
              119.787975418,
              -3.21927241
            ],
            [
              119.787977322,
              -3.219306674
            ],
            [
              119.788002068,
              -3.219318097
            ],
            [
              119.788038236,
              -3.21932571
            ],
            [
              119.788082019,
              -3.21932571
            ],
            [
              119.788127892,
              -3.21932571
            ],
            [
              119.788147963,
              -3.21932571
            ],
            [
              119.788184049,
              -3.21932571
            ],
            [
              119.788267807,
              -3.219323806
            ],
            [
              119.78834395,
              -3.219323806
            ],
            [
              119.78840867,
              -3.21932571
            ],
            [
              119.788451362,
              -3.219333333
            ],
            [
              119.788555556,
              -3.219333333
            ],
            [
              119.78860676,
              -3.219334015
            ],
            [
              119.788642929,
              -3.219269293
            ],
            [
              119.788666326,
              -3.219227179
            ],
            [
              119.788690518,
              -3.219183633
            ],
            [
              119.788743818,
              -3.219105586
            ],
            [
              119.788821864,
              -3.219010408
            ],
            [
              119.788918947,
              -3.218913326
            ],
            [
              119.789010318,
              -3.218829569
            ],
            [
              119.789130242,
              -3.218745812
            ],
            [
              119.789222222,
              -3.218694445
            ],
            [
              119.789305371,
              -3.218671572
            ],
            [
              119.789396742,
              -3.218650633
            ],
            [
              119.789403927,
              -3.218647847
            ],
            [
              119.789425667,
              -3.218639418
            ],
            [
              119.789490017,
              -3.218614466
            ],
            [
              119.789590907,
              -3.218551648
            ],
            [
              119.789667049,
              -3.218492637
            ],
            [
              119.789746048,
              -3.218436101
            ],
            [
              119.789782343,
              -3.218411683
            ],
            [
              119.789850743,
              -3.218365669
            ],
            [
              119.789968765,
              -3.218316175
            ],
            [
              119.790001125,
              -3.218268587
            ],
            [
              119.789995414,
              -3.218226708
            ],
            [
              119.789958295,
              -3.218193158
            ],
            [
              119.789889767,
              -3.218132244
            ],
            [
              119.789855502,
              -3.218061812
            ],
            [
              119.789842177,
              -3.217979958
            ],
            [
              119.789872635,
              -3.21789049
            ],
            [
              119.789880319,
              -3.21787695
            ],
            [
              119.789912609,
              -3.217820058
            ],
            [
              119.789962102,
              -3.217762951
            ],
            [
              119.79002492,
              -3.217696327
            ],
            [
              119.790055556,
              -3.217666666
            ],
            [
              119.79010487,
              -3.217663966
            ],
            [
              119.790127755,
              -3.217679223
            ],
            [
              119.790139134,
              -3.217686809
            ],
            [
              119.790177205,
              -3.217722977
            ],
            [
              119.790226699,
              -3.217761048
            ],
            [
              119.790257148,
              -3.21776434
            ],
            [
              119.790271323,
              -3.217765872
            ],
            [
              119.79029713,
              -3.217768662
            ],
            [
              119.790358044,
              -3.217749627
            ],
            [
              119.790414769,
              -3.217729138
            ],
            [
              119.790415551,
              -3.217729275
            ],
            [
              119.790420775,
              -3.217727232
            ],
            [
              119.790485536,
              -3.217708343
            ],
            [
              119.790544071,
              -3.217702632
            ],
            [
              119.790614027,
              -3.217714053
            ],
            [
              119.790675417,
              -3.217736896
            ],
            [
              119.790722531,
              -3.217761167
            ],
            [
              119.790722942,
              -3.217761279
            ],
            [
              119.790723457,
              -3.217760982
            ],
            [
              119.792277778,
              -3.216861111
            ],
            [
              119.792805555,
              -3.215861111
            ],
            [
              119.796805556,
              -3.218277778
            ],
            [
              119.798222222,
              -3.220944445
            ],
            [
              119.798777778,
              -3.221972222
            ],
            [
              119.798305556,
              -3.222305555
            ],
            [
              119.797805556,
              -3.222472222
            ],
            [
              119.798111112,
              -3.223472222
            ],
            [
              119.797444444,
              -3.224027778
            ],
            [
              119.797361111,
              -3.224333333
            ],
            [
              119.798138889,
              -3.225138889
            ],
            [
              119.798083333,
              -3.225388889
            ],
            [
              119.798083333,
              -3.225555555
            ],
            [
              119.798444444,
              -3.225777778
            ],
            [
              119.798624878,
              -3.225979439
            ],
            [
              119.798916667,
              -3.226305555
            ],
            [
              119.799305556,
              -3.226555556
            ],
            [
              119.799436627,
              -3.226759445
            ],
            [
              119.799555555,
              -3.226944445
            ],
            [
              119.799833333,
              -3.227055556
            ],
            [
              119.79986401,
              -3.227141449
            ],
            [
              119.799972223,
              -3.227444444
            ],
            [
              119.800137624,
              -3.228050916
            ],
            [
              119.800139865,
              -3.228049796
            ],
            [
              119.800150161,
              -3.228056511
            ],
            [
              119.800206343,
              -3.228096642
            ],
            [
              119.800256313,
              -3.228185871
            ],
            [
              119.800345543,
              -3.228285808
            ],
            [
              119.800359819,
              -3.228375038
            ],
            [
              119.800316988,
              -3.228467837
            ],
            [
              119.800313057,
              -3.228483367
            ],
            [
              119.800288435,
              -3.228580623
            ],
            [
              119.800259881,
              -3.228666284
            ],
            [
              119.800257178,
              -3.228695128
            ],
            [
              119.800255413,
              -3.228713951
            ],
            [
              119.800249174,
              -3.228780499
            ],
            [
              119.800249174,
              -3.228876866
            ],
            [
              119.800242035,
              -3.229012495
            ],
            [
              119.800249174,
              -3.22921237
            ],
            [
              119.800271002,
              -3.229324625
            ],
            [
              119.800277506,
              -3.229351932
            ],
            [
              119.800283411,
              -3.229371468
            ],
            [
              119.800320558,
              -3.229494336
            ],
            [
              119.800259881,
              -3.229790579
            ],
            [
              119.800240487,
              -3.229961173
            ],
            [
              119.800237753,
              -3.229985219
            ],
            [
              119.800255598,
              -3.230042327
            ],
            [
              119.800255599,
              -3.230149402
            ],
            [
              119.800266307,
              -3.230227924
            ],
            [
              119.80029486,
              -3.230285032
            ],
            [
              119.800348397,
              -3.230342139
            ],
            [
              119.800412643,
              -3.230379972
            ],
            [
              119.80046975,
              -3.230408526
            ],
            [
              119.800519719,
              -3.23043708
            ],
            [
              119.800562549,
              -3.230483478
            ],
            [
              119.800530426,
              -3.230547724
            ],
            [
              119.800544703,
              -3.230622677
            ],
            [
              119.800569687,
              -3.230690491
            ],
            [
              119.800594672,
              -3.230729752
            ],
            [
              119.800633933,
              -3.230754737
            ],
            [
              119.800673194,
              -3.230772582
            ],
            [
              119.80073387,
              -3.230758307
            ],
            [
              119.800826669,
              -3.230729753
            ],
            [
              119.800858792,
              -3.230783291
            ],
            [
              119.800875377,
              -3.23080955
            ],
            [
              119.800901622,
              -3.230851105
            ],
            [
              119.80095516,
              -3.230890367
            ],
            [
              119.800961263,
              -3.230895184
            ],
            [
              119.800975394,
              -3.23090634
            ],
            [
              119.801022974,
              -3.230943904
            ],
            [
              119.801072943,
              -3.230997443
            ],
            [
              119.801119343,
              -3.23105098
            ],
            [
              119.801197865,
              -3.231072395
            ],
            [
              119.801272818,
              -3.231100948
            ],
            [
              119.801337064,
              -3.231061688
            ],
            [
              119.801417728,
              -3.231025995
            ],
            [
              119.801460557,
              -3.231108087
            ],
            [
              119.801533921,
              -3.231151438
            ],
            [
              119.80153908,
              -3.231154487
            ],
            [
              119.801581911,
              -3.231215163
            ],
            [
              119.801610464,
              -3.231282977
            ],
            [
              119.801685418,
              -3.231357931
            ],
            [
              119.801766848,
              -3.231464417
            ],
            [
              119.801781552,
              -3.231488041
            ],
            [
              119.801806769,
              -3.231554236
            ],
            [
              119.801813005,
              -3.231563006
            ],
            [
              119.801863877,
              -3.231634542
            ],
            [
              119.801910276,
              -3.231702358
            ],
            [
              119.801963814,
              -3.231759464
            ],
            [
              119.802017351,
              -3.231802295
            ],
            [
              119.802060139,
              -3.231812992
            ],
            [
              119.802062267,
              -3.231812266
            ],
            [
              119.802063943,
              -3.231813943
            ],
            [
              119.802131566,
              -3.231830848
            ],
            [
              119.802185103,
              -3.231859402
            ],
            [
              119.802213657,
              -3.231945062
            ],
            [
              119.802227934,
              -3.232023585
            ],
            [
              119.802270764,
              -3.232077122
            ],
            [
              119.802327322,
              -3.23214075
            ],
            [
              119.802327872,
              -3.232151875
            ],
            [
              119.802327872,
              -3.232216321
            ],
            [
              119.802320733,
              -3.232298412
            ],
            [
              119.802270765,
              -3.232412627
            ],
            [
              119.802238982,
              -3.232459712
            ],
            [
              119.802229716,
              -3.232473439
            ],
            [
              119.802174396,
              -3.232555394
            ],
            [
              119.802053043,
              -3.23270887
            ],
            [
              119.802002805,
              -3.232775854
            ],
            [
              119.801995079,
              -3.232786156
            ],
            [
              119.801988798,
              -3.23279453
            ],
            [
              119.801953226,
              -3.23285274
            ],
            [
              119.801949278,
              -3.232860072
            ],
            [
              119.801935905,
              -3.232926937
            ],
            [
              119.801931691,
              -3.232948006
            ],
            [
              119.801956676,
              -3.233006541
            ],
            [
              119.80202092,
              -3.233074355
            ],
            [
              119.802095874,
              -3.233174292
            ],
            [
              119.80211159,
              -3.233229298
            ],
            [
              119.802115392,
              -3.233242607
            ],
            [
              119.802124427,
              -3.233274229
            ],
            [
              119.802142273,
              -3.233399151
            ],
            [
              119.802138622,
              -3.233416192
            ],
            [
              119.802138027,
              -3.233418962
            ],
            [
              119.802131566,
              -3.23344912
            ],
            [
              119.802120858,
              -3.233541919
            ],
            [
              119.802085166,
              -3.233606165
            ],
            [
              119.802063826,
              -3.233616835
            ],
            [
              119.802028059,
              -3.233634718
            ],
            [
              119.801974522,
              -3.233695394
            ],
            [
              119.801988798,
              -3.233748932
            ],
            [
              119.80202449,
              -3.233766778
            ],
            [
              119.802024667,
              -3.233766858
            ],
            [
              119.802063751,
              -3.233784623
            ],
            [
              119.802063751,
              -3.233820316
            ],
            [
              119.802056613,
              -3.233877423
            ],
            [
              119.802042336,
              -3.233920254
            ],
            [
              119.802028059,
              -3.233984499
            ],
            [
              119.802035198,
              -3.234052313
            ],
            [
              119.802028059,
              -3.234120128
            ],
            [
              119.801995936,
              -3.234209357
            ],
            [
              119.801995937,
              -3.234218281
            ],
            [
              119.801983887,
              -3.234256619
            ],
            [
              119.801976774,
              -3.234279252
            ],
            [
              119.801956676,
              -3.234343202
            ],
            [
              119.801924554,
              -3.234428864
            ],
            [
              119.801885291,
              -3.234500247
            ],
            [
              119.801828185,
              -3.234596615
            ],
            [
              119.8017568,
              -3.234682275
            ],
            [
              119.801699693,
              -3.234757228
            ],
            [
              119.801649724,
              -3.234807197
            ],
            [
              119.801574772,
              -3.234864304
            ],
            [
              119.801478404,
              -3.234935688
            ],
            [
              119.801385605,
              -3.23501421
            ],
            [
              119.801360676,
              -3.235029683
            ],
            [
              119.801349182,
              -3.235036818
            ],
            [
              119.801311148,
              -3.235060425
            ],
            [
              119.80129005,
              -3.23507352
            ],
            [
              119.801287414,
              -3.235075156
            ],
            [
              119.801282098,
              -3.235078456
            ],
            [
              119.801259732,
              -3.235105791
            ],
            [
              119.801242381,
              -3.235126999
            ],
            [
              119.801240657,
              -3.235129105
            ],
            [
              119.801219242,
              -3.23515528
            ],
            [
              119.801217853,
              -3.235156978
            ],
            [
              119.801212773,
              -3.23518577
            ],
            [
              119.80121257,
              -3.23518691
            ],
            [
              119.801209691,
              -3.235203225
            ],
            [
              119.801209575,
              -3.235203883
            ],
            [
              119.801207145,
              -3.235217654
            ],
            [
              119.801207281,
              -3.235218173
            ],
            [
              119.801207388,
              -3.235218611
            ],
            [
              119.80120753,
              -3.23521942
            ],
            [
              119.80120762,
              -3.235219475
            ],
            [
              119.801209244,
              -3.235220467
            ],
            [
              119.801208427,
              -3.235222566
            ],
            [
              119.801208475,
              -3.235222754
            ],
            [
              119.801208555,
              -3.235223193
            ],
            [
              119.801208578,
              -3.235223322
            ],
            [
              119.801208637,
              -3.235223376
            ],
            [
              119.801218713,
              -3.235262
            ],
            [
              119.80122856,
              -3.235299745
            ],
            [
              119.80127496,
              -3.235349714
            ],
            [
              119.801289237,
              -3.235474636
            ],
            [
              119.801221422,
              -3.235554942
            ],
            [
              119.801189299,
              -3.235619188
            ],
            [
              119.801214283,
              -3.235729833
            ],
            [
              119.801226925,
              -3.235744281
            ],
            [
              119.801264252,
              -3.235786941
            ],
            [
              119.801332068,
              -3.235840478
            ],
            [
              119.801389174,
              -3.235869032
            ],
            [
              119.801426324,
              -3.235886058
            ],
            [
              119.801447457,
              -3.235895745
            ],
            [
              119.801474834,
              -3.235908293
            ],
            [
              119.801506958,
              -3.235983246
            ],
            [
              119.801531941,
              -3.236072475
            ],
            [
              119.801596187,
              -3.236122444
            ],
            [
              119.801706832,
              -3.23618669
            ],
            [
              119.801824615,
              -3.236240228
            ],
            [
              119.801949537,
              -3.236247366
            ],
            [
              119.80202449,
              -3.236268781
            ],
            [
              119.802081597,
              -3.236324461
            ],
            [
              119.802138705,
              -3.236417259
            ],
            [
              119.802224364,
              -3.23650649
            ],
            [
              119.802274333,
              -3.236592149
            ],
            [
              119.802338579,
              -3.236649257
            ],
            [
              119.802384979,
              -3.236692087
            ],
            [
              119.802445655,
              -3.23672421
            ],
            [
              119.802542023,
              -3.236770609
            ],
            [
              119.802602699,
              -3.236824148
            ],
            [
              119.802670513,
              -3.236877685
            ],
            [
              119.802716914,
              -3.236938361
            ],
            [
              119.802763313,
              -3.236995468
            ],
            [
              119.802763313,
              -3.237063283
            ],
            [
              119.802749036,
              -3.237152512
            ],
            [
              119.802734759,
              -3.237238173
            ],
            [
              119.802738329,
              -3.237330972
            ],
            [
              119.802749036,
              -3.237413064
            ],
            [
              119.802777589,
              -3.237488017
            ],
            [
              119.802806144,
              -3.237527278
            ],
            [
              119.80286325,
              -3.237555831
            ],
            [
              119.802931064,
              -3.237587954
            ],
            [
              119.803031002,
              -3.237648631
            ],
            [
              119.803130939,
              -3.237709306
            ],
            [
              119.803198754,
              -3.237744998
            ],
            [
              119.80330226,
              -3.237744998
            ],
            [
              119.803357226,
              -3.237764987
            ],
            [
              119.803392918,
              -3.237786401
            ],
            [
              119.803425041,
              -3.237814955
            ],
            [
              119.803492855,
              -3.237882769
            ],
            [
              119.803539255,
              -3.237914892
            ],
            [
              119.803576862,
              -3.237932589
            ],
            [
              119.803628899,
              -3.237949653
            ],
            [
              119.8036499,
              -3.237954154
            ],
            [
              119.803660379,
              -3.23796749
            ],
            [
              119.803689161,
              -3.238004122
            ],
            [
              119.803735561,
              -3.238111197
            ],
            [
              119.803789098,
              -3.238196858
            ],
            [
              119.803846205,
              -3.238231479
            ],
            [
              119.803921158,
              -3.238256464
            ],
            [
              119.803978265,
              -3.238299294
            ],
            [
              119.803991763,
              -3.238320666
            ],
            [
              119.804021095,
              -3.238367109
            ],
            [
              119.804026089,
              -3.238404559
            ],
            [
              119.804028234,
              -3.238420646
            ],
            [
              119.804010388,
              -3.2384956
            ],
            [
              119.803988973,
              -3.238591968
            ],
            [
              119.803978265,
              -3.238709751
            ],
            [
              119.803974696,
              -3.238831103
            ],
            [
              119.804035373,
              -3.238941749
            ],
            [
              119.804035373,
              -3.239002425
            ],
            [
              119.80404965,
              -3.239070239
            ],
            [
              119.804110325,
              -3.239145192
            ],
            [
              119.804153155,
              -3.239209438
            ],
            [
              119.804165405,
              -3.239220155
            ],
            [
              119.804210262,
              -3.239259406
            ],
            [
              119.804263801,
              -3.239345068
            ],
            [
              119.80428838,
              -3.239434101
            ],
            [
              119.804295924,
              -3.239461423
            ],
            [
              119.804331615,
              -3.239529237
            ],
            [
              119.804370877,
              -3.239629175
            ],
            [
              119.804403,
              -3.239721974
            ],
            [
              119.804435122,
              -3.239857603
            ],
            [
              119.804431553,
              -3.239964679
            ],
            [
              119.804435122,
              -3.240077465
            ],
            [
              119.804438691,
              -3.240159557
            ],
            [
              119.804452968,
              -3.240227372
            ],
            [
              119.804470814,
              -3.240302324
            ],
            [
              119.804482602,
              -3.240342743
            ],
            [
              119.804494351,
              -3.240383022
            ],
            [
              119.804495798,
              -3.240387985
            ],
            [
              119.804524352,
              -3.2404558
            ],
            [
              119.804549336,
              -3.240523614
            ],
            [
              119.804602874,
              -3.240570014
            ],
            [
              119.804638565,
              -3.240612844
            ],
            [
              119.80466355,
              -3.24067352
            ],
            [
              119.804695673,
              -3.240752043
            ],
            [
              119.804734934,
              -3.240794873
            ],
            [
              119.804784903,
              -3.240826995
            ],
            [
              119.804831302,
              -3.240862687
            ],
            [
              119.804874133,
              -3.240912656
            ],
            [
              119.804913394,
              -3.240951917
            ],
            [
              119.804931239,
              -3.241005455
            ],
            [
              119.804924101,
              -3.241055424
            ],
            [
              119.804921126,
              -3.241120887
            ],
            [
              119.804920532,
              -3.241133946
            ],
            [
              119.804916963,
              -3.241219606
            ],
            [
              119.804925053,
              -3.241324017
            ],
            [
              119.804940282,
              -3.241358281
            ],
            [
              119.804959317,
              -3.241409677
            ],
            [
              119.805008352,
              -3.241447987
            ],
            [
              119.805020231,
              -3.241457267
            ],
            [
              119.805039267,
              -3.241514375
            ],
            [
              119.805048785,
              -3.241542928
            ],
            [
              119.805071628,
              -3.241600035
            ],
            [
              119.80508876,
              -3.241655239
            ],
            [
              119.805107796,
              -3.241710442
            ],
            [
              119.805119217,
              -3.241759934
            ],
            [
              119.805122137,
              -3.241769113
            ],
            [
              119.805132187,
              -3.241795528
            ],
            [
              119.805197623,
              -3.241847877
            ],
            [
              119.805322545,
              -3.241940676
            ],
            [
              119.80547602,
              -3.242058459
            ],
            [
              119.805615218,
              -3.24214055
            ],
            [
              119.805700879,
              -3.242219073
            ],
            [
              119.80578297,
              -3.242294025
            ],
            [
              119.805875769,
              -3.242361841
            ],
            [
              119.806018536,
              -3.242443931
            ],
            [
              119.806104197,
              -3.242486762
            ],
            [
              119.806207704,
              -3.242518884
            ],
            [
              119.806332626,
              -3.242529591
            ],
            [
              119.806382595,
              -3.242522454
            ],
            [
              119.806482532,
              -3.242476054
            ],
            [
              119.806596746,
              -3.242422516
            ],
            [
              119.806682406,
              -3.242390393
            ],
            [
              119.806796621,
              -3.242411809
            ],
            [
              119.806878712,
              -3.2424475
            ],
            [
              119.806923745,
              -3.242490045
            ],
            [
              119.807003634,
              -3.242572422
            ],
            [
              119.807055858,
              -3.242646998
            ],
            [
              119.807333334,
              -3.242805556
            ],
            [
              119.807666667,
              -3.243
            ],
            [
              119.807943499,
              -3.243126882
            ],
            [
              119.808333333,
              -3.243305556
            ],
            [
              119.808775334,
              -3.243360806
            ],
            [
              119.808777778,
              -3.243361111
            ],
            [
              119.809138889,
              -3.243444445
            ],
            [
              119.809333333,
              -3.243638889
            ],
            [
              119.809944445,
              -3.243944444
            ],
            [
              119.810305555,
              -3.243944444
            ],
            [
              119.81086111,
              -3.244138889
            ],
            [
              119.811055556,
              -3.244472222
            ],
            [
              119.811416667,
              -3.244666667
            ],
            [
              119.811694444,
              -3.244888889
            ],
            [
              119.811805555,
              -3.244944445
            ],
            [
              119.812083333,
              -3.245249999
            ],
            [
              119.812583333,
              -3.245444444
            ],
            [
              119.813333333,
              -3.245416667
            ],
            [
              119.813638889,
              -3.24525
            ],
            [
              119.814055555,
              -3.24525
            ],
            [
              119.814694445,
              -3.245472222
            ],
            [
              119.815166666,
              -3.245583333
            ],
            [
              119.815166667,
              -3.245861111
            ],
            [
              119.815437778,
              -3.246304081
            ],
            [
              119.815390189,
              -3.247246348
            ],
            [
              119.815373364,
              -3.247345426
            ],
            [
              119.815368455,
              -3.247374336
            ],
            [
              119.815347358,
              -3.247498571
            ],
            [
              119.814991157,
              -3.247983005
            ],
            [
              119.814990438,
              -3.24798398
            ],
            [
              119.814742833,
              -3.248636505
            ]
          ]
        ]
      }
    }
  ]
}