{
  "type": "FeatureCollection",
  "features": [
    {
      "type": "Feature",
      "properties": {
        "idx": "1349",
        "nama_kewilayahan": "To Pe Lauje Lombok Barat"
      },
      "geometry": {
        "type": "Polygon",
        "coordinates": [
          [
            [
              120.20328331,
              0.573392868
            ],
            [
              120.203462601,
              0.573049545
            ],
            [
              120.204462051,
              0.5711689
            ],
            [
              120.205224991,
              0.570077896
            ],
            [
              120.205476761,
              0.569719315
            ],
            [
              120.205686569,
              0.569360733
            ],
            [
              120.206762314,
              0.568078995
            ],
            [
              120.207120895,
              0.567613602
            ],
            [
              120.207372665,
              0.567300797
            ],
            [
              120.207658768,
              0.566987991
            ],
            [
              120.208120346,
              0.566389084
            ],
            [
              120.208658218,
              0.56586647
            ],
            [
              120.20907402,
              0.56543541
            ],
            [
              120.209360123,
              0.565092087
            ],
            [
              120.209611893,
              0.564779282
            ],
            [
              120.210149765,
              0.564241409
            ],
            [
              120.210687637,
              0.563524246
            ],
            [
              120.211015701,
              0.563093185
            ],
            [
              120.211301804,
              0.562719345
            ],
            [
              120.211568832,
              0.56240654
            ],
            [
              120.212152481,
              0.561689377
            ],
            [
              120.212522507,
              0.561197281
            ],
            [
              120.212839127,
              0.560659409
            ],
            [
              120.213167191,
              0.560300827
            ],
            [
              120.213449478,
              0.560003281
            ],
            [
              120.213884354,
              0.55950737
            ],
            [
              120.214361191,
              0.559015274
            ],
            [
              120.214761734,
              0.558553696
            ],
            [
              120.215078354,
              0.558164597
            ],
            [
              120.215345383,
              0.557779312
            ],
            [
              120.215791702,
              0.55711937
            ],
            [
              120.216077805,
              0.556360245
            ],
            [
              120.216287613,
              0.555868149
            ],
            [
              120.216493607,
              0.555463791
            ],
            [
              120.21676445,
              0.555105209
            ],
            [
              120.21713829,
              0.554418564
            ],
            [
              120.217508316,
              0.553686142
            ],
            [
              120.217660904,
              0.553300858
            ],
            [
              120.217897415,
              0.552732468
            ],
            [
              120.218046188,
              0.55245018
            ],
            [
              120.218435287,
              0.551671982
            ],
            [
              120.218748093,
              0.550970078
            ],
            [
              120.218942642,
              0.550344467
            ],
            [
              120.21922493,
              0.549612045
            ],
            [
              120.21954155,
              0.5489254
            ],
            [
              120.219778061,
              0.548238754
            ],
            [
              120.219957352,
              0.547639847
            ],
            [
              120.220079422,
              0.547296524
            ],
            [
              120.220212936,
              0.546834946
            ],
            [
              120.220510483,
              0.546178818
            ],
            [
              120.220674515,
              0.545835495
            ],
            [
              120.220808029,
              0.545476913
            ],
            [
              120.220972061,
              0.544820786
            ],
            [
              120.221120834,
              0.544462204
            ],
            [
              120.221315384,
              0.544027328
            ],
            [
              120.221689224,
              0.543462753
            ],
            [
              120.222063065,
              0.542730331
            ],
            [
              120.222467422,
              0.542341232
            ],
            [
              120.222837448,
              0.54211998
            ],
            [
              120.223169327,
              0.54192543
            ],
            [
              120.223867416,
              0.541490555
            ],
            [
              120.224302292,
              0.541296005
            ],
            [
              120.224599838,
              0.541131973
            ],
            [
              120.225137711,
              0.540819168
            ],
            [
              120.225408554,
              0.540578842
            ],
            [
              120.225809097,
              0.540327072
            ],
            [
              120.226556778,
              0.539758682
            ],
            [
              120.226987839,
              0.539117813
            ],
            [
              120.227197647,
              0.5385952
            ],
            [
              120.227331161,
              0.538236618
            ],
            [
              120.227510452,
              0.537820816
            ],
            [
              120.227811813,
              0.537027359
            ],
            [
              120.227975845,
              0.536432266
            ],
            [
              120.228017807,
              0.535730362
            ],
            [
              120.228048325,
              0.535310745
            ],
            [
              120.228078842,
              0.534921646
            ],
            [
              120.228273392,
              0.534116745
            ],
            [
              120.22836113,
              0.533578873
            ],
            [
              120.228498459,
              0.532953262
            ],
            [
              120.228513718,
              0.532503128
            ],
            [
              120.228662491,
              0.532072067
            ],
            [
              120.229005814,
              0.531400681
            ],
            [
              120.229364395,
              0.530744553
            ],
            [
              120.229570389,
              0.530221939
            ],
            [
              120.229780197,
              0.529878616
            ],
            [
              120.230035782,
              0.529520035
            ],
            [
              120.230737686,
              0.528951645
            ],
            [
              120.231287003,
              0.528608322
            ],
            [
              120.231782913,
              0.528341293
            ],
            [
              120.232126236,
              0.528100967
            ],
            [
              120.232526779,
              0.527952194
            ],
            [
              120.23352623,
              0.527547836
            ],
            [
              120.234319687,
              0.527265549
            ],
            [
              120.23466301,
              0.527116776
            ],
            [
              120.235155106,
              0.526983261
            ],
            [
              120.236021042,
              0.526609421
            ],
            [
              120.236692429,
              0.526353836
            ],
            [
              120.237260818,
              0.526144028
            ],
            [
              120.237646103,
              0.525953293
            ],
            [
              120.238004684,
              0.525712967
            ],
            [
              120.23888588,
              0.525175095
            ],
            [
              120.239408493,
              0.524934769
            ],
            [
              120.239946365,
              0.524564743
            ],
            [
              120.240259171,
              0.524324417
            ],
            [
              120.240633011,
              0.524084091
            ],
            [
              120.241304398,
              0.523576736
            ],
            [
              120.241781235,
              0.523012161
            ],
            [
              120.242021561,
              0.522504807
            ],
            [
              120.242288589,
              0.522100449
            ],
            [
              120.242589951,
              0.521772385
            ],
            [
              120.243082047,
              0.521131516
            ],
            [
              120.243528366,
              0.52050209
            ],
            [
              120.243677139,
              0.519964218
            ],
            [
              120.243841171,
              0.519563675
            ],
            [
              120.244096756,
              0.519189835
            ],
            [
              120.244485855,
              0.51868248
            ],
            [
              120.244977951,
              0.518026352
            ],
            [
              120.245199203,
              0.517606735
            ],
            [
              120.24858284,
              0.518068314
            ],
            [
              120.249822617,
              0.518449783
            ],
            [
              120.251344681,
              0.517782211
            ],
            [
              120.252580643,
              0.517400742
            ],
            [
              120.254865646,
              0.518163681
            ],
            [
              120.255815506,
              0.517782211
            ],
            [
              120.256959915,
              0.517782211
            ],
            [
              120.258577347,
              0.518354416
            ],
            [
              120.259340286,
              0.515878677
            ],
            [
              120.259622574,
              0.515211105
            ],
            [
              120.261526108,
              0.512830734
            ],
            [
              120.26257515,
              0.510831833
            ],
            [
              120.263525009,
              0.508836746
            ],
            [
              120.2635746,
              0.506788254
            ],
            [
              120.262861252,
              0.504766464
            ],
            [
              120.262861252,
              0.503217697
            ],
            [
              120.262861252,
              0.501314163
            ],
            [
              120.262620926,
              0.500127792
            ],
            [
              120.261293411,
              0.497686386
            ],
            [
              120.260885239,
              0.496789932
            ],
            [
              120.260847092,
              0.49593544
            ],
            [
              120.261213303,
              0.495164871
            ],
            [
              120.261457443,
              0.493333817
            ],
            [
              120.261507034,
              0.492673874
            ],
            [
              120.261724472,
              0.491895676
            ],
            [
              120.261781693,
              0.491437912
            ],
            [
              120.261781693,
              0.491125107
            ],
            [
              120.261732101,
              0.489496231
            ],
            [
              120.26175499,
              0.48900032
            ],
            [
              120.261804581,
              0.488542557
            ],
            [
              120.261930466,
              0.488210678
            ],
            [
              120.262147903,
              0.487737656
            ],
            [
              120.26250267,
              0.486711502
            ],
            [
              120.262529373,
              0.485673904
            ],
            [
              120.262468338,
              0.485250473
            ],
            [
              120.262296677,
              0.484388351
            ],
            [
              120.262098312,
              0.483865738
            ],
            [
              120.261533737,
              0.482736588
            ],
            [
              120.260694504,
              0.481218338
            ],
            [
              120.26017189,
              0.480237961
            ],
            [
              120.260164261,
              0.479631424
            ],
            [
              120.260263443,
              0.479284286
            ],
            [
              120.260843277,
              0.477758408
            ],
            [
              120.261133194,
              0.477003098
            ],
            [
              120.261281967,
              0.476232529
            ],
            [
              120.26137942,
              0.473359507
            ],
            [
              120.261585199,
              0.472843981
            ],
            [
              120.261784823,
              0.472547573
            ],
            [
              120.261889417,
              0.472318077
            ],
            [
              120.261889481,
              0.472155488
            ],
            [
              120.261889514,
              0.472069411
            ],
            [
              120.261889544,
              0.471992898
            ],
            [
              120.261899101,
              0.471849441
            ],
            [
              120.261946666,
              0.47168687
            ],
            [
              120.261984694,
              0.471619937
            ],
            [
              120.262089213,
              0.471581722
            ],
            [
              120.262269709,
              0.471610486
            ],
            [
              120.262364702,
              0.471639215
            ],
            [
              120.262564214,
              0.47162973
            ],
            [
              120.262678218,
              0.471629776
            ],
            [
              120.262811242,
              0.471582008
            ],
            [
              120.262887257,
              0.471553346
            ],
            [
              120.26304879,
              0.471486461
            ],
            [
              120.263172354,
              0.471333484
            ],
            [
              120.263248428,
              0.471151797
            ],
            [
              120.263305487,
              0.471008358
            ],
            [
              120.263513933,
              0.470623486
            ],
            [
              120.263561599,
              0.470202684
            ],
            [
              120.26349519,
              0.469963556
            ],
            [
              120.263362262,
              0.469762657
            ],
            [
              120.263105845,
              0.469523454
            ],
            [
              120.263210513,
              0.469102675
            ],
            [
              120.263277175,
              0.468691445
            ],
            [
              120.263362801,
              0.468375864
            ],
            [
              120.263476854,
              0.468251575
            ],
            [
              120.26358217,
              0.467995777
            ],
            [
              120.263325734,
              0.467804394
            ],
            [
              120.26319278,
              0.467670445
            ],
            [
              120.263078817,
              0.467565195
            ],
            [
              120.26293637,
              0.467412114
            ],
            [
              120.262698916,
              0.467268559
            ],
            [
              120.262394934,
              0.467191927
            ],
            [
              120.262147927,
              0.467182266
            ],
            [
              120.261843912,
              0.467191711
            ],
            [
              120.261634833,
              0.467373346
            ],
            [
              120.26151128,
              0.467497631
            ],
            [
              120.261264174,
              0.4677462
            ],
            [
              120.261102604,
              0.467908726
            ],
            [
              120.260931587,
              0.46793735
            ],
            [
              120.2606086,
              0.467870275
            ],
            [
              120.260494625,
              0.467793718
            ],
            [
              120.260314193,
              0.467602365
            ],
            [
              120.260190759,
              0.467420599
            ],
            [
              120.260086332,
              0.467219713
            ],
            [
              120.25997238,
              0.467085771
            ],
            [
              120.259810926,
              0.466951811
            ],
            [
              120.259620136,
              0.466927985
            ],
            [
              120.259442013,
              0.466906396
            ],
            [
              120.259007386,
              0.46687036
            ],
            [
              120.258779397,
              0.466820059
            ],
            [
              120.258558544,
              0.466741069
            ],
            [
              120.258444587,
              0.466619083
            ],
            [
              120.25810263,
              0.466475488
            ],
            [
              120.257817664,
              0.466360607
            ],
            [
              120.257653817,
              0.466274466
            ],
            [
              120.25736172,
              0.466173929
            ],
            [
              120.256927138,
              0.466023125
            ],
            [
              120.256307319,
              0.465822037
            ],
            [
              120.25602949,
              0.465678468
            ],
            [
              120.255765923,
              0.465506212
            ],
            [
              120.255559377,
              0.465283767
            ],
            [
              120.2554312,
              0.465082872
            ],
            [
              120.255217579,
              0.46473131
            ],
            [
              120.25475451,
              0.46454463
            ],
            [
              120.254234444,
              0.464348364
            ],
            [
              120.253975623,
              0.464185675
            ],
            [
              120.253671662,
              0.464058833
            ],
            [
              120.253524441,
              0.463972699
            ],
            [
              120.253346354,
              0.463857861
            ],
            [
              120.253230021,
              0.463740657
            ],
            [
              120.253412951,
              0.463614005
            ],
            [
              120.253467645,
              0.463439483
            ],
            [
              120.253444032,
              0.463080823
            ],
            [
              120.253339635,
              0.462803426
            ],
            [
              120.252591321,
              0.463233514
            ],
            [
              120.252099532,
              0.463620665
            ],
            [
              120.251607895,
              0.464632034
            ],
            [
              120.25021553,
              0.465837479
            ],
            [
              120.248430252,
              0.467027664
            ],
            [
              120.247774124,
              0.46821785
            ],
            [
              120.246408463,
              0.469526291
            ],
            [
              120.243944168,
              0.471456528
            ],
            [
              120.24316597,
              0.472349167
            ],
            [
              120.240968704,
              0.474374771
            ],
            [
              120.240743637,
              0.4747715
            ],
            [
              120.240606308,
              0.475042343
            ],
            [
              120.240526199,
              0.475305557
            ],
            [
              120.240312576,
              0.47577095
            ],
            [
              120.240236282,
              0.475931168
            ],
            [
              120.240156174,
              0.476224899
            ],
            [
              120.240076065,
              0.476545334
            ],
            [
              120.239984512,
              0.476919174
            ],
            [
              120.239919662,
              0.477258682
            ],
            [
              120.239850998,
              0.477643967
            ],
            [
              120.239831599,
              0.477704935
            ],
            [
              120.239565824,
              0.477792807
            ],
            [
              120.238917383,
              0.477921657
            ],
            [
              120.238611004,
              0.47791436
            ],
            [
              120.238240488,
              0.477935729
            ],
            [
              120.23797682,
              0.47802887
            ],
            [
              120.237941114,
              0.478229697
            ],
            [
              120.237805647,
              0.478452003
            ],
            [
              120.2375349,
              0.478430374
            ],
            [
              120.237178697,
              0.478293944
            ],
            [
              120.236919106,
              0.478338944
            ],
            [
              120.236520246,
              0.477970572
            ],
            [
              120.236263802,
              0.477817447
            ],
            [
              120.236079525,
              0.477751381
            ],
            [
              120.235978737,
              0.477965571
            ],
            [
              120.235912184,
              0.4780937
            ],
            [
              120.235782964,
              0.478137641
            ],
            [
              120.235651876,
              0.478103158
            ],
            [
              120.23553603,
              0.477961566
            ],
            [
              120.235403044,
              0.477921344
            ],
            [
              120.235270047,
              0.4779079
            ],
            [
              120.23505722,
              0.477965197
            ],
            [
              120.234920368,
              0.478087559
            ],
            [
              120.234711341,
              0.47814677
            ],
            [
              120.234599233,
              0.478160114
            ],
            [
              120.234508052,
              0.478110345
            ],
            [
              120.234424476,
              0.478045277
            ],
            [
              120.234382836,
              0.47793958
            ],
            [
              120.234365083,
              0.477790137
            ],
            [
              120.234344363,
              0.477637705
            ],
            [
              120.234356305,
              0.477470342
            ],
            [
              120.234335571,
              0.477350785
            ],
            [
              120.234264357,
              0.477258107
            ],
            [
              120.234199065,
              0.477204283
            ],
            [
              120.234074408,
              0.477120549
            ],
            [
              120.23399427,
              0.477072697
            ],
            [
              120.233915921,
              0.477004523
            ],
            [
              120.233834247,
              0.47693563
            ],
            [
              120.233769662,
              0.476895436
            ],
            [
              120.233648052,
              0.476914514
            ],
            [
              120.233537824,
              0.476979504
            ],
            [
              120.233476989,
              0.477065554
            ],
            [
              120.233328777,
              0.477088447
            ],
            [
              120.233172997,
              0.477032914
            ],
            [
              120.233024796,
              0.477029028
            ],
            [
              120.232882287,
              0.477046185
            ],
            [
              120.232716983,
              0.477048031
            ],
            [
              120.232625765,
              0.477090075
            ],
            [
              120.232544041,
              0.477145512
            ],
            [
              120.23246422,
              0.477195212
            ],
            [
              120.232363501,
              0.477239165
            ],
            [
              120.2322723,
              0.477237215
            ],
            [
              120.232127913,
              0.477198901
            ],
            [
              120.23205952,
              0.477179746
            ],
            [
              120.231987339,
              0.477128072
            ],
            [
              120.23191705,
              0.477097439
            ],
            [
              120.23182016,
              0.477068708
            ],
            [
              120.231715672,
              0.477036149
            ],
            [
              120.231620675,
              0.477024634
            ],
            [
              120.231516156,
              0.477068585
            ],
            [
              120.231419217,
              0.477162271
            ],
            [
              120.231341292,
              0.477221536
            ],
            [
              120.231193077,
              0.477253993
            ],
            [
              120.231037286,
              0.477225238
            ],
            [
              120.230944207,
              0.477167817
            ],
            [
              120.230873924,
              0.477123795
            ],
            [
              120.23083407,
              0.4770071
            ],
            [
              120.230811313,
              0.476898063
            ],
            [
              120.230799954,
              0.476794769
            ],
            [
              120.230727828,
              0.476607289
            ],
            [
              120.230678501,
              0.476423643
            ],
            [
              120.23067287,
              0.476251492
            ],
            [
              120.230701428,
              0.476106133
            ],
            [
              120.230777471,
              0.476000962
            ],
            [
              120.230750914,
              0.475891924
            ],
            [
              120.230735771,
              0.475750373
            ],
            [
              120.2306864,
              0.475673842
            ],
            [
              120.23065794,
              0.475572454
            ],
            [
              120.230578173,
              0.47548826
            ],
            [
              120.230487003,
              0.4754098
            ],
            [
              120.230388221,
              0.475360028
            ],
            [
              120.230272353,
              0.47527582
            ],
            [
              120.230173588,
              0.47518588
            ],
            [
              120.230169837,
              0.475061549
            ],
            [
              120.230236411,
              0.47487795
            ],
            [
              120.230194659,
              0.474757429
            ],
            [
              120.230135938,
              0.474692463
            ],
            [
              120.229982035,
              0.474693835
            ],
            [
              120.229875658,
              0.474632584
            ],
            [
              120.229835787,
              0.47455797
            ],
            [
              120.229767272,
              0.474458865
            ],
            [
              120.229666557,
              0.474491342
            ],
            [
              120.229579135,
              0.474544864
            ],
            [
              120.229476521,
              0.474575426
            ],
            [
              120.229411918,
              0.474581139
            ],
            [
              120.229244979,
              0.474466477
            ],
            [
              120.229243574,
              0.474416266
            ],
            [
              120.229230797,
              0.474297192
            ],
            [
              120.229250789,
              0.474191041
            ],
            [
              120.229238825,
              0.474116678
            ],
            [
              120.229196096,
              0.474061669
            ],
            [
              120.229122505,
              0.473973174
            ],
            [
              120.229079729,
              0.474037712
            ],
            [
              120.22899145,
              0.474155072
            ],
            [
              120.228941872,
              0.474303052
            ],
            [
              120.22890858,
              0.47440585
            ],
            [
              120.228927544,
              0.474496714
            ],
            [
              120.22877553,
              0.474527735
            ],
            [
              120.228675767,
              0.474556386
            ],
            [
              120.228640109,
              0.474640055
            ],
            [
              120.228685199,
              0.474728539
            ],
            [
              120.228813432,
              0.474776409
            ],
            [
              120.228944028,
              0.474852973
            ],
            [
              120.228865611,
              0.474955752
            ],
            [
              120.228827571,
              0.475053766
            ],
            [
              120.228891686,
              0.475082483
            ],
            [
              120.229036557,
              0.475096887
            ],
            [
              120.229148166,
              0.47513997
            ],
            [
              120.22909589,
              0.475204504
            ],
            [
              120.229022229,
              0.475290549
            ],
            [
              120.228972306,
              0.475410076
            ],
            [
              120.228917634,
              0.475527211
            ],
            [
              120.228777493,
              0.475560628
            ],
            [
              120.22870858,
              0.475653847
            ],
            [
              120.228687152,
              0.475787732
            ],
            [
              120.228758374,
              0.475859489
            ],
            [
              120.22888185,
              0.475924095
            ],
            [
              120.228943565,
              0.476012585
            ],
            [
              120.229057535,
              0.476091533
            ],
            [
              120.229159617,
              0.476201558
            ],
            [
              120.229283065,
              0.476337892
            ],
            [
              120.229311553,
              0.476368986
            ],
            [
              120.229359019,
              0.47645508
            ],
            [
              120.229375602,
              0.476560289
            ],
            [
              120.229373178,
              0.476682226
            ],
            [
              120.229354143,
              0.476770684
            ],
            [
              120.22929474,
              0.476837607
            ],
            [
              120.229197358,
              0.476851913
            ],
            [
              120.229157678,
              0.476893739
            ],
            [
              120.229150524,
              0.476965464
            ],
            [
              120.229178974,
              0.477091001
            ],
            [
              120.229228817,
              0.477173509
            ],
            [
              120.2292537,
              0.477309804
            ],
            [
              120.229279305,
              0.477424867
            ],
            [
              120.229276429,
              0.477489421
            ],
            [
              120.229284948,
              0.477566892
            ],
            [
              120.229279216,
              0.477647226
            ],
            [
              120.229294979,
              0.477722667
            ],
            [
              120.22937214,
              0.477791438
            ],
            [
              120.229464144,
              0.477863204
            ],
            [
              120.229529425,
              0.477943925
            ],
            [
              120.229582829,
              0.478030619
            ],
            [
              120.229618417,
              0.478123283
            ],
            [
              120.229656962,
              0.478245835
            ],
            [
              120.22960644,
              0.478377317
            ],
            [
              120.229520268,
              0.478568558
            ],
            [
              120.229324882,
              0.47866591
            ],
            [
              120.229096856,
              0.4787232
            ],
            [
              120.228973334,
              0.478775751
            ],
            [
              120.228909164,
              0.478885709
            ],
            [
              120.228828363,
              0.479007615
            ],
            [
              120.228745203,
              0.479093655
            ],
            [
              120.228690555,
              0.479148625
            ],
            [
              120.228624344,
              0.479253769
            ],
            [
              120.2285903,
              0.47941491
            ],
            [
              120.228614409,
              0.479509628
            ],
            [
              120.228574009,
              0.479569385
            ],
            [
              120.228462323,
              0.479717579
            ],
            [
              120.228488397,
              0.47984431
            ],
            [
              120.228540594,
              0.479978224
            ],
            [
              120.228664017,
              0.480174333
            ],
            [
              120.228827833,
              0.48032503
            ],
            [
              120.228910867,
              0.480554595
            ],
            [
              120.228953524,
              0.480786535
            ],
            [
              120.22898906,
              0.481006518
            ],
            [
              120.228946321,
              0.481115261
            ],
            [
              120.229035346,
              0.481210935
            ],
            [
              120.229038253,
              0.481366348
            ],
            [
              120.228544227,
              0.481632999
            ],
            [
              120.228521347,
              0.481752396
            ],
            [
              120.228338242,
              0.481935501
            ],
            [
              120.228204727,
              0.48208046
            ],
            [
              120.228067398,
              0.482297897
            ],
            [
              120.227968216,
              0.482568741
            ],
            [
              120.227830887,
              0.482889175
            ],
            [
              120.227716446,
              0.483205795
            ],
            [
              120.227697372,
              0.483537674
            ],
            [
              120.227674484,
              0.483865738
            ],
            [
              120.227674484,
              0.484113693
            ],
            [
              120.227582932,
              0.484399796
            ],
            [
              120.227457047,
              0.484693527
            ],
            [
              120.227254868,
              0.485078812
            ],
            [
              120.227075577,
              0.485387802
            ],
            [
              120.226858139,
              0.485578537
            ],
            [
              120.226667404,
              0.485761642
            ],
            [
              120.226499557,
              0.485898972
            ],
            [
              120.226263046,
              0.486066818
            ],
            [
              120.226125717,
              0.486227036
            ],
            [
              120.22590065,
              0.486398697
            ],
            [
              120.225721359,
              0.48666954
            ],
            [
              120.225549698,
              0.486875534
            ],
            [
              120.225416183,
              0.487134933
            ],
            [
              120.22526741,
              0.487283707
            ],
            [
              120.225122452,
              0.487543106
            ],
            [
              120.224760056,
              0.487909317
            ],
            [
              120.224409103,
              0.488328934
            ],
            [
              120.223913193,
              0.488759995
            ],
            [
              120.223665237,
              0.488996506
            ],
            [
              120.223257065,
              0.489370346
            ],
            [
              120.223009109,
              0.489610672
            ],
            [
              120.222513199,
              0.490018845
            ],
            [
              120.222185135,
              0.490282059
            ],
            [
              120.221883774,
              0.490552902
            ],
            [
              120.221532822,
              0.490781784
            ],
            [
              120.221204758,
              0.490903854
            ],
            [
              120.22086525,
              0.490915298
            ],
            [
              120.220438004,
              0.490869522
            ],
            [
              120.220132828,
              0.490869522
            ],
            [
              120.21985054,
              0.490869522
            ],
            [
              120.219488144,
              0.490823746
            ],
            [
              120.219152451,
              0.490858078
            ],
            [
              120.218858719,
              0.490915298
            ],
            [
              120.218496323,
              0.491052628
            ],
            [
              120.218225479,
              0.491140366
            ],
            [
              120.218011856,
              0.491323471
            ],
            [
              120.217504501,
              0.491834641
            ],
            [
              120.217164993,
              0.492097855
            ],
            [
              120.216928482,
              0.492242813
            ],
            [
              120.216691971,
              0.492460251
            ],
            [
              120.216306686,
              0.492605209
            ],
            [
              120.216207504,
              0.492616653
            ],
            [
              120.215707779,
              0.492776871
            ],
            [
              120.215135574,
              0.49297142
            ],
            [
              120.214254379,
              0.493276596
            ],
            [
              120.213937759,
              0.493368149
            ],
            [
              120.21380043,
              0.493368149
            ],
            [
              120.213430405,
              0.493524551
            ],
            [
              120.212842941,
              0.493684769
            ],
            [
              120.21223259,
              0.493864059
            ],
            [
              120.211870193,
              0.49392128
            ],
            [
              120.211568832,
              0.494035721
            ],
            [
              120.21116066,
              0.494207382
            ],
            [
              120.21084404,
              0.494340897
            ],
            [
              120.210542679,
              0.494535446
            ],
            [
              120.210313797,
              0.494726181
            ],
            [
              120.209817886,
              0.495138168
            ],
            [
              120.209535599,
              0.495466232
            ],
            [
              120.209321976,
              0.495794296
            ],
            [
              120.209161758,
              0.496080399
            ],
            [
              120.209039688,
              0.496511459
            ],
            [
              120.208936691,
              0.496759415
            ],
            [
              120.208757401,
              0.49713707
            ],
            [
              120.208665848,
              0.497430801
            ],
            [
              120.208509445,
              0.497816086
            ],
            [
              120.208280563,
              0.498235703
            ],
            [
              120.208089828,
              0.498579025
            ],
            [
              120.207956314,
              0.499101639
            ],
            [
              120.207899094,
              0.499509811
            ],
            [
              120.207777023,
              0.499849319
            ],
            [
              120.207632065,
              0.500001907
            ],
            [
              120.207315445,
              0.500406265
            ],
            [
              120.207036972,
              0.500692368
            ],
            [
              120.206628799,
              0.501089096
            ],
            [
              120.206029892,
              0.501630783
            ],
            [
              120.205698013,
              0.501913071
            ],
            [
              120.205598831,
              0.501996994
            ],
            [
              120.205293655,
              0.502256393
            ],
            [
              120.205129623,
              0.502477646
            ],
            [
              120.205022812,
              0.502679825
            ],
            [
              120.204545975,
              0.502950668
            ],
            [
              120.203863144,
              0.503545761
            ],
            [
              120.203355789,
              0.504079819
            ],
            [
              120.202791214,
              0.504499435
            ],
            [
              120.202108383,
              0.505033493
            ],
            [
              120.201334,
              0.505537033
            ],
            [
              120.200799942,
              0.506162643
            ],
            [
              120.19975853,
              0.506757736
            ],
            [
              120.198835373,
              0.5070858
            ],
            [
              120.19818306,
              0.507501602
            ],
            [
              120.197824478,
              0.507738113
            ],
            [
              120.19711113,
              0.508008957
            ],
            [
              120.196306229,
              0.508573532
            ],
            [
              120.195772171,
              0.509050369
            ],
            [
              120.195295334,
              0.509939194
            ],
            [
              120.194581985,
              0.510564804
            ],
            [
              120.194292068,
              0.510885239
            ],
            [
              120.19401741,
              0.511098862
            ],
            [
              120.193880081,
              0.511465073
            ],
            [
              120.193849564,
              0.511865616
            ],
            [
              120.19377327,
              0.512338638
            ],
            [
              120.193624496,
              0.512704849
            ],
            [
              120.193212509,
              0.513254166
            ],
            [
              120.192865372,
              0.513589859
            ],
            [
              120.192468643,
              0.514234543
            ],
            [
              120.192209244,
              0.5147686
            ],
            [
              120.192087173,
              0.515195847
            ],
            [
              120.191934586,
              0.515882492
            ],
            [
              120.191797256,
              0.516340256
            ],
            [
              120.191709518,
              0.517213821
            ],
            [
              120.191690445,
              0.518129349
            ],
            [
              120.191797256,
              0.518667221
            ],
            [
              120.191797256,
              0.51918602
            ],
            [
              120.191766739,
              0.519750595
            ],
            [
              120.191812515,
              0.520578384
            ],
            [
              120.191705704,
              0.521417618
            ],
            [
              120.191568375,
              0.521844864
            ],
            [
              120.191385269,
              0.522012711
            ],
            [
              120.190855026,
              0.522348404
            ],
            [
              120.190340042,
              0.522577286
            ],
            [
              120.189138412,
              0.522623062
            ],
            [
              120.188806534,
              0.522668839
            ],
            [
              120.188001633,
              0.522836685
            ],
            [
              120.187681198,
              0.52277565
            ],
            [
              120.186876297,
              0.523035049
            ],
            [
              120.18639183,
              0.523355484
            ],
            [
              120.185918808,
              0.523874283
            ],
            [
              120.185190201,
              0.5241642
            ],
            [
              120.18488884,
              0.524515152
            ],
            [
              120.184598923,
              0.524671555
            ],
            [
              120.184247971,
              0.524717331
            ],
            [
              120.183900833,
              0.524717331
            ],
            [
              120.18262291,
              0.525068283
            ],
            [
              120.181818008,
              0.525587082
            ],
            [
              120.181364059,
              0.525922775
            ],
            [
              120.180421829,
              0.526288986
            ],
            [
              120.180131912,
              0.526319504
            ],
            [
              120.17984581,
              0.526380539
            ],
            [
              120.178918839,
              0.526807785
            ],
            [
              120.178853989,
              0.526819229
            ],
            [
              120.177419662,
              0.527349472
            ],
            [
              120.176305771,
              0.527906418
            ],
            [
              120.175748825,
              0.528718948
            ],
            [
              120.175748825,
              0.529882431
            ],
            [
              120.175748825,
              0.531400681
            ],
            [
              120.175748825,
              0.532365799
            ],
            [
              120.176153183,
              0.533731461
            ],
            [
              120.176557541,
              0.53499794
            ],
            [
              120.176202774,
              0.536821365
            ],
            [
              120.175951004,
              0.537935257
            ],
            [
              120.175798416,
              0.538442612
            ],
            [
              120.175443649,
              0.539201736
            ],
            [
              120.175943375,
              0.540346146
            ],
            [
              120.176012039,
              0.540651321
            ],
            [
              120.176050186,
              0.541028976
            ],
            [
              120.176103592,
              0.541387558
            ],
            [
              120.17624855,
              0.541833878
            ],
            [
              120.176317215,
              0.5421772
            ],
            [
              120.176534653,
              0.542589188
            ],
            [
              120.176839828,
              0.543321609
            ],
            [
              120.177125931,
              0.543626785
            ],
            [
              120.177518845,
              0.544038773
            ],
            [
              120.177988052,
              0.544435501
            ],
            [
              120.178487778,
              0.544847488
            ],
            [
              120.179006577,
              0.545312881
            ],
            [
              120.179437637,
              0.545671463
            ],
            [
              120.179906845,
              0.545888901
            ],
            [
              120.180139542,
              0.546316147
            ],
            [
              120.180265427,
              0.546712875
            ],
            [
              120.180265427,
              0.547159195
            ],
            [
              120.180120468,
              0.547876358
            ],
            [
              120.180086136,
              0.54829216
            ],
            [
              120.17997551,
              0.548810959
            ],
            [
              120.179941177,
              0.549367905
            ],
            [
              120.179868698,
              0.550012589
            ],
            [
              120.179742813,
              0.550657272
            ],
            [
              120.179670334,
              0.551034927
            ],
            [
              120.179670334,
              0.551607132
            ],
            [
              120.179742813,
              0.552309036
            ],
            [
              120.179960251,
              0.552915573
            ],
            [
              120.180265427,
              0.553506851
            ],
            [
              120.180513382,
              0.553884506
            ],
            [
              120.180765152,
              0.554208755
            ],
            [
              120.181089401,
              0.554582596
            ],
            [
              120.181177139,
              0.555212021
            ],
            [
              120.181447983,
              0.556142807
            ],
            [
              120.181447983,
              0.55648613
            ],
            [
              120.1816082,
              0.556951523
            ],
            [
              120.181734085,
              0.55761528
            ],
            [
              120.18185997,
              0.55831337
            ],
            [
              120.181985855,
              0.55906868
            ],
            [
              120.182126999,
              0.559495926
            ],
            [
              120.182252884,
              0.559965134
            ],
            [
              120.182523727,
              0.560464859
            ],
            [
              120.182775497,
              0.561166763
            ],
            [
              120.182882309,
              0.561811447
            ],
            [
              120.183095932,
              0.562223434
            ],
            [
              120.183328629,
              0.562601089
            ],
            [
              120.183618546,
              0.562994003
            ],
            [
              120.184099197,
              0.564229965
            ],
            [
              120.184389114,
              0.564680099
            ],
            [
              120.184640884,
              0.565164566
            ],
            [
              120.184961319,
              0.565595627
            ],
            [
              120.185426712,
              0.566259384
            ],
            [
              120.185606003,
              0.566850662
            ],
            [
              120.185983658,
              0.567335129
            ],
            [
              120.186128616,
              0.567529678
            ],
            [
              120.186616898,
              0.568151474
            ],
            [
              120.186998367,
              0.568696976
            ],
            [
              120.187398911,
              0.569307327
            ],
            [
              120.187665939,
              0.569601059
            ],
            [
              120.187932968,
              0.569868088
            ],
            [
              120.188474655,
              0.570257187
            ],
            [
              120.189058304,
              0.570627213
            ],
            [
              120.189680099,
              0.570970535
            ],
            [
              120.190084457,
              0.571134567
            ],
            [
              120.190504074,
              0.571275711
            ],
            [
              120.191156387,
              0.571397781
            ],
            [
              120.191537857,
              0.571447372
            ],
            [
              120.191820145,
              0.571500778
            ],
            [
              120.192453384,
              0.571569443
            ],
            [
              120.192873001,
              0.571630478
            ],
            [
              120.193307877,
              0.57167244
            ],
            [
              120.193914413,
              0.571825027
            ],
            [
              120.194177628,
              0.571840286
            ],
            [
              120.194669724,
              0.571996689
            ],
            [
              120.195207596,
              0.572118759
            ],
            [
              120.195615768,
              0.572221756
            ],
            [
              120.19610405,
              0.572313309
            ],
            [
              120.196809769,
              0.57248497
            ],
            [
              120.197027206,
              0.572553635
            ],
            [
              120.197408676,
              0.572629929
            ],
            [
              120.197942734,
              0.572854996
            ],
            [
              120.198400497,
              0.572954178
            ],
            [
              120.198785782,
              0.57305336
            ],
            [
              120.199541092,
              0.573213577
            ],
            [
              120.200235367,
              0.573316574
            ],
            [
              120.200754166,
              0.573404312
            ],
            [
              120.201105118,
              0.57349968
            ],
            [
              120.201448441,
              0.573644638
            ],
            [
              120.202165604,
              0.573793411
            ],
            [
              120.202630997,
              0.573896408
            ],
            [
              120.20308876,
              0.574018478
            ],
            [
              120.20328331,
              0.573392868
            ]
          ]
        ]
      }
    }
  ]
}