{
  "type": "FeatureCollection",
  "features": [
    {
      "type": "Feature",
      "properties": {
        "idx": "1369",
        "nama_kewilayahan": "Lodang"
      },
      "geometry": {
        "type": "Polygon",
        "coordinates": [
          [
            [
              119.99253207,
              -2.303893752
            ],
            [
              119.992566125,
              -2.303781188
            ],
            [
              119.992639191,
              -2.30368605
            ],
            [
              119.992701347,
              -2.303646006
            ],
            [
              119.992769251,
              -2.303602258
            ],
            [
              119.992886289,
              -2.303520137
            ],
            [
              119.993004879,
              -2.303401983
            ],
            [
              119.99308604,
              -2.303292093
            ],
            [
              119.993141138,
              -2.303169157
            ],
            [
              119.993178175,
              -2.302974218
            ],
            [
              119.99319085,
              -2.302807156
            ],
            [
              119.993206816,
              -2.302659747
            ],
            [
              119.993232565,
              -2.302517222
            ],
            [
              119.993287799,
              -2.30245979
            ],
            [
              119.99332348,
              -2.302397491
            ],
            [
              119.99336411,
              -2.30236629
            ],
            [
              119.993487798,
              -2.302349649
            ],
            [
              119.993613156,
              -2.302351028
            ],
            [
              119.993753201,
              -2.302373653
            ],
            [
              119.993901447,
              -2.302422471
            ],
            [
              119.994057774,
              -2.302445061
            ],
            [
              119.994215738,
              -2.302472564
            ],
            [
              119.994319952,
              -2.302485444
            ],
            [
              119.994443666,
              -2.302481912
            ],
            [
              119.994554316,
              -2.302458749
            ],
            [
              119.994655142,
              -2.302406133
            ],
            [
              119.994737982,
              -2.302320806
            ],
            [
              119.994767089,
              -2.302225771
            ],
            [
              119.994784784,
              -2.302122566
            ],
            [
              119.994804048,
              -2.301993156
            ],
            [
              119.994821709,
              -2.301878495
            ],
            [
              119.994829592,
              -2.301752389
            ],
            [
              119.994878803,
              -2.301560474
            ],
            [
              119.994738826,
              -2.301182673
            ],
            [
              119.99472455,
              -2.301025628
            ],
            [
              119.99468172,
              -2.300868584
            ],
            [
              119.994610336,
              -2.300668709
            ],
            [
              119.994181175,
              -2.299956507
            ],
            [
              119.993964762,
              -2.299843079
            ],
            [
              119.993861877,
              -2.299841771
            ],
            [
              119.993736489,
              -2.29982729
            ],
            [
              119.993645295,
              -2.299812747
            ],
            [
              119.99338795,
              -2.299746154
            ],
            [
              119.99319248,
              -2.299689249
            ],
            [
              119.992925254,
              -2.299570274
            ],
            [
              119.99266625,
              -2.299492217
            ],
            [
              119.992478863,
              -2.299409096
            ],
            [
              119.992320818,
              -2.299342292
            ],
            [
              119.992192023,
              -2.299252496
            ],
            [
              119.992072969,
              -2.299147943
            ],
            [
              119.991957217,
              -2.299067949
            ],
            [
              119.991838286,
              -2.299022348
            ],
            [
              119.991751965,
              -2.299001244
            ],
            [
              119.991624894,
              -2.298958931
            ],
            [
              119.991460368,
              -2.298906877
            ],
            [
              119.991378932,
              -2.298885762
            ],
            [
              119.991193263,
              -2.298846852
            ],
            [
              119.990971717,
              -2.298775267
            ],
            [
              119.990419173,
              -2.298450555
            ],
            [
              119.990192554,
              -2.298285641
            ],
            [
              119.990036063,
              -2.298184438
            ],
            [
              119.989856746,
              -2.298068555
            ],
            [
              119.989713271,
              -2.297964053
            ],
            [
              119.989568187,
              -2.297867741
            ],
            [
              119.989454154,
              -2.29783195
            ],
            [
              119.989301073,
              -2.2978028
            ],
            [
              119.989104067,
              -2.29778848
            ],
            [
              119.988698684,
              -2.297777869
            ],
            [
              119.988431699,
              -2.29777515
            ],
            [
              119.988153329,
              -2.297774102
            ],
            [
              119.987923775,
              -2.29776967
            ],
            [
              119.987736531,
              -2.297750414
            ],
            [
              119.987498761,
              -2.297708341
            ],
            [
              119.98731307,
              -2.297654695
            ],
            [
              119.987114375,
              -2.297614168
            ],
            [
              119.986967829,
              -2.297596469
            ],
            [
              119.986783864,
              -2.297595211
            ],
            [
              119.986606429,
              -2.297598864
            ],
            [
              119.986536983,
              -2.297607952
            ],
            [
              119.986263026,
              -2.297643803
            ],
            [
              119.986119767,
              -2.297642459
            ],
            [
              119.985956948,
              -2.297629701
            ],
            [
              119.985797355,
              -2.297600565
            ],
            [
              119.985618207,
              -2.297566556
            ],
            [
              119.985417928,
              -2.297542411
            ],
            [
              119.985216063,
              -2.2975412
            ],
            [
              119.985050071,
              -2.297571021
            ],
            [
              119.984919912,
              -2.297607326
            ],
            [
              119.984815813,
              -2.297650117
            ],
            [
              119.984711698,
              -2.297684722
            ],
            [
              119.984630347,
              -2.297704545
            ],
            [
              119.984513176,
              -2.297724441
            ],
            [
              119.984360158,
              -2.297729678
            ],
            [
              119.984062219,
              -2.297717204
            ],
            [
              119.98390912,
              -2.297679859
            ],
            [
              119.983756053,
              -2.297662175
            ],
            [
              119.9835721,
              -2.29766256
            ],
            [
              119.983378439,
              -2.297694074
            ],
            [
              119.983230416,
              -2.297748432
            ],
            [
              119.983118209,
              -2.297809255
            ],
            [
              119.982945759,
              -2.297860385
            ],
            [
              119.982836702,
              -2.2978688
            ],
            [
              119.982722751,
              -2.297869039
            ],
            [
              119.982646217,
              -2.297859369
            ],
            [
              119.982561486,
              -2.297821891
            ],
            [
              119.982442518,
              -2.297758273
            ],
            [
              119.982367506,
              -2.297699478
            ],
            [
              119.98229246,
              -2.297619397
            ],
            [
              119.982161858,
              -2.297442814
            ],
            [
              119.982094855,
              -2.29732177
            ],
            [
              119.982018889,
              -2.297200957
            ],
            [
              119.981309124,
              -2.297319251
            ],
            [
              119.981256945,
              -2.297310306
            ],
            [
              119.980476313,
              -2.297176484
            ],
            [
              119.979881447,
              -2.297128894
            ],
            [
              119.979429349,
              -2.297128894
            ],
            [
              119.978667922,
              -2.297152689
            ],
            [
              119.977739933,
              -2.297319251
            ],
            [
              119.976978505,
              -2.297128894
            ],
            [
              119.97514632,
              -2.296867154
            ],
            [
              119.973790027,
              -2.296724386
            ],
            [
              119.972433734,
              -2.296843359
            ],
            [
              119.970958468,
              -2.296653002
            ],
            [
              119.969554586,
              -2.296676797
            ],
            [
              119.968222088,
              -2.296700591
            ],
            [
              119.967831917,
              -2.296679689
            ],
            [
              119.96688959,
              -2.296629207
            ],
            [
              119.965485708,
              -2.296605412
            ],
            [
              119.964605308,
              -2.296605413
            ],
            [
              119.962273435,
              -2.296415056
            ],
            [
              119.961345446,
              -2.296343672
            ],
            [
              119.960473285,
              -2.295407259
            ],
            [
              119.959854625,
              -2.294503063
            ],
            [
              119.958998019,
              -2.293646457
            ],
            [
              119.957998645,
              -2.293265744
            ],
            [
              119.956618558,
              -2.293313333
            ],
            [
              119.955666774,
              -2.293075387
            ],
            [
              119.954619811,
              -2.292456727
            ],
            [
              119.953382491,
              -2.291409764
            ],
            [
              119.95281142,
              -2.290743515
            ],
            [
              119.951812047,
              -2.289886909
            ],
            [
              119.951038709,
              -2.289722867
            ],
            [
              119.950587698,
              -2.289627198
            ],
            [
              119.950241602,
              -2.289553784
            ],
            [
              119.949915217,
              -2.289540185
            ],
            [
              119.949099461,
              -2.289506195
            ],
            [
              119.948863111,
              -2.289515649
            ],
            [
              119.947909731,
              -2.289553784
            ],
            [
              119.947481428,
              -2.290267623
            ],
            [
              119.947386249,
              -2.290886283
            ],
            [
              119.946815179,
              -2.290695926
            ],
            [
              119.946555461,
              -2.290320779
            ],
            [
              119.946386875,
              -2.290077266
            ],
            [
              119.945435091,
              -2.28979173
            ],
            [
              119.944530896,
              -2.290124855
            ],
            [
              119.943769468,
              -2.290172444
            ],
            [
              119.94310322,
              -2.290077266
            ],
            [
              119.942341792,
              -2.289601373
            ],
            [
              119.941152061,
              -2.28922066
            ],
            [
              119.940057509,
              -2.288935125
            ],
            [
              119.937773227,
              -2.288078519
            ],
            [
              119.936869031,
              -2.28741227
            ],
            [
              119.936060015,
              -2.286555664
            ],
            [
              119.935200786,
              -2.284948609
            ],
            [
              119.935322417,
              -2.286507598
            ],
            [
              119.935406687,
              -2.287587707
            ],
            [
              119.935863544,
              -2.288844062
            ],
            [
              119.936263293,
              -2.290614381
            ],
            [
              119.936069686,
              -2.291727624
            ],
            [
              119.936034865,
              -2.291927844
            ],
            [
              119.935340765,
              -2.29366871
            ],
            [
              119.935121152,
              -2.295754017
            ],
            [
              119.935892098,
              -2.296439302
            ],
            [
              119.936060028,
              -2.297815718
            ],
            [
              119.936225222,
              -2.299389833
            ],
            [
              119.935939687,
              -2.300865099
            ],
            [
              119.935511384,
              -2.301531348
            ],
            [
              119.935178259,
              -2.302150008
            ],
            [
              119.934845135,
              -2.303101793
            ],
            [
              119.934369242,
              -2.304029782
            ],
            [
              119.932465674,
              -2.304743621
            ],
            [
              119.930682325,
              -2.304825966
            ],
            [
              119.930647163,
              -2.304827589
            ],
            [
              119.930115067,
              -2.304869762
            ],
            [
              119.928078072,
              -2.305850675
            ],
            [
              119.926358329,
              -2.306094569
            ],
            [
              119.924514282,
              -2.30635609
            ],
            [
              119.922465192,
              -2.306607733
            ],
            [
              119.922039324,
              -2.306660033
            ],
            [
              119.920897208,
              -2.305427873
            ],
            [
              119.920749179,
              -2.305268174
            ],
            [
              119.920512977,
              -2.305273941
            ],
            [
              119.916789732,
              -2.305364855
            ],
            [
              119.916293344,
              -2.305376974
            ],
            [
              119.912249087,
              -2.306228846
            ],
            [
              119.911733685,
              -2.306337408
            ],
            [
              119.91154555,
              -2.306286098
            ],
            [
              119.911210203,
              -2.30619464
            ],
            [
              119.911195561,
              -2.306192422
            ],
            [
              119.91090901,
              -2.306149005
            ],
            [
              119.910875454,
              -2.306143921
            ],
            [
              119.91042498,
              -2.306075668
            ],
            [
              119.909782525,
              -2.306028078
            ],
            [
              119.909428046,
              -2.306085252
            ],
            [
              119.909287815,
              -2.30610787
            ],
            [
              119.909287265,
              -2.306107959
            ],
            [
              119.909044893,
              -2.306147051
            ],
            [
              119.908426233,
              -2.306408794
            ],
            [
              119.907736189,
              -2.307075041
            ],
            [
              119.90734768,
              -2.307444124
            ],
            [
              119.906784405,
              -2.307979236
            ],
            [
              119.90618954,
              -2.308550308
            ],
            [
              119.905713647,
              -2.309168967
            ],
            [
              119.905309139,
              -2.309668654
            ],
            [
              119.905166371,
              -2.310049368
            ],
            [
              119.904857041,
              -2.310668027
            ],
            [
              119.904833247,
              -2.311310482
            ],
            [
              119.904895053,
              -2.31160715
            ],
            [
              119.904905851,
              -2.311658984
            ],
            [
              119.90495222,
              -2.311881552
            ],
            [
              119.905004863,
              -2.312271111
            ],
            [
              119.905071193,
              -2.312761953
            ],
            [
              119.905118783,
              -2.313713737
            ],
            [
              119.904714274,
              -2.314641727
            ],
            [
              119.904684993,
              -2.314684232
            ],
            [
              119.904677652,
              -2.314694889
            ],
            [
              119.904427944,
              -2.315057368
            ],
            [
              119.903976641,
              -2.315712484
            ],
            [
              119.903768365,
              -2.316076968
            ],
            [
              119.903605357,
              -2.316362232
            ],
            [
              119.903120036,
              -2.317211546
            ],
            [
              119.902946869,
              -2.317673323
            ],
            [
              119.902905884,
              -2.317782615
            ],
            [
              119.902819035,
              -2.317869465
            ],
            [
              119.90221584,
              -2.318472659
            ],
            [
              119.901835127,
              -2.31904373
            ],
            [
              119.901406824,
              -2.319709979
            ],
            [
              119.901123965,
              -2.32006355
            ],
            [
              119.901026109,
              -2.32018587
            ],
            [
              119.90031227,
              -2.320804531
            ],
            [
              119.899959598,
              -2.32103125
            ],
            [
              119.899646022,
              -2.321232835
            ],
            [
              119.898588173,
              -2.321738794
            ],
            [
              119.898318062,
              -2.321867986
            ],
            [
              119.897617392,
              -2.32220311
            ],
            [
              119.897418738,
              -2.322298124
            ],
            [
              119.897306372,
              -2.322351867
            ],
            [
              119.896688772,
              -2.322135315
            ],
            [
              119.896028871,
              -2.321903931
            ],
            [
              119.894793356,
              -2.321470717
            ],
            [
              119.894659356,
              -2.321423733
            ],
            [
              119.89390287,
              -2.321158481
            ],
            [
              119.893786394,
              -2.32111764
            ],
            [
              119.891883758,
              -2.320450504
            ],
            [
              119.889927073,
              -2.320216012
            ],
            [
              119.889343724,
              -2.320146102
            ],
            [
              119.887857428,
              -2.319967979
            ],
            [
              119.88718539,
              -2.31988744
            ],
            [
              119.887084371,
              -2.319875333
            ],
            [
              119.886999802,
              -2.319865198
            ],
            [
              119.886321041,
              -2.320566586
            ],
            [
              119.886029902,
              -2.320899314
            ],
            [
              119.885990694,
              -2.320944123
            ],
            [
              119.885155104,
              -2.321899083
            ],
            [
              119.884828936,
              -2.32235151
            ],
            [
              119.884417472,
              -2.322922251
            ],
            [
              119.883775017,
              -2.32368368
            ],
            [
              119.882918411,
              -2.324397517
            ],
            [
              119.882461487,
              -2.325017628
            ],
            [
              119.882252162,
              -2.325301713
            ],
            [
              119.881764648,
              -2.325881459
            ],
            [
              119.881699699,
              -2.325958695
            ],
            [
              119.881371761,
              -2.326348675
            ],
            [
              119.880967253,
              -2.326943541
            ],
            [
              119.880824486,
              -2.327776352
            ],
            [
              119.880991048,
              -2.32879952
            ],
            [
              119.881086226,
              -2.330036839
            ],
            [
              119.880919664,
              -2.330869651
            ],
            [
              119.880324798,
              -2.331892819
            ],
            [
              119.880015469,
              -2.332344917
            ],
            [
              119.879087479,
              -2.333344291
            ],
            [
              119.878254668,
              -2.334081924
            ],
            [
              119.877421857,
              -2.334890941
            ],
            [
              119.876708018,
              -2.335842725
            ],
            [
              119.875851412,
              -2.337389374
            ],
            [
              119.875399315,
              -2.338079418
            ],
            [
              119.874828244,
              -2.339007408
            ],
            [
              119.874399941,
              -2.339673657
            ],
            [
              119.874081763,
              -2.340264558
            ],
            [
              119.874051575,
              -2.340320623
            ],
            [
              119.873900254,
              -2.340601647
            ],
            [
              119.873733692,
              -2.341244102
            ],
            [
              119.873543334,
              -2.341743788
            ],
            [
              119.873471951,
              -2.342386242
            ],
            [
              119.873709898,
              -2.343242849
            ],
            [
              119.873924048,
              -2.344147044
            ],
            [
              119.873900254,
              -2.344932266
            ],
            [
              119.873757487,
              -2.345598515
            ],
            [
              119.8731505,
              -2.346367363
            ],
            [
              119.873043648,
              -2.34650271
            ],
            [
              119.872403082,
              -2.347189031
            ],
            [
              119.872044275,
              -2.347573467
            ],
            [
              119.871689844,
              -2.347906738
            ],
            [
              119.870450036,
              -2.349072528
            ],
            [
              119.869997938,
              -2.349524625
            ],
            [
              119.870045527,
              -2.350000518
            ],
            [
              119.870450036,
              -2.350809534
            ],
            [
              119.870806954,
              -2.351785113
            ],
            [
              119.870902211,
              -2.352144157
            ],
            [
              119.871116285,
              -2.352951049
            ],
            [
              119.871592176,
              -2.35445011
            ],
            [
              119.871663561,
              -2.35563984
            ],
            [
              119.871782534,
              -2.356520241
            ],
            [
              119.871901507,
              -2.357472025
            ],
            [
              119.87202048,
              -2.358590372
            ],
            [
              119.872137441,
              -2.358964647
            ],
            [
              119.872141693,
              -2.358978254
            ],
            [
              119.872249568,
              -2.359323453
            ],
            [
              119.872377399,
              -2.359732513
            ],
            [
              119.872662934,
              -2.360874655
            ],
            [
              119.872840189,
              -2.361571013
            ],
            [
              119.872996058,
              -2.362183357
            ],
            [
              119.873234005,
              -2.363753802
            ],
            [
              119.873376773,
              -2.364610408
            ],
            [
              119.873662308,
              -2.365110095
            ],
            [
              119.8741382,
              -2.36575255
            ],
            [
              119.874216478,
              -2.365859667
            ],
            [
              119.874375103,
              -2.366076733
            ],
            [
              119.874590297,
              -2.366371209
            ],
            [
              119.874612633,
              -2.366391827
            ],
            [
              119.875208958,
              -2.366942281
            ],
            [
              119.875922796,
              -2.367703708
            ],
            [
              119.876186101,
              -2.368183854
            ],
            [
              119.876327304,
              -2.368441341
            ],
            [
              119.876370451,
              -2.368522841
            ],
            [
              119.876527612,
              -2.368819701
            ],
            [
              119.876755607,
              -2.369250357
            ],
            [
              119.876756062,
              -2.369251769
            ],
            [
              119.876993553,
              -2.36998799
            ],
            [
              119.877007875,
              -2.370136943
            ],
            [
              119.877037763,
              -2.370447776
            ],
            [
              119.877112527,
              -2.37122531
            ],
            [
              119.877175788,
              -2.371942278
            ],
            [
              119.877183911,
              -2.372034327
            ],
            [
              119.877302883,
              -2.372843344
            ],
            [
              119.87753836,
              -2.373526226
            ],
            [
              119.877540829,
              -2.373533387
            ],
            [
              119.877873953,
              -2.374342404
            ],
            [
              119.8781119,
              -2.375127626
            ],
            [
              119.878397436,
              -2.376198383
            ],
            [
              119.878635381,
              -2.377031195
            ],
            [
              119.879230246,
              -2.377982979
            ],
            [
              119.880372388,
              -2.379410655
            ],
            [
              119.881324172,
              -2.380600387
            ],
            [
              119.881898651,
              -2.381241152
            ],
            [
              119.881942832,
              -2.38129043
            ],
            [
              119.882823233,
              -2.382028063
            ],
            [
              119.883846401,
              -2.382551544
            ],
            [
              119.884476536,
              -2.382725375
            ],
            [
              119.884507531,
              -2.382733925
            ],
            [
              119.885226488,
              -2.382932258
            ],
            [
              119.886011711,
              -2.383622302
            ],
            [
              119.887225236,
              -2.38464547
            ],
            [
              119.888153225,
              -2.385121363
            ],
            [
              119.889342956,
              -2.385454487
            ],
            [
              119.89065166,
              -2.385406898
            ],
            [
              119.891936568,
              -2.384907211
            ],
            [
              119.892626612,
              -2.384550292
            ],
            [
              119.893673575,
              -2.384359935
            ],
            [
              119.894744333,
              -2.384288551
            ],
            [
              119.895410581,
              -2.384121989
            ],
            [
              119.896148214,
              -2.383788864
            ],
            [
              119.896902875,
              -2.383343808
            ],
            [
              119.897076204,
              -2.383241588
            ],
            [
              119.897154406,
              -2.383167855
            ],
            [
              119.897909016,
              -2.382456366
            ],
            [
              119.898599059,
              -2.381980474
            ],
            [
              119.899336692,
              -2.381790117
            ],
            [
              119.899560527,
              -2.381836749
            ],
            [
              119.899907763,
              -2.381909089
            ],
            [
              119.900407449,
              -2.382123241
            ],
            [
              119.900764369,
              -2.38283708
            ],
            [
              119.901002315,
              -2.384098194
            ],
            [
              119.900907137,
              -2.385287925
            ],
            [
              119.901121288,
              -2.386263504
            ],
            [
              119.901311645,
              -2.386905958
            ],
            [
              119.901739947,
              -2.3880481
            ],
            [
              119.902144456,
              -2.388976089
            ],
            [
              119.903072446,
              -2.389975463
            ],
            [
              119.904190793,
              -2.391260371
            ],
            [
              119.905142577,
              -2.391926621
            ],
            [
              119.905785031,
              -2.392521486
            ],
            [
              119.906594048,
              -2.393187735
            ],
            [
              119.907022351,
              -2.393282913
            ],
            [
              119.907641011,
              -2.393235324
            ],
            [
              119.908259671,
              -2.393401886
            ],
            [
              119.909211456,
              -2.393663627
            ],
            [
              119.909877705,
              -2.393758806
            ],
            [
              119.91047257,
              -2.393711216
            ],
            [
              119.91109123,
              -2.393901574
            ],
            [
              119.911757478,
              -2.394044341
            ],
            [
              119.912328549,
              -2.394329876
            ],
            [
              119.912566495,
              -2.394734384
            ],
            [
              119.913113772,
              -2.395519607
            ],
            [
              119.913732431,
              -2.396066883
            ],
            [
              119.914232118,
              -2.396661748
            ],
            [
              119.914636626,
              -2.39739938
            ],
            [
              119.914850778,
              -2.398041836
            ],
            [
              119.915350465,
              -2.398351165
            ],
            [
              119.915438558,
              -2.398464428
            ],
            [
              119.915683589,
              -2.398779469
            ],
            [
              119.91594533,
              -2.399445717
            ],
            [
              119.916254659,
              -2.399969199
            ],
            [
              119.916587785,
              -2.400587859
            ],
            [
              119.916944703,
              -2.40146826
            ],
            [
              119.917420595,
              -2.402396249
            ],
            [
              119.918182023,
              -2.403014909
            ],
            [
              119.918496525,
              -2.403583431
            ],
            [
              119.918743748,
              -2.404030334
            ],
            [
              119.918800683,
              -2.404133256
            ],
            [
              119.9196097,
              -2.404751915
            ],
            [
              119.919895235,
              -2.405180218
            ],
            [
              119.920275949,
              -2.405751289
            ],
            [
              119.920918403,
              -2.406250976
            ],
            [
              119.921822599,
              -2.407012403
            ],
            [
              119.921896356,
              -2.407040236
            ],
            [
              119.92232744,
              -2.407202909
            ],
            [
              119.922568011,
              -2.407293691
            ],
            [
              119.922795658,
              -2.407379596
            ],
            [
              119.922816476,
              -2.407387452
            ],
            [
              119.923083713,
              -2.407488296
            ],
            [
              119.923492447,
              -2.407666006
            ],
            [
              119.92363989,
              -2.407730112
            ],
            [
              119.924178265,
              -2.407964188
            ],
            [
              119.924939692,
              -2.408202134
            ],
            [
              119.925510763,
              -2.408487669
            ],
            [
              119.926248396,
              -2.40901115
            ],
            [
              119.926581521,
              -2.409391864
            ],
            [
              119.926584545,
              -2.409403962
            ],
            [
              119.926724288,
              -2.409962935
            ],
            [
              119.92662911,
              -2.410581595
            ],
            [
              119.926367369,
              -2.411105077
            ],
            [
              119.925983668,
              -2.411598407
            ],
            [
              119.925701121,
              -2.411961682
            ],
            [
              119.9255424,
              -2.412129739
            ],
            [
              119.924892103,
              -2.412818288
            ],
            [
              119.924792181,
              -2.412889971
            ],
            [
              119.924192553,
              -2.413320139
            ],
            [
              119.923797551,
              -2.41360351
            ],
            [
              119.923012329,
              -2.414341144
            ],
            [
              119.922750589,
              -2.41479324
            ],
            [
              119.92229849,
              -2.415411901
            ],
            [
              119.922250901,
              -2.416197123
            ],
            [
              119.922274696,
              -2.416839577
            ],
            [
              119.922155723,
              -2.418005514
            ],
            [
              119.922108134,
              -2.419385602
            ],
            [
              119.921893982,
              -2.420432564
            ],
            [
              119.92146568,
              -2.421955419
            ],
            [
              119.921013581,
              -2.423049971
            ],
            [
              119.920728047,
              -2.423430684
            ],
            [
              119.920371127,
              -2.42402555
            ],
            [
              119.919871441,
              -2.424763183
            ],
            [
              119.919133807,
              -2.425334253
            ],
            [
              119.918800684,
              -2.425786351
            ],
            [
              119.918348585,
              -2.426666752
            ],
            [
              119.918039256,
              -2.427856481
            ],
            [
              119.917825104,
              -2.428760677
            ],
            [
              119.917729926,
              -2.429426926
            ],
            [
              119.916978016,
              -2.42996627
            ],
            [
              119.916254659,
              -2.430194699
            ],
            [
              119.915607446,
              -2.430175664
            ],
            [
              119.914998305,
              -2.430194698
            ],
            [
              119.914621996,
              -2.430246964
            ],
            [
              119.91431302,
              -2.430289878
            ],
            [
              119.913075699,
              -2.430289877
            ],
            [
              119.912085844,
              -2.430213735
            ],
            [
              119.911686095,
              -2.430308914
            ],
            [
              119.911590916,
              -2.430575412
            ],
            [
              119.911686095,
              -2.430860948
            ],
            [
              119.912078313,
              -2.431285852
            ],
            [
              119.912142951,
              -2.431355876
            ],
            [
              119.912733058,
              -2.432136339
            ],
            [
              119.913608699,
              -2.432859696
            ],
            [
              119.914560483,
              -2.433925694
            ],
            [
              119.915302875,
              -2.434515801
            ],
            [
              119.915354515,
              -2.434573287
            ],
            [
              119.915356282,
              -2.434575254
            ],
            [
              119.915376993,
              -2.43459831
            ],
            [
              119.915822056,
              -2.435093757
            ],
            [
              119.915866694,
              -2.435183034
            ],
            [
              119.91615417,
              -2.435757985
            ],
            [
              119.916694429,
              -2.436838502
            ],
            [
              119.916297853,
              -2.43977317
            ],
            [
              119.915890407,
              -2.440678605
            ],
            [
              119.915625672,
              -2.441266905
            ],
            [
              119.915584014,
              -2.441359478
            ],
            [
              119.915379054,
              -2.441584935
            ],
            [
              119.91479086,
              -2.442231947
            ],
            [
              119.914090254,
              -2.443956517
            ],
            [
              119.913963445,
              -2.444268663
            ],
            [
              119.913900293,
              -2.444424115
            ],
            [
              119.913895444,
              -2.444436051
            ],
            [
              119.913759761,
              -2.444770039
            ],
            [
              119.914105205,
              -2.445608976
            ],
            [
              119.914331384,
              -2.446158268
            ],
            [
              119.914408198,
              -2.447003211
            ],
            [
              119.914408198,
              -2.448221496
            ],
            [
              119.914351091,
              -2.448830637
            ],
            [
              119.914122662,
              -2.449325566
            ],
            [
              119.913741948,
              -2.449953743
            ],
            [
              119.913684842,
              -2.450467706
            ],
            [
              119.913780021,
              -2.451324313
            ],
            [
              119.91378002,
              -2.45221899
            ],
            [
              119.913837128,
              -2.453399203
            ],
            [
              119.913760984,
              -2.454370022
            ],
            [
              119.913570628,
              -2.455245664
            ],
            [
              119.913323164,
              -2.455721557
            ],
            [
              119.912999558,
              -2.455892878
            ],
            [
              119.912733057,
              -2.456045164
            ],
            [
              119.912352344,
              -2.456121306
            ],
            [
              119.911552845,
              -2.455988056
            ],
            [
              119.910905631,
              -2.455835771
            ],
            [
              119.910505881,
              -2.455721557
            ],
            [
              119.910125169,
              -2.455721556
            ],
            [
              119.910068061,
              -2.455930949
            ],
            [
              119.910353596,
              -2.456349735
            ],
            [
              119.911115024,
              -2.457092126
            ],
            [
              119.911933558,
              -2.45760609
            ],
            [
              119.912714022,
              -2.458424625
            ],
            [
              119.913684842,
              -2.459186052
            ],
            [
              119.914389163,
              -2.459738086
            ],
            [
              119.915398054,
              -2.460309158
            ],
            [
              119.91584963,
              -2.460455256
            ],
            [
              119.919311836,
              -2.462457366
            ],
            [
              119.920422252,
              -2.466256571
            ],
            [
              119.921770613,
              -2.477757299
            ],
            [
              119.924943227,
              -2.483071429
            ],
            [
              119.928908996,
              -2.488782135
            ],
            [
              119.93055123,
              -2.490971784
            ],
            [
              119.931507549,
              -2.490817539
            ],
            [
              119.932864778,
              -2.491084138
            ],
            [
              119.935086199,
              -2.491520487
            ],
            [
              119.937258949,
              -2.491200965
            ],
            [
              119.93834411,
              -2.490754135
            ],
            [
              119.93904594,
              -2.489478078
            ],
            [
              119.93917375,
              -2.48781656
            ],
            [
              119.939876698,
              -2.486346758
            ],
            [
              119.939878369,
              -2.486345609
            ],
            [
              119.93987903,
              -2.486344227
            ],
            [
              119.940901502,
              -2.485641279
            ],
            [
              119.943777202,
              -2.485130043
            ],
            [
              119.947036328,
              -2.484810521
            ],
            [
              119.949336887,
              -2.484235381
            ],
            [
              119.953426772,
              -2.481040159
            ],
            [
              119.955471714,
              -2.480017688
            ],
            [
              119.957644466,
              -2.479442548
            ],
            [
              119.958857653,
              -2.478867881
            ],
            [
              119.9598472,
              -2.477334082
            ],
            [
              119.960134415,
              -2.476888896
            ],
            [
              119.962115455,
              -2.473501958
            ],
            [
              119.962117311,
              -2.473500229
            ],
            [
              119.962117776,
              -2.473499435
            ],
            [
              119.963971004,
              -2.471774015
            ],
            [
              119.967421843,
              -2.470304213
            ],
            [
              119.969160097,
              -2.470114502
            ],
            [
              119.970619244,
              -2.470624187
            ],
            [
              119.97183125,
              -2.471198876
            ],
            [
              119.973684479,
              -2.470495926
            ],
            [
              119.974962567,
              -2.469430853
            ],
            [
              119.978986466,
              -2.468652134
            ],
            [
              119.980484961,
              -2.468130219
            ],
            [
              119.982309267,
              -2.46525828
            ],
            [
              119.985312777,
              -2.461935248
            ],
            [
              119.985313073,
              -2.46193496
            ],
            [
              119.985315086,
              -2.461932732
            ],
            [
              119.987807359,
              -2.459504364
            ],
            [
              119.991386008,
              -2.456846639
            ],
            [
              119.992113922,
              -2.456514733
            ],
            [
              119.992778476,
              -2.456637003
            ],
            [
              119.993373057,
              -2.457056251
            ],
            [
              119.995028561,
              -2.458121821
            ],
            [
              119.996118511,
              -2.458191663
            ],
            [
              119.99707825,
              -2.457041299
            ],
            [
              119.998093671,
              -2.454650137
            ],
            [
              119.998095597,
              -2.454648512
            ],
            [
              119.998095974,
              -2.454647626
            ],
            [
              120,
              -2.453041707
            ],
            [
              120.001536338,
              -2.452594373
            ],
            [
              120.003709089,
              -2.451188475
            ],
            [
              120.003830651,
              -2.45107831
            ],
            [
              120.005754031,
              -2.449335247
            ],
            [
              120.006904311,
              -2.448440584
            ],
            [
              120.007990687,
              -2.448248871
            ],
            [
              120.008757539,
              -2.448632298
            ],
            [
              120.009907818,
              -2.449590864
            ],
            [
              120.010994195,
              -2.449718673
            ],
            [
              120.014125512,
              -2.448887915
            ],
            [
              120.016298263,
              -2.448696202
            ],
            [
              120.017831969,
              -2.448184966
            ],
            [
              120.017863679,
              -2.44815537
            ],
            [
              120.018790536,
              -2.447290304
            ],
            [
              120.019493486,
              -2.447290304
            ],
            [
              120.021091096,
              -2.447673731
            ],
            [
              120.023263848,
              -2.448632297
            ],
            [
              120.025820025,
              -2.449654768
            ],
            [
              120.026265918,
              -2.449782166
            ],
            [
              120.027535667,
              -2.445425705
            ],
            [
              120.027771733,
              -2.444615769
            ],
            [
              120.027771732,
              -2.44291165
            ],
            [
              120.027345703,
              -2.441207531
            ],
            [
              120.027469664,
              -2.440009224
            ],
            [
              120.027601319,
              -2.438736558
            ],
            [
              120.026919672,
              -2.434987497
            ],
            [
              120.026664053,
              -2.433027761
            ],
            [
              120.027175289,
              -2.430130758
            ],
            [
              120.027942142,
              -2.428085815
            ],
            [
              120.028623789,
              -2.426892931
            ],
            [
              120.030792918,
              -2.424145369
            ],
            [
              120.032320242,
              -2.421567509
            ],
            [
              120.032969293,
              -2.417051644
            ],
            [
              120.033672242,
              -2.414431561
            ],
            [
              120.034148948,
              -2.408472733
            ],
            [
              120.034183476,
              -2.408041114
            ],
            [
              120.035014236,
              -2.405740553
            ],
            [
              120.036484037,
              -2.401778476
            ],
            [
              120.038273363,
              -2.396346597
            ],
            [
              120.038792771,
              -2.394833868
            ],
            [
              120.03916487,
              -2.393893003
            ],
            [
              120.039145401,
              -2.393811029
            ],
            [
              120.039124275,
              -2.393651099
            ],
            [
              120.039124494,
              -2.393550296
            ],
            [
              120.039129454,
              -2.393465377
            ],
            [
              120.039202025,
              -2.393297248
            ],
            [
              120.039315568,
              -2.393149031
            ],
            [
              120.039418975,
              -2.393031357
            ],
            [
              120.039496962,
              -2.392947257
            ],
            [
              120.039594928,
              -2.392803824
            ],
            [
              120.039634116,
              -2.392720712
            ],
            [
              120.039660663,
              -2.392569026
            ],
            [
              120.039668014,
              -2.392404359
            ],
            [
              120.039693898,
              -2.392280844
            ],
            [
              120.039766491,
              -2.39215611
            ],
            [
              120.039836728,
              -2.39209234
            ],
            [
              120.039946777,
              -2.392014534
            ],
            [
              120.040046846,
              -2.39192085
            ],
            [
              120.040148678,
              -2.391766807
            ],
            [
              120.040160464,
              -2.391649268
            ],
            [
              120.040183869,
              -2.39149192
            ],
            [
              120.040237828,
              -2.391323723
            ],
            [
              120.040251086,
              -2.391152049
            ],
            [
              120.040230808,
              -2.390927981
            ],
            [
              120.040202301,
              -2.390742322
            ],
            [
              120.040333888,
              -2.390613325
            ],
            [
              120.040385353,
              -2.390468079
            ],
            [
              120.040364968,
              -2.390311278
            ],
            [
              120.040289503,
              -2.390149324
            ],
            [
              120.040235755,
              -2.390005098
            ],
            [
              120.040237082,
              -2.389962286
            ],
            [
              120.040243177,
              -2.389765497
            ],
            [
              120.040306318,
              -2.389537552
            ],
            [
              120.040420439,
              -2.389215185
            ],
            [
              120.040510531,
              -2.388855767
            ],
            [
              120.04069522,
              -2.388532965
            ],
            [
              120.040778039,
              -2.388113322
            ],
            [
              120.040775683,
              -2.387875126
            ],
            [
              120.040776031,
              -2.387712985
            ],
            [
              120.040831731,
              -2.387511605
            ],
            [
              120.04098427,
              -2.387247895
            ],
            [
              120.041424509,
              -2.386505362
            ],
            [
              120.041635691,
              -2.386276526
            ],
            [
              120.041768127,
              -2.386159665
            ],
            [
              120.041920517,
              -2.385948829
            ],
            [
              120.042054249,
              -2.385679348
            ],
            [
              120.042129091,
              -2.385259063
            ],
            [
              120.042136049,
              -2.385076164
            ],
            [
              120.042098296,
              -2.384752526
            ],
            [
              120.04205714,
              -2.384343909
            ],
            [
              120.042007166,
              -2.384064608
            ],
            [
              120.041998746,
              -2.383818231
            ],
            [
              120.041993255,
              -2.383545984
            ],
            [
              120.041996576,
              -2.383185609
            ],
            [
              120.042014384,
              -2.382872375
            ],
            [
              120.042160794,
              -2.382819601
            ],
            [
              120.042324567,
              -2.382779775
            ],
            [
              120.042571244,
              -2.382719829
            ],
            [
              120.042632008,
              -2.382695529
            ],
            [
              120.042697693,
              -2.382668249
            ],
            [
              120.042772371,
              -2.382631295
            ],
            [
              120.042861378,
              -2.382572118
            ],
            [
              120.042947133,
              -2.382530488
            ],
            [
              120.043067594,
              -2.382490244
            ],
            [
              120.04318212,
              -2.382490492
            ],
            [
              120.043288197,
              -2.382505177
            ],
            [
              120.043410242,
              -2.38253007
            ],
            [
              120.043516417,
              -2.382567678
            ],
            [
              120.043634815,
              -2.382605077
            ],
            [
              120.043773958,
              -2.382623935
            ],
            [
              120.043842604,
              -2.382618689
            ],
            [
              120.043914318,
              -2.38255221
            ],
            [
              120.043953441,
              -2.382440513
            ],
            [
              120.043980346,
              -2.382317649
            ],
            [
              120.044001604,
              -2.382196832
            ],
            [
              120.044017484,
              -2.38207136
            ],
            [
              120.044036336,
              -2.3819495
            ],
            [
              120.044055404,
              -2.381841573
            ],
            [
              120.044083991,
              -2.381700459
            ],
            [
              120.044112739,
              -2.381537819
            ],
            [
              120.044129768,
              -2.381446411
            ],
            [
              120.044141994,
              -2.381404415
            ],
            [
              120.044151122,
              -2.381373056
            ],
            [
              120.044189538,
              -2.381303009
            ],
            [
              120.04424893,
              -2.38121444
            ],
            [
              120.044305781,
              -2.381142336
            ],
            [
              120.04436265,
              -2.381057556
            ],
            [
              120.044411899,
              -2.381004437
            ],
            [
              120.044464934,
              -2.380943727
            ],
            [
              120.044535628,
              -2.380875457
            ],
            [
              120.044580938,
              -2.380768787
            ],
            [
              120.044606525,
              -2.380682322
            ],
            [
              120.044638405,
              -2.380605865
            ],
            [
              120.044683302,
              -2.380503375
            ],
            [
              120.044722844,
              -2.380430991
            ],
            [
              120.044774291,
              -2.380366096
            ],
            [
              120.044826518,
              -2.380305501
            ],
            [
              120.044885254,
              -2.380225594
            ],
            [
              120.044940756,
              -2.380145835
            ],
            [
              120.044988398,
              -2.38008663
            ],
            [
              120.045067804,
              -2.380002342
            ],
            [
              120.045118815,
              -2.37994339
            ],
            [
              120.045190522,
              -2.379880516
            ],
            [
              120.045352965,
              -2.379756227
            ],
            [
              120.04544371,
              -2.379686871
            ],
            [
              120.045511471,
              -2.379637206
            ],
            [
              120.045604636,
              -2.379578688
            ],
            [
              120.045699274,
              -2.379528837
            ],
            [
              120.045789588,
              -2.379492991
            ],
            [
              120.045890071,
              -2.379473115
            ],
            [
              120.045998241,
              -2.379450822
            ],
            [
              120.046085561,
              -2.379433428
            ],
            [
              120.046234162,
              -2.379427315
            ],
            [
              120.046290419,
              -2.379431557
            ],
            [
              120.046361203,
              -2.379439136
            ],
            [
              120.04642858,
              -2.379460866
            ],
            [
              120.046558048,
              -2.379517515
            ],
            [
              120.04663814,
              -2.379566188
            ],
            [
              120.046711812,
              -2.37960461
            ],
            [
              120.046817003,
              -2.379648711
            ],
            [
              120.046902505,
              -2.379670706
            ],
            [
              120.046983998,
              -2.379685465
            ],
            [
              120.04707308,
              -2.379701712
            ],
            [
              120.04715553,
              -2.379709524
            ],
            [
              120.047232401,
              -2.379714459
            ],
            [
              120.047291836,
              -2.379715257
            ],
            [
              120.047371792,
              -2.379713893
            ],
            [
              120.047463322,
              -2.379723595
            ],
            [
              120.047562038,
              -2.379749648
            ],
            [
              120.047731578,
              -2.379675085
            ],
            [
              120.047907117,
              -2.379571789
            ],
            [
              120.048567725,
              -2.37885113
            ],
            [
              120.04871958,
              -2.378442432
            ],
            [
              120.048857497,
              -2.37807125
            ],
            [
              120.049628343,
              -2.375996612
            ],
            [
              120.049925277,
              -2.375197445
            ],
            [
              120.04999772,
              -2.375002474
            ],
            [
              120.051028289,
              -2.372277898
            ],
            [
              120.051715578,
              -2.370248756
            ],
            [
              120.052370283,
              -2.368315822
            ],
            [
              120.052945423,
              -2.365759642
            ],
            [
              120.053967894,
              -2.361861471
            ],
            [
              120.055245983,
              -2.357068636
            ],
            [
              120.056268453,
              -2.354001222
            ],
            [
              120.05665188,
              -2.353362177
            ],
            [
              120.056652943,
              -2.353361742
            ],
            [
              120.056654161,
              -2.353359713
            ],
            [
              120.058060059,
              -2.352784573
            ],
            [
              120.060807951,
              -2.35246505
            ],
            [
              120.062086039,
              -2.352337242
            ],
            [
              120.064386599,
              -2.352145528
            ],
            [
              120.065920305,
              -2.351953815
            ],
            [
              120.066942776,
              -2.351186962
            ],
            [
              120.068666514,
              -2.349399381
            ],
            [
              120.070199628,
              -2.34754687
            ],
            [
              120.07020027,
              -2.34754638
            ],
            [
              120.070201902,
              -2.347544409
            ],
            [
              120.071543896,
              -2.346521938
            ],
            [
              120.074163706,
              -2.34498839
            ],
            [
              120.075439795,
              -2.343520887
            ],
            [
              120.075887126,
              -2.34211499
            ],
            [
              120.07595103,
              -2.339814428
            ],
            [
              120.075375889,
              -2.338344626
            ],
            [
              120.074507149,
              -2.337421589
            ],
            [
              120.074353418,
              -2.33725825
            ],
            [
              120.072180665,
              -2.335788448
            ],
            [
              120.070007913,
              -2.333551793
            ],
            [
              120.068793728,
              -2.332465417
            ],
            [
              120.065342887,
              -2.33150685
            ],
            [
              120.063170134,
              -2.330995614
            ],
            [
              120.062658898,
              -2.330292666
            ],
            [
              120.062147662,
              -2.329014575
            ],
            [
              120.061444712,
              -2.326330588
            ],
            [
              120.060294433,
              -2.323710505
            ],
            [
              120.059463674,
              -2.322304606
            ],
            [
              120.057163112,
              -2.320451378
            ],
            [
              120.054479125,
              -2.318023009
            ],
            [
              120.05256197,
              -2.315598375
            ],
            [
              120.052306372,
              -2.315275118
            ],
            [
              120.051156091,
              -2.312271607
            ],
            [
              120.051092186,
              -2.311121327
            ],
            [
              120.051160912,
              -2.31050991
            ],
            [
              120.051051126,
              -2.310501465
            ],
            [
              120.050670412,
              -2.310501465
            ],
            [
              120.050194519,
              -2.310739412
            ],
            [
              120.049671038,
              -2.31109633
            ],
            [
              120.048766843,
              -2.311191509
            ],
            [
              120.047577113,
              -2.311215303
            ],
            [
              120.047053632,
              -2.311215304
            ],
            [
              120.044745554,
              -2.311286688
            ],
            [
              120.042723012,
              -2.31171499
            ],
            [
              120.040629087,
              -2.31176258
            ],
            [
              120.038439983,
              -2.311857758
            ],
            [
              120.036536414,
              -2.311786374
            ],
            [
              120.034728023,
              -2.311762579
            ],
            [
              120.032657892,
              -2.311738785
            ],
            [
              120.030754323,
              -2.311524633
            ],
            [
              120.028684193,
              -2.31140566
            ],
            [
              120.026423704,
              -2.310977357
            ],
            [
              120.026388918,
              -2.310960155
            ],
            [
              120.026276451,
              -2.311001792
            ],
            [
              120.026111072,
              -2.311039327
            ],
            [
              120.025981234,
              -2.311036867
            ],
            [
              120.025872199,
              -2.310987641
            ],
            [
              120.025788033,
              -2.310949539
            ],
            [
              120.025758246,
              -2.310936055
            ],
            [
              120.025696752,
              -2.310908605
            ],
            [
              120.025661771,
              -2.31089299
            ],
            [
              120.025523866,
              -2.310853171
            ],
            [
              120.025387166,
              -2.310778138
            ],
            [
              120.025260954,
              -2.310677998
            ],
            [
              120.025147712,
              -2.310608706
            ],
            [
              120.025013559,
              -2.310561423
            ],
            [
              120.024955457,
              -2.310500152
            ],
            [
              120.02488723,
              -2.310405747
            ],
            [
              120.02475029,
              -2.310269239
            ],
            [
              120.024592415,
              -2.310153539
            ],
            [
              120.024355486,
              -2.310057297
            ],
            [
              120.024214955,
              -2.310040141
            ],
            [
              120.02406008,
              -2.310027962
            ],
            [
              120.023328135,
              -2.310056613
            ],
            [
              120.022967136,
              -2.310010252
            ],
            [
              120.022798785,
              -2.309960629
            ],
            [
              120.022479179,
              -2.309911231
            ],
            [
              120.022299297,
              -2.309882906
            ],
            [
              120.022100943,
              -2.309818394
            ],
            [
              120.021908403,
              -2.309712966
            ],
            [
              120.021800931,
              -2.309594689
            ],
            [
              120.021693132,
              -2.309460348
            ],
            [
              120.021642377,
              -2.309348244
            ],
            [
              120.021617113,
              -2.309239745
            ],
            [
              120.02159606,
              -2.309088646
            ],
            [
              120.021545009,
              -2.308897685
            ],
            [
              120.021453749,
              -2.308675794
            ],
            [
              120.021306711,
              -2.308424332
            ],
            [
              120.021171916,
              -2.308252491
            ],
            [
              120.020597374,
              -2.307914062
            ],
            [
              120.020429299,
              -2.307872174
            ],
            [
              120.02026626,
              -2.307807809
            ],
            [
              120.019963005,
              -2.307693114
            ],
            [
              120.019827119,
              -2.307603056
            ],
            [
              120.019692706,
              -2.307482121
            ],
            [
              120.019542637,
              -2.307358479
            ],
            [
              120.019353248,
              -2.307272302
            ],
            [
              120.019195406,
              -2.307243998
            ],
            [
              120.019030968,
              -2.307252739
            ],
            [
              120.018826515,
              -2.307278664
            ],
            [
              120.018629641,
              -2.307296995
            ],
            [
              120.018412475,
              -2.307303431
            ],
            [
              120.018230851,
              -2.307300779
            ],
            [
              120.018044022,
              -2.307265926
            ],
            [
              120.017687791,
              -2.3070749
            ],
            [
              120.017531518,
              -2.306936455
            ],
            [
              120.01738447,
              -2.306811255
            ],
            [
              120.017139177,
              -2.306652293
            ],
            [
              120.016962305,
              -2.306516162
            ],
            [
              120.016816126,
              -2.306309371
            ],
            [
              120.016778487,
              -2.306157307
            ],
            [
              120.016765926,
              -2.305969933
            ],
            [
              120.016707035,
              -2.305584897
            ],
            [
              120.016614511,
              -2.305536993
            ],
            [
              120.016600596,
              -2.305529788
            ],
            [
              120.016590365,
              -2.305509203
            ],
            [
              120.016527495,
              -2.3053827
            ],
            [
              120.016472445,
              -2.305271931
            ],
            [
              120.016334097,
              -2.305320395
            ],
            [
              120.016115187,
              -2.305320395
            ],
            [
              120.016109371,
              -2.305325682
            ],
            [
              120.01601049,
              -2.305415575
            ],
            [
              120.015963155,
              -2.305439242
            ],
            [
              120.015858204,
              -2.305491717
            ],
            [
              120.015667848,
              -2.305491717
            ],
            [
              120.015487008,
              -2.305491717
            ],
            [
              120.015382312,
              -2.305491717
            ],
            [
              120.015268098,
              -2.305491717
            ],
            [
              120.015087259,
              -2.305520271
            ],
            [
              120.014877866,
              -2.30556786
            ],
            [
              120.014668474,
              -2.305663038
            ],
            [
              120.014610861,
              -2.30567072
            ],
            [
              120.014525707,
              -2.305682074
            ],
            [
              120.014354385,
              -2.305682074
            ],
            [
              120.014230654,
              -2.305682074
            ],
            [
              120.014125957,
              -2.30565352
            ],
            [
              120.01398319,
              -2.305596413
            ],
            [
              120.013868976,
              -2.305586895
            ],
            [
              120.013773797,
              -2.305586895
            ],
            [
              120.013659582,
              -2.305624967
            ],
            [
              120.013516815,
              -2.305720145
            ],
            [
              120.013393083,
              -2.305862913
            ],
            [
              120.013278869,
              -2.305996163
            ],
            [
              120.013183691,
              -2.306091341
            ],
            [
              120.013031405,
              -2.306196037
            ],
            [
              120.01287912,
              -2.306253144
            ],
            [
              120.012561942,
              -2.306334704
            ],
            [
              120.012545996,
              -2.306338805
            ],
            [
              120.012422263,
              -2.306348323
            ],
            [
              120.012212871,
              -2.306348323
            ],
            [
              120.012070103,
              -2.306348323
            ],
            [
              120.012012996,
              -2.306348322
            ],
            [
              120.011879747,
              -2.306319769
            ],
            [
              120.011784568,
              -2.306310251
            ],
            [
              120.011584693,
              -2.306376876
            ],
            [
              120.011441926,
              -2.306395912
            ],
            [
              120.011327712,
              -2.306386394
            ],
            [
              120.011270604,
              -2.306386394
            ],
            [
              120.011156391,
              -2.306338805
            ],
            [
              120.011032658,
              -2.306300733
            ],
            [
              120.010946998,
              -2.30627218
            ],
            [
              120.010861337,
              -2.30627218
            ],
            [
              120.010775677,
              -2.30627218
            ],
            [
              120.01067098,
              -2.306262662
            ],
            [
              120.010575802,
              -2.306262662
            ],
            [
              120.010433034,
              -2.306262662
            ],
            [
              120.010299119,
              -2.306280583
            ],
            [
              120.010163782,
              -2.306131796
            ],
            [
              120.010156324,
              -2.305999935
            ],
            [
              120.010154284,
              -2.305781542
            ],
            [
              120.010161703,
              -2.305696579
            ],
            [
              120.010172734,
              -2.305570256
            ],
            [
              120.010185102,
              -2.305355299
            ],
            [
              120.010141104,
              -2.305121954
            ],
            [
              120.010041112,
              -2.304936204
            ],
            [
              120.00991696,
              -2.304805768
            ],
            [
              120.009403526,
              -2.304636853
            ],
            [
              120.009231635,
              -2.3046277
            ],
            [
              120.008975729,
              -2.304683653
            ],
            [
              120.00880351,
              -2.304741581
            ],
            [
              120.008657493,
              -2.304836337
            ],
            [
              120.008448979,
              -2.305113562
            ],
            [
              120.008318171,
              -2.305319351
            ],
            [
              120.008068316,
              -2.305746176
            ],
            [
              120.007962699,
              -2.305897007
            ],
            [
              120.007787814,
              -2.306095862
            ],
            [
              120.007638229,
              -2.306248441
            ],
            [
              120.007637583,
              -2.306249246
            ],
            [
              120.007361852,
              -2.306592849
            ],
            [
              120.007210429,
              -2.306765455
            ],
            [
              120.007010194,
              -2.307051325
            ],
            [
              120.006874908,
              -2.307233541
            ],
            [
              120.006834246,
              -2.30726898
            ],
            [
              120.006694316,
              -2.307330951
            ],
            [
              120.006585406,
              -2.307338409
            ],
            [
              120.006377579,
              -2.307338186
            ],
            [
              120.006126289,
              -2.3073214
            ],
            [
              120.005987,
              -2.307309251
            ],
            [
              120.00584519,
              -2.307308951
            ],
            [
              120.005601568,
              -2.307331591
            ],
            [
              120.005423349,
              -2.307342516
            ],
            [
              120.005249318,
              -2.307356432
            ],
            [
              120.005001114,
              -2.307358398
            ],
            [
              120.00472617,
              -2.307318433
            ],
            [
              120.004506843,
              -2.307277791
            ],
            [
              120.004169323,
              -2.307246529
            ],
            [
              120.00391422,
              -2.307240948
            ],
            [
              120.003623016,
              -2.307288856
            ],
            [
              120.003434522,
              -2.307359839
            ],
            [
              120.003253611,
              -2.307528217
            ],
            [
              120.00312192,
              -2.307658136
            ],
            [
              120.002935615,
              -2.307815479
            ],
            [
              120.002796806,
              -2.307917024
            ],
            [
              120.002542579,
              -2.308114834
            ],
            [
              120.002350009,
              -2.308211368
            ],
            [
              120.002183192,
              -2.308262938
            ],
            [
              120.002073762,
              -2.308248582
            ],
            [
              120.001982056,
              -2.308203449
            ],
            [
              120.001853591,
              -2.308092654
            ],
            [
              120.001720579,
              -2.307982148
            ],
            [
              120.001586269,
              -2.307852901
            ],
            [
              120.001429533,
              -2.307706171
            ],
            [
              120.001319257,
              -2.307611893
            ],
            [
              120.001204237,
              -2.307578555
            ],
            [
              120.00110745,
              -2.30757835
            ],
            [
              120.000948429,
              -2.307625996
            ],
            [
              120.000789006,
              -2.307757882
            ],
            [
              120.000697316,
              -2.307910708
            ],
            [
              120.000593015,
              -2.308110642
            ],
            [
              120.000492116,
              -2.308268409
            ],
            [
              120.000418426,
              -2.308354886
            ],
            [
              120.000225149,
              -2.308439869
            ],
            [
              120.000058586,
              -2.308517202
            ],
            [
              119.999820641,
              -2.308540996
            ],
            [
              119.999410184,
              -2.308404177
            ],
            [
              119.999332851,
              -2.308380383
            ],
            [
              119.999172238,
              -2.308374434
            ],
            [
              119.99907452,
              -2.308370185
            ],
            [
              119.999047156,
              -2.308368995
            ],
            [
              119.9988986,
              -2.308362536
            ],
            [
              119.998666602,
              -2.308386331
            ],
            [
              119.998382706,
              -2.308450619
            ],
            [
              119.998306089,
              -2.30840166
            ],
            [
              119.998183782,
              -2.308297117
            ],
            [
              119.99807133,
              -2.308240039
            ],
            [
              119.997923021,
              -2.30812459
            ],
            [
              119.997774305,
              -2.308088899
            ],
            [
              119.997538705,
              -2.308097065
            ],
            [
              119.997424647,
              -2.308049821
            ],
            [
              119.997308875,
              -2.307959998
            ],
            [
              119.997194656,
              -2.307832516
            ],
            [
              119.997106501,
              -2.307716435
            ],
            [
              119.997021575,
              -2.307585611
            ],
            [
              119.996877873,
              -2.30737303
            ],
            [
              119.996807683,
              -2.307279841
            ],
            [
              119.996711397,
              -2.307167056
            ],
            [
              119.996587559,
              -2.307111638
            ],
            [
              119.996416575,
              -2.307085799
            ],
            [
              119.996294486,
              -2.307089338
            ],
            [
              119.996099307,
              -2.307171625
            ],
            [
              119.995967695,
              -2.307289808
            ],
            [
              119.995813328,
              -2.307427689
            ],
            [
              119.995655677,
              -2.307549206
            ],
            [
              119.995551648,
              -2.307624749
            ],
            [
              119.995444361,
              -2.307701943
            ],
            [
              119.995330525,
              -2.307756221
            ],
            [
              119.995228022,
              -2.307784283
            ],
            [
              119.995149878,
              -2.307782804
            ],
            [
              119.995058671,
              -2.307761712
            ],
            [
              119.994929991,
              -2.307727598
            ],
            [
              119.994700395,
              -2.307698605
            ],
            [
              119.994548949,
              -2.307674369
            ],
            [
              119.994439804,
              -2.307640205
            ],
            [
              119.994294754,
              -2.307560273
            ],
            [
              119.994195286,
              -2.307485161
            ],
            [
              119.994102181,
              -2.307334704
            ],
            [
              119.994007482,
              -2.307198985
            ],
            [
              119.993888322,
              -2.307048583
            ],
            [
              119.9937416,
              -2.306947361
            ],
            [
              119.993622696,
              -2.306914861
            ],
            [
              119.993492342,
              -2.30685783
            ],
            [
              119.993353801,
              -2.306781155
            ],
            [
              119.993241358,
              -2.306724077
            ],
            [
              119.993115877,
              -2.306660476
            ],
            [
              119.99298051,
              -2.306542859
            ],
            [
              119.992916806,
              -2.306441469
            ],
            [
              119.992892189,
              -2.306343269
            ],
            [
              119.992887104,
              -2.306248297
            ],
            [
              119.992885136,
              -2.306084545
            ],
            [
              119.992878378,
              -2.305966656
            ],
            [
              119.992837358,
              -2.305816088
            ],
            [
              119.992788353,
              -2.305734318
            ],
            [
              119.992719827,
              -2.305662411
            ],
            [
              119.992664386,
              -2.305616677
            ],
            [
              119.992579641,
              -2.305572639
            ],
            [
              119.992462307,
              -2.305513936
            ],
            [
              119.992421301,
              -2.305365003
            ],
            [
              119.992466533,
              -2.305197881
            ],
            [
              119.992540958,
              -2.304979931
            ],
            [
              119.99256673,
              -2.304848871
            ],
            [
              119.992581226,
              -2.304775145
            ],
            [
              119.992603751,
              -2.304645737
            ],
            [
              119.992606725,
              -2.304513082
            ],
            [
              119.992580343,
              -2.304352662
            ],
            [
              119.992549087,
              -2.304193888
            ],
            [
              119.9925275,
              -2.303994147
            ],
            [
              119.992528947,
              -2.303904076
            ],
            [
              119.99253207,
              -2.303893752
            ]
          ]
        ]
      }
    }
  ]
}