{
  "type": "FeatureCollection",
  "features": [
    {
      "type": "Feature",
      "properties": {
        "idx": "1421",
        "nama_kewilayahan": "Kaili Inde Gia Wisolo"
      },
      "geometry": {
        "type": "MultiPolygon",
        "coordinates": [
          [
            [
              [
                119.863736367,
                -1.118804014
              ],
              [
                119.864282234,
                -1.118748555
              ],
              [
                119.864510282,
                -1.11877702
              ],
              [
                119.865298767,
                -1.118690177
              ],
              [
                119.865365273,
                -1.118690112
              ],
              [
                119.865569531,
                -1.118680348
              ],
              [
                119.865721544,
                -1.118680198
              ],
              [
                119.865868807,
                -1.118680053
              ],
              [
                119.866035025,
                -1.118632075
              ],
              [
                119.866153748,
                -1.118593706
              ],
              [
                119.866286708,
                -1.118540978
              ],
              [
                119.866391171,
                -1.118493061
              ],
              [
                119.866638117,
                -1.118416314
              ],
              [
                119.866942018,
                -1.118286914
              ],
              [
                119.867174671,
                -1.118167148
              ],
              [
                119.867426355,
                -1.118076052
              ],
              [
                119.86761156,
                -1.11801371
              ],
              [
                119.867872804,
                -1.117984764
              ],
              [
                119.867996268,
                -1.117936828
              ],
              [
                119.868114972,
                -1.117879333
              ],
              [
                119.868300126,
                -1.117764395
              ],
              [
                119.868437758,
                -1.117630378
              ],
              [
                119.868817594,
                -1.117429181
              ],
              [
                119.869020569,
                -1.117321398
              ],
              [
                119.869240223,
                -1.11726739
              ],
              [
                119.86944201,
                -1.117159608
              ],
              [
                119.869780342,
                -1.117021808
              ],
              [
                119.870047423,
                -1.116890054
              ],
              [
                119.870255131,
                -1.116764336
              ],
              [
                119.870415456,
                -1.116764178
              ],
              [
                119.870747879,
                -1.116656268
              ],
              [
                119.870997228,
                -1.116608207
              ],
              [
                119.87158718,
                -1.116598572
              ],
              [
                119.871872214,
                -1.116610246
              ],
              [
                119.872240345,
                -1.116585976
              ],
              [
                119.872768778,
                -1.116537641
              ],
              [
                119.873154717,
                -1.116507377
              ],
              [
                119.873635664,
                -1.116477019
              ],
              [
                119.874241295,
                -1.116434585
              ],
              [
                119.874258116,
                -1.116433052
              ],
              [
                119.874292274,
                -1.11640347
              ],
              [
                119.875426785,
                -1.122378285
              ],
              [
                119.875578711,
                -1.12238296
              ],
              [
                119.875619492,
                -1.122384215
              ],
              [
                119.875862197,
                -1.122336625
              ],
              [
                119.876012987,
                -1.122273504
              ],
              [
                119.87606683,
                -1.122250965
              ],
              [
                119.876280982,
                -1.122131992
              ],
              [
                119.876404714,
                -1.122027295
              ],
              [
                119.876561758,
                -1.121946394
              ],
              [
                119.876675972,
                -1.121894046
              ],
              [
                119.876714076,
                -1.121894046
              ],
              [
                119.876856811,
                -1.121894046
              ],
              [
                119.877034742,
                -1.12190076
              ],
              [
                119.877043522,
                -1.121901091
              ],
              [
                119.877109034,
                -1.121903563
              ],
              [
                119.877313668,
                -1.121989224
              ],
              [
                119.87748023,
                -1.122112956
              ],
              [
                119.877500334,
                -1.122132055
              ],
              [
                119.877536939,
                -1.12216683
              ],
              [
                119.877575408,
                -1.122203376
              ],
              [
                119.87765631,
                -1.122255724
              ],
              [
                119.877684864,
                -1.122265241
              ],
              [
                119.877761006,
                -1.122298554
              ],
              [
                119.877884738,
                -1.122327107
              ],
              [
                119.877978301,
                -1.122252257
              ],
              [
                119.878027506,
                -1.122212893
              ],
              [
                119.878103649,
                -1.12214151
              ],
              [
                119.878205696,
                -1.122064974
              ],
              [
                119.878206673,
                -1.122068709
              ],
              [
                119.87829151,
                -1.122015153
              ],
              [
                119.878410204,
                -1.121949291
              ],
              [
                119.878549679,
                -1.121880419
              ],
              [
                119.878642583,
                -1.121861196
              ],
              [
                119.878680288,
                -1.121853394
              ],
              [
                119.878804964,
                -1.121832352
              ],
              [
                119.879027628,
                -1.121823166
              ],
              [
                119.87910488,
                -1.121882857
              ],
              [
                119.879268258,
                -1.121969359
              ],
              [
                119.879483721,
                -1.12200417
              ],
              [
                119.879694623,
                -1.121989616
              ],
              [
                119.879831439,
                -1.121995218
              ],
              [
                119.879882765,
                -1.122018118
              ],
              [
                119.880015389,
                -1.122108356
              ],
              [
                119.880095293,
                -1.122208687
              ],
              [
                119.880210823,
                -1.122307549
              ],
              [
                119.880353411,
                -1.122386301
              ],
              [
                119.880460303,
                -1.122394802
              ],
              [
                119.880572932,
                -1.122442026
              ],
              [
                119.880724058,
                -1.12250786
              ],
              [
                119.880770027,
                -1.122526315
              ],
              [
                119.880830983,
                -1.122550787
              ],
              [
                119.880930112,
                -1.122575164
              ],
              [
                119.882219799,
                -1.124611095
              ],
              [
                119.882371701,
                -1.124850891
              ],
              [
                119.883564342,
                -1.126657172
              ],
              [
                119.882647064,
                -1.128962018
              ],
              [
                119.878565428,
                -1.129653437
              ],
              [
                119.878547643,
                -1.129658628
              ],
              [
                119.87737091,
                -1.130589363
              ],
              [
                119.878153833,
                -1.132168528
              ],
              [
                119.878012093,
                -1.132950438
              ],
              [
                119.878020927,
                -1.134678924
              ],
              [
                119.87830533,
                -1.136224626
              ],
              [
                119.878308161,
                -1.136240015
              ],
              [
                119.878398982,
                -1.136733613
              ],
              [
                119.880645855,
                -1.148944655
              ],
              [
                119.880657499,
                -1.149007938
              ],
              [
                119.880756264,
                -1.149544671
              ],
              [
                119.88106162,
                -1.151204118
              ],
              [
                119.880744675,
                -1.151347884
              ],
              [
                119.880634415,
                -1.151423077
              ],
              [
                119.880595964,
                -1.151355787
              ],
              [
                119.880423453,
                -1.151248711
              ],
              [
                119.880209302,
                -1.151248711
              ],
              [
                119.879971356,
                -1.151260609
              ],
              [
                119.879757204,
                -1.151266557
              ],
              [
                119.87955495,
                -1.151284403
              ],
              [
                119.879317004,
                -1.151320095
              ],
              [
                119.879090955,
                -1.151379582
              ],
              [
                119.878930342,
                -1.151456914
              ],
              [
                119.878781625,
                -1.151534247
              ],
              [
                119.878591268,
                -1.151677014
              ],
              [
                119.878383065,
                -1.151772193
              ],
              [
                119.878222452,
                -1.151861423
              ],
              [
                119.877996403,
                -1.151920909
              ],
              [
                119.877669227,
                -1.151944704
              ],
              [
                119.877407486,
                -1.151968498
              ],
              [
                119.877175489,
                -1.151944704
              ],
              [
                119.876884005,
                -1.151891166
              ],
              [
                119.876628213,
                -1.151795987
              ],
              [
                119.876354575,
                -1.151778142
              ],
              [
                119.875932221,
                -1.151772193
              ],
              [
                119.875718069,
                -1.151682963
              ],
              [
                119.875420637,
                -1.151581836
              ],
              [
                119.87505182,
                -1.151486658
              ],
              [
                119.874902183,
                -1.151464652
              ],
              [
                119.874893978,
                -1.151463446
              ],
              [
                119.874882352,
                -1.151461736
              ],
              [
                119.874849566,
                -1.151456914
              ],
              [
                119.874694901,
                -1.151391479
              ],
              [
                119.874349879,
                -1.151302249
              ],
              [
                119.87412383,
                -1.151224917
              ],
              [
                119.873873987,
                -1.151082149
              ],
              [
                119.873624143,
                -1.150951279
              ],
              [
                119.873255327,
                -1.150844203
              ],
              [
                119.872850819,
                -1.15081446
              ],
              [
                119.872559335,
                -1.150820408
              ],
              [
                119.872273799,
                -1.150850152
              ],
              [
                119.872059648,
                -1.150915587
              ],
              [
                119.871726523,
                -1.150975073
              ],
              [
                119.871363656,
                -1.15103456
              ],
              [
                119.87094725,
                -1.151105944
              ],
              [
                119.870376179,
                -1.151242763
              ],
              [
                119.870162028,
                -1.151302249
              ],
              [
                119.869793211,
                -1.151397428
              ],
              [
                119.869460087,
                -1.151504504
              ],
              [
                119.869085322,
                -1.151659168
              ],
              [
                119.868662967,
                -1.151825731
              ],
              [
                119.868657613,
                -1.151825731
              ],
              [
                119.868353637,
                -1.151825731
              ],
              [
                119.868050256,
                -1.151825731
              ],
              [
                119.867705234,
                -1.151807885
              ],
              [
                119.867270983,
                -1.151819782
              ],
              [
                119.866783193,
                -1.151843577
              ],
              [
                119.866467915,
                -1.151879269
              ],
              [
                119.866188328,
                -1.151932806
              ],
              [
                119.865968228,
                -1.152033934
              ],
              [
                119.865658898,
                -1.152105317
              ],
              [
                119.865403106,
                -1.152164804
              ],
              [
                119.865052135,
                -1.152212393
              ],
              [
                119.864699985,
                -1.152222317
              ],
              [
                119.864343066,
                -1.152193764
              ],
              [
                119.864038495,
                -1.15216521
              ],
              [
                119.863762477,
                -1.152136657
              ],
              [
                119.863443629,
                -1.152070032
              ],
              [
                119.863153335,
                -1.152031961
              ],
              [
                119.862905871,
                -1.151960577
              ],
              [
                119.862625095,
                -1.151865398
              ],
              [
                119.86238239,
                -1.151803532
              ],
              [
                119.862034989,
                -1.151789256
              ],
              [
                119.861816078,
                -1.151798773
              ],
              [
                119.861501989,
                -1.151827327
              ],
              [
                119.86123549,
                -1.151865398
              ],
              [
                119.861035615,
                -1.151941541
              ],
              [
                119.860850017,
                -1.15203672
              ],
              [
                119.86065966,
                -1.152136657
              ],
              [
                119.860459785,
                -1.152246112
              ],
              [
                119.860207563,
                -1.15238888
              ],
              [
                119.860128163,
                -1.152449292
              ],
              [
                119.859988652,
                -1.152555442
              ],
              [
                119.859857306,
                -1.152621115
              ],
              [
                119.859626974,
                -1.152821942
              ],
              [
                119.859417581,
                -1.152978986
              ],
              [
                119.859165359,
                -1.153197897
              ],
              [
                119.858922654,
                -1.153393012
              ],
              [
                119.858727538,
                -1.153545298
              ],
              [
                119.858503868,
                -1.153764208
              ],
              [
                119.858289717,
                -1.153892699
              ],
              [
                119.858070807,
                -1.154059261
              ],
              [
                119.857742441,
                -1.154221065
              ],
              [
                119.857737677,
                -1.154226127
              ],
              [
                119.857666298,
                -1.154301966
              ],
              [
                119.857385522,
                -1.154482805
              ],
              [
                119.857161852,
                -1.154611296
              ],
              [
                119.856852522,
                -1.154758823
              ],
              [
                119.856557469,
                -1.154877796
              ],
              [
                119.856348077,
                -1.155011046
              ],
              [
                119.856287676,
                -1.155053326
              ],
              [
                119.85615772,
                -1.155144296
              ],
              [
                119.855967363,
                -1.155239474
              ],
              [
                119.855748453,
                -1.155363206
              ],
              [
                119.855531539,
                -1.15547397
              ],
              [
                119.855524783,
                -1.15547742
              ],
              [
                119.855216396,
                -1.155656518
              ],
              [
                119.855002069,
                -1.155812624
              ],
              [
                119.855317441,
                -1.156297158
              ],
              [
                119.855555421,
                -1.156751164
              ],
              [
                119.856012087,
                -1.15736752
              ],
              [
                119.856112322,
                -1.157840791
              ],
              [
                119.856269477,
                -1.158227937
              ],
              [
                119.856626082,
                -1.158543157
              ],
              [
                119.856854566,
                -1.159001953
              ],
              [
                119.857268465,
                -1.159604006
              ],
              [
                119.857554187,
                -1.160292257
              ],
              [
                119.857782586,
                -1.160664985
              ],
              [
                119.858212963,
                -1.16120836
              ],
              [
                119.858688594,
                -1.161916847
              ],
              [
                119.858679555,
                -1.162375883
              ],
              [
                119.858661077,
                -1.162897089
              ],
              [
                119.858581002,
                -1.163576149
              ],
              [
                119.858577081,
                -1.164398577
              ],
              [
                119.85853966,
                -1.16497718
              ],
              [
                119.858549706,
                -1.165517484
              ],
              [
                119.858588009,
                -1.1658139
              ],
              [
                119.858602724,
                -1.166272912
              ],
              [
                119.858645972,
                -1.166760584
              ],
              [
                119.858722482,
                -1.167257785
              ],
              [
                119.858741741,
                -1.167511187
              ],
              [
                119.858784742,
                -1.167755001
              ],
              [
                119.858908644,
                -1.167905889
              ],
              [
                119.858661799,
                -1.167927289
              ],
              [
                119.858210577,
                -1.168004256
              ],
              [
                119.857697675,
                -1.168157791
              ],
              [
                119.857540395,
                -1.16821296
              ],
              [
                119.857556486,
                -1.168222088
              ],
              [
                119.857308311,
                -1.168335106
              ],
              [
                119.857009187,
                -1.168493204
              ],
              [
                119.856733739,
                -1.168574772
              ],
              [
                119.856263572,
                -1.168709137
              ],
              [
                119.85594069,
                -1.168862477
              ],
              [
                119.855537166,
                -1.169130657
              ],
              [
                119.855069546,
                -1.169404851
              ],
              [
                119.854981682,
                -1.169456371
              ],
              [
                119.854364499,
                -1.169839527
              ],
              [
                119.853861256,
                -1.170150844
              ],
              [
                119.853386443,
                -1.170390408
              ],
              [
                119.852859558,
                -1.170811725
              ],
              [
                119.852565261,
                -1.171046323
              ],
              [
                119.852119062,
                -1.171395834
              ],
              [
                119.851744088,
                -1.171711802
              ],
              [
                119.851307429,
                -1.172099556
              ],
              [
                119.851019573,
                -1.172351686
              ],
              [
                119.850911361,
                -1.172446467
              ],
              [
                119.850766344,
                -1.172573486
              ],
              [
                119.850301191,
                -1.172970834
              ],
              [
                119.850021174,
                -1.173234107
              ],
              [
                119.849613028,
                -1.173631396
              ],
              [
                119.849166837,
                -1.173990472
              ],
              [
                119.848706342,
                -1.174296965
              ],
              [
                119.848618225,
                -1.174344713
              ],
              [
                119.848193561,
                -1.174574823
              ],
              [
                119.84763448,
                -1.174801468
              ],
              [
                119.847590485,
                -1.174819303
              ],
              [
                119.847563135,
                -1.174828428
              ],
              [
                119.8470586,
                -1.174996767
              ],
              [
                119.846578941,
                -1.175145489
              ],
              [
                119.846165839,
                -1.175341958
              ],
              [
                119.845463082,
                -1.175667827
              ],
              [
                119.845169825,
                -1.175819024
              ],
              [
                119.84481259,
                -1.176003206
              ],
              [
                119.844467237,
                -1.176221745
              ],
              [
                119.84429036,
                -1.176333672
              ],
              [
                119.843711083,
                -1.176625944
              ],
              [
                119.843250493,
                -1.176841589
              ],
              [
                119.842609322,
                -1.17700004
              ],
              [
                119.841896872,
                -1.177139438
              ],
              [
                119.84136015,
                -1.177235621
              ],
              [
                119.840880392,
                -1.177288711
              ],
              [
                119.840405316,
                -1.177274853
              ],
              [
                119.839687945,
                -1.1772469
              ],
              [
                119.839337573,
                -1.177202905
              ],
              [
                119.8389325,
                -1.177152042
              ],
              [
                119.8377781,
                -1.177153226
              ],
              [
                119.837214521,
                -1.1771123
              ],
              [
                119.83718049,
                -1.177109829
              ],
              [
                119.836804149,
                -1.177082499
              ],
              [
                119.836196103,
                -1.177116594
              ],
              [
                119.834961036,
                -1.177213491
              ],
              [
                119.83389221,
                -1.177281528
              ],
              [
                119.83351447,
                -1.177310612
              ],
              [
                119.833388681,
                -1.177320297
              ],
              [
                119.832576476,
                -1.177474141
              ],
              [
                119.831901957,
                -1.177546556
              ],
              [
                119.831260779,
                -1.177705006
              ],
              [
                119.830747815,
                -1.177810727
              ],
              [
                119.830551847,
                -1.177862678
              ],
              [
                119.830544923,
                -1.177864514
              ],
              [
                119.830458102,
                -1.17788753
              ],
              [
                119.830149367,
                -1.177945226
              ],
              [
                119.82963157,
                -1.177969663
              ],
              [
                119.829099501,
                -1.177974989
              ],
              [
                119.829071132,
                -1.177981407
              ],
              [
                119.828738533,
                -1.178056646
              ],
              [
                119.828315941,
                -1.178272253
              ],
              [
                119.827855373,
                -1.178516589
              ],
              [
                119.827580115,
                -1.178794207
              ],
              [
                119.827421111,
                -1.178942046
              ],
              [
                119.827276357,
                -1.179076636
              ],
              [
                119.827072271,
                -1.179268111
              ],
              [
                119.826825444,
                -1.179473975
              ],
              [
                119.826493071,
                -1.179646455
              ],
              [
                119.826298399,
                -1.179751851
              ],
              [
                119.82572363,
                -1.179814601
              ],
              [
                119.825511432,
                -1.179828075
              ],
              [
                119.825321417,
                -1.179840142
              ],
              [
                119.825097522,
                -1.179854359
              ],
              [
                119.825051669,
                -1.179857271
              ],
              [
                119.825034826,
                -1.17985834
              ],
              [
                119.824564556,
                -1.179906638
              ],
              [
                119.824113271,
                -1.179935789
              ],
              [
                119.823514776,
                -1.180027253
              ],
              [
                119.823149041,
                -1.180094571
              ],
              [
                119.822745396,
                -1.180257561
              ],
              [
                119.822375084,
                -1.180497023
              ],
              [
                119.822151898,
                -1.180592885
              ],
              [
                119.821923884,
                -1.180612245
              ],
              [
                119.82167678,
                -1.180545554
              ],
              [
                119.821515073,
                -1.180364015
              ],
              [
                119.821334349,
                -1.180168151
              ],
              [
                119.821215225,
                -1.179814427
              ],
              [
                119.821138959,
                -1.179561076
              ],
              [
                119.821053143,
                -1.179259917
              ],
              [
                119.820929514,
                -1.179150064
              ],
              [
                119.820847883,
                -1.178972518
              ],
              [
                119.820843813,
                -1.178963666
              ],
              [
                119.820672735,
                -1.178911241
              ],
              [
                119.820463695,
                -1.178901891
              ],
              [
                119.820287987,
                -1.178969014
              ],
              [
                119.820098142,
                -1.179150912
              ],
              [
                119.819951019,
                -1.179299295
              ],
              [
                119.819766002,
                -1.179557695
              ],
              [
                119.819604719,
                -1.179796945
              ],
              [
                119.819467098,
                -1.179945318
              ],
              [
                119.81930569,
                -1.180060243
              ],
              [
                119.819172747,
                -1.180136886
              ],
              [
                119.819068738,
                -1.180146964
              ],
              [
                119.818973237,
                -1.180156217
              ],
              [
                119.818616872,
                -1.180094418
              ],
              [
                119.818345985,
                -1.179999061
              ],
              [
                119.81801809,
                -1.179903761
              ],
              [
                119.817623781,
                -1.179904164
              ],
              [
                119.817077464,
                -1.179919066
              ],
              [
                119.816630911,
                -1.179933866
              ],
              [
                119.816056157,
                -1.180015742
              ],
              [
                119.815505203,
                -1.180145409
              ],
              [
                119.814797587,
                -1.180385217
              ],
              [
                119.814279917,
                -1.180543541
              ],
              [
                119.813757524,
                -1.180730561
              ],
              [
                119.81331111,
                -1.180884031
              ],
              [
                119.812859954,
                -1.181047069
              ],
              [
                119.812489522,
                -1.181171772
              ],
              [
                119.812171319,
                -1.18126773
              ],
              [
                119.811881621,
                -1.18136366
              ],
              [
                119.81143045,
                -1.181512354
              ],
              [
                119.811145535,
                -1.181641751
              ],
              [
                119.810822577,
                -1.181732933
              ],
              [
                119.810528093,
                -1.181795396
              ],
              [
                119.810053033,
                -1.181810225
              ],
              [
                119.809235944,
                -1.181849311
              ],
              [
                119.808542349,
                -1.181864363
              ],
              [
                119.807402211,
                -1.18190856
              ],
              [
                119.80653289,
                -1.181976389
              ],
              [
                119.806203495,
                -1.181967068
              ],
              [
                119.806043547,
                -1.181962542
              ],
              [
                119.8057204,
                -1.181867236
              ],
              [
                119.805387635,
                -1.181657177
              ],
              [
                119.805111947,
                -1.181514005
              ],
              [
                119.804717557,
                -1.181437898
              ],
              [
                119.804213932,
                -1.181395374
              ],
              [
                119.803559446,
                -1.181382219
              ],
              [
                119.803534558,
                -1.181381719
              ],
              [
                119.803045276,
                -1.181430034
              ],
              [
                119.802228196,
                -1.181483463
              ],
              [
                119.801767347,
                -1.181460023
              ],
              [
                119.801750286,
                -1.181459748
              ],
              [
                119.800650895,
                -1.181442029
              ],
              [
                119.799558176,
                -1.181404884
              ],
              [
                119.799258857,
                -1.181386061
              ],
              [
                119.798612678,
                -1.18131499
              ],
              [
                119.798042492,
                -1.181224714
              ],
              [
                119.797514982,
                -1.181053105
              ],
              [
                119.797139554,
                -1.180938722
              ],
              [
                119.7969745,
                -1.180894243
              ],
              [
                119.796697611,
                -1.180819625
              ],
              [
                119.796327286,
                -1.180758618
              ],
              [
                119.796293726,
                -1.18075309
              ],
              [
                119.795842462,
                -1.18081571
              ],
              [
                119.795244077,
                -1.181031497
              ],
              [
                119.794750127,
                -1.181165888
              ],
              [
                119.794427177,
                -1.181271414
              ],
              [
                119.794241986,
                -1.181362456
              ],
              [
                119.794085282,
                -1.181434342
              ],
              [
                119.79375748,
                -1.181439456
              ],
              [
                119.793650514,
                -1.181437117
              ],
              [
                119.79354844,
                -1.181434885
              ],
              [
                119.793350454,
                -1.181414112
              ],
              [
                119.793277615,
                -1.181406469
              ],
              [
                119.792835646,
                -1.181263462
              ],
              [
                119.792132225,
                -1.18096292
              ],
              [
                119.791766173,
                -1.1807242
              ],
              [
                119.791086539,
                -1.180457106
              ],
              [
                119.79067297,
                -1.180208869
              ],
              [
                119.790316486,
                -1.180037084
              ],
              [
                119.789940857,
                -1.179721864
              ],
              [
                119.789446266,
                -1.17921549
              ],
              [
                119.78885167,
                -1.178470126
              ],
              [
                119.78829511,
                -1.177753414
              ],
              [
                119.787955937,
                -1.177384321
              ],
              [
                119.787838536,
                -1.177256564
              ],
              [
                119.787372551,
                -1.176850577
              ],
              [
                119.786915902,
                -1.176277217
              ],
              [
                119.78650678,
                -1.175722936
              ],
              [
                119.785926368,
                -1.174905826
              ],
              [
                119.785873938,
                -1.174733733
              ],
              [
                119.785800444,
                -1.174630388
              ],
              [
                119.785659852,
                -1.174432692
              ],
              [
                119.785503938,
                -1.174180421
              ],
              [
                119.785318918,
                -1.17398608
              ],
              [
                119.785128828,
                -1.173928889
              ],
              [
                119.784938644,
                -1.173776061
              ],
              [
                119.784890955,
                -1.173594399
              ],
              [
                119.784985849,
                -1.173469976
              ],
              [
                119.785166343,
                -1.17343154
              ],
              [
                119.785337382,
                -1.173440933
              ],
              [
                119.785527415,
                -1.173440742
              ],
              [
                119.785764957,
                -1.173440504
              ],
              [
                119.786002508,
                -1.173449829
              ],
              [
                119.786392085,
                -1.173459002
              ],
              [
                119.786620115,
                -1.173449209
              ],
              [
                119.786984462,
                -1.173326907
              ],
              [
                119.787582942,
                -1.173201979
              ],
              [
                119.788114939,
                -1.173105809
              ],
              [
                119.788466604,
                -1.173210656
              ],
              [
                119.788818126,
                -1.173172048
              ],
              [
                119.789131567,
                -1.17305697
              ],
              [
                119.789511423,
                -1.172846189
              ],
              [
                119.78986287,
                -1.172731072
              ],
              [
                119.790404301,
                -1.172567947
              ],
              [
                119.790784204,
                -1.172404984
              ],
              [
                119.790926567,
                -1.172242259
              ],
              [
                119.791049804,
                -1.171955227
              ],
              [
                119.791049596,
                -1.171744827
              ],
              [
                119.791011362,
                -1.171515338
              ],
              [
                119.790925696,
                -1.171362406
              ],
              [
                119.790773424,
                -1.171113905
              ],
              [
                119.790773083,
                -1.170769614
              ],
              [
                119.790772799,
                -1.170482706
              ],
              [
                119.790848509,
                -1.170176594
              ],
              [
                119.790838733,
                -1.169899258
              ],
              [
                119.790657995,
                -1.169689039
              ],
              [
                119.790477379,
                -1.169603148
              ],
              [
                119.790068678,
                -1.169469666
              ],
              [
                119.789793027,
                -1.169364742
              ],
              [
                119.789640784,
                -1.169144931
              ],
              [
                119.78964051,
                -1.168867585
              ],
              [
                119.789621309,
                -1.168666768
              ],
              [
                119.789530741,
                -1.168360225
              ],
              [
                119.789316742,
                -1.168145257
              ],
              [
                119.788817613,
                -1.167846892
              ],
              [
                119.788306559,
                -1.16750072
              ],
              [
                119.787973684,
                -1.167178279
              ],
              [
                119.78786639,
                -1.166771931
              ],
              [
                119.787866131,
                -1.166508931
              ],
              [
                119.787984595,
                -1.166197994
              ],
              [
                119.787984242,
                -1.165839357
              ],
              [
                119.787972036,
                -1.165504642
              ],
              [
                119.788138323,
                -1.165211738
              ],
              [
                119.788090702,
                -1.165097022
              ],
              [
                119.788128426,
                -1.164810075
              ],
              [
                119.788194599,
                -1.164465718
              ],
              [
                119.788279765,
                -1.164111778
              ],
              [
                119.78827938,
                -1.163719668
              ],
              [
                119.788260085,
                -1.163423214
              ],
              [
                119.788126715,
                -1.163069492
              ],
              [
                119.787936514,
                -1.162897536
              ],
              [
                119.787729589,
                -1.162627568
              ],
              [
                119.787824077,
                -1.162089519
              ],
              [
                119.787859333,
                -1.161706937
              ],
              [
                119.788120217,
                -1.161288268
              ],
              [
                119.7883692,
                -1.160845702
              ],
              [
                119.788558903,
                -1.160510786
              ],
              [
                119.789057292,
                -1.160056018
              ],
              [
                119.789531914,
                -1.159589319
              ],
              [
                119.789899807,
                -1.159290091
              ],
              [
                119.790184585,
                -1.159014853
              ],
              [
                119.790611828,
                -1.158679702
              ],
              [
                119.790979909,
                -1.158571746
              ],
              [
                119.791288592,
                -1.158451895
              ],
              [
                119.791419122,
                -1.15833222
              ],
              [
                119.791502038,
                -1.158105002
              ],
              [
                119.791561154,
                -1.157829989
              ],
              [
                119.791477687,
                -1.157495345
              ],
              [
                119.791382368,
                -1.157184621
              ],
              [
                119.791310802,
                -1.156873874
              ],
              [
                119.791298621,
                -1.156563069
              ],
              [
                119.791452437,
                -1.15596519
              ],
              [
                119.791511389,
                -1.155522814
              ],
              [
                119.791719191,
                -1.15426021
              ],
              [
                119.791737718,
                -1.153772447
              ],
              [
                119.791794256,
                -1.153289428
              ],
              [
                119.791793916,
                -1.152940356
              ],
              [
                119.791795105,
                -1.152535495
              ],
              [
                119.791927921,
                -1.152324964
              ],
              [
                119.792136834,
                -1.152200431
              ],
              [
                119.7923457,
                -1.15202808
              ],
              [
                119.792611529,
                -1.151807854
              ],
              [
                119.792706367,
                -1.151626052
              ],
              [
                119.792991217,
                -1.151424935
              ],
              [
                119.793456559,
                -1.151185385
              ],
              [
                119.793864891,
                -1.150945892
              ],
              [
                119.79427314,
                -1.150620327
              ],
              [
                119.794491432,
                -1.150371458
              ],
              [
                119.794557645,
                -1.150065358
              ],
              [
                119.794585814,
                -1.14972104
              ],
              [
                119.794585489,
                -1.149386315
              ],
              [
                119.794623141,
                -1.149022861
              ],
              [
                119.794746298,
                -1.148649759
              ],
              [
                119.794831551,
                -1.148381894
              ],
              [
                119.7948883,
                -1.148114058
              ],
              [
                119.795001937,
                -1.147721838
              ],
              [
                119.795153784,
                -1.147539981
              ],
              [
                119.795388766,
                -1.147354455
              ],
              [
                119.795762783,
                -1.147246496
              ],
              [
                119.796314964,
                -1.147150317
              ],
              [
                119.796772142,
                -1.147066185
              ],
              [
                119.797377855,
                -1.147059612
              ],
              [
                119.797805386,
                -1.147023328
              ],
              [
                119.798309949,
                -1.146813628
              ],
              [
                119.798796573,
                -1.146478424
              ],
              [
                119.799295086,
                -1.146155163
              ],
              [
                119.799686737,
                -1.145861893
              ],
              [
                119.799912193,
                -1.145652468
              ],
              [
                119.800095999,
                -1.145359404
              ],
              [
                119.800196621,
                -1.145018603
              ],
              [
                119.800261578,
                -1.144641974
              ],
              [
                119.800451189,
                -1.144211428
              ],
              [
                119.800605233,
                -1.143846666
              ],
              [
                119.800794908,
                -1.143481869
              ],
              [
                119.801139028,
                -1.143164739
              ],
              [
                119.801489103,
                -1.142865534
              ],
              [
                119.801868952,
                -1.142649981
              ],
              [
                119.802302251,
                -1.142440353
              ],
              [
                119.802866201,
                -1.142236574
              ],
              [
                119.803234242,
                -1.142092759
              ],
              [
                119.803471638,
                -1.141949073
              ],
              [
                119.80357836,
                -1.14177563
              ],
              [
                119.803524654,
                -1.141506708
              ],
              [
                119.803601535,
                -1.141177886
              ],
              [
                119.803648463,
                -1.14058012
              ],
              [
                119.803689603,
                -1.140137767
              ],
              [
                119.803688984,
                -1.139498206
              ],
              [
                119.803629178,
                -1.139061929
              ],
              [
                119.803557715,
                -1.138852797
              ],
              [
                119.803224721,
                -1.138392879
              ],
              [
                119.80309358,
                -1.137878967
              ],
              [
                119.803119112,
                -1.137260899
              ],
              [
                119.803218517,
                -1.136887824
              ],
              [
                119.803260733,
                -1.136328316
              ],
              [
                119.803246039,
                -1.135869281
              ],
              [
                119.803103047,
                -1.135381681
              ],
              [
                119.802888893,
                -1.134994567
              ],
              [
                119.802574919,
                -1.134550169
              ],
              [
                119.802088746,
                -1.134120284
              ],
              [
                119.80178567,
                -1.133893446
              ],
              [
                119.801417318,
                -1.133714488
              ],
              [
                119.801072761,
                -1.133577348
              ],
              [
                119.800669619,
                -1.133401878
              ],
              [
                119.800346434,
                -1.133258739
              ],
              [
                119.799883843,
                -1.13319954
              ],
              [
                119.799281013,
                -1.133135302
              ],
              [
                119.799433876,
                -1.132819704
              ],
              [
                119.799860493,
                -1.131834242
              ],
              [
                119.799916593,
                -1.130887396
              ],
              [
                119.799725969,
                -1.13026595
              ],
              [
                119.799611302,
                -1.129587048
              ],
              [
                119.799420615,
                -1.128898657
              ],
              [
                119.799191648,
                -1.127923396
              ],
              [
                119.799086721,
                -1.127493137
              ],
              [
                119.799085497,
                -1.12621162
              ],
              [
                119.799075503,
                -1.125695198
              ],
              [
                119.798913477,
                -1.125169358
              ],
              [
                119.798665985,
                -1.124691419
              ],
              [
                119.798380223,
                -1.123936173
              ],
              [
                119.798284791,
                -1.123496341
              ],
              [
                119.798227382,
                -1.123075599
              ],
              [
                119.798255231,
                -1.122386995
              ],
              [
                119.798511304,
                -1.121899006
              ],
              [
                119.798720025,
                -1.121573644
              ],
              [
                119.798928938,
                -1.121449116
              ],
              [
                119.799337488,
                -1.121439159
              ],
              [
                119.799632076,
                -1.121486693
              ],
              [
                119.799879157,
                -1.121534273
              ],
              [
                119.800012067,
                -1.121419382
              ],
              [
                119.800486371,
                -1.120615587
              ],
              [
                119.800856352,
                -1.120012727
              ],
              [
                119.801264511,
                -1.119591538
              ],
              [
                119.801824663,
                -1.119141513
              ],
              [
                119.802109386,
                -1.118806515
              ],
              [
                119.803040445,
                -1.118729111
              ],
              [
                119.804075963,
                -1.118594225
              ],
              [
                119.80457946,
                -1.118517232
              ],
              [
                119.804902414,
                -1.118421286
              ],
              [
                119.805158941,
                -1.118411476
              ],
              [
                119.805329964,
                -1.118411311
              ],
              [
                119.805633979,
                -1.118382328
              ],
              [
                119.805843017,
                -1.11839169
              ],
              [
                119.806089988,
                -1.118324508
              ],
              [
                119.806260966,
                -1.118276525
              ],
              [
                119.806602822,
                -1.118075363
              ],
              [
                119.80696369,
                -1.117883745
              ],
              [
                119.807096626,
                -1.117797546
              ],
              [
                119.807277114,
                -1.117759118
              ],
              [
                119.807410105,
                -1.117730299
              ],
              [
                119.807619016,
                -1.117605773
              ],
              [
                119.807713974,
                -1.1175483
              ],
              [
                119.807808805,
                -1.117356939
              ],
              [
                119.80786565,
                -1.117184742
              ],
              [
                119.807979465,
                -1.116974235
              ],
              [
                119.808131268,
                -1.116744565
              ],
              [
                119.808283143,
                -1.116591404
              ],
              [
                119.808482497,
                -1.116409505
              ],
              [
                119.808662913,
                -1.11629457
              ],
              [
                119.808881361,
                -1.116208289
              ],
              [
                119.809118802,
                -1.116112425
              ],
              [
                119.809508236,
                -1.115987725
              ],
              [
                119.80964119,
                -1.115920653
              ],
              [
                119.809764634,
                -1.115844027
              ],
              [
                119.809973472,
                -1.115642993
              ],
              [
                119.810220296,
                -1.115422795
              ],
              [
                119.810419695,
                -1.115288715
              ],
              [
                119.810752167,
                -1.115211887
              ],
              [
                119.811084702,
                -1.115202004
              ],
              [
                119.81130324,
                -1.115211357
              ],
              [
                119.811483764,
                -1.115211184
              ],
              [
                119.811873242,
                -1.115134301
              ],
              [
                119.812196221,
                -1.115067046
              ],
              [
                119.812528774,
                -1.11507629
              ],
              [
                119.812737838,
                -1.115114342
              ],
              [
                119.813003873,
                -1.115114086
              ],
              [
                119.813336362,
                -1.115056386
              ],
              [
                119.813716257,
                -1.114893441
              ],
              [
                119.814096115,
                -1.114692243
              ],
              [
                119.814475919,
                -1.114433665
              ],
              [
                119.814694357,
                -1.11433782
              ],
              [
                119.814893792,
                -1.114241994
              ],
              [
                119.815064832,
                -1.114260956
              ],
              [
                119.81518842,
                -1.114337345
              ],
              [
                119.815312073,
                -1.114480677
              ],
              [
                119.815407221,
                -1.114624037
              ],
              [
                119.815540375,
                -1.11476736
              ],
              [
                119.815692467,
                -1.114843721
              ],
              [
                119.815930034,
                -1.114881746
              ],
              [
                119.816129632,
                -1.114958061
              ],
              [
                119.816300745,
                -1.115053531
              ],
              [
                119.816329367,
                -1.115177828
              ],
              [
                119.816348588,
                -1.115407331
              ],
              [
                119.816329813,
                -1.115646435
              ],
              [
                119.816320366,
                -1.115703824
              ],
              [
                119.816358453,
                -1.115789859
              ],
              [
                119.816415569,
                -1.115904565
              ],
              [
                119.816529602,
                -1.115923581
              ],
              [
                119.816757677,
                -1.115971179
              ],
              [
                119.817118696,
                -1.11594214
              ],
              [
                119.817365645,
                -1.115855831
              ],
              [
                119.817546068,
                -1.115750459
              ],
              [
                119.817821466,
                -1.115606743
              ],
              [
                119.818106448,
                -1.115549087
              ],
              [
                119.818258458,
                -1.115539377
              ],
              [
                119.818438981,
                -1.115539203
              ],
              [
                119.818819038,
                -1.1155484
              ],
              [
                119.819075552,
                -1.115529026
              ],
              [
                119.819351196,
                -1.11564352
              ],
              [
                119.81958878,
                -1.115700671
              ],
              [
                119.819674409,
                -1.115824913
              ],
              [
                119.819893019,
                -1.115910772
              ],
              [
                119.820026063,
                -1.115939334
              ],
              [
                119.820159043,
                -1.115900952
              ],
              [
                119.820415529,
                -1.115852887
              ],
              [
                119.820605526,
                -1.115824014
              ],
              [
                119.820748144,
                -1.115929073
              ],
              [
                119.820852702,
                -1.115976789
              ],
              [
                119.821156804,
                -1.116043439
              ],
              [
                119.821394315,
                -1.116024083
              ],
              [
                119.821669813,
                -1.115985563
              ],
              [
                119.821859855,
                -1.116004506
              ],
              [
                119.822087974,
                -1.11609992
              ],
              [
                119.822316175,
                -1.116281403
              ],
              [
                119.822648954,
                -1.116529729
              ],
              [
                119.822810583,
                -1.116644333
              ],
              [
                119.822934199,
                -1.116749411
              ],
              [
                119.823095801,
                -1.116835325
              ],
              [
                119.823390364,
                -1.11686373
              ],
              [
                119.823760864,
                -1.116815554
              ],
              [
                119.824083967,
                -1.116882185
              ],
              [
                119.824254988,
                -1.11688202
              ],
              [
                119.824682704,
                -1.117053746
              ],
              [
                119.825224398,
                -1.117187108
              ],
              [
                119.8257661,
                -1.117330034
              ],
              [
                119.8268874,
                -1.117501087
              ],
              [
                119.827267518,
                -1.117577225
              ],
              [
                119.827714117,
                -1.117624609
              ],
              [
                119.828018172,
                -1.117643441
              ],
              [
                119.828217732,
                -1.117681501
              ],
              [
                119.828360267,
                -1.117700489
              ],
              [
                119.828559864,
                -1.117776802
              ],
              [
                119.828797429,
                -1.117814825
              ],
              [
                119.829063424,
                -1.117776313
              ],
              [
                119.829300942,
                -1.11776652
              ],
              [
                119.829509976,
                -1.11777588
              ],
              [
                119.829643074,
                -1.117861821
              ],
              [
                119.829766662,
                -1.117938207
              ],
              [
                119.829880849,
                -1.118119799
              ],
              [
                119.829947522,
                -1.118291874
              ],
              [
                119.830061664,
                -1.11842565
              ],
              [
                119.830223265,
                -1.118511562
              ],
              [
                119.830365846,
                -1.118578367
              ],
              [
                119.830569795,
                -1.118587255
              ],
              [
                119.830801792,
                -1.118587255
              ],
              [
                119.830998098,
                -1.118562271
              ],
              [
                119.831180127,
                -1.118597963
              ],
              [
                119.831333602,
                -1.1186979
              ],
              [
                119.831454954,
                -1.118865652
              ],
              [
                119.832040302,
                -1.119240417
              ],
              [
                119.832297283,
                -1.119454569
              ],
              [
                119.832621426,
                -1.119528582
              ],
              [
                119.832861216,
                -1.11949383
              ],
              [
                119.833146751,
                -1.11949383
              ],
              [
                119.833375179,
                -1.11957949
              ],
              [
                119.833525085,
                -1.119729396
              ],
              [
                119.833721391,
                -1.119972101
              ],
              [
                119.833824897,
                -1.120239791
              ],
              [
                119.833924835,
                -1.120411112
              ],
              [
                119.834163971,
                -1.12055388
              ],
              [
                119.834296031,
                -1.120593141
              ],
              [
                119.834506613,
                -1.120610987
              ],
              [
                119.834781441,
                -1.120578864
              ],
              [
                119.835066976,
                -1.120632402
              ],
              [
                119.83522759,
                -1.120764462
              ],
              [
                119.835423895,
                -1.120800154
              ],
              [
                119.836093981,
                -1.120770089
              ],
              [
                119.836269794,
                -1.120678801
              ],
              [
                119.83641613,
                -1.120539603
              ],
              [
                119.836539671,
                -1.120495205
              ],
              [
                119.836644559,
                -1.120457511
              ],
              [
                119.836933663,
                -1.12046465
              ],
              [
                119.837508303,
                -1.120710924
              ],
              [
                119.837883068,
                -1.120867968
              ],
              [
                119.838202832,
                -1.120955614
              ],
              [
                119.838206675,
                -1.120601469
              ],
              [
                119.838075485,
                -1.120121228
              ],
              [
                119.837922878,
                -1.119855333
              ],
              [
                119.837784321,
                -1.119560455
              ],
              [
                119.837440436,
                -1.119240124
              ],
              [
                119.837350069,
                -1.119155946
              ],
              [
                119.837194886,
                -1.119059777
              ],
              [
                119.836990666,
                -1.118974696
              ],
              [
                119.836821334,
                -1.11887624
              ],
              [
                119.836660814,
                -1.118679154
              ],
              [
                119.836529155,
                -1.118495646
              ],
              [
                119.836269012,
                -1.118095163
              ],
              [
                119.836113452,
                -1.117855682
              ],
              [
                119.835982246,
                -1.117600051
              ],
              [
                119.836017571,
                -1.117073918
              ],
              [
                119.836094903,
                -1.116615872
              ],
              [
                119.836178184,
                -1.116294644
              ],
              [
                119.836332849,
                -1.115896085
              ],
              [
                119.836606487,
                -1.115372603
              ],
              [
                119.836987201,
                -1.114664714
              ],
              [
                119.837201353,
                -1.114391076
              ],
              [
                119.8382995,
                -1.112369777
              ],
              [
                119.838883875,
                -1.113079308
              ],
              [
                119.839292767,
                -1.113442315
              ],
              [
                119.839578255,
                -1.113920199
              ],
              [
                119.840082249,
                -1.114378745
              ],
              [
                119.840415051,
                -1.114655755
              ],
              [
                119.84083338,
                -1.114951808
              ],
              [
                119.841204176,
                -1.115219218
              ],
              [
                119.841422828,
                -1.11535289
              ],
              [
                119.842211788,
                -1.115744214
              ],
              [
                119.842611041,
                -1.11596378
              ],
              [
                119.843295417,
                -1.116278699
              ],
              [
                119.843903526,
                -1.116325923
              ],
              [
                119.844350073,
                -1.116325488
              ],
              [
                119.845062674,
                -1.116353483
              ],
              [
                119.845452242,
                -1.116381793
              ],
              [
                119.846012818,
                -1.116400372
              ],
              [
                119.846250343,
                -1.116400141
              ],
              [
                119.84702945,
                -1.116428071
              ],
              [
                119.847476096,
                -1.11653283
              ],
              [
                119.847922724,
                -1.116618462
              ],
              [
                119.847897395,
                -1.116624863
              ],
              [
                119.848553127,
                -1.116796359
              ],
              [
                119.849094828,
                -1.116948841
              ],
              [
                119.849513156,
                -1.11724489
              ],
              [
                119.849902907,
                -1.117464462
              ],
              [
                119.850254654,
                -1.11768407
              ],
              [
                119.850568564,
                -1.118075852
              ],
              [
                119.850910874,
                -1.118362411
              ],
              [
                119.851253111,
                -1.118572465
              ],
              [
                119.851785229,
                -1.118638886
              ],
              [
                119.852526449,
                -1.11879117
              ],
              [
                119.85308692,
                -1.118704553
              ],
              [
                119.853913454,
                -1.118655928
              ],
              [
                119.854559267,
                -1.118397092
              ],
              [
                119.855281114,
                -1.11816687
              ],
              [
                119.855756113,
                -1.118118589
              ],
              [
                119.856497479,
                -1.118423882
              ],
              [
                119.8571628,
                -1.118690996
              ],
              [
                119.85759047,
                -1.118824459
              ],
              [
                119.858947005,
                -1.119396738
              ],
              [
                119.859413014,
                -1.119582536
              ],
              [
                119.859783594,
                -1.119629987
              ],
              [
                119.860135154,
                -1.119658331
              ],
              [
                119.860534255,
                -1.11972488
              ],
              [
                119.861018799,
                -1.119724404
              ],
              [
                119.861541254,
                -1.11962826
              ],
              [
                119.862063662,
                -1.119484301
              ],
              [
                119.862614534,
                -1.119302061
              ],
              [
                119.863355359,
                -1.119052694
              ],
              [
                119.863736367,
                -1.118804014
              ]
            ]
          ]
        ]
      }
    }
  ]
}