{
  "type": "FeatureCollection",
  "features": [
    {
      "type": "Feature",
      "properties": {
        "idx": "1426",
        "nama_kewilayahan": "Keturunan Ompu Mamontang Laut Ambarita Sihaporas"
      },
      "geometry": {
        "type": "Polygon",
        "coordinates": [
          [
            [
              98.91055556,
              2.770472222
            ],
            [
              98.91155556,
              2.769916666
            ],
            [
              98.91333333,
              2.770666667
            ],
            [
              98.91344444,
              2.770194444
            ],
            [
              98.91433333,
              2.77
            ],
            [
              98.916537828,
              2.77054329
            ],
            [
              98.917884105,
              2.770875073
            ],
            [
              98.918935704,
              2.771134235
            ],
            [
              98.919410085,
              2.771251143
            ],
            [
              98.92019444,
              2.771444444
            ],
            [
              98.92158333,
              2.770583333
            ],
            [
              98.92183333,
              2.770194444
            ],
            [
              98.92216667,
              2.770111111
            ],
            [
              98.924405347,
              2.771343643
            ],
            [
              98.924638891,
              2.771472223
            ],
            [
              98.92466667,
              2.771472223
            ],
            [
              98.925111111,
              2.77175
            ],
            [
              98.92536111,
              2.771472223
            ],
            [
              98.92579459,
              2.771038745
            ],
            [
              98.92591667,
              2.770916667
            ],
            [
              98.92613889,
              2.770722222
            ],
            [
              98.92633333,
              2.770805556
            ],
            [
              98.926527781,
              2.770222222
            ],
            [
              98.92688889,
              2.770222222
            ],
            [
              98.92713889,
              2.769638889
            ],
            [
              98.92758333,
              2.769083333
            ],
            [
              98.928199686,
              2.7684738
            ],
            [
              98.927351387,
              2.76727229
            ],
            [
              98.926724478,
              2.766972408
            ],
            [
              98.926696163,
              2.76692343
            ],
            [
              98.926588804,
              2.766710255
            ],
            [
              98.926497961,
              2.766527535
            ],
            [
              98.926459426,
              2.766386342
            ],
            [
              98.926420897,
              2.766184245
            ],
            [
              98.92639062,
              2.766040286
            ],
            [
              98.926363095,
              2.765921245
            ],
            [
              98.92633557,
              2.76583819
            ],
            [
              98.92625574,
              2.765649932
            ],
            [
              98.926162145,
              2.765478285
            ],
            [
              98.926093325,
              2.765348164
            ],
            [
              98.925988715,
              2.765206971
            ],
            [
              98.925859329,
              2.765035319
            ],
            [
              98.925740954,
              2.764885819
            ],
            [
              98.925630835,
              2.764755696
            ],
            [
              98.925490436,
              2.764614499
            ],
            [
              98.925405093,
              2.764539748
            ],
            [
              98.925283962,
              2.764445613
            ],
            [
              98.925168335,
              2.764365322
            ],
            [
              98.925058214,
              2.764301641
            ],
            [
              98.924956352,
              2.764232425
            ],
            [
              98.924854491,
              2.764193661
            ],
            [
              98.92476364,
              2.764174276
            ],
            [
              98.92462323,
              2.764163193
            ],
            [
              98.924482821,
              2.764160415
            ],
            [
              98.924323137,
              2.76418809
            ],
            [
              98.924160702,
              2.764215763
            ],
            [
              98.923992759,
              2.764257278
            ],
            [
              98.923871621,
              2.764265575
            ],
            [
              98.923764248,
              2.76426557
            ],
            [
              98.923634852,
              2.76424895
            ],
            [
              98.923588435,
              2.764233388
            ],
            [
              98.922195,
              2.762173532
            ],
            [
              98.921833331,
              2.76163889
            ],
            [
              98.921660842,
              2.761596819
            ],
            [
              98.92069444,
              2.761361112
            ],
            [
              98.92080556,
              2.760416668
            ],
            [
              98.921626347,
              2.760124686
            ],
            [
              98.922082693,
              2.759327008
            ],
            [
              98.922239738,
              2.758887862
            ],
            [
              98.922388648,
              2.758471466
            ],
            [
              98.922472318,
              2.758538781
            ],
            [
              98.922559335,
              2.758590954
            ],
            [
              98.922636311,
              2.758624614
            ],
            [
              98.92272333,
              2.758644811
            ],
            [
              98.922807003,
              2.758653232
            ],
            [
              98.922885655,
              2.758654919
            ],
            [
              98.92296598,
              2.758643146
            ],
            [
              98.923031248,
              2.758621274
            ],
            [
              98.923126639,
              2.758585941
            ],
            [
              98.923240435,
              2.758540516
            ],
            [
              98.923357579,
              2.758508549
            ],
            [
              98.923496478,
              2.758479952
            ],
            [
              98.923369704,
              2.758262127
            ],
            [
              98.92328882,
              2.758123537
            ],
            [
              98.923204941,
              2.757960848
            ],
            [
              98.923064147,
              2.757674634
            ],
            [
              98.922998243,
              2.757517971
            ],
            [
              98.92289639,
              2.757340214
            ],
            [
              98.922848459,
              2.757246818
            ],
            [
              98.922821501,
              2.757165475
            ],
            [
              98.922815514,
              2.757090158
            ],
            [
              98.922821512,
              2.757002789
            ],
            [
              98.922836497,
              2.756915423
            ],
            [
              98.922859671,
              2.756842201
            ],
            [
              98.922878449,
              2.756782868
            ],
            [
              98.922896431,
              2.7566955
            ],
            [
              98.922902427,
              2.756644285
            ],
            [
              98.922899437,
              2.756556917
            ],
            [
              98.922893454,
              2.756400257
            ],
            [
              98.922896457,
              2.75630084
            ],
            [
              98.922899456,
              2.756246612
            ],
            [
              98.922917437,
              2.756180334
            ],
            [
              98.922953392,
              2.756114057
            ],
            [
              98.9230283,
              2.756032719
            ],
            [
              98.923103205,
              2.755957407
            ],
            [
              98.923187099,
              2.755867032
            ],
            [
              98.923259011,
              2.755755567
            ],
            [
              98.923344611,
              2.755588899
            ],
            [
              98.923376926,
              2.755514641
            ],
            [
              98.923423085,
              2.755424917
            ],
            [
              98.923472321,
              2.755356848
            ],
            [
              98.923515401,
              2.755330552
            ],
            [
              98.923556941,
              2.75532127
            ],
            [
              98.923613865,
              2.75531818
            ],
            [
              98.923658482,
              2.755322825
            ],
            [
              98.923744637,
              2.755361507
            ],
            [
              98.923800019,
              2.755375435
            ],
            [
              98.923893868,
              2.755384722
            ],
            [
              98.923929254,
              2.75538163
            ],
            [
              98.923958485,
              2.755376991
            ],
            [
              98.923993873,
              2.755347598
            ],
            [
              98.924041574,
              2.755230025
            ],
            [
              98.924066196,
              2.75514958
            ],
            [
              98.924072188,
              2.755127373
            ],
            [
              98.924120055,
              2.754950015
            ],
            [
              98.924136982,
              2.754889681
            ],
            [
              98.924153912,
              2.754809236
            ],
            [
              98.924161607,
              2.754747352
            ],
            [
              98.924181613,
              2.754673097
            ],
            [
              98.924206232,
              2.754622045
            ],
            [
              98.924237004,
              2.754588012
            ],
            [
              98.924286625,
              2.754553266
            ],
            [
              98.924386629,
              2.754518864
            ],
            [
              98.924447153,
              2.754508285
            ],
            [
              98.924528739,
              2.754502996
            ],
            [
              98.924705054,
              2.754505659
            ],
            [
              98.924834009,
              2.754510959
            ],
            [
              98.924894531,
              2.754510962
            ],
            [
              98.925180117,
              2.754515405
            ],
            [
              98.92536004,
              2.754515417
            ],
            [
              98.925589034,
              2.754511313
            ],
            [
              98.925733454,
              2.753458362
            ],
            [
              98.925961626,
              2.752774635
            ],
            [
              98.926076099,
              2.752088585
            ],
            [
              98.926189798,
              2.751407178
            ],
            [
              98.9265891,
              2.750039721
            ],
            [
              98.926532058,
              2.749299014
            ],
            [
              98.926475015,
              2.748273419
            ],
            [
              98.926246842,
              2.747589688
            ],
            [
              98.92584754,
              2.746678047
            ],
            [
              98.925410862,
              2.745991017
            ],
            [
              98.92534002,
              2.745802068
            ],
            [
              98.925048936,
              2.745025696
            ],
            [
              98.924706676,
              2.744228008
            ],
            [
              98.924421461,
              2.74343032
            ],
            [
              98.924079202,
              2.742632631
            ],
            [
              98.924005555,
              2.74238693
            ],
            [
              98.9236799,
              2.74183494
            ],
            [
              98.923620039,
              2.741326706
            ],
            [
              98.923565814,
              2.740866318
            ],
            [
              98.923622857,
              2.739954671
            ],
            [
              98.923908072,
              2.739441869
            ],
            [
              98.924421461,
              2.738986046
            ],
            [
              98.924459411,
              2.738603871
            ],
            [
              98.92450102,
              2.738184845
            ],
            [
              98.924325201,
              2.737710372
            ],
            [
              98.924289548,
              2.737283037
            ],
            [
              98.923933029,
              2.736998147
            ],
            [
              98.923326946,
              2.73682009
            ],
            [
              98.92259608,
              2.736763903
            ],
            [
              98.922133672,
              2.736627049
            ],
            [
              98.921055917,
              2.736308079
            ],
            [
              98.920257723,
              2.736167229
            ],
            [
              98.920252495,
              2.736166754
            ],
            [
              98.92025,
              2.736166667
            ],
            [
              98.91966302,
              2.736300834
            ],
            [
              98.919649591,
              2.736303903
            ],
            [
              98.91927778,
              2.736388889
            ],
            [
              98.918611111,
              2.735944443
            ],
            [
              98.91797222,
              2.73513889
            ],
            [
              98.91741667,
              2.734583333
            ],
            [
              98.917207516,
              2.733955877
            ],
            [
              98.91713889,
              2.73375
            ],
            [
              98.916861111,
              2.733527778
            ],
            [
              98.91663889,
              2.732611111
            ],
            [
              98.91536111,
              2.732416667
            ],
            [
              98.915321305,
              2.732261429
            ],
            [
              98.91508333,
              2.731333333
            ],
            [
              98.91530556,
              2.730750001
            ],
            [
              98.914548926,
              2.730451933
            ],
            [
              98.91438889,
              2.73038889
            ],
            [
              98.91341667,
              2.731472222
            ],
            [
              98.91280556,
              2.732111111
            ],
            [
              98.91241667,
              2.731472222
            ],
            [
              98.91191667,
              2.73125
            ],
            [
              98.91127778,
              2.730750001
            ],
            [
              98.91116667,
              2.73025
            ],
            [
              98.91063889,
              2.729944444
            ],
            [
              98.910599927,
              2.729810236
            ],
            [
              98.91038889,
              2.729083334
            ],
            [
              98.91075,
              2.728666667
            ],
            [
              98.91011111,
              2.728333334
            ],
            [
              98.90991667,
              2.727666667
            ],
            [
              98.90986111,
              2.727083333
            ],
            [
              98.90922222,
              2.726472222
            ],
            [
              98.90952778,
              2.725916667
            ],
            [
              98.90894444,
              2.725527778
            ],
            [
              98.90833333,
              2.724916668
            ],
            [
              98.90777778,
              2.724861111
            ],
            [
              98.90727778,
              2.724583333
            ],
            [
              98.90636111,
              2.724638889
            ],
            [
              98.90502778,
              2.724611111
            ],
            [
              98.90405556,
              2.724555556
            ],
            [
              98.90341667,
              2.724527778
            ],
            [
              98.90313761,
              2.724944112
            ],
            [
              98.90225,
              2.725527778
            ],
            [
              98.90172222,
              2.725805556
            ],
            [
              98.90111111,
              2.725972222
            ],
            [
              98.901046335,
              2.725992677
            ],
            [
              98.90058333,
              2.726138889
            ],
            [
              98.900319484,
              2.726208731
            ],
            [
              98.89963889,
              2.726388889
            ],
            [
              98.89902778,
              2.726833333
            ],
            [
              98.898189874,
              2.727240962
            ],
            [
              98.898,
              2.727333334
            ],
            [
              98.89770463,
              2.727442491
            ],
            [
              98.897694603,
              2.727446198
            ],
            [
              98.897010983,
              2.727698839
            ],
            [
              98.89672222,
              2.727805555
            ],
            [
              98.896229527,
              2.727699979
            ],
            [
              98.895885443,
              2.727618545
            ],
            [
              98.89513889,
              2.727361111
            ],
            [
              98.89469444,
              2.726777778
            ],
            [
              98.89411111,
              2.727305556
            ],
            [
              98.893728947,
              2.72785757
            ],
            [
              98.89361111,
              2.728027777
            ],
            [
              98.89311111,
              2.728611111
            ],
            [
              98.89252778,
              2.728388888
            ],
            [
              98.892059725,
              2.728775543
            ],
            [
              98.891898593,
              2.72890865
            ],
            [
              98.89188889,
              2.728916667
            ],
            [
              98.89141667,
              2.729305556
            ],
            [
              98.89141667,
              2.729916667
            ],
            [
              98.891416671,
              2.73025
            ],
            [
              98.89119444,
              2.731055556
            ],
            [
              98.89052778,
              2.731916667
            ],
            [
              98.89027778,
              2.732472222
            ],
            [
              98.8895,
              2.733194444
            ],
            [
              98.88908333,
              2.733
            ],
            [
              98.88875,
              2.732916666
            ],
            [
              98.88880556,
              2.732666667
            ],
            [
              98.88847222,
              2.732527778
            ],
            [
              98.88813889,
              2.733083333
            ],
            [
              98.88880556,
              2.733333333
            ],
            [
              98.88883333,
              2.733611111
            ],
            [
              98.88847222,
              2.734333333
            ],
            [
              98.88725,
              2.734694444
            ],
            [
              98.88613889,
              2.734777778
            ],
            [
              98.88516667,
              2.734666667
            ],
            [
              98.885105814,
              2.734695066
            ],
            [
              98.88433333,
              2.735055556
            ],
            [
              98.883805561,
              2.735666667
            ],
            [
              98.88325,
              2.735555556
            ],
            [
              98.88316667,
              2.736027779
            ],
            [
              98.883222221,
              2.7365
            ],
            [
              98.882908975,
              2.73672308
            ],
            [
              98.880161396,
              2.738679798
            ],
            [
              98.879537736,
              2.739123946
            ],
            [
              98.877378909,
              2.740661374
            ],
            [
              98.875380173,
              2.742084792
            ],
            [
              98.873977426,
              2.743083767
            ],
            [
              98.873928403,
              2.743118681
            ],
            [
              98.87202778,
              2.744472223
            ],
            [
              98.87216667,
              2.745277778
            ],
            [
              98.87219444,
              2.745583334
            ],
            [
              98.87269444,
              2.745916668
            ],
            [
              98.872727299,
              2.745942618
            ],
            [
              98.874349367,
              2.747223685
            ],
            [
              98.874385879,
              2.747389466
            ],
            [
              98.874391814,
              2.74759745
            ],
            [
              98.8743889,
              2.747833629
            ],
            [
              98.874388211,
              2.747889344
            ],
            [
              98.874372688,
              2.748103913
            ],
            [
              98.874371864,
              2.748119157
            ],
            [
              98.874361942,
              2.748302903
            ],
            [
              98.874375621,
              2.748618176
            ],
            [
              98.874410162,
              2.748856129
            ],
            [
              98.874501334,
              2.749067115
            ],
            [
              98.87466166,
              2.749237352
            ],
            [
              98.874868475,
              2.74933208
            ],
            [
              98.875066965,
              2.749345282
            ],
            [
              98.87527379,
              2.749335714
            ],
            [
              98.875425196,
              2.749283583
            ],
            [
              98.875578389,
              2.749200291
            ],
            [
              98.875766751,
              2.7491146
            ],
            [
              98.875900864,
              2.749066665
            ],
            [
              98.875970011,
              2.749024113
            ],
            [
              98.876175649,
              2.74899836
            ],
            [
              98.876458778,
              2.748979211
            ],
            [
              98.876571773,
              2.748978878
            ],
            [
              98.87758333,
              2.749777779
            ],
            [
              98.877624341,
              2.749805658
            ],
            [
              98.878401771,
              2.750334175
            ],
            [
              98.881085996,
              2.752158976
            ],
            [
              98.881088475,
              2.752372655
            ],
            [
              98.881102678,
              2.752498095
            ],
            [
              98.881134248,
              2.752582247
            ],
            [
              98.881186342,
              2.752669583
            ],
            [
              98.881254236,
              2.752753736
            ],
            [
              98.881323863,
              2.752867275
            ],
            [
              98.88135843,
              2.752923642
            ],
            [
              98.881407364,
              2.753023672
            ],
            [
              98.881446833,
              2.753133235
            ],
            [
              98.881467342,
              2.753265017
            ],
            [
              98.88147839,
              2.753357109
            ],
            [
              98.881498904,
              2.753446025
            ],
            [
              98.881530475,
              2.753527008
            ],
            [
              98.881568366,
              2.753579404
            ],
            [
              98.881618889,
              2.753620692
            ],
            [
              98.881659941,
              2.753649275
            ],
            [
              98.881904981,
              2.753776502
            ],
            [
              98.881968674,
              2.753822882
            ],
            [
              98.882041148,
              2.753886945
            ],
            [
              98.882146564,
              2.754010637
            ],
            [
              98.882225627,
              2.754134328
            ],
            [
              98.882309066,
              2.754293356
            ],
            [
              98.882368361,
              2.754443545
            ],
            [
              98.882410081,
              2.754538524
            ],
            [
              98.882482549,
              2.754657789
            ],
            [
              98.882609929,
              2.754832285
            ],
            [
              98.882739497,
              2.755002366
            ],
            [
              98.882833927,
              2.755126057
            ],
            [
              98.88290201,
              2.755203363
            ],
            [
              98.883014022,
              2.75531602
            ],
            [
              98.883128219,
              2.755424251
            ],
            [
              98.883259997,
              2.755539107
            ],
            [
              98.883389572,
              2.755642926
            ],
            [
              98.883552094,
              2.755744542
            ],
            [
              98.883758545,
              2.755877075
            ],
            [
              98.883916679,
              2.755967652
            ],
            [
              98.884077004,
              2.75606705
            ],
            [
              98.884169245,
              2.756144366
            ],
            [
              98.884250508,
              2.75622388
            ],
            [
              98.884311995,
              2.7563034
            ],
            [
              98.884384475,
              2.756407204
            ],
            [
              98.884443759,
              2.756564024
            ],
            [
              98.88446571,
              2.756678879
            ],
            [
              98.884470077,
              2.756924038
            ],
            [
              98.884465669,
              2.757105141
            ],
            [
              98.884470047,
              2.757228824
            ],
            [
              98.88448102,
              2.757367969
            ],
            [
              98.884505165,
              2.757487239
            ],
            [
              98.884551282,
              2.757604294
            ],
            [
              98.884575435,
              2.757659511
            ],
            [
              98.884612774,
              2.757723569
            ],
            [
              98.884656693,
              2.757774373
            ],
            [
              98.884828001,
              2.757928995
            ],
            [
              98.88496417,
              2.758046059
            ],
            [
              98.885073016,
              2.758128168
            ],
            [
              98.88507837,
              2.758132207
            ],
            [
              98.885102938,
              2.758147567
            ],
            [
              98.885159635,
              2.758183014
            ],
            [
              98.885311174,
              2.758269167
            ],
            [
              98.88546272,
              2.758377403
            ],
            [
              98.885572529,
              2.758467966
            ],
            [
              98.885671364,
              2.758551905
            ],
            [
              98.885750423,
              2.758629211
            ],
            [
              98.885833882,
              2.758697686
            ],
            [
              98.885919535,
              2.758766164
            ],
            [
              98.886013973,
              2.758816971
            ],
            [
              98.886104022,
              2.75884348
            ],
            [
              98.886205059,
              2.758867789
            ],
            [
              98.886413717,
              2.758892101
            ],
            [
              98.886549895,
              2.758916404
            ],
            [
              98.886666296,
              2.75893851
            ],
            [
              98.886817848,
              2.758993737
            ],
            [
              98.88694523,
              2.759066634
            ],
            [
              98.887033082,
              2.759132905
            ],
            [
              98.887084222,
              2.75918837
            ],
            [
              98.887145092,
              2.759254389
            ],
            [
              98.887263673,
              2.759448759
            ],
            [
              98.88734932,
              2.759605572
            ],
            [
              98.887439355,
              2.759799938
            ],
            [
              98.887498651,
              2.75992142
            ],
            [
              98.887566733,
              2.760011979
            ],
            [
              98.887637012,
              2.760071624
            ],
            [
              98.887733644,
              2.760131262
            ],
            [
              98.887841263,
              2.760179864
            ],
            [
              98.887959867,
              2.760228466
            ],
            [
              98.888058704,
              2.76028369
            ],
            [
              98.888148751,
              2.760354375
            ],
            [
              98.888260752,
              2.760478069
            ],
            [
              98.888322248,
              2.76058188
            ],
            [
              98.888385926,
              2.760705569
            ],
            [
              98.88843863,
              2.760811587
            ],
            [
              98.888513304,
              2.760928646
            ],
            [
              98.888576986,
              2.761010374
            ],
            [
              98.88865386,
              2.761087679
            ],
            [
              98.888770255,
              2.761184875
            ],
            [
              98.888891051,
              2.761277644
            ],
            [
              98.889020628,
              2.761370417
            ],
            [
              98.889139228,
              2.761460981
            ],
            [
              98.889229271,
              2.761555964
            ],
            [
              98.889306927,
              2.76166074
            ],
            [
              98.889319312,
              2.76167745
            ],
            [
              98.889364607,
              2.761746464
            ],
            [
              98.88966667,
              2.762416667
            ],
            [
              98.890215071,
              2.76382685
            ],
            [
              98.890250001,
              2.763916667
            ],
            [
              98.889990772,
              2.764499927
            ],
            [
              98.88969444,
              2.765166667
            ],
            [
              98.88988889,
              2.765666667
            ],
            [
              98.89083333,
              2.765916668
            ],
            [
              98.89186111,
              2.765944444
            ],
            [
              98.892691329,
              2.766237462
            ],
            [
              98.892710281,
              2.766249193
            ],
            [
              98.892825745,
              2.766314513
            ],
            [
              98.892936396,
              2.766367738
            ],
            [
              98.893059078,
              2.766416133
            ],
            [
              98.893169739,
              2.76644275
            ],
            [
              98.893280394,
              2.766454857
            ],
            [
              98.893436755,
              2.766457287
            ],
            [
              98.893653263,
              2.766452465
            ],
            [
              98.893785576,
              2.766457317
            ],
            [
              98.893898631,
              2.766462168
            ],
            [
              98.89398163,
              2.76648072
            ],
            [
              98.894428053,
              2.767056481
            ],
            [
              98.895102821,
              2.767926744
            ],
            [
              98.896105291,
              2.769219649
            ],
            [
              98.896708554,
              2.769997691
            ],
            [
              98.89686111,
              2.770194444
            ],
            [
              98.89741667,
              2.770166667
            ],
            [
              98.89836111,
              2.769527778
            ],
            [
              98.89966667,
              2.769222223
            ],
            [
              98.90016667,
              2.769222223
            ],
            [
              98.900181247,
              2.76921965
            ],
            [
              98.90063889,
              2.76913889
            ],
            [
              98.9015,
              2.769166667
            ],
            [
              98.901658948,
              2.769219649
            ],
            [
              98.90275,
              2.769583334
            ],
            [
              98.90275,
              2.769611111
            ],
            [
              98.903000001,
              2.76975
            ],
            [
              98.90338889,
              2.769888889
            ],
            [
              98.90348328,
              2.770003505
            ],
            [
              98.90416667,
              2.770833333
            ],
            [
              98.90427778,
              2.771527778
            ],
            [
              98.90472222,
              2.771861111
            ],
            [
              98.906,
              2.7725
            ],
            [
              98.90591667,
              2.772611111
            ],
            [
              98.907117213,
              2.772057568
            ],
            [
              98.907961236,
              2.771668407
            ],
            [
              98.909265871,
              2.771066869
            ],
            [
              98.91055556,
              2.770472222
            ]
          ]
        ]
      }
    }
  ]
}