{
  "type": "FeatureCollection",
  "features": [
    {
      "type": "Feature",
      "properties": {
        "idx": "1428",
        "nama_kewilayahan": "Angge Buntu Dea Kaju"
      },
      "geometry": {
        "type": "Polygon",
        "coordinates": [
          [
            [
              119.899799572,
              -3.475767948
            ],
            [
              119.90025,
              -3.476138889
            ],
            [
              119.900722222,
              -3.476305556
            ],
            [
              119.901333333,
              -3.476777778
            ],
            [
              119.902305556,
              -3.476555555
            ],
            [
              119.902833333,
              -3.476583333
            ],
            [
              119.903273888,
              -3.476700814
            ],
            [
              119.903423994,
              -3.476740843
            ],
            [
              119.903666667,
              -3.476805555
            ],
            [
              119.904222222,
              -3.477194445
            ],
            [
              119.904722222,
              -3.477361111
            ],
            [
              119.905222222,
              -3.477472222
            ],
            [
              119.905805556,
              -3.477527778
            ],
            [
              119.905825191,
              -3.477555681
            ],
            [
              119.906064,
              -3.478301
            ],
            [
              119.90622,
              -3.478653
            ],
            [
              119.906599,
              -3.478967
            ],
            [
              119.907113,
              -3.479442
            ],
            [
              119.908221,
              -3.47991
            ],
            [
              119.908682,
              -3.480366
            ],
            [
              119.909298,
              -3.480458
            ],
            [
              119.909907,
              -3.481426
            ],
            [
              119.910581028,
              -3.482556544
            ],
            [
              119.910995,
              -3.483632
            ],
            [
              119.911417,
              -3.48357
            ],
            [
              119.911596,
              -3.483846
            ],
            [
              119.912131,
              -3.484132
            ],
            [
              119.912445,
              -3.484811
            ],
            [
              119.912522,
              -3.485421
            ],
            [
              119.912474612,
              -3.485552067
            ],
            [
              119.912333333,
              -3.486305556
            ],
            [
              119.912388889,
              -3.487138889
            ],
            [
              119.912222223,
              -3.488222222
            ],
            [
              119.912027778,
              -3.488916667
            ],
            [
              119.912555556,
              -3.489333333
            ],
            [
              119.913027778,
              -3.489361111
            ],
            [
              119.913333333,
              -3.489527778
            ],
            [
              119.913722222,
              -3.489611111
            ],
            [
              119.914166666,
              -3.489722223
            ],
            [
              119.91425,
              -3.490083333
            ],
            [
              119.914472222,
              -3.49025
            ],
            [
              119.915055556,
              -3.490666667
            ],
            [
              119.915431,
              -3.49081
            ],
            [
              119.915891,
              -3.49078
            ],
            [
              119.916153,
              -3.490507
            ],
            [
              119.916375,
              -3.490834
            ],
            [
              119.91646065,
              -3.49095278
            ],
            [
              119.916638889,
              -3.491166667
            ],
            [
              119.916555555,
              -3.491972222
            ],
            [
              119.917055556,
              -3.492583333
            ],
            [
              119.917041225,
              -3.492984595
            ],
            [
              119.917037235,
              -3.493096322
            ],
            [
              119.917027778,
              -3.493361111
            ],
            [
              119.916861111,
              -3.493944445
            ],
            [
              119.916472222,
              -3.494194445
            ],
            [
              119.916611111,
              -3.494805556
            ],
            [
              119.916972222,
              -3.495
            ],
            [
              119.916861111,
              -3.495416666
            ],
            [
              119.917027778,
              -3.496
            ],
            [
              119.916638889,
              -3.495972222
            ],
            [
              119.916638889,
              -3.496333333
            ],
            [
              119.916888889,
              -3.496833333
            ],
            [
              119.916638889,
              -3.497111111
            ],
            [
              119.916652831,
              -3.497177724
            ],
            [
              119.9166729,
              -3.497273607
            ],
            [
              119.91681902,
              -3.497971734
            ],
            [
              119.916888889,
              -3.498305556
            ],
            [
              119.916898707,
              -3.498313017
            ],
            [
              119.917308,
              -3.498848
            ],
            [
              119.9174,
              -3.499392
            ],
            [
              119.917134,
              -3.499816
            ],
            [
              119.917391,
              -3.500262
            ],
            [
              119.917919,
              -3.500381
            ],
            [
              119.918148,
              -3.500698
            ],
            [
              119.918343491,
              -3.50069451
            ],
            [
              119.918432514,
              -3.500689179
            ],
            [
              119.918416362,
              -3.500714564
            ],
            [
              119.918376,
              -3.500778
            ],
            [
              119.918379963,
              -3.50078201
            ],
            [
              119.918632,
              -3.501037
            ],
            [
              119.918591,
              -3.501251
            ],
            [
              119.918745,
              -3.501636
            ],
            [
              119.918527,
              -3.502061
            ],
            [
              119.91878,
              -3.502552
            ],
            [
              119.918853,
              -3.502728
            ],
            [
              119.919124,
              -3.502721
            ],
            [
              119.919617,
              -3.503044
            ],
            [
              119.919794,
              -3.503479
            ],
            [
              119.920046,
              -3.503945
            ],
            [
              119.92,
              -3.504581
            ],
            [
              119.919856,
              -3.504713
            ],
            [
              119.920482,
              -3.504853
            ],
            [
              119.920638,
              -3.505447
            ],
            [
              119.920839847,
              -3.505731717
            ],
            [
              119.920979,
              -3.505928
            ],
            [
              119.920929,
              -3.506315
            ],
            [
              119.92047,
              -3.506863
            ],
            [
              119.920677,
              -3.507333
            ],
            [
              119.920902,
              -3.508072
            ],
            [
              119.920688,
              -3.508507
            ],
            [
              119.92089,
              -3.508992
            ],
            [
              119.921179,
              -3.50949
            ],
            [
              119.921476,
              -3.509876
            ],
            [
              119.921307,
              -3.510241
            ],
            [
              119.921064,
              -3.510454
            ],
            [
              119.921091,
              -3.510541
            ],
            [
              119.921174,
              -3.510819
            ],
            [
              119.920951,
              -3.511161
            ],
            [
              119.920945,
              -3.511942
            ],
            [
              119.920516,
              -3.51229
            ],
            [
              119.920526,
              -3.512672
            ],
            [
              119.920679,
              -3.512833
            ],
            [
              119.920521,
              -3.513093
            ],
            [
              119.919963,
              -3.51372
            ],
            [
              119.919735,
              -3.514221
            ],
            [
              119.919286,
              -3.51479
            ],
            [
              119.918787,
              -3.514877
            ],
            [
              119.918413,
              -3.514808
            ],
            [
              119.917982,
              -3.514899
            ],
            [
              119.917274,
              -3.514916
            ],
            [
              119.9169,
              -3.514815
            ],
            [
              119.916109,
              -3.514791
            ],
            [
              119.915498,
              -3.514488
            ],
            [
              119.914625,
              -3.514392
            ],
            [
              119.914107,
              -3.514294
            ],
            [
              119.913664,
              -3.514359
            ],
            [
              119.91301,
              -3.514068
            ],
            [
              119.912395,
              -3.514258
            ],
            [
              119.912062,
              -3.514387
            ],
            [
              119.911528,
              -3.514261
            ],
            [
              119.911514,
              -3.514548
            ],
            [
              119.910968716,
              -3.514219517
            ],
            [
              119.910656,
              -3.514097
            ],
            [
              119.910216,
              -3.514401
            ],
            [
              119.909309,
              -3.514542
            ],
            [
              119.90847,
              -3.514788
            ],
            [
              119.907673,
              -3.514943
            ],
            [
              119.906934,
              -3.515174
            ],
            [
              119.906308,
              -3.515183
            ],
            [
              119.905404,
              -3.514877
            ],
            [
              119.904695,
              -3.514403
            ],
            [
              119.904134,
              -3.514252
            ],
            [
              119.903361,
              -3.514107
            ],
            [
              119.902733,
              -3.513907
            ],
            [
              119.901935,
              -3.514137
            ],
            [
              119.901434,
              -3.514204
            ],
            [
              119.900636,
              -3.514123
            ],
            [
              119.900074,
              -3.514307
            ],
            [
              119.899611,
              -3.514946
            ],
            [
              119.899587,
              -3.515249
            ],
            [
              119.899449,
              -3.515592
            ],
            [
              119.899324,
              -3.516092
            ],
            [
              119.899138,
              -3.516373
            ],
            [
              119.898709,
              -3.516613
            ],
            [
              119.89847,
              -3.51709
            ],
            [
              119.898093,
              -3.517571
            ],
            [
              119.897597,
              -3.517742
            ],
            [
              119.89759,
              -3.518451
            ],
            [
              119.896858,
              -3.519054
            ],
            [
              119.896137,
              -3.519165
            ],
            [
              119.895562,
              -3.519053
            ],
            [
              119.895186,
              -3.519582
            ],
            [
              119.89449,
              -3.51998
            ],
            [
              119.894055,
              -3.520381
            ],
            [
              119.893548,
              -3.520482
            ],
            [
              119.893111,
              -3.520562
            ],
            [
              119.892745,
              -3.520936
            ],
            [
              119.892389,
              -3.520977
            ],
            [
              119.891841,
              -3.521052
            ],
            [
              119.891447,
              -3.520912
            ],
            [
              119.890985,
              -3.520828
            ],
            [
              119.89095641,
              -3.520893632
            ],
            [
              119.890788736,
              -3.520793789
            ],
            [
              119.890626932,
              -3.520798547
            ],
            [
              119.8905032,
              -3.520817584
            ],
            [
              119.89036995,
              -3.52087469
            ],
            [
              119.890193871,
              -3.520950833
            ],
            [
              119.890055862,
              -3.521031735
            ],
            [
              119.88993213,
              -3.521107878
            ],
            [
              119.889789362,
              -3.52118878
            ],
            [
              119.889708461,
              -3.521269681
            ],
            [
              119.889575211,
              -3.521393413
            ],
            [
              119.889389613,
              -3.521488591
            ],
            [
              119.889242086,
              -3.521593288
            ],
            [
              119.889123113,
              -3.521674189
            ],
            [
              119.888994622,
              -3.521769367
            ],
            [
              119.88878523,
              -3.521864546
            ],
            [
              119.888594872,
              -3.521931171
            ],
            [
              119.888337891,
              -3.522016831
            ],
            [
              119.888123739,
              -3.522121528
            ],
            [
              119.887947659,
              -3.522183394
            ],
            [
              119.887709713,
              -3.52224526
            ],
            [
              119.887514597,
              -3.522316644
            ],
            [
              119.887338517,
              -3.522445134
            ],
            [
              119.887210027,
              -3.522559348
            ],
            [
              119.887005392,
              -3.522711634
            ],
            [
              119.887,
              -3.522609173
            ],
            [
              119.886995875,
              -3.522530795
            ],
            [
              119.887,
              -3.522512527
            ],
            [
              119.887009101,
              -3.522472222
            ],
            [
              119.887029187,
              -3.522383269
            ],
            [
              119.887095812,
              -3.522254778
            ],
            [
              119.887157678,
              -3.522135805
            ],
            [
              119.887219544,
              -3.522040626
            ],
            [
              119.88728141,
              -3.521888341
            ],
            [
              119.887305205,
              -3.521778886
            ],
            [
              119.887348035,
              -3.521659913
            ],
            [
              119.887371829,
              -3.521559975
            ],
            [
              119.887348035,
              -3.521426725
            ],
            [
              119.887286169,
              -3.521283957
            ],
            [
              119.887257616,
              -3.521112636
            ],
            [
              119.887210027,
              -3.520955592
            ],
            [
              119.887186232,
              -3.520846136
            ],
            [
              119.887162438,
              -3.520708128
            ],
            [
              119.887186232,
              -3.520546325
            ],
            [
              119.887185731,
              -3.520531305
            ],
            [
              119.887181473,
              -3.520403557
            ],
            [
              119.887119607,
              -3.520265548
            ],
            [
              119.887024428,
              -3.520160852
            ],
            [
              119.886905456,
              -3.520051397
            ],
            [
              119.886810277,
              -3.519922906
            ],
            [
              119.886762687,
              -3.519756344
            ],
            [
              119.886757929,
              -3.51959454
            ],
            [
              119.886762687,
              -3.51946129
            ],
            [
              119.886829313,
              -3.519313764
            ],
            [
              119.886876902,
              -3.519213826
            ],
            [
              119.886943527,
              -3.519128166
            ],
            [
              119.887048223,
              -3.519028228
            ],
            [
              119.887148161,
              -3.519009193
            ],
            [
              119.887248097,
              -3.518890219
            ],
            [
              119.887333758,
              -3.518837872
            ],
            [
              119.887314723,
              -3.518733175
            ],
            [
              119.887295687,
              -3.518637997
            ],
            [
              119.887300446,
              -3.5185333
            ],
            [
              119.887329,
              -3.518438122
            ],
            [
              119.88741466,
              -3.518352461
            ],
            [
              119.887528874,
              -3.518266801
            ],
            [
              119.887581222,
              -3.518214452
            ],
            [
              119.887657365,
              -3.518147828
            ],
            [
              119.88772399,
              -3.518038373
            ],
            [
              119.88776682,
              -3.517957471
            ],
            [
              119.887804892,
              -3.517857534
            ],
            [
              119.88781441,
              -3.517724284
            ],
            [
              119.88781441,
              -3.517629106
            ],
            [
              119.88781441,
              -3.517524409
            ],
            [
              119.887828687,
              -3.51743399
            ],
            [
              119.887847722,
              -3.517319775
            ],
            [
              119.887895311,
              -3.51721032
            ],
            [
              119.887914347,
              -3.517119901
            ],
            [
              119.887909588,
              -3.517010446
            ],
            [
              119.887876276,
              -3.516915267
            ],
            [
              119.887842963,
              -3.516820089
            ],
            [
              119.887790615,
              -3.516710634
            ],
            [
              119.887695437,
              -3.516620214
            ],
            [
              119.887695437,
              -3.516477446
            ],
            [
              119.887595499,
              -3.516382268
            ],
            [
              119.887476526,
              -3.516353715
            ],
            [
              119.887433696,
              -3.516268054
            ],
            [
              119.887443213,
              -3.516191911
            ],
            [
              119.887490802,
              -3.516115768
            ],
            [
              119.887619294,
              -3.516053902
            ],
            [
              119.887771579,
              -3.516011072
            ],
            [
              119.887928623,
              -3.515987278
            ],
            [
              119.888080909,
              -3.515973001
            ],
            [
              119.888176088,
              -3.515949206
            ],
            [
              119.888199882,
              -3.515834991
            ],
            [
              119.888218917,
              -3.515696983
            ],
            [
              119.888266507,
              -3.515582769
            ],
            [
              119.888314097,
              -3.515463796
            ],
            [
              119.888361686,
              -3.515411447
            ],
            [
              119.88838548,
              -3.515325787
            ],
            [
              119.888394998,
              -3.515244886
            ],
            [
              119.888475899,
              -3.515197297
            ],
            [
              119.888466382,
              -3.515111636
            ],
            [
              119.888456864,
              -3.515016457
            ],
            [
              119.88842831,
              -3.514902243
            ],
            [
              119.88838548,
              -3.514802306
            ],
            [
              119.888333132,
              -3.514688091
            ],
            [
              119.888318855,
              -3.514616707
            ],
            [
              119.888314097,
              -3.514497735
            ],
            [
              119.888318855,
              -3.514397797
            ],
            [
              119.888337891,
              -3.514293101
            ],
            [
              119.888356926,
              -3.514169369
            ],
            [
              119.888361686,
              -3.51407419
            ],
            [
              119.888399757,
              -3.513950459
            ],
            [
              119.888452105,
              -3.51385528
            ],
            [
              119.888433069,
              -3.513741066
            ],
            [
              119.888375962,
              -3.513641129
            ],
            [
              119.888271266,
              -3.513550709
            ],
            [
              119.888161811,
              -3.513469808
            ],
            [
              119.888052355,
              -3.513403183
            ],
            [
              119.888000007,
              -3.513317522
            ],
            [
              119.887971454,
              -3.513184272
            ],
            [
              119.887947659,
              -3.513070058
            ],
            [
              119.887847722,
              -3.512946326
            ],
            [
              119.887828687,
              -3.51284163
            ],
            [
              119.887800133,
              -3.51266555
            ],
            [
              119.88772399,
              -3.512556094
            ],
            [
              119.887643088,
              -3.512475193
            ],
            [
              119.887528874,
              -3.512394291
            ],
            [
              119.887462249,
              -3.51230863
            ],
            [
              119.887362312,
              -3.512175381
            ],
            [
              119.887290928,
              -3.512065926
            ],
            [
              119.887229062,
              -3.511913641
            ],
            [
              119.887233821,
              -3.51178039
            ],
            [
              119.887252857,
              -3.511651899
            ],
            [
              119.88728141,
              -3.511547203
            ],
            [
              119.887276651,
              -3.511375882
            ],
            [
              119.887229062,
              -3.511214078
            ],
            [
              119.887243339,
              -3.511042758
            ],
            [
              119.887186232,
              -3.510904748
            ],
            [
              119.887148161,
              -3.510781016
            ],
            [
              119.887095812,
              -3.510657285
            ],
            [
              119.887014911,
              -3.510562106
            ],
            [
              119.886867384,
              -3.510433615
            ],
            [
              119.886738893,
              -3.510362232
            ],
            [
              119.886700822,
              -3.5102385
            ],
            [
              119.886700822,
              -3.510129044
            ],
            [
              119.886634197,
              -3.509995795
            ],
            [
              119.886643714,
              -3.509876822
            ],
            [
              119.886643714,
              -3.509672188
            ],
            [
              119.886686545,
              -3.509538938
            ],
            [
              119.886748411,
              -3.509386652
            ],
            [
              119.886757929,
              -3.509239126
            ],
            [
              119.886805518,
              -3.509124912
            ],
            [
              119.886876902,
              -3.509005938
            ],
            [
              119.886900696,
              -3.508829859
            ],
            [
              119.886943527,
              -3.508710886
            ],
            [
              119.886948285,
              -3.508544323
            ],
            [
              119.886938768,
              -3.50842535
            ],
            [
              119.886938768,
              -3.508339689
            ],
            [
              119.886938768,
              -3.508211198
            ],
            [
              119.886967322,
              -3.508063672
            ],
            [
              119.887000634,
              -3.507982771
            ],
            [
              119.887005392,
              -3.507878074
            ],
            [
              119.886943527,
              -3.507697235
            ],
            [
              119.886919733,
              -3.507521155
            ],
            [
              119.886900696,
              -3.507330798
            ],
            [
              119.886886419,
              -3.507159477
            ],
            [
              119.886886419,
              -3.507030986
            ],
            [
              119.886881661,
              -3.506864424
            ],
            [
              119.886857866,
              -3.506716897
            ],
            [
              119.886829313,
              -3.506564611
            ],
            [
              119.886791241,
              -3.506436121
            ],
            [
              119.886767447,
              -3.506279077
            ],
            [
              119.886767447,
              -3.506102997
            ],
            [
              119.886753722,
              -3.505964511
            ],
            [
              119.886713747,
              -3.505827455
            ],
            [
              119.886685193,
              -3.505684687
            ],
            [
              119.886633797,
              -3.505484812
            ],
            [
              119.886639508,
              -3.505307781
            ],
            [
              119.88665664,
              -3.505130748
            ],
            [
              119.886668061,
              -3.504970849
            ],
            [
              119.886696614,
              -3.504839502
            ],
            [
              119.886713747,
              -3.504702445
            ],
            [
              119.886730879,
              -3.504542546
            ],
            [
              119.886719458,
              -3.50441691
            ],
            [
              119.886702326,
              -3.504296985
            ],
            [
              119.886662351,
              -3.504199904
            ],
            [
              119.886548136,
              -3.504068557
            ],
            [
              119.886485319,
              -3.503963861
            ],
            [
              119.88641679,
              -3.503887718
            ],
            [
              119.886359683,
              -3.503758275
            ],
            [
              119.886344454,
              -3.503640254
            ],
            [
              119.886382526,
              -3.503567919
            ],
            [
              119.886424404,
              -3.503438476
            ],
            [
              119.886458669,
              -3.503350912
            ],
            [
              119.886492933,
              -3.503272485
            ],
            [
              119.886531005,
              -3.503059285
            ],
            [
              119.886553847,
              -3.502785171
            ],
            [
              119.886584304,
              -3.5025872
            ],
            [
              119.886647122,
              -3.502366386
            ],
            [
              119.886494837,
              -3.502147475
            ],
            [
              119.886399658,
              -3.501909529
            ],
            [
              119.88630448,
              -3.501623994
            ],
            [
              119.886361587,
              -3.501338458
            ],
            [
              119.886418694,
              -3.501138584
            ],
            [
              119.886532908,
              -3.50089112
            ],
            [
              119.886666158,
              -3.500662692
            ],
            [
              119.886724602,
              -3.500461384
            ],
            [
              119.886751819,
              -3.500367639
            ],
            [
              119.88692314,
              -3.499872711
            ],
            [
              119.887027836,
              -3.499596694
            ],
            [
              119.887075425,
              -3.499330194
            ],
            [
              119.887103979,
              -3.498997069
            ],
            [
              119.887122761,
              -3.49869694
            ],
            [
              119.887122761,
              -3.498068762
            ],
            [
              119.887122761,
              -3.497469138
            ],
            [
              119.887122761,
              -3.496926621
            ],
            [
              119.887065653,
              -3.496412657
            ],
            [
              119.887094207,
              -3.495755926
            ],
            [
              119.887236974,
              -3.495213409
            ],
            [
              119.887351189,
              -3.494670892
            ],
            [
              119.887351189,
              -3.494099822
            ],
            [
              119.887379742,
              -3.493528751
            ],
            [
              119.88743685,
              -3.492986233
            ],
            [
              119.88743685,
              -3.492500823
            ],
            [
              119.88743685,
              -3.49198686
            ],
            [
              119.887408296,
              -3.491530004
            ],
            [
              119.887408296,
              -3.49101604
            ],
            [
              119.887408296,
              -3.490587737
            ],
            [
              119.887351189,
              -3.49013088
            ],
            [
              119.887351189,
              -3.489588363
            ],
            [
              119.887379742,
              -3.489274274
            ],
            [
              119.88744256,
              -3.488769448
            ],
            [
              119.887594845,
              -3.488297363
            ],
            [
              119.887777588,
              -3.487825278
            ],
            [
              119.887929874,
              -3.487414107
            ],
            [
              119.88838673,
              -3.487094308
            ],
            [
              119.888721758,
              -3.486728822
            ],
            [
              119.8890111,
              -3.48643948
            ],
            [
              119.889193843,
              -3.486104452
            ],
            [
              119.889410596,
              -3.485804957
            ],
            [
              119.889501968,
              -3.485629828
            ],
            [
              119.88952481,
              -3.485469929
            ],
            [
              119.889479124,
              -3.485249114
            ],
            [
              119.889364911,
              -3.485043529
            ],
            [
              119.88927354,
              -3.484929315
            ],
            [
              119.889113639,
              -3.484678044
            ],
            [
              119.889067954,
              -3.48435063
            ],
            [
              119.889037496,
              -3.484030831
            ],
            [
              119.888984197,
              -3.483924231
            ],
            [
              119.88895374,
              -3.483634888
            ],
            [
              119.888908054,
              -3.48345976
            ],
            [
              119.888892825,
              -3.483322703
            ],
            [
              119.888854754,
              -3.483147575
            ],
            [
              119.888885211,
              -3.482972446
            ],
            [
              119.888892825,
              -3.482789703
            ],
            [
              119.888892825,
              -3.482645032
            ],
            [
              119.888923283,
              -3.482492747
            ],
            [
              119.888933581,
              -3.482286248
            ],
            [
              119.888956423,
              -3.482065434
            ],
            [
              119.888971653,
              -3.481848426
            ],
            [
              119.888994495,
              -3.481635227
            ],
            [
              119.889013531,
              -3.481444871
            ],
            [
              119.888948809,
              -3.481231671
            ],
            [
              119.88897546,
              -3.480991821
            ],
            [
              119.889063024,
              -3.480812886
            ],
            [
              119.889142974,
              -3.4806073
            ],
            [
              119.889184852,
              -3.480451208
            ],
            [
              119.889203888,
              -3.480336993
            ],
            [
              119.889245766,
              -3.480158058
            ],
            [
              119.889283838,
              -3.480001965
            ],
            [
              119.889344752,
              -3.479864909
            ],
            [
              119.889478002,
              -3.479693587
            ],
            [
              119.889622672,
              -3.479606023
            ],
            [
              119.889828258,
              -3.479579373
            ],
            [
              119.890009,
              -3.479513
            ],
            [
              119.89048,
              -3.478978
            ],
            [
              119.891017,
              -3.478098
            ],
            [
              119.891626,
              -3.477598
            ],
            [
              119.892353,
              -3.477899
            ],
            [
              119.892832,
              -3.47762
            ],
            [
              119.893064,
              -3.476796
            ],
            [
              119.893502,
              -3.476772
            ],
            [
              119.893908,
              -3.476727
            ],
            [
              119.893962,
              -3.476711
            ],
            [
              119.894248,
              -3.476623
            ],
            [
              119.894667,
              -3.476697
            ],
            [
              119.895338,
              -3.476459
            ],
            [
              119.895753,
              -3.47606
            ],
            [
              119.896208,
              -3.475833
            ],
            [
              119.896615,
              -3.476391
            ],
            [
              119.896773,
              -3.475976
            ],
            [
              119.897003,
              -3.475721
            ],
            [
              119.897462,
              -3.475857
            ],
            [
              119.897702,
              -3.475783
            ],
            [
              119.89772,
              -3.47575
            ],
            [
              119.898306,
              -3.47574
            ],
            [
              119.89883,
              -3.475479
            ],
            [
              119.899802,
              -3.475765
            ],
            [
              119.899799572,
              -3.475767948
            ]
          ]
        ]
      }
    }
  ]
}