{
  "type": "FeatureCollection",
  "features": [
    {
      "type": "Feature",
      "properties": {
        "idx": "1437",
        "nama_kewilayahan": "Keturunan Op. Bolus Simanjuntak dan Op. Ronggur Simanjuntak"
      },
      "geometry": {
        "type": "Polygon",
        "coordinates": [
          [
            [
              99.2026654,
              2.167456532
            ],
            [
              99.202462618,
              2.1674988
            ],
            [
              99.199755375,
              2.168063107
            ],
            [
              99.199739551,
              2.16802484
            ],
            [
              99.194446372,
              2.169204202
            ],
            [
              99.193679107,
              2.169434947
            ],
            [
              99.192364025,
              2.170086315
            ],
            [
              99.192307753,
              2.170119707
            ],
            [
              99.188168898,
              2.171678739
            ],
            [
              99.188182347,
              2.17146722
            ],
            [
              99.187435696,
              2.171374906
            ],
            [
              99.187128337,
              2.171091367
            ],
            [
              99.18290995,
              2.16982325
            ],
            [
              99.178386493,
              2.173907473
            ],
            [
              99.178255678,
              2.173975973
            ],
            [
              99.17823631,
              2.17392423
            ],
            [
              99.177986477,
              2.174043122
            ],
            [
              99.173762938,
              2.173930786
            ],
            [
              99.173114289,
              2.173913532
            ],
            [
              99.172872135,
              2.173907091
            ],
            [
              99.170142276,
              2.173834475
            ],
            [
              99.166780037,
              2.173745031
            ],
            [
              99.158645239,
              2.167439417
            ],
            [
              99.157775723,
              2.159491508
            ],
            [
              99.157749324,
              2.159250207
            ],
            [
              99.157502148,
              2.156990843
            ],
            [
              99.157483964,
              2.15682463
            ],
            [
              99.15737076,
              2.155789859
            ],
            [
              99.15758673,
              2.155860431
            ],
            [
              99.157745103,
              2.155881426
            ],
            [
              99.158734257,
              2.155732054
            ],
            [
              99.159522568,
              2.155365928
            ],
            [
              99.159566059,
              2.155325568
            ],
            [
              99.15969241,
              2.155287046
            ],
            [
              99.159850359,
              2.155213688
            ],
            [
              99.162254232,
              2.15374506
            ],
            [
              99.164743875,
              2.151499046
            ],
            [
              99.164142704,
              2.149944364
            ],
            [
              99.166031604,
              2.150203283
            ],
            [
              99.166309135,
              2.148806485
            ],
            [
              99.166318299,
              2.148760358
            ],
            [
              99.16646066,
              2.148043866
            ],
            [
              99.167404972,
              2.146920889
            ],
            [
              99.168692837,
              2.146920747
            ],
            [
              99.17015236,
              2.146402335
            ],
            [
              99.168262418,
              2.136555816
            ],
            [
              99.170604722,
              2.133570327
            ],
            [
              99.170789249,
              2.133335129
            ],
            [
              99.170837768,
              2.133273287
            ],
            [
              99.170851695,
              2.133234488
            ],
            [
              99.171031106,
              2.133012013
            ],
            [
              99.171092981,
              2.133009067
            ],
            [
              99.172985331,
              2.133849538
            ],
            [
              99.173585871,
              2.134457781
            ],
            [
              99.173627742,
              2.134500189
            ],
            [
              99.17626501,
              2.137171283
            ],
            [
              99.176247027,
              2.137194086
            ],
            [
              99.176656739,
              2.137614204
            ],
            [
              99.177377316,
              2.138353082
            ],
            [
              99.177442039,
              2.138419448
            ],
            [
              99.177527853,
              2.138424277
            ],
            [
              99.183007444,
              2.138732584
            ],
            [
              99.183122656,
              2.138739066
            ],
            [
              99.186076195,
              2.138905249
            ],
            [
              99.186706825,
              2.138940731
            ],
            [
              99.188547122,
              2.139044272
            ],
            [
              99.188590134,
              2.139046692
            ],
            [
              99.189150462,
              2.139078219
            ],
            [
              99.189526225,
              2.13909936
            ],
            [
              99.190327995,
              2.139144468
            ],
            [
              99.192002532,
              2.139468061
            ],
            [
              99.193639641,
              2.13978442
            ],
            [
              99.195079436,
              2.140062648
            ],
            [
              99.196577827,
              2.140352197
            ],
            [
              99.198624077,
              2.140747612
            ],
            [
              99.199614074,
              2.140661332
            ],
            [
              99.201322739,
              2.140512416
            ],
            [
              99.201582644,
              2.140489764
            ],
            [
              99.20175657,
              2.140474606
            ],
            [
              99.201764146,
              2.140502815
            ],
            [
              99.201770133,
              2.140525105
            ],
            [
              99.201795992,
              2.140621389
            ],
            [
              99.201918895,
              2.140611347
            ],
            [
              99.202262516,
              2.142079671
            ],
            [
              99.203003983,
              2.143011836
            ],
            [
              99.203878006,
              2.143979395
            ],
            [
              99.206727212,
              2.145586677
            ],
            [
              99.207862215,
              2.144713175
            ],
            [
              99.208436509,
              2.144271194
            ],
            [
              99.209355856,
              2.143563658
            ],
            [
              99.209579481,
              2.143391555
            ],
            [
              99.210408518,
              2.142753522
            ],
            [
              99.210653342,
              2.142565104
            ],
            [
              99.213491585,
              2.142588558
            ],
            [
              99.213705119,
              2.142590322
            ],
            [
              99.21625286,
              2.14261137
            ],
            [
              99.216562065,
              2.142602178
            ],
            [
              99.217635626,
              2.14210016
            ],
            [
              99.217783782,
              2.142030879
            ],
            [
              99.219835918,
              2.14107126
            ],
            [
              99.221922428,
              2.14051902
            ],
            [
              99.222020049,
              2.140439494
            ],
            [
              99.222503955,
              2.140002267
            ],
            [
              99.222567102,
              2.139945212
            ],
            [
              99.223047536,
              2.139511121
            ],
            [
              99.223257672,
              2.139431271
            ],
            [
              99.223297135,
              2.139399123
            ],
            [
              99.223559208,
              2.139316689
            ],
            [
              99.228025545,
              2.137619507
            ],
            [
              99.230862812,
              2.135645559
            ],
            [
              99.232402639,
              2.135036688
            ],
            [
              99.233738689,
              2.134973605
            ],
            [
              99.235808563,
              2.134356326
            ],
            [
              99.238507501,
              2.134008646
            ],
            [
              99.240670933,
              2.134116762
            ],
            [
              99.240296064,
              2.134645946
            ],
            [
              99.237827731,
              2.137709555
            ],
            [
              99.237720857,
              2.137842203
            ],
            [
              99.237377735,
              2.139828869
            ],
            [
              99.236004501,
              2.142938563
            ],
            [
              99.234545272,
              2.145184524
            ],
            [
              99.2348032,
              2.147516595
            ],
            [
              99.233944863,
              2.149071468
            ],
            [
              99.232914626,
              2.149417124
            ],
            [
              99.230854189,
              2.150367558
            ],
            [
              99.228021096,
              2.151749978
            ],
            [
              99.225789255,
              2.154859794
            ],
            [
              99.222956136,
              2.156155832
            ],
            [
              99.222011937,
              2.157797086
            ],
            [
              99.220466692,
              2.159179305
            ],
            [
              99.217891257,
              2.161339042
            ],
            [
              99.217319323,
              2.162528583
            ],
            [
              99.217028136,
              2.163134207
            ],
            [
              99.216395207,
              2.163876036
            ],
            [
              99.21616177,
              2.164149638
            ],
            [
              99.215753295,
              2.164272369
            ],
            [
              99.21085149,
              2.165745145
            ],
            [
              99.207600869,
              2.165823457
            ],
            [
              99.208290021,
              2.1662841
            ],
            [
              99.2026654,
              2.167456532
            ]
          ]
        ]
      }
    }
  ]
}