{
  "type": "FeatureCollection",
  "features": [
    {
      "type": "Feature",
      "properties": {
        "idx": "1471",
        "nama_kewilayahan": "Mukim Beungga"
      },
      "geometry": {
        "type": "Polygon",
        "coordinates": [
          [
            [
              95.80301104,
              5.258498026
            ],
            [
              95.803261997,
              5.258139966
            ],
            [
              95.803513025,
              5.257781005
            ],
            [
              95.803657035,
              5.257602042
            ],
            [
              95.803784975,
              5.257401164
            ],
            [
              95.803908032,
              5.257208005
            ],
            [
              95.804109734,
              5.256938629
            ],
            [
              95.804230001,
              5.256778018
            ],
            [
              95.804230022,
              5.256777986
            ],
            [
              95.804768008,
              5.25577404
            ],
            [
              95.805163024,
              5.254950008
            ],
            [
              95.805378025,
              5.254590963
            ],
            [
              95.805522018,
              5.254269037
            ],
            [
              95.805808994,
              5.253622991
            ],
            [
              95.806207028,
              5.252482013
            ],
            [
              95.806492962,
              5.251585007
            ],
            [
              95.806780033,
              5.251227053
            ],
            [
              95.806939773,
              5.251009981
            ],
            [
              95.807281945,
              5.250544994
            ],
            [
              95.807281978,
              5.250544976
            ],
            [
              95.808392983,
              5.249936978
            ],
            [
              95.808973673,
              5.249443818
            ],
            [
              95.809109984,
              5.249328035
            ],
            [
              95.809468033,
              5.248933955
            ],
            [
              95.810399997,
              5.248182038
            ],
            [
              95.811153027,
              5.247537004
            ],
            [
              95.811153061,
              5.247536975
            ],
            [
              95.811618971,
              5.247214988
            ],
            [
              95.812515025,
              5.24610402
            ],
            [
              95.813626016,
              5.244992994
            ],
            [
              95.813911985,
              5.244670009
            ],
            [
              95.814046107,
              5.244519027
            ],
            [
              95.814198989,
              5.244346927
            ],
            [
              95.814556953,
              5.244168973
            ],
            [
              95.814758951,
              5.243783485
            ],
            [
              95.814762109,
              5.243777457
            ],
            [
              95.814951994,
              5.243415019
            ],
            [
              95.815058965,
              5.24327197
            ],
            [
              95.816130679,
              5.242063097
            ],
            [
              95.816457022,
              5.241694975
            ],
            [
              95.816994994,
              5.241301013
            ],
            [
              95.817547803,
              5.240435608
            ],
            [
              95.817568006,
              5.240403991
            ],
            [
              95.817926975,
              5.23997396
            ],
            [
              95.818284971,
              5.238897034
            ],
            [
              95.818427969,
              5.238682016
            ],
            [
              95.81914499,
              5.236779956
            ],
            [
              95.819502986,
              5.236026978
            ],
            [
              95.819790021,
              5.235596037
            ],
            [
              95.819897971,
              5.234949966
            ],
            [
              95.820005014,
              5.23473503
            ],
            [
              95.82011299,
              5.234303992
            ],
            [
              95.820149021,
              5.233908987
            ],
            [
              95.82022001,
              5.232976001
            ],
            [
              95.820219983,
              5.23243703
            ],
            [
              95.82032638,
              5.231921872
            ],
            [
              95.82043498,
              5.231396043
            ],
            [
              95.820650027,
              5.230714035
            ],
            [
              95.820794011,
              5.230319031
            ],
            [
              95.821008971,
              5.22931399
            ],
            [
              95.821152018,
              5.228883028
            ],
            [
              95.821653977,
              5.227735033
            ],
            [
              95.822119968,
              5.226909983
            ],
            [
              95.822298968,
              5.226479032
            ],
            [
              95.822405981,
              5.226120953
            ],
            [
              95.822585033,
              5.225798015
            ],
            [
              95.823015982,
              5.224865047
            ],
            [
              95.823337969,
              5.224146994
            ],
            [
              95.823768001,
              5.223394003
            ],
            [
              95.82405499,
              5.222999994
            ],
            [
              95.824350033,
              5.222340957
            ],
            [
              95.824521027,
              5.221959009
            ],
            [
              95.824915014,
              5.221385006
            ],
            [
              95.825057985,
              5.221026025
            ],
            [
              95.825704006,
              5.219519039
            ],
            [
              95.825990014,
              5.218801982
            ],
            [
              95.826204981,
              5.218443003
            ],
            [
              95.826492032,
              5.217977015
            ],
            [
              95.826779029,
              5.217653981
            ],
            [
              95.827602994,
              5.216793972
            ],
            [
              95.828176988,
              5.21589702
            ],
            [
              95.828391991,
              5.215647038
            ],
            [
              95.828713967,
              5.215252024
            ],
            [
              95.828892993,
              5.215037
            ],
            [
              95.829215972,
              5.214679017
            ],
            [
              95.830112026,
              5.213961961
            ],
            [
              95.830469965,
              5.213639999
            ],
            [
              95.830899992,
              5.213210035
            ],
            [
              95.831187001,
              5.212958979
            ],
            [
              95.831402022,
              5.212779982
            ],
            [
              95.832297978,
              5.211992023
            ],
            [
              95.833014972,
              5.211347029
            ],
            [
              95.833444984,
              5.211024978
            ],
            [
              95.833731982,
              5.210774011
            ],
            [
              95.833911012,
              5.210631048
            ],
            [
              95.834412964,
              5.210272963
            ],
            [
              95.834555992,
              5.210092971
            ],
            [
              95.834985978,
              5.209626964
            ],
            [
              95.835415988,
              5.209305002
            ],
            [
              95.835989988,
              5.208623968
            ],
            [
              95.836420008,
              5.207943022
            ],
            [
              95.836743004,
              5.207476024
            ],
            [
              95.837208007,
              5.206974974
            ],
            [
              95.837746031,
              5.205969987
            ],
            [
              95.837925002,
              5.205288041
            ],
            [
              95.838212024,
              5.204749971
            ],
            [
              95.838354986,
              5.20421198
            ],
            [
              95.838713969,
              5.203530046
            ],
            [
              95.838999981,
              5.202956019
            ],
            [
              95.839287038,
              5.202632969
            ],
            [
              95.839645995,
              5.202239024
            ],
            [
              95.839861002,
              5.20198796
            ],
            [
              95.840219022,
              5.201557979
            ],
            [
              95.84021897,
              5.201449968
            ],
            [
              95.841223011,
              5.199944011
            ],
            [
              95.841544996,
              5.19951402
            ],
            [
              95.842011015,
              5.198939994
            ],
            [
              95.84251302,
              5.197899953
            ],
            [
              95.842727992,
              5.197505016
            ],
            [
              95.843015039,
              5.196572003
            ],
            [
              95.843336981,
              5.195925992
            ],
            [
              95.843588025,
              5.195567993
            ],
            [
              95.843659969,
              5.195279986
            ],
            [
              95.843802987,
              5.194921985
            ],
            [
              95.843875011,
              5.194705964
            ],
            [
              95.844304984,
              5.193702048
            ],
            [
              95.844448018,
              5.193235033
            ],
            [
              95.84473504,
              5.192769024
            ],
            [
              95.845056988,
              5.192194983
            ],
            [
              95.845237006,
              5.191835993
            ],
            [
              95.845881994,
              5.191442027
            ],
            [
              95.846848986,
              5.191372989
            ],
            [
              95.847769916,
              5.191237884
            ],
            [
              95.84781701,
              5.191230974
            ],
            [
              95.848176028,
              5.191196014
            ],
            [
              95.84842703,
              5.191160962
            ],
            [
              95.848785001,
              5.191125996
            ],
            [
              95.849215035,
              5.191199031
            ],
            [
              95.849681023,
              5.19127099
            ],
            [
              95.850146969,
              5.191487989
            ],
            [
              95.851258023,
              5.192137012
            ],
            [
              95.851473023,
              5.192245008
            ],
            [
              95.852477019,
              5.192894033
            ],
            [
              95.853337,
              5.193146959
            ],
            [
              95.853874994,
              5.193291975
            ],
            [
              95.854125963,
              5.193472046
            ],
            [
              95.854842002,
              5.193582002
            ],
            [
              95.855845984,
              5.194086975
            ],
            [
              95.856384014,
              5.194195955
            ],
            [
              95.856814026,
              5.194304041
            ],
            [
              95.857351028,
              5.194484991
            ],
            [
              95.857746035,
              5.194701001
            ],
            [
              95.857925036,
              5.19484603
            ],
            [
              95.858391016,
              5.195026
            ],
            [
              95.858533963,
              5.19520598
            ],
            [
              95.858820975,
              5.195385956
            ],
            [
              95.859107999,
              5.195530983
            ],
            [
              95.859322974,
              5.195675027
            ],
            [
              95.859465976,
              5.195783028
            ],
            [
              95.859753014,
              5.195926972
            ],
            [
              95.860110984,
              5.196000008
            ],
            [
              95.86082801,
              5.196000966
            ],
            [
              95.861831982,
              5.195895963
            ],
            [
              95.862298019,
              5.195825033
            ],
            [
              95.863049968,
              5.195646975
            ],
            [
              95.863480028,
              5.19532498
            ],
            [
              95.863909967,
              5.195073976
            ],
            [
              95.864841979,
              5.194646011
            ],
            [
              95.865630962,
              5.194144
            ],
            [
              95.866097033,
              5.193858036
            ],
            [
              95.866454991,
              5.193571985
            ],
            [
              95.866777986,
              5.193357012
            ],
            [
              95.867530034,
              5.192675997
            ],
            [
              95.86857001,
              5.191960007
            ],
            [
              95.869072001,
              5.191709976
            ],
            [
              95.86942998,
              5.191495005
            ],
            [
              95.86978799,
              5.191244987
            ],
            [
              95.870003986,
              5.191136954
            ],
            [
              95.871616005,
              5.19017101
            ],
            [
              95.872476988,
              5.189742034
            ],
            [
              95.873014031,
              5.189420021
            ],
            [
              95.87355203,
              5.18920602
            ],
            [
              95.874054016,
              5.188955986
            ],
            [
              95.874411984,
              5.188849024
            ],
            [
              95.875558974,
              5.188276963
            ],
            [
              95.876347013,
              5.187451957
            ],
            [
              95.877601994,
              5.186808983
            ],
            [
              95.877996005,
              5.186594
            ],
            [
              95.87849801,
              5.186236031
            ],
            [
              95.880038989,
              5.185269968
            ],
            [
              95.880827987,
              5.184625041
            ],
            [
              95.882368967,
              5.183264018
            ],
            [
              95.883049965,
              5.182689995
            ],
            [
              95.883407988,
              5.182404023
            ],
            [
              95.883897572,
              5.181996425
            ],
            [
              95.884052996,
              5.181867027
            ],
            [
              95.884770002,
              5.181113995
            ],
            [
              95.885129001,
              5.180827025
            ],
            [
              95.885450986,
              5.180648972
            ],
            [
              95.886777013,
              5.179286962
            ],
            [
              95.887566009,
              5.178533998
            ],
            [
              95.887995978,
              5.178211973
            ],
            [
              95.888425992,
              5.177925988
            ],
            [
              95.889285976,
              5.176922019
            ],
            [
              95.889680019,
              5.176563964
            ],
            [
              95.890289986,
              5.175774982
            ],
            [
              95.891114013,
              5.175057955
            ],
            [
              95.89157996,
              5.174699977
            ],
            [
              95.892081992,
              5.174378029
            ],
            [
              95.892655033,
              5.17398399
            ],
            [
              95.892941972,
              5.17377
            ],
            [
              95.893443981,
              5.173483
            ],
            [
              95.894626037,
              5.172659971
            ],
            [
              95.895272005,
              5.17219404
            ],
            [
              95.896023975,
              5.17176502
            ],
            [
              95.896884965,
              5.171586985
            ],
            [
              95.897086963,
              5.17152031
            ],
            [
              95.897315012,
              5.171445037
            ],
            [
              95.89795999,
              5.171122966
            ],
            [
              95.898892021,
              5.170729958
            ],
            [
              95.89950101,
              5.170228975
            ],
            [
              95.900324996,
              5.169655974
            ],
            [
              95.901400991,
              5.169190964
            ],
            [
              95.902046001,
              5.168905013
            ],
            [
              95.903300004,
              5.168334017
            ],
            [
              95.904016968,
              5.168012021
            ],
            [
              95.905773019,
              5.167082019
            ],
            [
              95.907063996,
              5.166438045
            ],
            [
              95.907709037,
              5.166117036
            ],
            [
              95.908497027,
              5.165687005
            ],
            [
              95.908819992,
              5.165472992
            ],
            [
              95.909285978,
              5.16515003
            ],
            [
              95.910396985,
              5.164542009
            ],
            [
              95.911471999,
              5.163970028
            ],
            [
              95.912081001,
              5.163648025
            ],
            [
              95.912368011,
              5.16343303
            ],
            [
              95.912523004,
              5.163184923
            ],
            [
              95.912523028,
              5.163184956
            ],
            [
              95.912725997,
              5.162859991
            ],
            [
              95.912726,
              5.16171
            ],
            [
              95.913012999,
              5.161063991
            ],
            [
              95.913155997,
              5.160130999
            ],
            [
              95.913156003,
              5.160130971
            ],
            [
              95.913327459,
              5.159602698
            ],
            [
              95.913587031,
              5.158802961
            ],
            [
              95.913873002,
              5.157906
            ],
            [
              95.913873018,
              5.157905965
            ],
            [
              95.914048,
              5.157619
            ],
            [
              95.914769,
              5.156434993
            ],
            [
              95.914824416,
              5.156355952
            ],
            [
              95.915019996,
              5.156077003
            ],
            [
              95.915271007,
              5.155682001
            ],
            [
              95.915737009,
              5.154892996
            ],
            [
              95.916203019,
              5.154319027
            ],
            [
              95.916415996,
              5.15407588
            ],
            [
              95.916705,
              5.153746
            ],
            [
              95.91694791,
              5.153328543
            ],
            [
              95.917206021,
              5.152885047
            ],
            [
              95.917565034,
              5.152419029
            ],
            [
              95.917728035,
              5.152228666
            ],
            [
              95.917779994,
              5.152167995
            ],
            [
              95.918062275,
              5.151738602
            ],
            [
              95.918676029,
              5.150805012
            ],
            [
              95.919343682,
              5.150198357
            ],
            [
              95.919343653,
              5.15019835
            ],
            [
              95.919464,
              5.150089
            ],
            [
              95.920038,
              5.149658999
            ],
            [
              95.920038031,
              5.149658973
            ],
            [
              95.92046801,
              5.149265005
            ],
            [
              95.921886425,
              5.147455865
            ],
            [
              95.921902,
              5.147436
            ],
            [
              95.921902024,
              5.147435974
            ],
            [
              95.922332,
              5.147005999
            ],
            [
              95.922367011,
              5.146791
            ],
            [
              95.923370992,
              5.145536001
            ],
            [
              95.923800995,
              5.145105999
            ],
            [
              95.924624976,
              5.144354016
            ],
            [
              95.924624997,
              5.144353997
            ],
            [
              95.925055994,
              5.143958963
            ],
            [
              95.925260863,
              5.14378844
            ],
            [
              95.925486,
              5.143601
            ],
            [
              95.925521005,
              5.143493997
            ],
            [
              95.92659697,
              5.142454024
            ],
            [
              95.926596995,
              5.142453996
            ],
            [
              95.927026981,
              5.141881029
            ],
            [
              95.927027002,
              5.141881001
            ],
            [
              95.927492999,
              5.141234999
            ],
            [
              95.927493018,
              5.141234977
            ],
            [
              95.928495972,
              5.140232035
            ],
            [
              95.928496,
              5.140232
            ],
            [
              95.929213011,
              5.139047993
            ],
            [
              95.929500002,
              5.138726026
            ],
            [
              95.929740258,
              5.138405242
            ],
            [
              95.9300051,
              5.138051632
            ],
            [
              95.930466963,
              5.137434962
            ],
            [
              95.931649994,
              5.136109
            ],
            [
              95.932152006,
              5.135751043
            ],
            [
              95.932184438,
              5.13570452
            ],
            [
              95.932815,
              5.134801
            ],
            [
              95.933215864,
              5.134225001
            ],
            [
              95.933227,
              5.134209
            ],
            [
              95.933620986,
              5.133599026
            ],
            [
              95.933621001,
              5.133598999
            ],
            [
              95.933872,
              5.133097
            ],
            [
              95.934875969,
              5.131950043
            ],
            [
              95.934876004,
              5.131950004
            ],
            [
              95.935537158,
              5.131288842
            ],
            [
              95.936166,
              5.130660001
            ],
            [
              95.936329847,
              5.130541623
            ],
            [
              95.936811,
              5.130194
            ],
            [
              95.937635997,
              5.128615998
            ],
            [
              95.937636015,
              5.128615965
            ],
            [
              95.937885992,
              5.128184991
            ],
            [
              95.938747004,
              5.126679002
            ],
            [
              95.938747025,
              5.126678965
            ],
            [
              95.9388509,
              5.126496812
            ],
            [
              95.939177,
              5.125924999
            ],
            [
              95.939246091,
              5.125786334
            ],
            [
              95.93932,
              5.125638001
            ],
            [
              95.939508415,
              5.125303169
            ],
            [
              95.939642988,
              5.125064002
            ],
            [
              95.939904561,
              5.124654998
            ],
            [
              95.940216,
              5.124168
            ],
            [
              95.940646006,
              5.123630006
            ],
            [
              95.940752287,
              5.12350035
            ],
            [
              95.940968985,
              5.123235957
            ],
            [
              95.9411961,
              5.1230089
            ],
            [
              95.941399,
              5.122806001
            ],
            [
              95.941686,
              5.122447
            ],
            [
              95.941793,
              5.122052
            ],
            [
              95.942187,
              5.121299
            ],
            [
              95.942546,
              5.120797
            ],
            [
              95.943404057,
              5.12017597
            ],
            [
              95.943585012,
              5.120045
            ],
            [
              95.943895061,
              5.119734939
            ],
            [
              95.944408986,
              5.119220971
            ],
            [
              95.946055865,
              5.118362601
            ],
            [
              95.946811,
              5.117969
            ],
            [
              95.947384004,
              5.117683011
            ],
            [
              95.947564,
              5.11754
            ],
            [
              95.94896101,
              5.116573004
            ],
            [
              95.949061228,
              5.116508424
            ],
            [
              95.950682,
              5.115464
            ],
            [
              95.950682539,
              5.115463697
            ],
            [
              95.95096343,
              5.115305849
            ],
            [
              95.951255004,
              5.115141964
            ],
            [
              95.951685001,
              5.114855002
            ],
            [
              95.951685031,
              5.114854981
            ],
            [
              95.952079995,
              5.114569006
            ],
            [
              95.954230006,
              5.11320899
            ],
            [
              95.954732,
              5.112815
            ],
            [
              95.954985676,
              5.112597707
            ],
            [
              95.955234,
              5.112385
            ],
            [
              95.955914997,
              5.111991996
            ],
            [
              95.955915022,
              5.111991978
            ],
            [
              95.956380003,
              5.111632993
            ],
            [
              95.957598999,
              5.111061997
            ],
            [
              95.957599028,
              5.11106198
            ],
            [
              95.957609609,
              5.111054031
            ],
            [
              95.957951362,
              5.110797286
            ],
            [
              95.958029003,
              5.110738958
            ],
            [
              95.95821892,
              5.110668193
            ],
            [
              95.958316003,
              5.110632004
            ],
            [
              95.959714,
              5.109594001
            ],
            [
              95.960609996,
              5.109092997
            ],
            [
              95.961254975,
              5.108879009
            ],
            [
              95.961254998,
              5.108878997
            ],
            [
              95.961898665,
              5.108401901
            ],
            [
              95.961940255,
              5.107768448
            ],
            [
              95.960273734,
              5.08954203
            ],
            [
              95.959402679,
              5.086734902
            ],
            [
              95.957867909,
              5.08475312
            ],
            [
              95.953530318,
              5.082918047
            ],
            [
              95.9471719,
              5.081245163
            ],
            [
              95.939880728,
              5.079958924
            ],
            [
              95.932131567,
              5.078617296
            ],
            [
              95.918203671,
              5.077399157
            ],
            [
              95.910972719,
              5.076800731
            ],
            [
              95.910361999,
              5.076707864
            ],
            [
              95.905414221,
              5.074894233
            ],
            [
              95.90336363,
              5.072685041
            ],
            [
              95.893510111,
              5.069917975
            ],
            [
              95.890498056,
              5.070218326
            ],
            [
              95.888400246,
              5.070246835
            ],
            [
              95.888051682,
              5.069062668
            ],
            [
              95.886101572,
              5.063697366
            ],
            [
              95.883349836,
              5.058182611
            ],
            [
              95.876125845,
              5.059151854
            ],
            [
              95.869321031,
              5.06004267
            ],
            [
              95.85527499,
              5.061942708
            ],
            [
              95.852722511,
              5.062680723
            ],
            [
              95.843637177,
              5.065493893
            ],
            [
              95.825486243,
              5.07109718
            ],
            [
              95.799018973,
              5.079348032
            ],
            [
              95.79927915,
              5.079390265
            ],
            [
              95.800269,
              5.079551019
            ],
            [
              95.801478001,
              5.07983802
            ],
            [
              95.806066982,
              5.082196992
            ],
            [
              95.807942999,
              5.082940992
            ],
            [
              95.808430568,
              5.083107171
            ],
            [
              95.809152025,
              5.083353004
            ],
            [
              95.809694017,
              5.083475037
            ],
            [
              95.81015202,
              5.083556966
            ],
            [
              95.811275101,
              5.083632651
            ],
            [
              95.812484029,
              5.08371401
            ],
            [
              95.814483027,
              5.083996986
            ],
            [
              95.816274991,
              5.084532007
            ],
            [
              95.818066995,
              5.08502501
            ],
            [
              95.819399985,
              5.085186034
            ],
            [
              95.820149028,
              5.085265956
            ],
            [
              95.820733001,
              5.085472985
            ],
            [
              95.820942001,
              5.085639017
            ],
            [
              95.821193013,
              5.085845968
            ],
            [
              95.821610998,
              5.086344976
            ],
            [
              95.821791537,
              5.086680878
            ],
            [
              95.821792286,
              5.086682229
            ],
            [
              95.821946979,
              5.086970004
            ],
            [
              95.822200028,
              5.087677966
            ],
            [
              95.822751391,
              5.089199022
            ],
            [
              95.823082918,
              5.090113422
            ],
            [
              95.823589989,
              5.091511991
            ],
            [
              95.825104991,
              5.09538701
            ],
            [
              95.825484965,
              5.09655396
            ],
            [
              95.826034017,
              5.098305019
            ],
            [
              95.826106948,
              5.098551232
            ],
            [
              95.826114264,
              5.098575952
            ],
            [
              95.826837016,
              5.101014984
            ],
            [
              95.827681012,
              5.103599011
            ],
            [
              95.828272998,
              5.105849984
            ],
            [
              95.828641961,
              5.106991859
            ],
            [
              95.828905991,
              5.10780898
            ],
            [
              95.828923364,
              5.10785633
            ],
            [
              95.829545987,
              5.109550408
            ],
            [
              95.82957998,
              5.109643035
            ],
            [
              95.830170018,
              5.11130997
            ],
            [
              95.830551968,
              5.112935997
            ],
            [
              95.830850994,
              5.114646042
            ],
            [
              95.831191964,
              5.116397005
            ],
            [
              95.831569033,
              5.117063026
            ],
            [
              95.831821984,
              5.117605019
            ],
            [
              95.831843158,
              5.117668044
            ],
            [
              95.831989966,
              5.11810502
            ],
            [
              95.832534745,
              5.11964712
            ],
            [
              95.832623009,
              5.119896964
            ],
            [
              95.833506012,
              5.122021958
            ],
            [
              95.833967975,
              5.122896008
            ],
            [
              95.834639033,
              5.124019998
            ],
            [
              95.835350968,
              5.125060966
            ],
            [
              95.835894979,
              5.125767973
            ],
            [
              95.83652403,
              5.126683014
            ],
            [
              95.837445987,
              5.128098033
            ],
            [
              95.838788021,
              5.130387998
            ],
            [
              95.839319415,
              5.131801314
            ],
            [
              95.840009999,
              5.133637963
            ],
            [
              95.840221981,
              5.134472008
            ],
            [
              95.84035099,
              5.135598031
            ],
            [
              95.840440023,
              5.136807974
            ],
            [
              95.840485966,
              5.13785198
            ],
            [
              95.840482608,
              5.137899421
            ],
            [
              95.840407993,
              5.138937007
            ],
            [
              95.840205,
              5.140064962
            ],
            [
              95.839920005,
              5.141485974
            ],
            [
              95.838934021,
              5.144494992
            ],
            [
              95.837943966,
              5.146670037
            ],
            [
              95.837077973,
              5.148468995
            ],
            [
              95.836335037,
              5.149932977
            ],
            [
              95.835634975,
              5.151563983
            ],
            [
              95.835060008,
              5.153319009
            ],
            [
              95.834909828,
              5.153822498
            ],
            [
              95.834772973,
              5.154281031
            ],
            [
              95.83461,
              5.155033007
            ],
            [
              95.834119001,
              5.157122002
            ],
            [
              95.833831728,
              5.158365156
            ],
            [
              95.833587983,
              5.159420036
            ],
            [
              95.83330302,
              5.16088198
            ],
            [
              95.832975997,
              5.162176988
            ],
            [
              95.832277004,
              5.164183982
            ],
            [
              95.832022193,
              5.164688123
            ],
            [
              95.831452016,
              5.165816009
            ],
            [
              95.830379964,
              5.168074007
            ],
            [
              95.829471032,
              5.169664041
            ],
            [
              95.828272016,
              5.171547978
            ],
            [
              95.827816992,
              5.172217969
            ],
            [
              95.827319979,
              5.172887969
            ],
            [
              95.826918442,
              5.173386531
            ],
            [
              95.826408999,
              5.174019007
            ],
            [
              95.826168636,
              5.174297148
            ],
            [
              95.825249992,
              5.175360014
            ],
            [
              95.824339969,
              5.176657993
            ],
            [
              95.823594999,
              5.177704998
            ],
            [
              95.823097977,
              5.178290985
            ],
            [
              95.822808,
              5.178710005
            ],
            [
              95.821442974,
              5.180553043
            ],
            [
              95.821301267,
              5.180689996
            ],
            [
              95.820488985,
              5.181474959
            ],
            [
              95.81949401,
              5.182355956
            ],
            [
              95.818292024,
              5.183530031
            ],
            [
              95.817006983,
              5.184912979
            ],
            [
              95.815556991,
              5.186505978
            ],
            [
              95.814686966,
              5.187345041
            ],
            [
              95.814189967,
              5.187973036
            ],
            [
              95.813236031,
              5.188895045
            ],
            [
              95.812572976,
              5.189483036
            ],
            [
              95.811868,
              5.190153967
            ],
            [
              95.810627029,
              5.191911989
            ],
            [
              95.809798013,
              5.192750961
            ],
            [
              95.808803002,
              5.193798996
            ],
            [
              95.807892002,
              5.194888032
            ],
            [
              95.807106001,
              5.195893038
            ],
            [
              95.806154967,
              5.197441993
            ],
            [
              95.806103182,
              5.197529402
            ],
            [
              95.805535023,
              5.198487997
            ],
            [
              95.804751012,
              5.200078037
            ],
            [
              95.804378964,
              5.200579998
            ],
            [
              95.804046976,
              5.200999028
            ],
            [
              95.803756984,
              5.201251011
            ],
            [
              95.802940765,
              5.201829206
            ],
            [
              95.801682023,
              5.202721044
            ],
            [
              95.80023,
              5.203855041
            ],
            [
              95.799441981,
              5.204525979
            ],
            [
              95.798903007,
              5.205112968
            ],
            [
              95.798323003,
              5.205782982
            ],
            [
              95.795960964,
              5.208172963
            ],
            [
              95.794479647,
              5.209595454
            ],
            [
              95.79430203,
              5.209765994
            ],
            [
              95.794053016,
              5.209975969
            ],
            [
              95.793763015,
              5.210228041
            ],
            [
              95.793514999,
              5.210563044
            ],
            [
              95.793121538,
              5.211083258
            ],
            [
              95.792494289,
              5.211912572
            ],
            [
              95.792437986,
              5.211986993
            ],
            [
              95.791487013,
              5.213410021
            ],
            [
              95.790743991,
              5.214749014
            ],
            [
              95.790205994,
              5.215627981
            ],
            [
              95.789627012,
              5.216466028
            ],
            [
              95.789213025,
              5.217052014
            ],
            [
              95.788966004,
              5.217512043
            ],
            [
              95.788197311,
              5.219384254
            ],
            [
              95.788142016,
              5.219519016
            ],
            [
              95.787523985,
              5.221107974
            ],
            [
              95.787030003,
              5.222446045
            ],
            [
              95.786455992,
              5.224409994
            ],
            [
              95.785759998,
              5.227127031
            ],
            [
              95.785107031,
              5.229926
            ],
            [
              95.784977423,
              5.230466456
            ],
            [
              95.784811757,
              5.231157384
            ],
            [
              95.784615963,
              5.231973965
            ],
            [
              95.784288014,
              5.233227013
            ],
            [
              95.784297032,
              5.235231017
            ],
            [
              95.784224991,
              5.237777974
            ],
            [
              95.783898973,
              5.239197966
            ],
            [
              95.783530036,
              5.240577046
            ],
            [
              95.783201019,
              5.241622045
            ],
            [
              95.782709036,
              5.243210995
            ],
            [
              95.782378981,
              5.244005032
            ],
            [
              95.782006974,
              5.244591017
            ],
            [
              95.781427009,
              5.245262037
            ],
            [
              95.780838584,
              5.245919997
            ],
            [
              95.780640002,
              5.246142037
            ],
            [
              95.779770009,
              5.247063962
            ],
            [
              95.779023985,
              5.247984975
            ],
            [
              95.778631034,
              5.248507996
            ],
            [
              95.778469579,
              5.248722192
            ],
            [
              95.778442628,
              5.248757956
            ],
            [
              95.778361992,
              5.248864961
            ],
            [
              95.777243998,
              5.250013032
            ],
            [
              95.776385307,
              5.250317057
            ],
            [
              95.776315029,
              5.250342035
            ],
            [
              95.775465976,
              5.251430006
            ],
            [
              95.774845985,
              5.252800996
            ],
            [
              95.774624254,
              5.254325963
            ],
            [
              95.774513963,
              5.255083973
            ],
            [
              95.774698461,
              5.255927038
            ],
            [
              95.774863009,
              5.256679036
            ],
            [
              95.774908226,
              5.256735118
            ],
            [
              95.775321011,
              5.257247959
            ],
            [
              95.775948978,
              5.257644023
            ],
            [
              95.77603591,
              5.257670377
            ],
            [
              95.776689985,
              5.257869016
            ],
            [
              95.777316971,
              5.258093974
            ],
            [
              95.778229507,
              5.258197594
            ],
            [
              95.778286025,
              5.258204028
            ],
            [
              95.779025975,
              5.258258005
            ],
            [
              95.779594986,
              5.25819801
            ],
            [
              95.780222001,
              5.258195033
            ],
            [
              95.780629586,
              5.258222576
            ],
            [
              95.781019032,
              5.258249023
            ],
            [
              95.781645037,
              5.258302964
            ],
            [
              95.782328986,
              5.258300001
            ],
            [
              95.783582033,
              5.258407965
            ],
            [
              95.783876037,
              5.258516958
            ],
            [
              95.784037966,
              5.258577034
            ],
            [
              95.784778972,
              5.258802016
            ],
            [
              95.785521987,
              5.259312014
            ],
            [
              95.785921974,
              5.259652981
            ],
            [
              95.786783015,
              5.261246001
            ],
            [
              95.787244981,
              5.262668976
            ],
            [
              95.787593977,
              5.264493027
            ],
            [
              95.787774319,
              5.265681831
            ],
            [
              95.787888035,
              5.266430974
            ],
            [
              95.787780977,
              5.268141971
            ],
            [
              95.787821408,
              5.268290943
            ],
            [
              95.78801298,
              5.268997003
            ],
            [
              95.788703031,
              5.270476044
            ],
            [
              95.789334001,
              5.271557035
            ],
            [
              95.789849979,
              5.272352973
            ],
            [
              95.790827963,
              5.273226965
            ],
            [
              95.790953877,
              5.273426686
            ],
            [
              95.791642038,
              5.273051028
            ],
            [
              95.791780414,
              5.272774844
            ],
            [
              95.791858001,
              5.272620012
            ],
            [
              95.792050534,
              5.271946109
            ],
            [
              95.792287995,
              5.271115014
            ],
            [
              95.792431972,
              5.270290982
            ],
            [
              95.79250403,
              5.269932024
            ],
            [
              95.792718996,
              5.269394984
            ],
            [
              95.792967123,
              5.268525867
            ],
            [
              95.793148966,
              5.267889
            ],
            [
              95.793507965,
              5.267530978
            ],
            [
              95.793507985,
              5.267530958
            ],
            [
              95.793719548,
              5.267281057
            ],
            [
              95.794296982,
              5.266599012
            ],
            [
              95.794478732,
              5.266325869
            ],
            [
              95.794654982,
              5.26606102
            ],
            [
              95.794871035,
              5.265774037
            ],
            [
              95.795228983,
              5.265487947
            ],
            [
              95.796269035,
              5.26498595
            ],
            [
              95.796273926,
              5.264980357
            ],
            [
              95.796519973,
              5.264699023
            ],
            [
              95.796793045,
              5.264472191
            ],
            [
              95.796794047,
              5.264471358
            ],
            [
              95.796950969,
              5.264341009
            ],
            [
              95.797155792,
              5.264197395
            ],
            [
              95.79730896,
              5.264089983
            ],
            [
              95.798097964,
              5.263623999
            ],
            [
              95.79867202,
              5.263157987
            ],
            [
              95.799087097,
              5.262819663
            ],
            [
              95.799640034,
              5.262368992
            ],
            [
              95.800572024,
              5.261687976
            ],
            [
              95.800823027,
              5.261473013
            ],
            [
              95.800919972,
              5.261304002
            ],
            [
              95.800966996,
              5.261222032
            ],
            [
              95.801051175,
              5.261087034
            ],
            [
              95.801145988,
              5.260934956
            ],
            [
              95.801325031,
              5.260577016
            ],
            [
              95.802329968,
              5.259608998
            ],
            [
              95.802401008,
              5.259287003
            ],
            [
              95.802723973,
              5.25889203
            ],
            [
              95.802724002,
              5.25889199
            ],
            [
              95.802808679,
              5.25877577
            ],
            [
              95.80301104,
              5.258498026
            ]
          ]
        ]
      }
    }
  ]
}