{
  "type": "FeatureCollection",
  "features": [
    {
      "type": "Feature",
      "properties": {
        "idx": "1502",
        "nama_kewilayahan": "Rogdok"
      },
      "geometry": {
        "type": "Polygon",
        "coordinates": [
          [
            [
              99.14372,
              -1.63164
            ],
            [
              99.143749613,
              -1.632591721
            ],
            [
              99.147453611,
              -1.632265752
            ],
            [
              99.14772968,
              -1.633174976
            ],
            [
              99.148011099,
              -1.633450895
            ],
            [
              99.148199919,
              -1.633767532
            ],
            [
              99.147550016,
              -1.635138234
            ],
            [
              99.147379273,
              -1.636142486
            ],
            [
              99.147891791,
              -1.637065264
            ],
            [
              99.147924675,
              -1.637350491
            ],
            [
              99.14796376,
              -1.637689516
            ],
            [
              99.147945844,
              -1.638576144
            ],
            [
              99.148224574,
              -1.638956106
            ],
            [
              99.148215614,
              -1.639363231
            ],
            [
              99.147550357,
              -1.6397885
            ],
            [
              99.147649309,
              -1.640575598
            ],
            [
              99.147337376,
              -1.641041554
            ],
            [
              99.147118936,
              -1.641398935
            ],
            [
              99.147029048,
              -1.641616074
            ],
            [
              99.145997946,
              -1.642914424
            ],
            [
              99.145152887,
              -1.643439225
            ],
            [
              99.14491021,
              -1.644325869
            ],
            [
              99.144244958,
              -1.644841609
            ],
            [
              99.143783794,
              -1.645443282
            ],
            [
              99.142806591,
              -1.646198793
            ],
            [
              99.142473968,
              -1.646515471
            ],
            [
              99.142768019,
              -1.647424694
            ],
            [
              99.142995574,
              -1.648795329
            ],
            [
              99.143436162,
              -1.6496005
            ],
            [
              99.145036516,
              -1.65042368
            ],
            [
              99.143939694,
              -1.650550421
            ],
            [
              99.143397578,
              -1.65062736
            ],
            [
              99.143148991,
              -1.651661727
            ],
            [
              99.143148616,
              -1.651663285
            ],
            [
              99.143193645,
              -1.652739899
            ],
            [
              99.143325902,
              -1.6540834
            ],
            [
              99.142139107,
              -1.653287332
            ],
            [
              99.140674314,
              -1.652236443
            ],
            [
              99.138933164,
              -1.653328114
            ],
            [
              99.137144412,
              -1.654046363
            ],
            [
              99.135745725,
              -1.654094336
            ],
            [
              99.133876923,
              -1.653731223
            ],
            [
              99.133340374,
              -1.656422806
            ],
            [
              99.134033221,
              -1.656775448
            ],
            [
              99.133509935,
              -1.657282958
            ],
            [
              99.132438686,
              -1.657259732
            ],
            [
              99.131371568,
              -1.657997152
            ],
            [
              99.130912415,
              -1.658087431
            ],
            [
              99.131198083,
              -1.658472143
            ],
            [
              99.130148856,
              -1.657861526
            ],
            [
              99.128950374,
              -1.657042831
            ],
            [
              99.127289773,
              -1.656043222
            ],
            [
              99.12640865,
              -1.65512951
            ],
            [
              99.12529388,
              -1.655862406
            ],
            [
              99.124619544,
              -1.655039153
            ],
            [
              99.123771656,
              -1.653614268
            ],
            [
              99.122569545,
              -1.652171313
            ],
            [
              99.120894505,
              -1.650149363
            ],
            [
              99.12011256,
              -1.651232427
            ],
            [
              99.118989813,
              -1.651423995
            ],
            [
              99.118237998,
              -1.649097316
            ],
            [
              99.118019057,
              -1.647431279
            ],
            [
              99.117724002,
              -1.645813125
            ],
            [
              99.118064305,
              -1.644263631
            ],
            [
              99.11849,
              -1.644860001
            ],
            [
              99.118859141,
              -1.645444176
            ],
            [
              99.119171242,
              -1.645938082
            ],
            [
              99.119496641,
              -1.646453034
            ],
            [
              99.119983769,
              -1.647223926
            ],
            [
              99.120336588,
              -1.647782271
            ],
            [
              99.120550001,
              -1.64812
            ],
            [
              99.12106,
              -1.64812
            ],
            [
              99.121515057,
              -1.64772141
            ],
            [
              99.121876265,
              -1.647405024
            ],
            [
              99.12243,
              -1.646919999
            ],
            [
              99.123047778,
              -1.647055513
            ],
            [
              99.12398,
              -1.647259999
            ],
            [
              99.125060356,
              -1.646541165
            ],
            [
              99.125720779,
              -1.646101738
            ],
            [
              99.12655,
              -1.64555
            ],
            [
              99.12792,
              -1.645199999
            ],
            [
              99.12912,
              -1.64434
            ],
            [
              99.130329999,
              -1.64434
            ],
            [
              99.13101,
              -1.64366
            ],
            [
              99.131405807,
              -1.643462096
            ],
            [
              99.13239,
              -1.642970001
            ],
            [
              99.133239999,
              -1.642110001
            ],
            [
              99.1341,
              -1.641599999
            ],
            [
              99.13479,
              -1.641249999
            ],
            [
              99.13479,
              -1.64022
            ],
            [
              99.13548,
              -1.639710001
            ],
            [
              99.13582,
              -1.63868
            ],
            [
              99.13668,
              -1.63799
            ],
            [
              99.13736,
              -1.63834
            ],
            [
              99.13754,
              -1.63782
            ],
            [
              99.13805,
              -1.637649999
            ],
            [
              99.1384,
              -1.63799
            ],
            [
              99.13891,
              -1.637989999
            ],
            [
              99.139089999,
              -1.636280001
            ],
            [
              99.138570001,
              -1.635930001
            ],
            [
              99.138570001,
              -1.63542
            ],
            [
              99.138739999,
              -1.633699999
            ],
            [
              99.13977,
              -1.633009999
            ],
            [
              99.14063,
              -1.63319
            ],
            [
              99.14097,
              -1.633530001
            ],
            [
              99.1408,
              -1.634390001
            ],
            [
              99.14131,
              -1.63456
            ],
            [
              99.141988404,
              -1.633887203
            ],
            [
              99.14252,
              -1.63336
            ],
            [
              99.14303,
              -1.63319
            ],
            [
              99.14321,
              -1.63233
            ],
            [
              99.14337,
              -1.631979999
            ],
            [
              99.14372,
              -1.63164
            ]
          ]
        ]
      }
    }
  ]
}