{
  "type": "FeatureCollection",
  "features": [
    {
      "type": "Feature",
      "properties": {
        "idx": "1507",
        "nama_kewilayahan": "VII Koto"
      },
      "geometry": {
        "type": "Polygon",
        "coordinates": [
          [
            [
              102.019616865,
              -0.87866142
            ],
            [
              102.022033172,
              -0.88117438
            ],
            [
              102.02565486,
              -0.880489194
            ],
            [
              102.029472316,
              -0.884306651
            ],
            [
              102.031136333,
              -0.889298708
            ],
            [
              102.033877071,
              -0.891256376
            ],
            [
              102.037009342,
              -0.890179658
            ],
            [
              102.038748025,
              -0.889764198
            ],
            [
              102.03918735,
              -0.88978846
            ],
            [
              102.039567277,
              -0.889848531
            ],
            [
              102.040006499,
              -0.890004272
            ],
            [
              102.040433732,
              -0.890303437
            ],
            [
              102.040754049,
              -0.890662279
            ],
            [
              102.041133642,
              -0.891140696
            ],
            [
              102.04146571,
              -0.891654936
            ],
            [
              102.041845129,
              -0.892348505
            ],
            [
              102.042355233,
              -0.892958511
            ],
            [
              102.046895572,
              -0.896542082
            ],
            [
              102.049734192,
              -0.899184936
            ],
            [
              102.050296161,
              -0.898725143
            ],
            [
              102.058347936,
              -0.892137328
            ],
            [
              102.059296889,
              -0.89047666
            ],
            [
              102.059914072,
              -0.889396591
            ],
            [
              102.066374379,
              -0.886362203
            ],
            [
              102.069838186,
              -0.889056274
            ],
            [
              102.070779135,
              -0.889788123
            ],
            [
              102.076457745,
              -0.89435953
            ],
            [
              102.076783505,
              -0.894621774
            ],
            [
              102.080159996,
              -0.897339925
            ],
            [
              102.093977516,
              -0.902121441
            ],
            [
              102.102329534,
              -0.907072276
            ],
            [
              102.102329534,
              -0.91323345
            ],
            [
              102.111835434,
              -0.924606579
            ],
            [
              102.112989519,
              -0.925987361
            ],
            [
              102.112993366,
              -0.926437402
            ],
            [
              102.113090698,
              -0.937825243
            ],
            [
              102.113553122,
              -0.94687554
            ],
            [
              102.130740064,
              -0.971148327
            ],
            [
              102.145213278,
              -0.99692874
            ],
            [
              102.153505224,
              -1.01396492
            ],
            [
              102.174243677,
              -1.067366436
            ],
            [
              102.175118934,
              -1.069620222
            ],
            [
              102.176274749,
              -1.071261675
            ],
            [
              102.188406777,
              -1.087220491
            ],
            [
              102.1988094,
              -1.102145993
            ],
            [
              102.200735691,
              -1.107853524
            ],
            [
              102.203980108,
              -1.114440673
            ],
            [
              102.204941481,
              -1.122219049
            ],
            [
              102.205827441,
              -1.129387273
            ],
            [
              102.206074034,
              -1.131382435
            ],
            [
              102.206252809,
              -1.133925015
            ],
            [
              102.206838612,
              -1.142256436
            ],
            [
              102.207787246,
              -1.155748115
            ],
            [
              102.205150559,
              -1.158560582
            ],
            [
              102.200815278,
              -1.163184883
            ],
            [
              102.199221186,
              -1.164885246
            ],
            [
              102.196109613,
              -1.166254338
            ],
            [
              102.1921334,
              -1.168003871
            ],
            [
              102.190395705,
              -1.168768456
            ],
            [
              102.189850444,
              -1.175765983
            ],
            [
              102.188708303,
              -1.183380259
            ],
            [
              102.187470983,
              -1.186901861
            ],
            [
              102.186811318,
              -1.187907063
            ],
            [
              102.186276918,
              -1.189821997
            ],
            [
              102.182846367,
              -1.191414753
            ],
            [
              102.175616933,
              -1.194771275
            ],
            [
              102.174093036,
              -1.196849318
            ],
            [
              102.167336987,
              -1.206062112
            ],
            [
              102.164753399,
              -1.209585187
            ],
            [
              102.163053379,
              -1.211903395
            ],
            [
              102.16205417,
              -1.212510058
            ],
            [
              102.161567011,
              -1.212805832
            ],
            [
              102.157723387,
              -1.215139462
            ],
            [
              102.140781624,
              -1.207715543
            ],
            [
              102.134119133,
              -1.212284109
            ],
            [
              101.915018364,
              -1.207144474
            ],
            [
              101.914828007,
              -1.20124341
            ],
            [
              101.944523681,
              -1.166788814
            ],
            [
              101.952899383,
              -1.154605974
            ],
            [
              101.951376528,
              -1.147182056
            ],
            [
              101.947759747,
              -1.145278487
            ],
            [
              101.939955116,
              -1.148133842
            ],
            [
              101.930817985,
              -1.143565276
            ],
            [
              101.930437271,
              -1.139187066
            ],
            [
              101.931579413,
              -1.135379929
            ],
            [
              101.929104773,
              -1.130811364
            ],
            [
              101.917302646,
              -1.130811364
            ],
            [
              101.909878728,
              -1.138615996
            ],
            [
              101.906261948,
              -1.138235283
            ],
            [
              101.898076602,
              -1.131382435
            ],
            [
              101.892556252,
              -1.134428145
            ],
            [
              101.886464831,
              -1.133476361
            ],
            [
              101.891033396,
              -1.129098153
            ],
            [
              101.894269464,
              -1.119199594
            ],
            [
              101.892175538,
              -1.111585318
            ],
            [
              101.883419122,
              -1.107778182
            ],
            [
              101.874662705,
              -1.108158896
            ],
            [
              101.865715932,
              -1.112346747
            ],
            [
              101.836591329,
              -1.113869601
            ],
            [
              101.832213121,
              -1.109301036
            ],
            [
              101.830880623,
              -1.068488521
            ],
            [
              101.830499909,
              -1.046407123
            ],
            [
              101.831451693,
              -1.043171057
            ],
            [
              101.832593835,
              -1.035556781
            ],
            [
              101.832593835,
              -1.027942506
            ],
            [
              101.830499909,
              -1.019186089
            ],
            [
              101.829738482,
              -1.014236811
            ],
            [
              101.827644556,
              -1.001863614
            ],
            [
              101.827454198,
              -0.992155412
            ],
            [
              101.82930066,
              -0.983779709
            ],
            [
              101.833107798,
              -0.977117218
            ],
            [
              101.842244928,
              -0.980162929
            ],
            [
              101.850087632,
              -0.982865996
            ],
            [
              101.866267967,
              -0.97715529
            ],
            [
              101.873691885,
              -0.967447089
            ],
            [
              101.891204718,
              -0.966495305
            ],
            [
              101.897296139,
              -0.964972449
            ],
            [
              101.900341848,
              -0.964020665
            ],
            [
              101.915570398,
              -0.95888103
            ],
            [
              101.919948607,
              -0.954883535
            ],
            [
              101.927943596,
              -0.936609274
            ],
            [
              101.932702518,
              -0.908626813
            ],
            [
              101.942601076,
              -0.903296821
            ],
            [
              101.954593559,
              -0.902535393
            ],
            [
              101.959542838,
              -0.899489683
            ],
            [
              101.963921046,
              -0.898728255
            ],
            [
              101.969251039,
              -0.895301833
            ],
            [
              101.973629247,
              -0.898918612
            ],
            [
              101.978007456,
              -0.897586114
            ],
            [
              101.985621731,
              -0.894730762
            ],
            [
              101.996281717,
              -0.881786493
            ],
            [
              102.003343957,
              -0.878360069
            ],
            [
              102.019616865,
              -0.87866142
            ]
          ]
        ]
      }
    }
  ]
}