{
  "type": "FeatureCollection",
  "features": [
    {
      "type": "Feature",
      "properties": {
        "idx": "1514",
        "nama_kewilayahan": "Saga"
      },
      "geometry": {
        "type": "Polygon",
        "coordinates": [
          [
            [
              121.733948292,
              -8.759211348
            ],
            [
              121.734134913,
              -8.759499091
            ],
            [
              121.734181447,
              -8.759606917
            ],
            [
              121.734332139,
              -8.759851472
            ],
            [
              121.734518906,
              -8.760096148
            ],
            [
              121.734713095,
              -8.760279836
            ],
            [
              121.734936327,
              -8.760409786
            ],
            [
              121.73500119,
              -8.760431537
            ],
            [
              121.735184897,
              -8.760514699
            ],
            [
              121.735390503,
              -8.760522564
            ],
            [
              121.735599766,
              -8.760516086
            ],
            [
              121.735704385,
              -8.760516436
            ],
            [
              121.73584491,
              -8.760567152
            ],
            [
              121.736010506,
              -8.760671786
            ],
            [
              121.736168924,
              -8.760765629
            ],
            [
              121.736258749,
              -8.760873599
            ],
            [
              121.736359531,
              -8.760942127
            ],
            [
              121.736470941,
              -8.761068113
            ],
            [
              121.736520999,
              -8.761201073
            ],
            [
              121.736578186,
              -8.76135918
            ],
            [
              121.736599626,
              -8.761420264
            ],
            [
              121.736635265,
              -8.761549587
            ],
            [
              121.736631306,
              -8.761653654
            ],
            [
              121.7366092,
              -8.761789962
            ],
            [
              121.736583547,
              -8.761908312
            ],
            [
              121.736525038,
              -8.762141401
            ],
            [
              121.736484979,
              -8.762252525
            ],
            [
              121.736408432,
              -8.762485554
            ],
            [
              121.736364341,
              -8.762722279
            ],
            [
              121.736305989,
              -8.762908711
            ],
            [
              121.736305565,
              -8.763034324
            ],
            [
              121.73633037,
              -8.7631672
            ],
            [
              121.736434711,
              -8.763250095
            ],
            [
              121.736632837,
              -8.763336893
            ],
            [
              121.73678783,
              -8.76337689
            ],
            [
              121.736903188,
              -8.763402399
            ],
            [
              121.737115927,
              -8.76343541
            ],
            [
              121.737653131,
              -8.763534108
            ],
            [
              121.737761322,
              -8.763545236
            ],
            [
              121.73794882,
              -8.763574574
            ],
            [
              121.738168774,
              -8.763607609
            ],
            [
              121.738644492,
              -8.763752757
            ],
            [
              121.738716523,
              -8.763788887
            ],
            [
              121.738907459,
              -8.763868482
            ],
            [
              121.739206406,
              -8.764013039
            ],
            [
              121.739465838,
              -8.764107218
            ],
            [
              121.73964933,
              -8.764254978
            ],
            [
              121.739868789,
              -8.76443516
            ],
            [
              121.740160231,
              -8.764665827
            ],
            [
              121.740379473,
              -8.764910609
            ],
            [
              121.74061317,
              -8.765148261
            ],
            [
              121.740778589,
              -8.765306728
            ],
            [
              121.740893694,
              -8.765407603
            ],
            [
              121.740947301,
              -8.765558519
            ],
            [
              121.741033642,
              -8.765630587
            ],
            [
              121.741127355,
              -8.765656022
            ],
            [
              121.741228248,
              -8.765692248
            ],
            [
              121.741293004,
              -8.765746299
            ],
            [
              121.741393872,
              -8.765789702
            ],
            [
              121.741487525,
              -8.765833082
            ],
            [
              121.741570247,
              -8.765908727
            ],
            [
              121.741660184,
              -8.765984395
            ],
            [
              121.741793086,
              -8.766157109
            ],
            [
              121.741879258,
              -8.766279422
            ],
            [
              121.741969183,
              -8.766358679
            ],
            [
              121.742005006,
              -8.766434167
            ],
            [
              121.742073152,
              -8.766552831
            ],
            [
              121.74217746,
              -8.766646492
            ],
            [
              121.742270908,
              -8.766750884
            ],
            [
              121.742479849,
              -8.766841304
            ],
            [
              121.742580766,
              -8.766870352
            ],
            [
              121.742735785,
              -8.766903169
            ],
            [
              121.742869195,
              -8.766925146
            ],
            [
              121.742991746,
              -8.766957855
            ],
            [
              121.743287523,
              -8.766973195
            ],
            [
              121.743507625,
              -8.76696316
            ],
            [
              121.743799892,
              -8.766949776
            ],
            [
              121.744312284,
              -8.766919178
            ],
            [
              121.744391628,
              -8.76692662
            ],
            [
              121.744568474,
              -8.766905674
            ],
            [
              121.744723663,
              -8.766888244
            ],
            [
              121.744947517,
              -8.766835153
            ],
            [
              121.745221865,
              -8.766785819
            ],
            [
              121.745391484,
              -8.766768437
            ],
            [
              121.745575498,
              -8.76676187
            ],
            [
              121.745752344,
              -8.766740923
            ],
            [
              121.745904069,
              -8.766680414
            ],
            [
              121.746128103,
              -8.766573487
            ],
            [
              121.746222022,
              -8.766537909
            ],
            [
              121.746384498,
              -8.766498969
            ],
            [
              121.746586694,
              -8.766449394
            ],
            [
              121.746828586,
              -8.766396361
            ],
            [
              121.746951377,
              -8.76635729
            ],
            [
              121.747063358,
              -8.766314593
            ],
            [
              121.747196961,
              -8.766279146
            ],
            [
              121.747373759,
              -8.766272554
            ],
            [
              121.747528947,
              -8.766255124
            ],
            [
              121.747669765,
              -8.7662197
            ],
            [
              121.747821405,
              -8.766184313
            ],
            [
              121.747983785,
              -8.766174084
            ],
            [
              121.748211066,
              -8.766174837
            ],
            [
              121.748474231,
              -8.766233133
            ],
            [
              121.748943067,
              -8.766281343
            ],
            [
              121.749159321,
              -8.766343072
            ],
            [
              121.749462122,
              -8.766415854
            ],
            [
              121.749743301,
              -8.766481386
            ],
            [
              121.749840516,
              -8.766539132
            ],
            [
              121.749977318,
              -8.766625721
            ],
            [
              121.75021481,
              -8.766809546
            ],
            [
              121.750412835,
              -8.766928638
            ],
            [
              121.750531599,
              -8.767015167
            ],
            [
              121.750715037,
              -8.767180867
            ],
            [
              121.750952482,
              -8.767379048
            ],
            [
              121.751100012,
              -8.767494383
            ],
            [
              121.751211705,
              -8.767537821
            ],
            [
              121.751406374,
              -8.767581532
            ],
            [
              121.751583077,
              -8.76760365
            ],
            [
              121.751755957,
              -8.767690358
            ],
            [
              121.752072604,
              -8.767939045
            ],
            [
              121.752180642,
              -8.767996826
            ],
            [
              121.752335687,
              -8.768022461
            ],
            [
              121.752519546,
              -8.768062547
            ],
            [
              121.752663852,
              -8.768063024
            ],
            [
              121.752905768,
              -8.768002809
            ],
            [
              121.753017594,
              -8.768006768
            ],
            [
              121.753277213,
              -8.768047104
            ],
            [
              121.753569182,
              -8.768123436
            ],
            [
              121.753810536,
              -8.768231903
            ],
            [
              121.753860876,
              -8.768282315
            ],
            [
              121.754055367,
              -8.768379859
            ],
            [
              121.754246393,
              -8.768434325
            ],
            [
              121.754347193,
              -8.768499259
            ],
            [
              121.754800802,
              -8.768787875
            ],
            [
              121.755034905,
              -8.768907084
            ],
            [
              121.75537712,
              -8.769062539
            ],
            [
              121.755467252,
              -8.769080781
            ],
            [
              121.755579006,
              -8.769106273
            ],
            [
              121.755726813,
              -8.769139061
            ],
            [
              121.755867405,
              -8.769171825
            ],
            [
              121.755990161,
              -8.769143517
            ],
            [
              121.756184999,
              -8.769136981
            ],
            [
              121.756387053,
              -8.769130468
            ],
            [
              121.756773145,
              -8.769110205
            ],
            [
              121.757065343,
              -8.769118345
            ],
            [
              121.757231403,
              -8.76908659
            ],
            [
              121.757447935,
              -8.769065768
            ],
            [
              121.757841445,
              -8.768984515
            ],
            [
              121.757917242,
              -8.768973997
            ],
            [
              121.758025592,
              -8.768938463
            ],
            [
              121.758141025,
              -8.768942432
            ],
            [
              121.758245648,
              -8.768942776
            ],
            [
              121.758361188,
              -8.768914444
            ],
            [
              121.758502066,
              -8.768861072
            ],
            [
              121.758642909,
              -8.768818466
            ],
            [
              121.758863382,
              -8.768697164
            ],
            [
              121.758964659,
              -8.768618539
            ],
            [
              121.75906946,
              -8.768565048
            ],
            [
              121.75912392,
              -8.768461145
            ],
            [
              121.759189085,
              -8.768393168
            ],
            [
              121.759236163,
              -8.768339488
            ],
            [
              121.759254475,
              -8.768257
            ],
            [
              121.759225935,
              -8.768160003
            ],
            [
              121.759168654,
              -8.768027022
            ],
            [
              121.759104275,
              -8.767858126
            ],
            [
              121.759011262,
              -8.767620946
            ],
            [
              121.758990153,
              -8.767459371
            ],
            [
              121.758997916,
              -8.767294302
            ],
            [
              121.759124601,
              -8.767169103
            ],
            [
              121.759254607,
              -8.76713005
            ],
            [
              121.759319569,
              -8.767123086
            ],
            [
              121.759398866,
              -8.76714488
            ],
            [
              121.759499678,
              -8.767206224
            ],
            [
              121.759604062,
              -8.767278347
            ],
            [
              121.759740712,
              -8.76741159
            ],
            [
              121.759891734,
              -8.767562824
            ],
            [
              121.760143413,
              -8.767822059
            ],
            [
              121.76021184,
              -8.767858174
            ],
            [
              121.760309116,
              -8.767897972
            ],
            [
              121.760406463,
              -8.767916237
            ],
            [
              121.760547162,
              -8.767916698
            ],
            [
              121.760676955,
              -8.767942247
            ],
            [
              121.76079221,
              -8.76800005
            ],
            [
              121.760910942,
              -8.768097343
            ],
            [
              121.76102228,
              -8.768248446
            ],
            [
              121.761176316,
              -8.768579141
            ],
            [
              121.76120126,
              -8.768672537
            ],
            [
              121.761286167,
              -8.769178867
            ],
            [
              121.761325233,
              -8.769365624
            ],
            [
              121.761338844,
              -8.769613311
            ],
            [
              121.761298469,
              -8.769821341
            ],
            [
              121.761326522,
              -8.770065487
            ],
            [
              121.761455721,
              -8.770270484
            ],
            [
              121.761620687,
              -8.770568914
            ],
            [
              121.761907888,
              -8.770996948
            ],
            [
              121.762033634,
              -8.771155277
            ],
            [
              121.762115922,
              -8.77136371
            ],
            [
              121.762165788,
              -8.77155768
            ],
            [
              121.762179553,
              -8.77175871
            ],
            [
              121.762153812,
              -8.771905776
            ],
            [
              121.76211733,
              -8.772027683
            ],
            [
              121.762062775,
              -8.772160298
            ],
            [
              121.762011898,
              -8.77227139
            ],
            [
              121.761852612,
              -8.772435963
            ],
            [
              121.76160655,
              -8.772657675
            ],
            [
              121.761537778,
              -8.772725641
            ],
            [
              121.761429237,
              -8.772818599
            ],
            [
              121.761371216,
              -8.772908134
            ],
            [
              121.761280774,
              -8.772983207
            ],
            [
              121.761168661,
              -8.773065386
            ],
            [
              121.761081754,
              -8.773162004
            ],
            [
              121.760994967,
              -8.773222733
            ],
            [
              121.760922551,
              -8.773301454
            ],
            [
              121.760810045,
              -8.773502069
            ],
            [
              121.760679381,
              -8.773738515
            ],
            [
              121.760610453,
              -8.773853137
            ],
            [
              121.760595713,
              -8.773946403
            ],
            [
              121.760573686,
              -8.77406118
            ],
            [
              121.760562434,
              -8.774190347
            ],
            [
              121.76052975,
              -8.774254842
            ],
            [
              121.760528869,
              -8.774520426
            ],
            [
              121.760534977,
              -8.774854225
            ],
            [
              121.760537608,
              -8.775148533
            ],
            [
              121.760583794,
              -8.775364025
            ],
            [
              121.76062667,
              -8.775489781
            ],
            [
              121.760651329,
              -8.775669313
            ],
            [
              121.760661557,
              -8.775848797
            ],
            [
              121.760602928,
              -8.77612137
            ],
            [
              121.760584306,
              -8.77629717
            ],
            [
              121.760616323,
              -8.776433658
            ],
            [
              121.760608798,
              -8.776526948
            ],
            [
              121.760597498,
              -8.776670471
            ],
            [
              121.760539167,
              -8.776853319
            ],
            [
              121.760408561,
              -8.77707182
            ],
            [
              121.76016952,
              -8.777350978
            ],
            [
              121.760082648,
              -8.777436829
            ],
            [
              121.759952399,
              -8.77754766
            ],
            [
              121.75984756,
              -8.777611918
            ],
            [
              121.759511371,
              -8.777811798
            ],
            [
              121.75931985,
              -8.777904483
            ],
            [
              121.759160965,
              -8.777947028
            ],
            [
              121.758933497,
              -8.778000116
            ],
            [
              121.758745751,
              -8.778042566
            ],
            [
              121.758377389,
              -8.778152614
            ],
            [
              121.758247331,
              -8.778206021
            ],
            [
              121.758041378,
              -8.778298657
            ],
            [
              121.757958185,
              -8.778362986
            ],
            [
              121.757733608,
              -8.778631422
            ],
            [
              121.757563338,
              -8.778842613
            ],
            [
              121.757447221,
              -8.779043215
            ],
            [
              121.757385351,
              -8.779204517
            ],
            [
              121.757291084,
              -8.779344178
            ],
            [
              121.757138613,
              -8.779627207
            ],
            [
              121.757069755,
              -8.779720295
            ],
            [
              121.756964915,
              -8.779784552
            ],
            [
              121.756748102,
              -8.779887918
            ],
            [
              121.756527633,
              -8.780005629
            ],
            [
              121.75642634,
              -8.780087842
            ],
            [
              121.756278015,
              -8.78020938
            ],
            [
              121.756107983,
              -8.78034879
            ],
            [
              121.756002843,
              -8.780502771
            ],
            [
              121.755876044,
              -8.780660269
            ],
            [
              121.755821449,
              -8.780803649
            ],
            [
              121.755755947,
              -8.780972117
            ],
            [
              121.755657975,
              -8.781140477
            ],
            [
              121.755530984,
              -8.781355398
            ],
            [
              121.75542938,
              -8.781530925
            ],
            [
              121.755331575,
              -8.781649039
            ],
            [
              121.755182722,
              -8.78192849
            ],
            [
              121.755023272,
              -8.782139715
            ],
            [
              121.754874623,
              -8.782358154
            ],
            [
              121.754758574,
              -8.782537221
            ],
            [
              121.754635538,
              -8.782648074
            ],
            [
              121.754530361,
              -8.782812821
            ],
            [
              121.754295171,
              -8.783016618
            ],
            [
              121.754157715,
              -8.783123834
            ],
            [
              121.754027379,
              -8.783259785
            ],
            [
              121.75394048,
              -8.783352812
            ],
            [
              121.753860665,
              -8.783485342
            ],
            [
              121.75376673,
              -8.78352451
            ],
            [
              121.753618546,
              -8.783602979
            ],
            [
              121.753380108,
              -8.783699094
            ],
            [
              121.753275277,
              -8.78375976
            ],
            [
              121.753101911,
              -8.783816611
            ],
            [
              121.752928772,
              -8.783805272
            ],
            [
              121.752752049,
              -8.783786742
            ],
            [
              121.752503314,
              -8.783724906
            ],
            [
              121.752380781,
              -8.783685022
            ],
            [
              121.752269059,
              -8.783648762
            ],
            [
              121.752081573,
              -8.783612252
            ],
            [
              121.751897755,
              -8.783557809
            ],
            [
              121.751649009,
              -8.783499561
            ],
            [
              121.751465167,
              -8.783452296
            ],
            [
              121.751234448,
              -8.783397697
            ],
            [
              121.751090172,
              -8.783386452
            ],
            [
              121.750920473,
              -8.783425369
            ],
            [
              121.750819286,
              -8.78347528
            ],
            [
              121.750736187,
              -8.783510895
            ],
            [
              121.750620365,
              -8.78362177
            ],
            [
              121.75051183,
              -8.783711135
            ],
            [
              121.750435417,
              -8.783904688
            ],
            [
              121.750380735,
              -8.78407319
            ],
            [
              121.750253945,
              -8.784227097
            ],
            [
              121.750174357,
              -8.784291435
            ],
            [
              121.750105677,
              -8.784330686
            ],
            [
              121.749964972,
              -8.78433022
            ],
            [
              121.749903796,
              -8.78428336
            ],
            [
              121.749835247,
              -8.784283133
            ],
            [
              121.749633222,
              -8.784278874
            ],
            [
              121.749413146,
              -8.784278144
            ],
            [
              121.749243663,
              -8.784252459
            ],
            [
              121.749164303,
              -8.784248607
            ],
            [
              121.749063285,
              -8.784248272
            ],
            [
              121.748857664,
              -8.784240412
            ],
            [
              121.748644851,
              -8.784225349
            ],
            [
              121.748417499,
              -8.78424254
            ],
            [
              121.748348891,
              -8.784260257
            ],
            [
              121.74823326,
              -8.784313708
            ],
            [
              121.748041902,
              -8.784356141
            ],
            [
              121.747522089,
              -8.784440551
            ],
            [
              121.747377692,
              -8.784465194
            ],
            [
              121.747067192,
              -8.784532353
            ],
            [
              121.746771039,
              -8.784624683
            ],
            [
              121.74654715,
              -8.784684952
            ],
            [
              121.746355839,
              -8.784713028
            ],
            [
              121.746139335,
              -8.784723075
            ],
            [
              121.746081598,
              -8.784726472
            ],
            [
              121.745879464,
              -8.784754512
            ],
            [
              121.745612522,
              -8.784742857
            ],
            [
              121.745269902,
              -8.784705827
            ],
            [
              121.745104099,
              -8.784658618
            ],
            [
              121.745031992,
              -8.784644022
            ],
            [
              121.744898551,
              -8.784629222
            ],
            [
              121.744808453,
              -8.78460021
            ],
            [
              121.744653401,
              -8.784574571
            ],
            [
              121.744502091,
              -8.784509466
            ],
            [
              121.744346548,
              -8.784415634
            ],
            [
              121.744159293,
              -8.78431093
            ],
            [
              121.744054908,
              -8.784238802
            ],
            [
              121.743968538,
              -8.784173913
            ],
            [
              121.743889384,
              -8.784109047
            ],
            [
              121.743828221,
              -8.784058597
            ],
            [
              121.743763449,
              -8.784008136
            ],
            [
              121.743742032,
              -8.783939874
            ],
            [
              121.743662866,
              -8.783878597
            ],
            [
              121.743539767,
              -8.783792769
            ],
            [
              121.743424632,
              -8.783699072
            ],
            [
              121.743309557,
              -8.783587429
            ],
            [
              121.743190754,
              -8.783511665
            ],
            [
              121.743108137,
              -8.78340372
            ],
            [
              121.743025496,
              -8.783302953
            ],
            [
              121.742895979,
              -8.783194851
            ],
            [
              121.742802587,
              -8.783072514
            ],
            [
              121.742689016,
              -8.782942932
            ],
            [
              121.742624354,
              -8.78286017
            ],
            [
              121.742523784,
              -8.782727042
            ],
            [
              121.742416107,
              -8.782561589
            ],
            [
              121.742265124,
              -8.782399581
            ],
            [
              121.742117641,
              -8.782269886
            ],
            [
              121.74202043,
              -8.782210343
            ],
            [
              121.74175911,
              -8.782030022
            ],
            [
              121.741694279,
              -8.781997505
            ],
            [
              121.741593625,
              -8.781889499
            ],
            [
              121.74135608,
              -8.781720024
            ],
            [
              121.741205014,
              -8.781583139
            ],
            [
              121.741043003,
              -8.781482106
            ],
            [
              121.74087368,
              -8.781409762
            ],
            [
              121.740788767,
              -8.781341287
            ],
            [
              121.740734808,
              -8.78129445
            ],
            [
              121.740659299,
              -8.78121883
            ],
            [
              121.740598124,
              -8.781171968
            ],
            [
              121.740551357,
              -8.781132333
            ],
            [
              121.740522652,
              -8.781085581
            ],
            [
              121.740490364,
              -8.781031638
            ],
            [
              121.740450884,
              -8.780970494
            ],
            [
              121.740393354,
              -8.780912878
            ],
            [
              121.740324988,
              -8.780858815
            ],
            [
              121.740303499,
              -8.780812086
            ],
            [
              121.740274794,
              -8.780765333
            ],
            [
              121.740238874,
              -8.780718557
            ],
            [
              121.740203051,
              -8.780643068
            ],
            [
              121.740160036,
              -8.780560378
            ],
            [
              121.740106247,
              -8.780463296
            ],
            [
              121.740092118,
              -8.780373524
            ],
            [
              121.740038438,
              -8.780244141
            ],
            [
              121.739968821,
              -8.780133368
            ],
            [
              121.739943784,
              -8.780068682
            ],
            [
              121.739922513,
              -8.779957353
            ],
            [
              121.739883095,
              -8.779878263
            ],
            [
              121.739829257,
              -8.779795537
            ],
            [
              121.73978255,
              -8.779737957
            ],
            [
              121.739721509,
              -8.779651617
            ],
            [
              121.739671231,
              -8.779583259
            ],
            [
              121.739574064,
              -8.779511154
            ],
            [
              121.739404791,
              -8.779424453
            ],
            [
              121.739181474,
              -8.779316037
            ],
            [
              121.739064801,
              -8.779251046
            ],
            [
              121.738855928,
              -8.779139089
            ],
            [
              121.738575021,
              -8.778991002
            ],
            [
              121.738391475,
              -8.778857596
            ],
            [
              121.738264052,
              -8.778771034
            ],
            [
              121.738098387,
              -8.778684344
            ],
            [
              121.737968896,
              -8.778569064
            ],
            [
              121.737770883,
              -8.778446376
            ],
            [
              121.737554856,
              -8.77831645
            ],
            [
              121.737338732,
              -8.778215235
            ],
            [
              121.737273242,
              -8.778164411
            ],
            [
              121.737150944,
              -8.778056332
            ],
            [
              121.736978161,
              -8.777940907
            ],
            [
              121.736805366,
              -8.77782907
            ],
            [
              121.736706587,
              -8.777807205
            ],
            [
              121.736580523,
              -8.777745771
            ],
            [
              121.736389654,
              -8.77764464
            ],
            [
              121.736234801,
              -8.777561575
            ],
            [
              121.736054901,
              -8.777417413
            ],
            [
              121.735878523,
              -8.777298386
            ],
            [
              121.735779278,
              -8.777201151
            ],
            [
              121.735703856,
              -8.777100407
            ],
            [
              121.735607067,
              -8.776917044
            ],
            [
              121.735513692,
              -8.776791117
            ],
            [
              121.735427374,
              -8.77671187
            ],
            [
              121.735337692,
              -8.776560833
            ],
            [
              121.735283783,
              -8.776499639
            ],
            [
              121.735219087,
              -8.776427643
            ],
            [
              121.735165384,
              -8.776305438
            ],
            [
              121.735089244,
              -8.776203973
            ],
            [
              121.734870049,
              -8.775944832
            ],
            [
              121.73470837,
              -8.775746896
            ],
            [
              121.73458973,
              -8.775624473
            ],
            [
              121.734388099,
              -8.775505361
            ],
            [
              121.734200815,
              -8.775411419
            ],
            [
              121.734097671,
              -8.775400306
            ],
            [
              121.734025554,
              -8.775389298
            ],
            [
              121.733964564,
              -8.775288602
            ],
            [
              121.73390712,
              -8.775205862
            ],
            [
              121.733835149,
              -8.775151786
            ],
            [
              121.73372359,
              -8.775068865
            ],
            [
              121.733684112,
              -8.77500772
            ],
            [
              121.733669985,
              -8.774917949
            ],
            [
              121.733652373,
              -8.774792275
            ],
            [
              121.733616661,
              -8.774684486
            ],
            [
              121.733559437,
              -8.774537146
            ],
            [
              121.733480595,
              -8.77438112
            ],
            [
              121.733405454,
              -8.77419783
            ],
            [
              121.73343445,
              -8.774158448
            ],
            [
              121.733496218,
              -8.774029452
            ],
            [
              121.733500507,
              -8.773828484
            ],
            [
              121.733544724,
              -8.77355587
            ],
            [
              121.73358565,
              -8.773189931
            ],
            [
              121.733604308,
              -8.773006956
            ],
            [
              121.733611126,
              -8.772911512
            ],
            [
              121.733625873,
              -8.772818248
            ],
            [
              121.733655038,
              -8.772728621
            ],
            [
              121.733687945,
              -8.772599528
            ],
            [
              121.733735429,
              -8.772427416
            ],
            [
              121.733747031,
              -8.772197402
            ],
            [
              121.733715182,
              -8.772014257
            ],
            [
              121.733705284,
              -8.771741461
            ],
            [
              121.733706244,
              -8.771457935
            ],
            [
              121.733681903,
              -8.77118868
            ],
            [
              121.733660999,
              -8.770969682
            ],
            [
              121.733643544,
              -8.770797352
            ],
            [
              121.733622482,
              -8.770625011
            ],
            [
              121.733619543,
              -8.770427607
            ],
            [
              121.733573203,
              -8.770262359
            ],
            [
              121.733548656,
              -8.770053757
            ],
            [
              121.733549033,
              -8.769942499
            ],
            [
              121.733553443,
              -8.769705642
            ],
            [
              121.733582778,
              -8.76956577
            ],
            [
              121.733608774,
              -8.769346929
            ],
            [
              121.733634428,
              -8.769228579
            ],
            [
              121.733681838,
              -8.769078001
            ],
            [
              121.733769017,
              -8.768902433
            ],
            [
              121.733776974,
              -8.768683532
            ],
            [
              121.733770403,
              -8.768493294
            ],
            [
              121.733705891,
              -8.768367463
            ],
            [
              121.73363052,
              -8.768252363
            ],
            [
              121.733510268,
              -8.76818018
            ],
            [
              121.733369656,
              -8.768154586
            ],
            [
              121.73316034,
              -8.768175418
            ],
            [
              121.732925844,
              -8.768174632
            ],
            [
              121.732668333,
              -8.768152234
            ],
            [
              121.732531218,
              -8.768158952
            ],
            [
              121.732238915,
              -8.768183094
            ],
            [
              121.732054853,
              -8.76820401
            ],
            [
              121.731820199,
              -8.768249879
            ],
            [
              121.731611006,
              -8.768234821
            ],
            [
              121.731419957,
              -8.76818824
            ],
            [
              121.731221574,
              -8.768176807
            ],
            [
              121.730983666,
              -8.768118584
            ],
            [
              121.730763771,
              -8.7680676
            ],
            [
              121.730607176,
              -8.768074252
            ],
            [
              121.730491781,
              -8.768059508
            ],
            [
              121.730304416,
              -8.767990688
            ],
            [
              121.7300629,
              -8.767932452
            ],
            [
              121.729965604,
              -8.767899824
            ],
            [
              121.729774705,
              -8.767809458
            ],
            [
              121.729562233,
              -8.767697485
            ],
            [
              121.729418221,
              -8.767610866
            ],
            [
              121.729211485,
              -8.767509679
            ],
            [
              121.72907826,
              -8.767433862
            ],
            [
              121.728959452,
              -8.767361683
            ],
            [
              121.728887422,
              -8.767325551
            ],
            [
              121.728786409,
              -8.767325211
            ],
            [
              121.728678144,
              -8.767335614
            ],
            [
              121.728501334,
              -8.767345786
            ],
            [
              121.728311586,
              -8.767341558
            ],
            [
              121.728225076,
              -8.767319733
            ],
            [
              121.728113228,
              -8.767322946
            ],
            [
              121.727889483,
              -8.767343726
            ],
            [
              121.727626115,
              -8.767346428
            ],
            [
              121.727379146,
              -8.767406609
            ],
            [
              121.727220338,
              -8.767427608
            ],
            [
              121.727050841,
              -8.767409092
            ],
            [
              121.726910218,
              -8.767387084
            ],
            [
              121.726726425,
              -8.767329041
            ],
            [
              121.726620581,
              -8.767264083
            ],
            [
              121.726573829,
              -8.767220858
            ],
            [
              121.726483993,
              -8.767116475
            ],
            [
              121.726451928,
              -8.766997931
            ],
            [
              121.726452307,
              -8.766886674
            ],
            [
              121.726452698,
              -8.766771828
            ],
            [
              121.726442279,
              -8.766653357
            ],
            [
              121.72640674,
              -8.766495322
            ],
            [
              121.726338951,
              -8.766273295
            ],
            [
              121.726281633,
              -8.766154666
            ],
            [
              121.72623537,
              -8.765967884
            ],
            [
              121.726214568,
              -8.765720175
            ],
            [
              121.726150719,
              -8.765400541
            ],
            [
              121.726040155,
              -8.765026915
            ],
            [
              121.725943728,
              -8.764739473
            ],
            [
              121.725795487,
              -8.764412376
            ],
            [
              121.725763263,
              -8.764340488
            ],
            [
              121.725702729,
              -8.764107001
            ],
            [
              121.725584657,
              -8.763819485
            ],
            [
              121.725517247,
              -8.763486561
            ],
            [
              121.725503025,
              -8.7634255
            ],
            [
              121.725499833,
              -8.763303464
            ],
            [
              121.725449681,
              -8.763199215
            ],
            [
              121.72541396,
              -8.763095014
            ],
            [
              121.725352962,
              -8.762997907
            ],
            [
              121.725317106,
              -8.762933184
            ],
            [
              121.725295877,
              -8.762811088
            ],
            [
              121.725274574,
              -8.762710525
            ],
            [
              121.725246056,
              -8.762609937
            ],
            [
              121.725246386,
              -8.762513036
            ],
            [
              121.725246899,
              -8.762362301
            ],
            [
              121.725254579,
              -8.762225946
            ],
            [
              121.725265842,
              -8.762096781
            ],
            [
              121.725262846,
              -8.761917323
            ],
            [
              121.72524899,
              -8.761748594
            ],
            [
              121.725285555,
              -8.761605159
            ],
            [
              121.725336354,
              -8.761519195
            ],
            [
              121.725372748,
              -8.761426004
            ],
            [
              121.725380379,
              -8.761304005
            ],
            [
              121.725434823,
              -8.761206927
            ],
            [
              121.72545335,
              -8.761063431
            ],
            [
              121.725475558,
              -8.760898413
            ],
            [
              121.725479789,
              -8.76071539
            ],
            [
              121.725480278,
              -8.760571833
            ],
            [
              121.725513186,
              -8.760442741
            ],
            [
              121.725592992,
              -8.760313807
            ],
            [
              121.725820902,
              -8.760127949
            ],
            [
              121.725998209,
              -8.759970631
            ],
            [
              121.726381305,
              -8.75976735
            ],
            [
              121.726457222,
              -8.75972095
            ],
            [
              121.726670445,
              -8.75961041
            ],
            [
              121.727042669,
              -8.759421447
            ],
            [
              121.727143839,
              -8.759375131
            ],
            [
              121.727317147,
              -8.759332647
            ],
            [
              121.727602215,
              -8.759312072
            ],
            [
              121.727999166,
              -8.759277518
            ],
            [
              121.728226636,
              -8.75922086
            ],
            [
              121.728670473,
              -8.759190051
            ],
            [
              121.728886998,
              -8.759169245
            ],
            [
              121.729063646,
              -8.759205729
            ],
            [
              121.729359184,
              -8.759289269
            ],
            [
              121.729521316,
              -8.759350826
            ],
            [
              121.729647543,
              -8.759362017
            ],
            [
              121.729791808,
              -8.759373269
            ],
            [
              121.729936122,
              -8.759370164
            ],
            [
              121.730029918,
              -8.759370479
            ],
            [
              121.73019233,
              -8.759349491
            ],
            [
              121.730520677,
              -8.759332649
            ],
            [
              121.730636265,
              -8.759289969
            ],
            [
              121.730939517,
              -8.759226385
            ],
            [
              121.731293409,
              -8.759123492
            ],
            [
              121.731423329,
              -8.759109572
            ],
            [
              121.731643571,
              -8.759056476
            ],
            [
              121.731892723,
              -8.758989121
            ],
            [
              121.732134622,
              -8.758932509
            ],
            [
              121.732373194,
              -8.758793338
            ],
            [
              121.732503211,
              -8.758750706
            ],
            [
              121.732709011,
              -8.75870115
            ],
            [
              121.732929083,
              -8.758698299
            ],
            [
              121.733145474,
              -8.758716969
            ],
            [
              121.733340099,
              -8.758771456
            ],
            [
              121.73348417,
              -8.758840129
            ],
            [
              121.733642562,
              -8.758941151
            ],
            [
              121.733872995,
              -8.759074715
            ],
            [
              121.733948292,
              -8.759211348
            ]
          ]
        ]
      }
    }
  ]
}