{
  "type": "FeatureCollection",
  "features": [
    {
      "type": "Feature",
      "properties": {
        "idx": "1550",
        "nama_kewilayahan": "Bidoih Mayao Ompi Kotib - Tebilai "
      },
      "geometry": {
        "type": "Polygon",
        "coordinates": [
          [
            [
              110.644501523,
              0.419686249
            ],
            [
              110.644452086,
              0.419891609
            ],
            [
              110.644420904,
              0.420104039
            ],
            [
              110.64437849,
              0.420265542
            ],
            [
              110.644419758,
              0.420600748
            ],
            [
              110.644441939,
              0.420714085
            ],
            [
              110.644390538,
              0.420875553
            ],
            [
              110.644201245,
              0.421057088
            ],
            [
              110.644048461,
              0.421234207
            ],
            [
              110.643969257,
              0.421420941
            ],
            [
              110.643757484,
              0.421881911
            ],
            [
              110.643692605,
              0.421997083
            ],
            [
              110.643627161,
              0.422183889
            ],
            [
              110.64355666,
              0.422416884
            ],
            [
              110.64350526,
              0.422569093
            ],
            [
              110.64329322,
              0.422720481
            ],
            [
              110.643120501,
              0.422816634
            ],
            [
              110.642926999,
              0.422919607
            ],
            [
              110.642407722,
              0.423067094
            ],
            [
              110.642214503,
              0.423142325
            ],
            [
              110.642023812,
              0.423178292
            ],
            [
              110.641776113,
              0.423179341
            ],
            [
              110.641647489,
              0.423176366
            ],
            [
              110.6414759,
              0.423106137
            ],
            [
              110.641339138,
              0.422992229
            ],
            [
              110.641150143,
              0.422792547
            ],
            [
              110.641040904,
              0.422641815
            ],
            [
              110.640726097,
              0.422376783
            ],
            [
              110.640379841,
              0.422003008
            ],
            [
              110.639608406,
              0.421423708
            ],
            [
              110.639256525,
              0.421230133
            ],
            [
              110.638524396,
              0.420907476
            ],
            [
              110.63800655,
              0.420498176
            ],
            [
              110.63757688,
              0.420246427
            ],
            [
              110.63726853,
              0.420027655
            ],
            [
              110.636806844,
              0.419775728
            ],
            [
              110.636589763,
              0.419640576
            ],
            [
              110.636170475,
              0.419592211
            ],
            [
              110.635853406,
              0.419655243
            ],
            [
              110.635644462,
              0.419684213
            ],
            [
              110.63539901,
              0.419666743
            ],
            [
              110.635307458,
              0.419650094
            ],
            [
              110.635099363,
              0.419533496
            ],
            [
              110.635015398,
              0.419410614
            ],
            [
              110.635012885,
              0.419091773
            ],
            [
              110.635052488,
              0.418988016
            ],
            [
              110.635136184,
              0.418849804
            ],
            [
              110.635231115,
              0.418686253
            ],
            [
              110.635336159,
              0.418444212
            ],
            [
              110.63534235,
              0.418183189
            ],
            [
              110.635335626,
              0.417822717
            ],
            [
              110.635241279,
              0.41752186
            ],
            [
              110.635149743,
              0.417151737
            ],
            [
              110.635114368,
              0.416922801
            ],
            [
              110.635067476,
              0.416742351
            ],
            [
              110.63480352,
              0.416070978
            ],
            [
              110.634695412,
              0.415760826
            ],
            [
              110.634669869,
              0.415462624
            ],
            [
              110.634673811,
              0.415245493
            ],
            [
              110.634610929,
              0.41467909
            ],
            [
              110.63419868,
              0.414235656
            ],
            [
              110.634007987,
              0.414329158
            ],
            [
              110.633875711,
              0.414368945
            ],
            [
              110.633726022,
              0.414420217
            ],
            [
              110.633593747,
              0.414448447
            ],
            [
              110.633481411,
              0.414467597
            ],
            [
              110.633235959,
              0.414461719
            ],
            [
              110.63301129,
              0.414442059
            ],
            [
              110.632855708,
              0.414399679
            ],
            [
              110.63274562,
              0.414392181
            ],
            [
              110.632536395,
              0.414430375
            ],
            [
              110.632159788,
              0.414520828
            ],
            [
              110.631940727,
              0.414690664
            ],
            [
              110.631714646,
              0.41484661
            ],
            [
              110.631520859,
              0.415028109
            ],
            [
              110.631160244,
              0.415458289
            ],
            [
              110.631014765,
              0.415575365
            ],
            [
              110.630954097,
              0.415727537
            ],
            [
              110.630868154,
              0.415884197
            ],
            [
              110.630819,
              0.416036441
            ],
            [
              110.630726601,
              0.416126059
            ],
            [
              110.630501083,
              0.416238113
            ],
            [
              110.630367965,
              0.416269772
            ],
            [
              110.630216029,
              0.416324436
            ],
            [
              110.630059881,
              0.416376732
            ],
            [
              110.629319584,
              0.416594711
            ],
            [
              110.628768577,
              0.416679643
            ],
            [
              110.628509646,
              0.416648249
            ],
            [
              110.628344798,
              0.416571164
            ],
            [
              110.62809121,
              0.416410424
            ],
            [
              110.62779915,
              0.41618713
            ],
            [
              110.627598641,
              0.415989675
            ],
            [
              110.627546975,
              0.415830005
            ],
            [
              110.627447004,
              0.415665455
            ],
            [
              110.627337763,
              0.415563211
            ],
            [
              110.62724172,
              0.415507262
            ],
            [
              110.626914553,
              0.415331217
            ],
            [
              110.626723026,
              0.415228297
            ],
            [
              110.626518027,
              0.414983662
            ],
            [
              110.626444169,
              0.414921035
            ],
            [
              110.62636975,
              0.414860458
            ],
            [
              110.626166713,
              0.414688412
            ],
            [
              110.625504239,
              0.414248323
            ],
            [
              110.625300353,
              0.41420799
            ],
            [
              110.624988061,
              0.414236389
            ],
            [
              110.624655267,
              0.414285496
            ],
            [
              110.624393243,
              0.414346516
            ],
            [
              110.624164364,
              0.414280631
            ],
            [
              110.623546266,
              0.413755268
            ],
            [
              110.623277787,
              0.4137308
            ],
            [
              110.623149162,
              0.413769385
            ],
            [
              110.622951448,
              0.413860801
            ],
            [
              110.62262904,
              0.414013915
            ],
            [
              110.622455754,
              0.414230189
            ],
            [
              110.622290873,
              0.414846233
            ],
            [
              110.622436336,
              0.415073408
            ],
            [
              110.622541083,
              0.415177914
            ],
            [
              110.622721374,
              0.415312852
            ],
            [
              110.622931434,
              0.415452562
            ],
            [
              110.623153289,
              0.415580787
            ],
            [
              110.623347341,
              0.415711167
            ],
            [
              110.623495617,
              0.415839
            ],
            [
              110.623382151,
              0.416016332
            ],
            [
              110.623093453,
              0.415947828
            ],
            [
              110.622903046,
              0.415932976
            ],
            [
              110.62270505,
              0.416061323
            ],
            [
              110.622580635,
              0.416148466
            ],
            [
              110.622370293,
              0.416043424
            ],
            [
              110.62195129,
              0.415918794
            ],
            [
              110.62168251,
              0.416328658
            ],
            [
              110.621796242,
              0.416465572
            ],
            [
              110.621972323,
              0.416556581
            ],
            [
              110.622212152,
              0.416680284
            ],
            [
              110.622429515,
              0.416766878
            ],
            [
              110.622596045,
              0.416911004
            ],
            [
              110.622652769,
              0.417022187
            ],
            [
              110.622622152,
              0.417142166
            ],
            [
              110.622635065,
              0.417259673
            ],
            [
              110.622641237,
              0.417390856
            ],
            [
              110.622626345,
              0.41755646
            ],
            [
              110.622563146,
              0.417763198
            ],
            [
              110.622305332,
              0.417882176
            ],
            [
              110.621681862,
              0.418126135
            ],
            [
              110.621409721,
              0.418334983
            ],
            [
              110.621082818,
              0.418518135
            ],
            [
              110.620695812,
              0.418772567
            ],
            [
              110.620263314,
              0.418964408
            ],
            [
              110.619862547,
              0.419214138
            ],
            [
              110.619570473,
              0.419291201
            ],
            [
              110.619388484,
              0.419424248
            ],
            [
              110.619250308,
              0.419502096
            ],
            [
              110.619118872,
              0.419598427
            ],
            [
              110.61888184,
              0.419698888
            ],
            [
              110.618773149,
              0.419857737
            ],
            [
              110.618722032,
              0.419954496
            ],
            [
              110.618844183,
              0.420211602
            ],
            [
              110.618925617,
              0.420399157
            ],
            [
              110.618971942,
              0.420672022
            ],
            [
              110.618833484,
              0.420772947
            ],
            [
              110.618702895,
              0.420774601
            ],
            [
              110.618599264,
              0.420817959
            ],
            [
              110.618421768,
              0.420955671
            ],
            [
              110.61829594,
              0.421232237
            ],
            [
              110.618221227,
              0.42143286
            ],
            [
              110.618075464,
              0.421607717
            ],
            [
              110.617972398,
              0.42160022
            ],
            [
              110.617823838,
              0.421532465
            ],
            [
              110.617517452,
              0.421373772
            ],
            [
              110.617210785,
              0.421235859
            ],
            [
              110.616993987,
              0.421073001
            ],
            [
              110.616477542,
              0.420783821
            ],
            [
              110.616055178,
              0.420462805
            ],
            [
              110.615630285,
              0.420194905
            ],
            [
              110.615276161,
              0.419968957
            ],
            [
              110.614837788,
              0.419682502
            ],
            [
              110.614462898,
              0.419121422
            ],
            [
              110.614425843,
              0.41881859
            ],
            [
              110.614434844,
              0.418520566
            ],
            [
              110.614538775,
              0.418084437
            ],
            [
              110.614348103,
              0.417743818
            ],
            [
              110.613503374,
              0.417168791
            ],
            [
              110.613504208,
              0.417351323
            ],
            [
              110.613525822,
              0.41755241
            ],
            [
              110.613540698,
              0.417735014
            ],
            [
              110.613576072,
              0.41796395
            ],
            [
              110.613528599,
              0.418203978
            ],
            [
              110.612980107,
              0.418554632
            ],
            [
              110.612738032,
              0.418419338
            ],
            [
              110.612463945,
              0.418226155
            ],
            [
              110.612167111,
              0.418021308
            ],
            [
              110.612012945,
              0.417740946
            ],
            [
              110.611879561,
              0.417463024
            ],
            [
              110.611709954,
              0.417097103
            ],
            [
              110.611687508,
              0.41667415
            ],
            [
              110.611690621,
              0.416182072
            ],
            [
              110.61179036,
              0.415313874
            ],
            [
              110.611758362,
              0.414964817
            ],
            [
              110.611718775,
              0.414731286
            ],
            [
              110.611531463,
              0.414605537
            ],
            [
              110.611455638,
              0.414593588
            ],
            [
              110.611315782,
              0.414585948
            ],
            [
              110.611127903,
              0.414566466
            ],
            [
              110.610965301,
              0.41451479
            ],
            [
              110.610630844,
              0.414127233
            ],
            [
              110.610453367,
              0.413876768
            ],
            [
              110.610344128,
              0.413737593
            ],
            [
              110.610191075,
              0.413681359
            ],
            [
              110.610074249,
              0.413641454
            ],
            [
              110.609897886,
              0.41358741
            ],
            [
              110.609728828,
              0.413482582
            ],
            [
              110.609521298,
              0.41331976
            ],
            [
              110.60935645,
              0.413251898
            ],
            [
              110.609175593,
              0.413204746
            ],
            [
              110.608789738,
              0.41291165
            ],
            [
              110.60886277,
              0.41261628
            ],
            [
              110.608940293,
              0.412383321
            ],
            [
              110.608958847,
              0.41198373
            ],
            [
              110.608889211,
              0.411759246
            ],
            [
              110.60863198,
              0.411448345
            ],
            [
              110.608333464,
              0.411174161
            ],
            [
              110.608054602,
              0.410999425
            ],
            [
              110.607250043,
              0.410228191
            ],
            [
              110.606978769,
              0.40994952
            ],
            [
              110.606793986,
              0.409791469
            ],
            [
              110.606637008,
              0.40960119
            ],
            [
              110.606474688,
              0.409526437
            ],
            [
              110.606288774,
              0.409530068
            ],
            [
              110.606091345,
              0.409556776
            ],
            [
              110.60581388,
              0.409543792
            ],
            [
              110.605539791,
              0.409389872
            ],
            [
              110.60544067,
              0.409105202
            ],
            [
              110.605265438,
              0.408903259
            ],
            [
              110.605356157,
              0.40870504
            ],
            [
              110.605644306,
              0.408489373
            ],
            [
              110.605852136,
              0.408266316
            ],
            [
              110.6059041,
              0.408077143
            ],
            [
              110.605681129,
              0.407798757
            ],
            [
              110.605474715,
              0.407779203
            ],
            [
              110.605342998,
              0.40789635
            ],
            [
              110.605274458,
              0.408210203
            ],
            [
              110.605169696,
              0.408431463
            ],
            [
              110.605005678,
              0.408617733
            ],
            [
              110.604915808,
              0.40867505
            ],
            [
              110.604858516,
              0.408688582
            ],
            [
              110.604746183,
              0.408660305
            ],
            [
              110.604565894,
              0.408509181
            ],
            [
              110.60418032,
              0.40822068
            ],
            [
              110.603790256,
              0.407862876
            ],
            [
              110.60357374,
              0.407674608
            ],
            [
              110.602944982,
              0.406985125
            ],
            [
              110.602714988,
              0.406762153
            ],
            [
              110.602356656,
              0.406462238
            ],
            [
              110.601950576,
              0.40627541
            ],
            [
              110.601657109,
              0.406144566
            ],
            [
              110.601641103,
              0.406116787
            ],
            [
              110.601639703,
              0.406022111
            ],
            [
              110.6015695,
              0.405904036
            ],
            [
              110.601522325,
              0.405783771
            ],
            [
              110.601491158,
              0.405670504
            ],
            [
              110.601470942,
              0.405594239
            ],
            [
              110.601458028,
              0.4054926
            ],
            [
              110.601399339,
              0.405369967
            ],
            [
              110.601280832,
              0.405263198
            ],
            [
              110.601155584,
              0.405160988
            ],
            [
              110.601087343,
              0.40510755
            ],
            [
              110.600966589,
              0.404996152
            ],
            [
              110.600877284,
              0.40498187
            ],
            [
              110.600660202,
              0.404899976
            ],
            [
              110.600529614,
              0.40489011
            ],
            [
              110.60039425,
              0.404910212
            ],
            [
              110.600249336,
              0.404960281
            ],
            [
              110.600152727,
              0.404994415
            ],
            [
              110.60006342,
              0.40500784
            ],
            [
              110.599941818,
              0.405011863
            ],
            [
              110.599787918,
              0.405064194
            ],
            [
              110.599659294,
              0.405072775
            ],
            [
              110.599390531,
              0.405142983
            ],
            [
              110.599292239,
              0.405117109
            ],
            [
              110.599220906,
              0.405149088
            ],
            [
              110.599133848,
              0.405125583
            ],
            [
              110.598986686,
              0.405191767
            ],
            [
              110.598826329,
              0.405188685
            ],
            [
              110.598616835,
              0.404989108
            ],
            [
              110.598453681,
              0.404769002
            ],
            [
              110.598407355,
              0.404524092
            ],
            [
              110.598420565,
              0.404302545
            ],
            [
              110.598424225,
              0.404106337
            ],
            [
              110.598307413,
              0.403789506
            ],
            [
              110.598189469,
              0.403641213
            ],
            [
              110.598062258,
              0.403497443
            ],
            [
              110.598001322,
              0.403381736
            ],
            [
              110.597959489,
              0.403152977
            ],
            [
              110.597992636,
              0.402989247
            ],
            [
              110.598044317,
              0.402823293
            ],
            [
              110.598057245,
              0.402641009
            ],
            [
              110.598035911,
              0.40244699
            ],
            [
              110.598034796,
              0.402283082
            ],
            [
              110.598037607,
              0.402220778
            ],
            [
              110.598148542,
              0.402112819
            ],
            [
              110.598280262,
              0.401954219
            ],
            [
              110.598379965,
              0.401830038
            ],
            [
              110.598585265,
              0.401648718
            ],
            [
              110.598674584,
              0.401365223
            ],
            [
              110.598724019,
              0.401199268
            ],
            [
              110.598812774,
              0.400989635
            ],
            [
              110.598905455,
              0.400867751
            ],
            [
              110.599073117,
              0.400810862
            ],
            [
              110.599256502,
              0.40082331
            ],
            [
              110.599428373,
              0.40083802
            ],
            [
              110.599490156,
              0.400866013
            ],
            [
              110.599595469,
              0.400868845
            ],
            [
              110.59988192,
              0.400891053
            ],
            [
              110.600123162,
              0.400823
            ],
            [
              110.600279591,
              0.400733738
            ],
            [
              110.600443042,
              0.400653771
            ],
            [
              110.600610986,
              0.400562248
            ],
            [
              110.600845487,
              0.400503418
            ],
            [
              110.601160577,
              0.400666564
            ],
            [
              110.601349571,
              0.400829103
            ],
            [
              110.601557103,
              0.400943227
            ],
            [
              110.601711285,
              0.400886301
            ],
            [
              110.601630698,
              0.40062273
            ],
            [
              110.601563306,
              0.400440018
            ],
            [
              110.601505182,
              0.400266601
            ],
            [
              110.601517827,
              0.40009817
            ],
            [
              110.601546762,
              0.399925181
            ],
            [
              110.601596197,
              0.399749967
            ],
            [
              110.601599291,
              0.399664585
            ],
            [
              110.601604914,
              0.399521493
            ],
            [
              110.601594529,
              0.399392183
            ],
            [
              110.601542297,
              0.399320334
            ],
            [
              110.601396833,
              0.399151118
            ],
            [
              110.601059561,
              0.398900151
            ],
            [
              110.600504079,
              0.398671154
            ],
            [
              110.600347098,
              0.398536501
            ],
            [
              110.600183098,
              0.398371772
            ],
            [
              110.600081161,
              0.398241998
            ],
            [
              110.599985401,
              0.398146893
            ],
            [
              110.599874197,
              0.398003194
            ],
            [
              110.599692505,
              0.397803796
            ],
            [
              110.599609107,
              0.397604862
            ],
            [
              110.599552947,
              0.397452225
            ],
            [
              110.599518134,
              0.397230428
            ],
            [
              110.599560831,
              0.397018283
            ],
            [
              110.599674579,
              0.396829537
            ],
            [
              110.599733565,
              0.396610537
            ],
            [
              110.599910508,
              0.396267463
            ],
            [
              110.599978197,
              0.396101615
            ],
            [
              110.599995052,
              0.395995489
            ],
            [
              110.60000966,
              0.395912475
            ],
            [
              110.599995066,
              0.395718492
            ],
            [
              110.59998945,
              0.395688842
            ],
            [
              110.599944528,
              0.39544584
            ],
            [
              110.599918694,
              0.395391592
            ],
            [
              110.599824904,
              0.395195944
            ],
            [
              110.59975302,
              0.394985525
            ],
            [
              110.599750222,
              0.39477776
            ],
            [
              110.599744897,
              0.394556142
            ],
            [
              110.599783665,
              0.394295474
            ],
            [
              110.599844615,
              0.394111107
            ],
            [
              110.599869056,
              0.393935786
            ],
            [
              110.600112573,
              0.39324677
            ],
            [
              110.600172674,
              0.393189381
            ],
            [
              110.600417009,
              0.393022057
            ],
            [
              110.600658533,
              0.392905552
            ],
            [
              110.600886014,
              0.392828168
            ],
            [
              110.601068001,
              0.392715971
            ],
            [
              110.601357828,
              0.392611237
            ],
            [
              110.601695961,
              0.392460527
            ],
            [
              110.602034941,
              0.392212915
            ],
            [
              110.602196147,
              0.392082128
            ],
            [
              110.602284335,
              0.391969468
            ],
            [
              110.602370561,
              0.391762131
            ],
            [
              110.602396684,
              0.391656076
            ],
            [
              110.602405955,
              0.391590273
            ],
            [
              110.60241382,
              0.391536133
            ],
            [
              110.602426466,
              0.391376926
            ],
            [
              110.602409343,
              0.391189834
            ],
            [
              110.602360204,
              0.391037233
            ],
            [
              110.602288319,
              0.390856853
            ],
            [
              110.602202673,
              0.39066944
            ],
            [
              110.602141738,
              0.390525991
            ],
            [
              110.602103829,
              0.390452517
            ],
            [
              110.602065077,
              0.390377876
            ],
            [
              110.601967352,
              0.390268918
            ],
            [
              110.601901077,
              0.390222407
            ],
            [
              110.601728372,
              0.390029972
            ],
            [
              110.601591611,
              0.38991154
            ],
            [
              110.601275405,
              0.389593746
            ],
            [
              110.601102417,
              0.389454356
            ],
            [
              110.600901625,
              0.389340268
            ],
            [
              110.600751102,
              0.389231025
            ],
            [
              110.600611811,
              0.389151856
            ],
            [
              110.600397542,
              0.38898921
            ],
            [
              110.600281279,
              0.388923967
            ],
            [
              110.600137778,
              0.388803238
            ],
            [
              110.599934458,
              0.388696041
            ],
            [
              110.599772138,
              0.388630583
            ],
            [
              110.599630883,
              0.388526005
            ],
            [
              110.599439077,
              0.38841425
            ],
            [
              110.599205705,
              0.388378475
            ],
            [
              110.598931051,
              0.388305555
            ],
            [
              110.598894544,
              0.388273076
            ],
            [
              110.598606693,
              0.388165451
            ],
            [
              110.598156241,
              0.387996998
            ],
            [
              110.597961623,
              0.387975255
            ],
            [
              110.597796774,
              0.387953689
            ],
            [
              110.597604968,
              0.387862679
            ],
            [
              110.597488707,
              0.387755946
            ],
            [
              110.597440967,
              0.387725693
            ],
            [
              110.597295784,
              0.387526438
            ],
            [
              110.597251422,
              0.387320756
            ],
            [
              110.597133493,
              0.386858501
            ],
            [
              110.59718321,
              0.386660245
            ],
            [
              110.597250616,
              0.386545145
            ],
            [
              110.597421937,
              0.386305936
            ],
            [
              110.597496082,
              0.386204725
            ],
            [
              110.597537648,
              0.386156452
            ],
            [
              110.597703075,
              0.385841014
            ],
            [
              110.597775821,
              0.385624382
            ],
            [
              110.597788467,
              0.385442098
            ],
            [
              110.59775169,
              0.385178741
            ],
            [
              110.597682335,
              0.384952172
            ],
            [
              110.597685429,
              0.384836786
            ],
            [
              110.597702291,
              0.384588664
            ],
            [
              110.597706225,
              0.384529858
            ],
            [
              110.597703428,
              0.384299016
            ],
            [
              110.597700066,
              0.384116625
            ],
            [
              110.597661043,
              0.383837118
            ],
            [
              110.597653471,
              0.383624723
            ],
            [
              110.597712456,
              0.383419541
            ],
            [
              110.597777897,
              0.383262916
            ],
            [
              110.597896138,
              0.383081132
            ],
            [
              110.597995559,
              0.38296621
            ],
            [
              110.598106211,
              0.382885958
            ],
            [
              110.598194118,
              0.382782521
            ],
            [
              110.598245233,
              0.38270891
            ],
            [
              110.598305052,
              0.382674562
            ],
            [
              110.598335104,
              0.382635478
            ],
            [
              110.598417952,
              0.382598975
            ],
            [
              110.598427222,
              0.382542467
            ],
            [
              110.598465988,
              0.38230371
            ],
            [
              110.598432857,
              0.382137362
            ],
            [
              110.598301153,
              0.381977406
            ],
            [
              110.598157934,
              0.381838195
            ],
            [
              110.598064983,
              0.381708457
            ],
            [
              110.597986078,
              0.381514188
            ],
            [
              110.597943677,
              0.381389294
            ],
            [
              110.597838931,
              0.381268743
            ],
            [
              110.597798779,
              0.381125437
            ],
            [
              110.597772669,
              0.380949866
            ],
            [
              110.597734499,
              0.380441425
            ],
            [
              110.597734527,
              0.379837956
            ],
            [
              110.597477627,
              0.378458582
            ],
            [
              110.596364496,
              0.376303274
            ],
            [
              110.595422628,
              0.375182487
            ],
            [
              110.595037056,
              0.374876565
            ],
            [
              110.596189075,
              0.374110514
            ],
            [
              110.597011402,
              0.373182873
            ],
            [
              110.597840526,
              0.37096694
            ],
            [
              110.597804907,
              0.369932072
            ],
            [
              110.597482881,
              0.367899114
            ],
            [
              110.598455208,
              0.36616498
            ],
            [
              110.601001218,
              0.36700453
            ],
            [
              110.601690373,
              0.367308805
            ],
            [
              110.602549718,
              0.367519577
            ],
            [
              110.603067283,
              0.367813913
            ],
            [
              110.603459595,
              0.368143938
            ],
            [
              110.604373671,
              0.369078798
            ],
            [
              110.604811199,
              0.369373873
            ],
            [
              110.605695531,
              0.36976845
            ],
            [
              110.606556842,
              0.369994489
            ],
            [
              110.606669736,
              0.37002411
            ],
            [
              110.60739963,
              0.369936993
            ],
            [
              110.608296916,
              0.369526274
            ],
            [
              110.608761431,
              0.369211519
            ],
            [
              110.60951943,
              0.368640984
            ],
            [
              110.61101632,
              0.367741747
            ],
            [
              110.612545231,
              0.366692669
            ],
            [
              110.612641562,
              0.366593508
            ],
            [
              110.61277664,
              0.366676175
            ],
            [
              110.61306533,
              0.366878546
            ],
            [
              110.61345793,
              0.367057738
            ],
            [
              110.613835369,
              0.3671425
            ],
            [
              110.613931975,
              0.367164203
            ],
            [
              110.61433834,
              0.367257378
            ],
            [
              110.61483064,
              0.367345608
            ],
            [
              110.6151786,
              0.367230838
            ],
            [
              110.615341487,
              0.367175785
            ],
            [
              110.615608287,
              0.36701613
            ],
            [
              110.615803195,
              0.366825124
            ],
            [
              110.616124482,
              0.36654754
            ],
            [
              110.616247211,
              0.366461704
            ],
            [
              110.616332868,
              0.366401735
            ],
            [
              110.616509522,
              0.366197264
            ],
            [
              110.616649949,
              0.365979327
            ],
            [
              110.616849068,
              0.365820021
            ],
            [
              110.616953832,
              0.365511717
            ],
            [
              110.617134978,
              0.365338876
            ],
            [
              110.617361339,
              0.365152254
            ],
            [
              110.617673355,
              0.364978817
            ],
            [
              110.617967964,
              0.364674197
            ],
            [
              110.618108389,
              0.364483471
            ],
            [
              110.618325766,
              0.364238042
            ],
            [
              110.618647619,
              0.36387444
            ],
            [
              110.619339611,
              0.363531775
            ],
            [
              110.619895387,
              0.363447759
            ],
            [
              110.620261599,
              0.363382678
            ],
            [
              110.620595507,
              0.363507867
            ],
            [
              110.62087999,
              0.363578984
            ],
            [
              110.621024052,
              0.36375032
            ],
            [
              110.62122709,
              0.363889675
            ],
            [
              110.621687083,
              0.364240588
            ],
            [
              110.621930844,
              0.364348104
            ],
            [
              110.622133602,
              0.364482971
            ],
            [
              110.622332148,
              0.364595185
            ],
            [
              110.622670545,
              0.364815404
            ],
            [
              110.623076623,
              0.365062485
            ],
            [
              110.623265901,
              0.365183816
            ],
            [
              110.623667202,
              0.365494262
            ],
            [
              110.623834012,
              0.365629269
            ],
            [
              110.624456607,
              0.366051859
            ],
            [
              110.625133407,
              0.366379139
            ],
            [
              110.625580209,
              0.36654455
            ],
            [
              110.626248877,
              0.366573134
            ],
            [
              110.626578578,
              0.366580675
            ],
            [
              110.626777413,
              0.366507317
            ],
            [
              110.627084929,
              0.366478739
            ],
            [
              110.627558977,
              0.366530886
            ],
            [
              110.627730852,
              0.366448586
            ],
            [
              110.627821563,
              0.366424346
            ],
            [
              110.628092572,
              0.366351874
            ],
            [
              110.628341112,
              0.366337148
            ],
            [
              110.628612118,
              0.366344969
            ],
            [
              110.628987031,
              0.366429236
            ],
            [
              110.629614125,
              0.366706931
            ],
            [
              110.63023223,
              0.367048097
            ],
            [
              110.630489468,
              0.367232478
            ],
            [
              110.631237587,
              0.36790341
            ],
            [
              110.631557443,
              0.368304783
            ],
            [
              110.631742223,
              0.368543797
            ],
            [
              110.632219908,
              0.368948959
            ],
            [
              110.632576278,
              0.369214344
            ],
            [
              110.633009032,
              0.369551827
            ],
            [
              110.63368526,
              0.37014165
            ],
            [
              110.63433453,
              0.370695354
            ],
            [
              110.63490685,
              0.371276584
            ],
            [
              110.635195257,
              0.371555891
            ],
            [
              110.635488441,
              0.371780845
            ],
            [
              110.63588525,
              0.372068673
            ],
            [
              110.636182643,
              0.372384133
            ],
            [
              110.636448585,
              0.372627321
            ],
            [
              110.63656597,
              0.372717302
            ],
            [
              110.636822929,
              0.372865495
            ],
            [
              110.636944809,
              0.372946394
            ],
            [
              110.637183793,
              0.37313088
            ],
            [
              110.637391326,
              0.373243059
            ],
            [
              110.6375719,
              0.373332761
            ],
            [
              110.637937261,
              0.373503046
            ],
            [
              110.638271452,
              0.373592046
            ],
            [
              110.638447536,
              0.373618382
            ],
            [
              110.639129401,
              0.373723866
            ],
            [
              110.639445621,
              0.373763142
            ],
            [
              110.64000532,
              0.37395517
            ],
            [
              110.640479365,
              0.374120441
            ],
            [
              110.641111237,
              0.374366471
            ],
            [
              110.641354999,
              0.374455857
            ],
            [
              110.641756587,
              0.374639572
            ],
            [
              110.642189909,
              0.374850325
            ],
            [
              110.642857728,
              0.375091621
            ],
            [
              110.643412933,
              0.375297289
            ],
            [
              110.643656696,
              0.375373104
            ],
            [
              110.644207692,
              0.375497278
            ],
            [
              110.644483475,
              0.375464316
            ],
            [
              110.644899117,
              0.3753628
            ],
            [
              110.645130256,
              0.375103765
            ],
            [
              110.645194586,
              0.374623669
            ],
            [
              110.645394845,
              0.374066006
            ],
            [
              110.645658007,
              0.373625746
            ],
            [
              110.645924804,
              0.373556631
            ],
            [
              110.646150597,
              0.373528439
            ],
            [
              110.646444638,
              0.373395818
            ],
            [
              110.646589272,
              0.373318216
            ],
            [
              110.646662015,
              0.373177529
            ],
            [
              110.646770988,
              0.37296429
            ],
            [
              110.647120086,
              0.372501027
            ],
            [
              110.647553982,
              0.372399406
            ],
            [
              110.648294542,
              0.372540832
            ],
            [
              110.648538304,
              0.372630253
            ],
            [
              110.648777574,
              0.37271515
            ],
            [
              110.649224378,
              0.372889573
            ],
            [
              110.649481338,
              0.373028719
            ],
            [
              110.649738576,
              0.373231194
            ],
            [
              110.650130892,
              0.373532663
            ],
            [
              110.650356116,
              0.373708102
            ],
            [
              110.650703785,
              0.373887574
            ],
            [
              110.651018297,
              0.374506221
            ],
            [
              110.651224402,
              0.375243041
            ],
            [
              110.651408898,
              0.375590692
            ],
            [
              110.651593395,
              0.375906677
            ],
            [
              110.651831813,
              0.376235989
            ],
            [
              110.652463685,
              0.376500113
            ],
            [
              110.652540064,
              0.376717035
            ],
            [
              110.652715575,
              0.377001391
            ],
            [
              110.652927032,
              0.377339855
            ],
            [
              110.653161238,
              0.377632978
            ],
            [
              110.653544854,
              0.377825846
            ],
            [
              110.653951224,
              0.377837524
            ],
            [
              110.654110189,
              0.377547103
            ],
            [
              110.654124811,
              0.377067252
            ],
            [
              110.654112185,
              0.376777637
            ],
            [
              110.653991448,
              0.376207909
            ],
            [
              110.653956361,
              0.375764492
            ],
            [
              110.653961996,
              0.375284675
            ],
            [
              110.653953581,
              0.375031249
            ],
            [
              110.654058633,
              0.374550977
            ],
            [
              110.654176592,
              0.374364844
            ],
            [
              110.654407445,
              0.374232538
            ],
            [
              110.654529613,
              0.374105247
            ],
            [
              110.654710475,
              0.374027435
            ],
            [
              110.654999736,
              0.374062327
            ],
            [
              110.655229735,
              0.374210624
            ],
            [
              110.655328583,
              0.374382171
            ],
            [
              110.655490617,
              0.374616767
            ],
            [
              110.655639168,
              0.374896704
            ],
            [
              110.655720042,
              0.375095497
            ],
            [
              110.655841355,
              0.375289556
            ],
            [
              110.655976712,
              0.375460927
            ],
            [
              110.656134541,
              0.375487368
            ],
            [
              110.656275249,
              0.375273988
            ],
            [
              110.656668421,
              0.375244989
            ],
            [
              110.656988853,
              0.375334024
            ],
            [
              110.657151173,
              0.375428319
            ],
            [
              110.657214075,
              0.375572899
            ],
            [
              110.657245239,
              0.375785473
            ],
            [
              110.657443216,
              0.376110436
            ],
            [
              110.657718428,
              0.376321924
            ],
            [
              110.657826547,
              0.376407417
            ],
            [
              110.657835246,
              0.376583907
            ],
            [
              110.657811924,
              0.376905363
            ],
            [
              110.657720925,
              0.377104962
            ],
            [
              110.657652674,
              0.377295373
            ],
            [
              110.657665298,
              0.377652877
            ],
            [
              110.65768776,
              0.377793109
            ],
            [
              110.657768351,
              0.378028091
            ],
            [
              110.657772556,
              0.378200057
            ],
            [
              110.657767777,
              0.37833587
            ],
            [
              110.657690255,
              0.378616859
            ],
            [
              110.657612449,
              0.378961213
            ],
            [
              110.657688828,
              0.379187182
            ],
            [
              110.657781757,
              0.379910923
            ],
            [
              110.657947998,
              0.380285856
            ],
            [
              110.658037287,
              0.380719946
            ],
            [
              110.658009755,
              0.3809645
            ],
            [
              110.657927742,
              0.3811776
            ],
            [
              110.657673847,
              0.381645002
            ],
            [
              110.657357055,
              0.381845617
            ],
            [
              110.657243591,
              0.382000015
            ],
            [
              110.657243304,
              0.382135828
            ],
            [
              110.657333448,
              0.382257614
            ],
            [
              110.657491273,
              0.382401704
            ],
            [
              110.657793732,
              0.382463668
            ],
            [
              110.658096474,
              0.382462266
            ],
            [
              110.658340523,
              0.382424956
            ],
            [
              110.658521101,
              0.382433163
            ],
            [
              110.658846308,
              0.382504069
            ],
            [
              110.659180218,
              0.382629258
            ],
            [
              110.659387751,
              0.38276409
            ],
            [
              110.659531811,
              0.383016885
            ],
            [
              110.659815443,
              0.383355069
            ],
            [
              110.659919065,
              0.383531104
            ],
            [
              110.660072115,
              0.383679752
            ],
            [
              110.660103278,
              0.38392855
            ],
            [
              110.660129952,
              0.38407327
            ],
            [
              110.660106914,
              0.38431779
            ],
            [
              110.660137794,
              0.384620906
            ],
            [
              110.660340267,
              0.38487798
            ],
            [
              110.660525052,
              0.385040059
            ],
            [
              110.660479262,
              0.385379749
            ],
            [
              110.660365224,
              0.385841962
            ],
            [
              110.660341903,
              0.38612267
            ],
            [
              110.660047292,
              0.38643634
            ],
            [
              110.659942809,
              0.386731039
            ],
            [
              110.65997369,
              0.387007014
            ],
            [
              110.659954864,
              0.387269593
            ],
            [
              110.660071679,
              0.387590453
            ],
            [
              110.660351099,
              0.387919554
            ],
            [
              110.660422705,
              0.388113859
            ],
            [
              110.660435899,
              0.388254126
            ],
            [
              110.660684441,
              0.388212222
            ],
            [
              110.6607482,
              0.388012763
            ],
            [
              110.660870651,
              0.387862819
            ],
            [
              110.661146149,
              0.387929482
            ],
            [
              110.661312964,
              0.388005647
            ],
            [
              110.66158846,
              0.388122034
            ],
            [
              110.661692657,
              0.387963148
            ],
            [
              110.66183308,
              0.387858369
            ],
            [
              110.662099879,
              0.387766636
            ],
            [
              110.662257709,
              0.387797565
            ],
            [
              110.662397275,
              0.388045873
            ],
            [
              110.662505109,
              0.388244526
            ],
            [
              110.662255708,
              0.388666622
            ],
            [
              110.662033839,
              0.38887134
            ],
            [
              110.661711413,
              0.389483883
            ],
            [
              110.66160215,
              0.389927931
            ],
            [
              110.661599057,
              0.390020593
            ],
            [
              110.661598494,
              0.390042363
            ],
            [
              110.661597088,
              0.390081874
            ],
            [
              110.661831865,
              0.390157724
            ],
            [
              110.662320247,
              0.390015145
            ],
            [
              110.662677194,
              0.38995918
            ],
            [
              110.662897924,
              0.390157343
            ],
            [
              110.662915607,
              0.390415223
            ],
            [
              110.662829384,
              0.390555945
            ],
            [
              110.662675481,
              0.390651711
            ],
            [
              110.662507813,
              0.390851625
            ],
            [
              110.662308692,
              0.39103362
            ],
            [
              110.662190165,
              0.391378149
            ],
            [
              110.662185385,
              0.391513963
            ],
            [
              110.662201927,
              0.392219994
            ],
            [
              110.662295995,
              0.392513748
            ],
            [
              110.662930109,
              0.392956731
            ],
            [
              110.662961558,
              0.39307226
            ],
            [
              110.663169937,
              0.393132347
            ],
            [
              110.663414542,
              0.393251454
            ],
            [
              110.663604101,
              0.393391057
            ],
            [
              110.663886613,
              0.393660539
            ],
            [
              110.66399697,
              0.393966062
            ],
            [
              110.663970281,
              0.394213161
            ],
            [
              110.66375796,
              0.394392258
            ],
            [
              110.663465037,
              0.394637968
            ],
            [
              110.663264231,
              0.394814838
            ],
            [
              110.66316902,
              0.394987614
            ],
            [
              110.663218723,
              0.395117245
            ],
            [
              110.663362508,
              0.395203481
            ],
            [
              110.663527358,
              0.395264415
            ],
            [
              110.663703723,
              0.395290751
            ],
            [
              110.663939906,
              0.395310445
            ],
            [
              110.664212597,
              0.395364986
            ],
            [
              110.664527138,
              0.395308879
            ],
            [
              110.664889699,
              0.395317693
            ],
            [
              110.665081789,
              0.39539029
            ],
            [
              110.665223044,
              0.395555053
            ],
            [
              110.665318241,
              0.395714972
            ],
            [
              110.66528706,
              0.395918143
            ],
            [
              110.665371858,
              0.396292862
            ],
            [
              110.665464526,
              0.396492044
            ],
            [
              110.665570955,
              0.396707448
            ],
            [
              110.665585833,
              0.39687157
            ],
            [
              110.665555217,
              0.396982326
            ],
            [
              110.665455796,
              0.397113505
            ],
            [
              110.66533278,
              0.397325437
            ],
            [
              110.665223808,
              0.397507365
            ],
            [
              110.665151626,
              0.397673356
            ],
            [
              110.665159482,
              0.397846666
            ],
            [
              110.665176323,
              0.398091682
            ],
            [
              110.665183613,
              0.398364334
            ],
            [
              110.665262237,
              0.398632748
            ],
            [
              110.665245933,
              0.399023118
            ],
            [
              110.665149027,
              0.399431579
            ],
            [
              110.66497714,
              0.399777237
            ],
            [
              110.664771559,
              0.399986444
            ],
            [
              110.664518238,
              0.400114507
            ],
            [
              110.664238242,
              0.400131529
            ],
            [
              110.66403239,
              0.400068085
            ],
            [
              110.663828786,
              0.39998386
            ],
            [
              110.663496276,
              0.399952111
            ],
            [
              110.663495428,
              0.400065306
            ],
            [
              110.663489805,
              0.400220062
            ],
            [
              110.66353024,
              0.400363546
            ],
            [
              110.663517313,
              0.400578344
            ],
            [
              110.663517864,
              0.400846331
            ],
            [
              110.663491175,
              0.401074947
            ],
            [
              110.663473755,
              0.401266597
            ],
            [
              110.663488068,
              0.40151391
            ],
            [
              110.663178571,
              0.401835743
            ],
            [
              110.662988996,
              0.402072763
            ],
            [
              110.662657318,
              0.402276664
            ],
            [
              110.662310198,
              0.402385745
            ],
            [
              110.662150957,
              0.402523566
            ],
            [
              110.662252893,
              0.402736638
            ],
            [
              110.662368873,
              0.402878181
            ],
            [
              110.66250507,
              0.40310069
            ],
            [
              110.662565724,
              0.403269656
            ],
            [
              110.662702485,
              0.403434418
            ],
            [
              110.662950735,
              0.403689834
            ],
            [
              110.663087215,
              0.403866153
            ],
            [
              110.663298392,
              0.404186064
            ],
            [
              110.663466887,
              0.404392565
            ],
            [
              110.6635017,
              0.404649209
            ],
            [
              110.663539041,
              0.404894296
            ],
            [
              110.663526395,
              0.405097574
            ],
            [
              110.663437924,
              0.405275014
            ],
            [
              110.663333726,
              0.405443125
            ],
            [
              110.66319695,
              0.405636502
            ],
            [
              110.663164087,
              0.405747222
            ],
            [
              110.663168014,
              0.405874306
            ],
            [
              110.663213225,
              0.405976195
            ],
            [
              110.663311234,
              0.406041402
            ],
            [
              110.663457546,
              0.406150751
            ],
            [
              110.66358897,
              0.406368631
            ],
            [
              110.66352381,
              0.406502285
            ],
            [
              110.66338114,
              0.406598582
            ],
            [
              110.663148319,
              0.406749865
            ],
            [
              110.663048615,
              0.40691801
            ],
            [
              110.663007035,
              0.407301311
            ],
            [
              110.663161485,
              0.407553966
            ],
            [
              110.663353575,
              0.407631193
            ],
            [
              110.66355044,
              0.407687675
            ],
            [
              110.663768087,
              0.407753489
            ],
            [
              110.663920858,
              0.407858244
            ],
            [
              110.664055375,
              0.407981411
            ],
            [
              110.664246319,
              0.408590052
            ],
            [
              110.664127795,
              0.408841247
            ],
            [
              110.664037642,
              0.408942458
            ],
            [
              110.663892728,
              0.408980973
            ],
            [
              110.663734616,
              0.408973227
            ],
            [
              110.663416431,
              0.40887684
            ],
            [
              110.663077463,
              0.408780347
            ],
            [
              110.662791858,
              0.408619465
            ],
            [
              110.662584045,
              0.408454346
            ],
            [
              110.662475651,
              0.408218125
            ],
            [
              110.66238523,
              0.408007387
            ],
            [
              110.662356592,
              0.407820116
            ],
            [
              110.662385527,
              0.407621575
            ],
            [
              110.662395925,
              0.407448337
            ],
            [
              110.662362512,
              0.407279514
            ],
            [
              110.662324605,
              0.407133733
            ],
            [
              110.662231656,
              0.406948439
            ],
            [
              110.662113147,
              0.406820749
            ],
            [
              110.662005871,
              0.406737023
            ],
            [
              110.661745257,
              0.406636328
            ],
            [
              110.661390566,
              0.406468127
            ],
            [
              110.661107488,
              0.406297987
            ],
            [
              110.660807558,
              0.406192483
            ],
            [
              110.660581207,
              0.406082706
            ],
            [
              110.66035935,
              0.405968335
            ],
            [
              110.660155745,
              0.405900296
            ],
            [
              110.659864799,
              0.405850277
            ],
            [
              110.65959913,
              0.405772658
            ],
            [
              110.659414063,
              0.405644612
            ],
            [
              110.659190241,
              0.405509461
            ],
            [
              110.659032979,
              0.405342294
            ],
            [
              110.65887881,
              0.405075785
            ],
            [
              110.658813099,
              0.404946048
            ],
            [
              110.658784178,
              0.40482808
            ],
            [
              110.658790084,
              0.404624802
            ],
            [
              110.658835309,
              0.40438244
            ],
            [
              110.658849918,
              0.404241573
            ],
            [
              110.658876607,
              0.404031476
            ],
            [
              110.65886173,
              0.403853465
            ],
            [
              110.658826071,
              0.40368231
            ],
            [
              110.658681438,
              0.403711601
            ],
            [
              110.658559552,
              0.403766444
            ],
            [
              110.658460413,
              0.403839842
            ],
            [
              110.658372507,
              0.403924868
            ],
            [
              110.658216077,
              0.404021093
            ],
            [
              110.658048416,
              0.404047945
            ],
            [
              110.657931588,
              0.404019632
            ],
            [
              110.657767303,
              0.403894025
            ],
            [
              110.657715355,
              0.403745876
            ],
            [
              110.65779203,
              0.403596106
            ],
            [
              110.657949024,
              0.403458286
            ],
            [
              110.658102925,
              0.403410582
            ],
            [
              110.658245593,
              0.40334429
            ],
            [
              110.658676974,
              0.403002284
            ],
            [
              110.658684562,
              0.402872938
            ],
            [
              110.658626437,
              0.402680896
            ],
            [
              110.658460188,
              0.402492878
            ],
            [
              110.658338868,
              0.402457603
            ],
            [
              110.658212491,
              0.402461555
            ],
            [
              110.658058873,
              0.402458439
            ],
            [
              110.657831393,
              0.402496526
            ],
            [
              110.657530331,
              0.402580483
            ],
            [
              110.657265777,
              0.402701548
            ],
            [
              110.656943932,
              0.402829254
            ],
            [
              110.656745372,
              0.403010754
            ],
            [
              110.656558327,
              0.403180769
            ],
            [
              110.656426325,
              0.403367219
            ],
            [
              110.656296847,
              0.403653118
            ],
            [
              110.656197421,
              0.403870104
            ],
            [
              110.656067661,
              0.404187879
            ],
            [
              110.65574186,
              0.404893154
            ],
            [
              110.655637098,
              0.405116748
            ],
            [
              110.655488524,
              0.405377059
            ],
            [
              110.655407073,
              0.405552203
            ],
            [
              110.655321412,
              0.405685786
            ],
            [
              110.655163853,
              0.405911392
            ],
            [
              110.654992531,
              0.406157707
            ],
            [
              110.654963596,
              0.406363175
            ],
            [
              110.654789166,
              0.407062342
            ],
            [
              110.654765006,
              0.40725629
            ],
            [
              110.654800101,
              0.407487523
            ],
            [
              110.654818622,
              0.407824919
            ],
            [
              110.654826478,
              0.407998264
            ],
            [
              110.654857361,
              0.408210979
            ],
            [
              110.654832637,
              0.408458043
            ],
            [
              110.654884021,
              0.408675495
            ],
            [
              110.655127212,
              0.409016399
            ],
            [
              110.655337273,
              0.409144552
            ],
            [
              110.655451288,
              0.409272207
            ],
            [
              110.655515035,
              0.409348792
            ],
            [
              110.655539463,
              0.409459833
            ],
            [
              110.655518115,
              0.409563697
            ],
            [
              110.655446215,
              0.409674204
            ],
            [
              110.655310285,
              0.409777462
            ],
            [
              110.655119594,
              0.409827319
            ],
            [
              110.655024666,
              0.409940016
            ],
            [
              110.655063137,
              0.410034942
            ],
            [
              110.655158334,
              0.410199491
            ],
            [
              110.655009477,
              0.410494471
            ],
            [
              110.654896294,
              0.410630173
            ],
            [
              110.654808104,
              0.410791463
            ],
            [
              110.654747719,
              0.410904337
            ],
            [
              110.654578645,
              0.411116019
            ],
            [
              110.654386257,
              0.411445419
            ],
            [
              110.654282061,
              0.411569636
            ],
            [
              110.653861062,
              0.412103469
            ],
            [
              110.65367598,
              0.412322006
            ],
            [
              110.65351421,
              0.412501387
            ],
            [
              110.653283069,
              0.412756641
            ],
            [
              110.653146574,
              0.412943091
            ],
            [
              110.653097985,
              0.413030627
            ],
            [
              110.653050797,
              0.413208281
            ],
            [
              110.652982259,
              0.413522136
            ],
            [
              110.652918779,
              0.413764391
            ],
            [
              110.652787611,
              0.414135707
            ],
            [
              110.652960582,
              0.414718831
            ],
            [
              110.653295609,
              0.415018603
            ],
            [
              110.653489096,
              0.415255287
            ],
            [
              110.653645793,
              0.415487127
            ],
            [
              110.653818497,
              0.415765263
            ],
            [
              110.654009173,
              0.416052766
            ],
            [
              110.654122623,
              0.416263612
            ],
            [
              110.6543644,
              0.416817053
            ],
            [
              110.654305131,
              0.417087051
            ],
            [
              110.654194195,
              0.417206603
            ],
            [
              110.653999012,
              0.417231014
            ],
            [
              110.653496309,
              0.417290788
            ],
            [
              110.653057919,
              0.417330102
            ],
            [
              110.652881272,
              0.417331508
            ],
            [
              110.652410866,
              0.417363718
            ],
            [
              110.652032014,
              0.41740102
            ],
            [
              110.651884853,
              0.41746035
            ],
            [
              110.651622545,
              0.417574488
            ],
            [
              110.651381585,
              0.417589426
            ],
            [
              110.651134169,
              0.417539621
            ],
            [
              110.650689607,
              0.417437962
            ],
            [
              110.65042956,
              0.417226367
            ],
            [
              110.650124304,
              0.416892104
            ],
            [
              110.649664329,
              0.416034832
            ],
            [
              110.649416645,
              0.415696225
            ],
            [
              110.649129924,
              0.415364366
            ],
            [
              110.648967054,
              0.415010036
            ],
            [
              110.648829742,
              0.414604993
            ],
            [
              110.648784264,
              0.41419582
            ],
            [
              110.648749453,
              0.413913767
            ],
            [
              110.648701729,
              0.413497632
            ],
            [
              110.648724491,
              0.413160415
            ],
            [
              110.648695302,
              0.412753646
            ],
            [
              110.648804008,
              0.412252842
            ],
            [
              110.648901481,
              0.411742744
            ],
            [
              110.648986027,
              0.411426663
            ],
            [
              110.649086312,
              0.410835705
            ],
            [
              110.649107942,
              0.410708764
            ],
            [
              110.649430948,
              0.409733136
            ],
            [
              110.649577558,
              0.409433527
            ],
            [
              110.649635698,
              0.40928828
            ],
            [
              110.649597792,
              0.409135573
            ],
            [
              110.649534045,
              0.40905669
            ],
            [
              110.64944053,
              0.408963812
            ],
            [
              110.649262483,
              0.408861211
            ],
            [
              110.649141164,
              0.408814379
            ],
            [
              110.648934749,
              0.40879253
            ],
            [
              110.648735073,
              0.408798423
            ],
            [
              110.64856994,
              0.408816051
            ],
            [
              110.648365489,
              0.408842723
            ],
            [
              110.647788075,
              0.409114642
            ],
            [
              110.647520143,
              0.40939283
            ],
            [
              110.647287039,
              0.409606487
            ],
            [
              110.647179748,
              0.409867012
            ],
            [
              110.647011788,
              0.410286636
            ],
            [
              110.646864894,
              0.410650918
            ],
            [
              110.646713792,
              0.410920452
            ],
            [
              110.646571107,
              0.411363296
            ],
            [
              110.646433467,
              0.412023378
            ],
            [
              110.646390488,
              0.412274999
            ],
            [
              110.646357311,
              0.413127372
            ],
            [
              110.646233997,
              0.413729743
            ],
            [
              110.646159253,
              0.414658132
            ],
            [
              110.646031461,
              0.414904696
            ],
            [
              110.645844416,
              0.415067748
            ],
            [
              110.645657935,
              0.4151592
            ],
            [
              110.645464149,
              0.415352291
            ],
            [
              110.645329336,
              0.415584931
            ],
            [
              110.645202392,
              0.415715967
            ],
            [
              110.645075731,
              0.415784628
            ],
            [
              110.644914525,
              0.415883149
            ],
            [
              110.644710907,
              0.416136212
            ],
            [
              110.644514592,
              0.416340824
            ],
            [
              110.644412924,
              0.41644889
            ],
            [
              110.6440992,
              0.417080338
            ],
            [
              110.64417586,
              0.417267857
            ],
            [
              110.644328629,
              0.417423468
            ],
            [
              110.644465391,
              0.417546635
            ],
            [
              110.644531102,
              0.417662484
            ],
            [
              110.64454345,
              0.417858942
            ],
            [
              110.644507209,
              0.418142935
            ],
            [
              110.644538376,
              0.418286348
            ],
            [
              110.644540056,
              0.41838569
            ],
            [
              110.644522635,
              0.418586599
            ],
            [
              110.644607715,
              0.41890357
            ],
            [
              110.644679599,
              0.419139612
            ],
            [
              110.644634373,
              0.419375047
            ],
            [
              110.644573987,
              0.419513332
            ],
            [
              110.644501523,
              0.419686249
            ]
          ]
        ]
      }
    }
  ]
}