{
  "type": "FeatureCollection",
  "features": [
    {
      "type": "Feature",
      "properties": {
        "idx": "1558",
        "nama_kewilayahan": "Pataningu Wua Ka'mba"
      },
      "geometry": {
        "type": "MultiPolygon",
        "coordinates": [
          [
            [
              [
                120.697287638,
                -9.918365233
              ],
              [
                120.697470666,
                -9.918199282
              ],
              [
                120.69768251,
                -9.91800659
              ],
              [
                120.697976265,
                -9.917710362
              ],
              [
                120.698226586,
                -9.91748191
              ],
              [
                120.698251525,
                -9.917459108
              ],
              [
                120.698583707,
                -9.916874024
              ],
              [
                120.698823034,
                -9.916532311
              ],
              [
                120.69882308,
                -9.91653223
              ],
              [
                120.699035376,
                -9.916154107
              ],
              [
                120.699148448,
                -9.915848057
              ],
              [
                120.699211898,
                -9.915676319
              ],
              [
                120.69981314,
                -9.914415248
              ],
              [
                120.699813181,
                -9.914415162
              ],
              [
                120.705346439,
                -9.913052208
              ],
              [
                120.703269089,
                -9.905066704
              ],
              [
                120.706589153,
                -9.899495023
              ],
              [
                120.710231347,
                -9.896085509
              ],
              [
                120.713359697,
                -9.893160486
              ],
              [
                120.716869288,
                -9.890454917
              ],
              [
                120.71906006,
                -9.891301268
              ],
              [
                120.722750145,
                -9.892817532
              ],
              [
                120.729537401,
                -9.89460776
              ],
              [
                120.737379556,
                -9.896766489
              ],
              [
                120.741779956,
                -9.898404851
              ],
              [
                120.744368707,
                -9.899723712
              ],
              [
                120.74961612,
                -9.90147613
              ],
              [
                120.762158014,
                -9.905581881
              ],
              [
                120.771595915,
                -9.911799633
              ],
              [
                120.765520953,
                -9.91912529
              ],
              [
                120.762319399,
                -9.92344222
              ],
              [
                120.758155897,
                -9.928448596
              ],
              [
                120.755762353,
                -9.930547471
              ],
              [
                120.755697743,
                -9.930664533
              ],
              [
                120.75091569,
                -9.93411209
              ],
              [
                120.750843847,
                -9.934349479
              ],
              [
                120.750803921,
                -9.934482049
              ],
              [
                120.750942099,
                -9.934623155
              ],
              [
                120.751365046,
                -9.935055061
              ],
              [
                120.751942009,
                -9.935582733
              ],
              [
                120.752270822,
                -9.935883801
              ],
              [
                120.753005644,
                -9.936394354
              ],
              [
                120.753650634,
                -9.936742096
              ],
              [
                120.754080927,
                -9.93652885
              ],
              [
                120.754434863,
                -9.936757139
              ],
              [
                120.754838207,
                -9.93770834
              ],
              [
                120.755617046,
                -9.938481686
              ],
              [
                120.756196459,
                -9.939037362
              ],
              [
                120.75635097,
                -9.939146196
              ],
              [
                120.756705804,
                -9.939275382
              ],
              [
                120.75751339,
                -9.93976027
              ],
              [
                120.758303009,
                -9.940361955
              ],
              [
                120.758401823,
                -9.940470789
              ],
              [
                120.758072142,
                -9.940712347
              ],
              [
                120.758362298,
                -9.941030885
              ],
              [
                120.758674013,
                -9.940761898
              ],
              [
                120.758656047,
                -9.940716771
              ],
              [
                120.758947999,
                -9.94061944
              ],
              [
                120.75941153,
                -9.940902585
              ],
              [
                120.759456446,
                -9.942276721
              ],
              [
                120.759319003,
                -9.942320962
              ],
              [
                120.759178866,
                -9.942835045
              ],
              [
                120.758985728,
                -9.943068638
              ],
              [
                120.759000101,
                -9.943746411
              ],
              [
                120.7582545,
                -9.944790498
              ],
              [
                120.757924818,
                -9.944995775
              ],
              [
                120.756515361,
                -9.945745215
              ],
              [
                120.756049136,
                -9.945995617
              ],
              [
                120.754793291,
                -9.945707168
              ],
              [
                120.753947078,
                -9.945411639
              ],
              [
                120.753382936,
                -9.945236446
              ],
              [
                120.752808913,
                -9.945151503
              ],
              [
                120.752380416,
                -9.9452391
              ],
              [
                120.751950123,
                -9.945543477
              ],
              [
                120.751239556,
                -9.945475346
              ],
              [
                120.750981739,
                -9.945843429
              ],
              [
                120.751159606,
                -9.946441563
              ],
              [
                120.751612357,
                -9.946887509
              ],
              [
                120.751763274,
                -9.947521034
              ],
              [
                120.751667154,
                -9.948261619
              ],
              [
                120.751709375,
                -9.948677479
              ],
              [
                120.751634814,
                -9.948975659
              ],
              [
                120.751792918,
                -9.949871082
              ],
              [
                120.751376998,
                -9.950672713
              ],
              [
                120.751927665,
                -9.951417715
              ],
              [
                120.752251059,
                -9.952088393
              ],
              [
                120.752514265,
                -9.95229809
              ],
              [
                120.75316734,
                -9.952754645
              ],
              [
                120.752391196,
                -9.952939568
              ],
              [
                120.751498271,
                -9.952959918
              ],
              [
                120.751556661,
                -9.953665984
              ],
              [
                120.751077859,
                -9.954349044
              ],
              [
                120.751119181,
                -9.955063955
              ],
              [
                120.750898196,
                -9.955261263
              ],
              [
                120.750543361,
                -9.955276305
              ],
              [
                120.749523774,
                -9.954971052
              ],
              [
                120.749203973,
                -9.955123236
              ],
              [
                120.74910965,
                -9.955529354
              ],
              [
                120.74852305,
                -9.956094734
              ],
              [
                120.747700194,
                -9.956315046
              ],
              [
                120.746765047,
                -9.957104274
              ],
              [
                120.745720307,
                -9.957874036
              ],
              [
                120.745386133,
                -9.958839332
              ],
              [
                120.74382037,
                -9.959831168
              ],
              [
                120.743330788,
                -9.96073187
              ],
              [
                120.743097226,
                -9.961535244
              ],
              [
                120.74248188,
                -9.962154585
              ],
              [
                120.741411088,
                -9.962861516
              ],
              [
                120.740522654,
                -9.963424228
              ],
              [
                120.739689018,
                -9.963987824
              ],
              [
                120.739865088,
                -9.964947794
              ],
              [
                120.74041306,
                -9.966090021
              ],
              [
                120.740273821,
                -9.966450118
              ],
              [
                120.740058225,
                -9.967326028
              ],
              [
                120.739916292,
                -9.968002866
              ],
              [
                120.739030553,
                -9.968249713
              ],
              [
                120.737980422,
                -9.968450552
              ],
              [
                120.737362381,
                -9.969593652
              ],
              [
                120.736676068,
                -9.969867924
              ],
              [
                120.736535931,
                -9.969924548
              ],
              [
                120.736384116,
                -9.969984711
              ],
              [
                120.736378726,
                -9.969989135
              ],
              [
                120.735660074,
                -9.970513791
              ],
              [
                120.735632226,
                -9.970545642
              ],
              [
                120.735136356,
                -9.971124267
              ],
              [
                120.734577604,
                -9.971481704
              ],
              [
                120.733730493,
                -9.971394999
              ],
              [
                120.733276843,
                -9.971003056
              ],
              [
                120.732858228,
                -9.970882731
              ],
              [
                120.73254292,
                -9.971676348
              ],
              [
                120.732295883,
                -9.971801097
              ],
              [
                120.731491891,
                -9.972102795
              ],
              [
                120.731082259,
                -9.972799087
              ],
              [
                120.730846002,
                -9.97320076
              ],
              [
                120.73085768,
                -9.974087269
              ],
              [
                120.730890918,
                -9.975849663
              ],
              [
                120.730340251,
                -9.976487555
              ],
              [
                120.729522784,
                -9.97605669
              ],
              [
                120.727933664,
                -9.976380502
              ],
              [
                120.727648898,
                -9.976713161
              ],
              [
                120.727380302,
                -9.977352821
              ],
              [
                120.727122485,
                -9.977721753
              ],
              [
                120.727073976,
                -9.978073875
              ],
              [
                120.727228486,
                -9.979485012
              ],
              [
                120.726642785,
                -9.979833593
              ],
              [
                120.726479292,
                -9.981052739
              ],
              [
                120.726230458,
                -9.98139424
              ],
              [
                120.725342923,
                -9.981857833
              ],
              [
                120.725395923,
                -9.982156867
              ],
              [
                120.725858556,
                -9.982467402
              ],
              [
                120.725618706,
                -9.982854023
              ],
              [
                120.72506175,
                -9.983299918
              ],
              [
                120.725059055,
                -9.983302573
              ],
              [
                120.724484133,
                -9.983443242
              ],
              [
                120.724226317,
                -9.983847555
              ],
              [
                120.723348663,
                -9.982802709
              ],
              [
                120.723030659,
                -9.982709814
              ],
              [
                120.723006405,
                -9.98224003
              ],
              [
                120.722011071,
                -9.981166868
              ],
              [
                120.721480167,
                -9.980186597
              ],
              [
                120.720846855,
                -9.979405387
              ],
              [
                120.719998845,
                -9.978179158
              ],
              [
                120.719440093,
                -9.977271426
              ],
              [
                120.718193231,
                -9.975555046
              ],
              [
                120.717365883,
                -9.973958982
              ],
              [
                120.716794554,
                -9.973159177
              ],
              [
                120.716788266,
                -9.973150329
              ],
              [
                120.716646332,
                -9.972951263
              ],
              [
                120.716223226,
                -9.972356716
              ],
              [
                120.716218734,
                -9.972351407
              ],
              [
                120.716201666,
                -9.972242584
              ],
              [
                120.716147767,
                -9.972142608
              ],
              [
                120.716081292,
                -9.972012551
              ],
              [
                120.716075004,
                -9.972001049
              ],
              [
                120.715887256,
                -9.971634765
              ],
              [
                120.715217113,
                -9.970934046
              ],
              [
                120.714864973,
                -9.970426201
              ],
              [
                120.713979234,
                -9.969290182
              ],
              [
                120.712881493,
                -9.968523102
              ],
              [
                120.711330103,
                -9.967473783
              ],
              [
                120.711057015,
                -9.967435738
              ],
              [
                120.710642891,
                -9.966727932
              ],
              [
                120.710497364,
                -9.96664565
              ],
              [
                120.708663005,
                -9.965548547
              ],
              [
                120.707885962,
                -9.964995571
              ],
              [
                120.70782847,
                -9.964954872
              ],
              [
                120.70782308,
                -9.964949563
              ],
              [
                120.707820385,
                -9.964947794
              ],
              [
                120.706940934,
                -9.964162123
              ],
              [
                120.70640464,
                -9.963950664
              ],
              [
                120.706288757,
                -9.963489701
              ],
              [
                120.705455121,
                -9.962833203
              ],
              [
                120.704512788,
                -9.961949318
              ],
              [
                120.703661185,
                -9.961184874
              ],
              [
                120.702882346,
                -9.960446973
              ],
              [
                120.702039726,
                -9.959727649
              ],
              [
                120.701666925,
                -9.959553348
              ],
              [
                120.701377668,
                -9.959234828
              ],
              [
                120.700616795,
                -9.95860575
              ],
              [
                120.699637631,
                -9.95779529
              ],
              [
                120.698867775,
                -9.957030837
              ],
              [
                120.69870518,
                -9.956857419
              ],
              [
                120.698415024,
                -9.956611449
              ],
              [
                120.698279378,
                -9.95648404
              ],
              [
                120.698053003,
                -9.95625665
              ],
              [
                120.698036833,
                -9.955967324
              ],
              [
                120.697829322,
                -9.955613409
              ],
              [
                120.697858967,
                -9.955333816
              ],
              [
                120.697432267,
                -9.955095808
              ],
              [
                120.697241824,
                -9.954940969
              ],
              [
                120.69708911,
                -9.954641025
              ],
              [
                120.69687082,
                -9.954477339
              ],
              [
                120.696617495,
                -9.95430392
              ],
              [
                120.696736971,
                -9.954123422
              ],
              [
                120.696601325,
                -9.953959735
              ],
              [
                120.696168337,
                -9.953351882
              ],
              [
                120.695807214,
                -9.952834277
              ],
              [
                120.694855,
                -9.952104319
              ],
              [
                120.694536997,
                -9.951957443
              ],
              [
                120.694101314,
                -9.951738013
              ],
              [
                120.694166891,
                -9.951377015
              ],
              [
                120.694096822,
                -9.950978854
              ],
              [
                120.693796785,
                -9.950840825
              ],
              [
                120.693034115,
                -9.950464785
              ],
              [
                120.692925419,
                -9.950347106
              ],
              [
                120.692708027,
                -9.950191381
              ],
              [
                120.692552618,
                -9.9501728
              ],
              [
                120.692362175,
                -9.950044503
              ],
              [
                120.692244496,
                -9.949917092
              ],
              [
                120.691807915,
                -9.949850731
              ],
              [
                120.691931882,
                -9.949092453
              ],
              [
                120.69198129,
                -9.948550952
              ],
              [
                120.692019917,
                -9.948198798
              ],
              [
                120.691997459,
                -9.948028915
              ],
              [
                120.691993866,
                -9.947999716
              ],
              [
                120.690702987,
                -9.947566159
              ],
              [
                120.689785807,
                -9.947062702
              ],
              [
                120.689277361,
                -9.946733552
              ],
              [
                120.688940492,
                -9.946586673
              ],
              [
                120.688551522,
                -9.94626814
              ],
              [
                120.688360181,
                -9.946157538
              ],
              [
                120.687655003,
                -9.945321388
              ],
              [
                120.687617274,
                -9.945293074
              ],
              [
                120.687341491,
                -9.945086912
              ],
              [
                120.687229202,
                -9.945001969
              ],
              [
                120.686693806,
                -9.944646272
              ],
              [
                120.686276089,
                -9.944471963
              ],
              [
                120.686231174,
                -9.944380827
              ],
              [
                120.686013781,
                -9.944090606
              ],
              [
                120.685225959,
                -9.943416373
              ],
              [
                120.685053482,
                -9.943225251
              ],
              [
                120.684963651,
                -9.943125266
              ],
              [
                120.684828005,
                -9.942952726
              ],
              [
                120.685322977,
                -9.942321847
              ],
              [
                120.68534274,
                -9.942296187
              ],
              [
                120.683800332,
                -9.941345884
              ],
              [
                120.681329965,
                -9.940062882
              ],
              [
                120.679623166,
                -9.939011702
              ],
              [
                120.677159088,
                -9.938091474
              ],
              [
                120.676205077,
                -9.937723382
              ],
              [
                120.675697529,
                -9.937213715
              ],
              [
                120.675631053,
                -9.936327106
              ],
              [
                120.67594726,
                -9.935470579
              ],
              [
                120.675741546,
                -9.934954716
              ],
              [
                120.675628358,
                -9.934203482
              ],
              [
                120.675084878,
                -9.933621252
              ],
              [
                120.67481179,
                -9.933673458
              ],
              [
                120.674487498,
                -9.933056719
              ],
              [
                120.674854909,
                -9.932688621
              ],
              [
                120.675129793,
                -9.932428475
              ],
              [
                120.67521154,
                -9.932465639
              ],
              [
                120.676069431,
                -9.932389542
              ],
              [
                120.675905039,
                -9.931625914
              ],
              [
                120.675901446,
                -9.931611756
              ],
              [
                120.676535657,
                -9.930947231
              ],
              [
                120.6766192,
                -9.930640186
              ],
              [
                120.67652308,
                -9.930052641
              ],
              [
                120.676589556,
                -9.929673037
              ],
              [
                120.676329044,
                -9.92914743
              ],
              [
                120.676673997,
                -9.928137803
              ],
              [
                120.676822219,
                -9.927776779
              ],
              [
                120.677356717,
                -9.928034274
              ],
              [
                120.677433972,
                -9.928074093
              ],
              [
                120.677451938,
                -9.928046663
              ],
              [
                120.677566923,
                -9.927920127
              ],
              [
                120.677871452,
                -9.927585649
              ],
              [
                120.678379,
                -9.928059051
              ],
              [
                120.678791326,
                -9.927664402
              ],
              [
                120.679707608,
                -9.927091894
              ],
              [
                120.680354395,
                -9.927150295
              ],
              [
                120.681029928,
                -9.927010486
              ],
              [
                120.682200433,
                -9.926404353
              ],
              [
                120.682513047,
                -9.926072527
              ],
              [
                120.682498674,
                -9.925493823
              ],
              [
                120.682464538,
                -9.92510448
              ],
              [
                120.6824313,
                -9.92476115
              ],
              [
                120.682804101,
                -9.92479035
              ],
              [
                120.683750027,
                -9.925077049
              ],
              [
                120.684210862,
                -9.925740701
              ],
              [
                120.684842378,
                -9.926621145
              ],
              [
                120.685930238,
                -9.92618579
              ],
              [
                120.687895752,
                -9.925350474
              ],
              [
                120.690464933,
                -9.924301016
              ],
              [
                120.691434216,
                -9.923865658
              ],
              [
                120.691884272,
                -9.923724078
              ],
              [
                120.692429549,
                -9.923552412
              ],
              [
                120.692448414,
                -9.923547103
              ],
              [
                120.693700665,
                -9.923058652
              ],
              [
                120.695807214,
                -9.922828584
              ],
              [
                120.696556409,
                -9.922653378
              ],
              [
                120.697055873,
                -9.921601257
              ],
              [
                120.697064856,
                -9.921580904
              ],
              [
                120.697475386,
                -9.920201373
              ],
              [
                120.697558031,
                -9.919591687
              ],
              [
                120.697571506,
                -9.919488155
              ],
              [
                120.698116783,
                -9.918506815
              ],
              [
                120.697287638,
                -9.918365233
              ]
            ]
          ]
        ]
      }
    }
  ]
}