{
  "type": "FeatureCollection",
  "features": [
    {
      "type": "Feature",
      "properties": {
        "idx": "164",
        "nama_kewilayahan": "Ngaju Tarantang"
      },
      "geometry": {
        "type": "Polygon",
        "coordinates": [
          [
            [
              114.398071831,
              -2.601759866
            ],
            [
              114.399623459,
              -2.602043281
            ],
            [
              114.403153555,
              -2.598941427
            ],
            [
              114.431118129,
              -2.604024251
            ],
            [
              114.431108995,
              -2.604096536
            ],
            [
              114.430874164,
              -2.604674487
            ],
            [
              114.429276038,
              -2.608340636
            ],
            [
              114.426174182,
              -2.615969926
            ],
            [
              114.4251948,
              -2.618321463
            ],
            [
              114.425157457,
              -2.618418538
            ],
            [
              114.422230553,
              -2.625805527
            ],
            [
              114.418365926,
              -2.635086732
            ],
            [
              114.418014452,
              -2.635123902
            ],
            [
              114.415227701,
              -2.63549768
            ],
            [
              114.408404147,
              -2.636667375
            ],
            [
              114.402278648,
              -2.639257419
            ],
            [
              114.393649671,
              -2.639989392
            ],
            [
              114.392443727,
              -2.639734578
            ],
            [
              114.389113295,
              -2.639030859
            ],
            [
              114.381303618,
              -2.639086646
            ],
            [
              114.372726997,
              -2.636348138
            ],
            [
              114.369115684,
              -2.635707838
            ],
            [
              114.369082114,
              -2.630294267
            ],
            [
              114.367123052,
              -2.630281073
            ],
            [
              114.367171966,
              -2.628383292
            ],
            [
              114.354510823,
              -2.627931616
            ],
            [
              114.347010464,
              -2.609253377
            ],
            [
              114.343908101,
              -2.601673466
            ],
            [
              114.341188929,
              -2.595630747
            ],
            [
              114.341010075,
              -2.59521465
            ],
            [
              114.345952625,
              -2.595152794
            ],
            [
              114.351209393,
              -2.595245216
            ],
            [
              114.35649318,
              -2.595319599
            ],
            [
              114.363439384,
              -2.595433597
            ],
            [
              114.398071831,
              -2.601759866
            ]
          ]
        ]
      }
    }
  ]
}