{
  "type": "FeatureCollection",
  "features": [
    {
      "type": "Feature",
      "properties": {
        "idx": "1844",
        "nama_kewilayahan": "Titian Teras Dusun Kampung Pondok"
      },
      "geometry": {
        "type": "Polygon",
        "coordinates": [
          [
            [
              102.578958973,
              -2.527658338
            ],
            [
              102.578523099,
              -2.526641299
            ],
            [
              102.578232517,
              -2.527174034
            ],
            [
              102.577586778,
              -2.527351612
            ],
            [
              102.577522203,
              -2.527819773
            ],
            [
              102.576779603,
              -2.528723809
            ],
            [
              102.575907854,
              -2.528675378
            ],
            [
              102.574748047,
              -2.529278236
            ],
            [
              102.574420131,
              -2.530564671
            ],
            [
              102.572049058,
              -2.531851105
            ],
            [
              102.568455375,
              -2.531426551
            ],
            [
              102.568827322,
              -2.533358604
            ],
            [
              102.56825907,
              -2.533751213
            ],
            [
              102.56757717,
              -2.533854532
            ],
            [
              102.567494516,
              -2.534123159
            ],
            [
              102.565707109,
              -2.532139447
            ],
            [
              102.564836651,
              -2.532147621
            ],
            [
              102.567046241,
              -2.535287566
            ],
            [
              102.567313253,
              -2.535667006
            ],
            [
              102.567643825,
              -2.536136766
            ],
            [
              102.568266231,
              -2.537021237
            ],
            [
              102.569447469,
              -2.538699832
            ],
            [
              102.569808267,
              -2.539212549
            ],
            [
              102.569892715,
              -2.539332552
            ],
            [
              102.570114927,
              -2.539378187
            ],
            [
              102.570194551,
              -2.53939063
            ],
            [
              102.57158437,
              -2.539607812
            ],
            [
              102.572493572,
              -2.541260905
            ],
            [
              102.5740288,
              -2.54131463
            ],
            [
              102.574922792,
              -2.540896729
            ],
            [
              102.575621059,
              -2.540748611
            ],
            [
              102.575658088,
              -2.539960417
            ],
            [
              102.57603896,
              -2.539399688
            ],
            [
              102.577057266,
              -2.54012599
            ],
            [
              102.577611648,
              -2.54012599
            ],
            [
              102.577785156,
              -2.540405297
            ],
            [
              102.57811527,
              -2.54004556
            ],
            [
              102.577453923,
              -2.539377619
            ],
            [
              102.577896952,
              -2.539013938
            ],
            [
              102.577949852,
              -2.538881691
            ],
            [
              102.578359819,
              -2.53876928
            ],
            [
              102.578643531,
              -2.53865625
            ],
            [
              102.578426562,
              -2.538459945
            ],
            [
              102.578385234,
              -2.538273972
            ],
            [
              102.57836328,
              -2.537988556
            ],
            [
              102.578699063,
              -2.53770443
            ],
            [
              102.578918616,
              -2.537239498
            ],
            [
              102.579073592,
              -2.536942458
            ],
            [
              102.578828212,
              -2.536645418
            ],
            [
              102.578828212,
              -2.536322548
            ],
            [
              102.579138166,
              -2.535973848
            ],
            [
              102.57922857,
              -2.535341024
            ],
            [
              102.579538525,
              -2.535147302
            ],
            [
              102.579770991,
              -2.534940665
            ],
            [
              102.57982265,
              -2.534424074
            ],
            [
              102.579525611,
              -2.534101204
            ],
            [
              102.579370632,
              -2.53309385
            ],
            [
              102.579564354,
              -2.532848469
            ],
            [
              102.579750004,
              -2.531871788
            ],
            [
              102.579943726,
              -2.531403627
            ],
            [
              102.579895297,
              -2.53095161
            ],
            [
              102.579136553,
              -2.530176722
            ],
            [
              102.578958973,
              -2.527658338
            ]
          ]
        ]
      }
    }
  ]
}