{
  "type": "FeatureCollection",
  "features": [
    {
      "type": "Feature",
      "properties": {
        "idx": "1857",
        "nama_kewilayahan": "Bukit Kayu Sigi"
      },
      "geometry": {
        "type": "Polygon",
        "coordinates": [
          [
            [
              101.260694644,
              -1.94054506
            ],
            [
              101.260731362,
              -1.94032668
            ],
            [
              101.260747659,
              -1.940229763
            ],
            [
              101.260843517,
              -1.939955089
            ],
            [
              101.260922472,
              -1.939728856
            ],
            [
              101.261037952,
              -1.939430264
            ],
            [
              101.260552543,
              -1.939297014
            ],
            [
              101.26056682,
              -1.939111417
            ],
            [
              101.260381104,
              -1.938871267
            ],
            [
              101.260058277,
              -1.938351989
            ],
            [
              101.259694221,
              -1.937733329
            ],
            [
              101.259243825,
              -1.936975604
            ],
            [
              101.258931981,
              -1.936838977
            ],
            [
              101.258398611,
              -1.936605293
            ],
            [
              101.257759646,
              -1.936325345
            ],
            [
              101.257401492,
              -1.936168428
            ],
            [
              101.257353899,
              -1.936147576
            ],
            [
              101.257059042,
              -1.936018392
            ],
            [
              101.256568603,
              -1.935803517
            ],
            [
              101.256248209,
              -1.935663143
            ],
            [
              101.256036671,
              -1.935845027
            ],
            [
              101.25563116,
              -1.936193691
            ],
            [
              101.255176199,
              -1.936584872
            ],
            [
              101.254445294,
              -1.936915233
            ],
            [
              101.252996088,
              -1.937535193
            ],
            [
              101.253169647,
              -1.937776982
            ],
            [
              101.253556241,
              -1.938071369
            ],
            [
              101.253928835,
              -1.93851728
            ],
            [
              101.254528466,
              -1.938864267
            ],
            [
              101.254943692,
              -1.939377964
            ],
            [
              101.255332006,
              -1.940343026
            ],
            [
              101.255621454,
              -1.940778824
            ],
            [
              101.25575555,
              -1.94098072
            ],
            [
              101.255933186,
              -1.941227779
            ],
            [
              101.256130506,
              -1.941502213
            ],
            [
              101.256326821,
              -1.941821485
            ],
            [
              101.256705006,
              -1.941781608
            ],
            [
              101.256759681,
              -1.941405217
            ],
            [
              101.256911967,
              -1.941295761
            ],
            [
              101.257331877,
              -1.941267192
            ],
            [
              101.257472556,
              -1.941003139
            ],
            [
              101.257694941,
              -1.940796057
            ],
            [
              101.258425068,
              -1.940598232
            ],
            [
              101.258738719,
              -1.941070236
            ],
            [
              101.259234793,
              -1.941410766
            ],
            [
              101.259496291,
              -1.941895962
            ],
            [
              101.259820511,
              -1.941626068
            ],
            [
              101.26020087,
              -1.941318553
            ],
            [
              101.260352667,
              -1.941195824
            ],
            [
              101.260553765,
              -1.940913031
            ],
            [
              101.260556822,
              -1.940908731
            ],
            [
              101.260657239,
              -1.940767521
            ],
            [
              101.260694644,
              -1.94054506
            ]
          ]
        ]
      }
    }
  ]
}