{
  "type": "FeatureCollection",
  "features": [
    {
      "type": "Feature",
      "properties": {
        "idx": "1907",
        "nama_kewilayahan": "Sungai Labuk"
      },
      "geometry": {
        "type": "Polygon",
        "coordinates": [
          [
            [
              112.14311073,
              -0.727664092
            ],
            [
              112.148609344,
              -0.727758418
            ],
            [
              112.155009249,
              -0.726952631
            ],
            [
              112.15886979,
              -0.725228476
            ],
            [
              112.159249248,
              -0.721552305
            ],
            [
              112.157479468,
              -0.717742661
            ],
            [
              112.155272512,
              -0.715005311
            ],
            [
              112.146490922,
              -0.689975656
            ],
            [
              112.144754957,
              -0.684163257
            ],
            [
              112.14619672,
              -0.679372506
            ],
            [
              112.152982371,
              -0.677287768
            ],
            [
              112.156467883,
              -0.682142416
            ],
            [
              112.15801226,
              -0.682142043
            ],
            [
              112.15743213,
              -0.673975169
            ],
            [
              112.157195035,
              -0.660466795
            ],
            [
              112.157717355,
              -0.657382216
            ],
            [
              112.159722718,
              -0.652273538
            ],
            [
              112.163494696,
              -0.650109142
            ],
            [
              112.166071076,
              -0.646932195
            ],
            [
              112.167316076,
              -0.643600474
            ],
            [
              112.169706721,
              -0.639113981
            ],
            [
              112.171902684,
              -0.635791624
            ],
            [
              112.178336091,
              -0.636623004
            ],
            [
              112.182524773,
              -0.63542541
            ],
            [
              112.185658317,
              -0.631919048
            ],
            [
              112.186855665,
              -0.628156579
            ],
            [
              112.191050925,
              -0.618215015
            ],
            [
              112.195528248,
              -0.615146818
            ],
            [
              112.199246555,
              -0.613945528
            ],
            [
              112.206317547,
              -0.612977059
            ],
            [
              112.210118403,
              -0.612736872
            ],
            [
              112.214578417,
              -0.613224075
            ],
            [
              112.214111996,
              -0.611173662
            ],
            [
              112.2108208,
              -0.606927859
            ],
            [
              112.208290703,
              -0.604219286
            ],
            [
              112.204128905,
              -0.602008864
            ],
            [
              112.200276918,
              -0.598906163
            ],
            [
              112.196200755,
              -0.596935026
            ],
            [
              112.193152574,
              -0.595028753
            ],
            [
              112.190584579,
              -0.592932824
            ],
            [
              112.188098239,
              -0.590235687
            ],
            [
              112.187013606,
              -0.587605256
            ],
            [
              112.187674163,
              -0.581417885
            ],
            [
              112.186367946,
              -0.572225768
            ],
            [
              112.184164536,
              -0.567180859
            ],
            [
              112.183456602,
              -0.565044305
            ],
            [
              112.182721092,
              -0.561954282
            ],
            [
              112.180564866,
              -0.564482003
            ],
            [
              112.180440204,
              -0.568743945
            ],
            [
              112.182140582,
              -0.5692031
            ],
            [
              112.1841382,
              -0.57232962
            ],
            [
              112.183671275,
              -0.576890307
            ],
            [
              112.182073477,
              -0.575856754
            ],
            [
              112.18211988,
              -0.579523598
            ],
            [
              112.18323908,
              -0.583794465
            ],
            [
              112.183559124,
              -0.586310189
            ],
            [
              112.183548109,
              -0.588194163
            ],
            [
              112.182236579,
              -0.591858999
            ],
            [
              112.181529058,
              -0.591778737
            ],
            [
              112.178972267,
              -0.588712082
            ],
            [
              112.176224324,
              -0.588299111
            ],
            [
              112.174296235,
              -0.5903673
            ],
            [
              112.17291559,
              -0.590999416
            ],
            [
              112.171763385,
              -0.592642399
            ],
            [
              112.169931903,
              -0.592872542
            ],
            [
              112.166269279,
              -0.594964082
            ],
            [
              112.164751484,
              -0.594608286
            ],
            [
              112.163097063,
              -0.595734433
            ],
            [
              112.161297611,
              -0.59636664
            ],
            [
              112.158216482,
              -0.596194978
            ],
            [
              112.155637425,
              -0.595873866
            ],
            [
              112.153811498,
              -0.595437717
            ],
            [
              112.153155205,
              -0.594794541
            ],
            [
              112.15192277,
              -0.594817776
            ],
            [
              112.151112303,
              -0.593600243
            ],
            [
              112.147813495,
              -0.589281528
            ],
            [
              112.14520599,
              -0.589385459
            ],
            [
              112.14412206,
              -0.590178341
            ],
            [
              112.142193487,
              -0.590040886
            ],
            [
              112.140782839,
              -0.589133641
            ],
            [
              112.13871742,
              -0.589455725
            ],
            [
              112.137553615,
              -0.590294575
            ],
            [
              112.137063309,
              -0.592213143
            ],
            [
              112.136801273,
              -0.594315468
            ],
            [
              112.135352183,
              -0.595177355
            ],
            [
              112.13381204,
              -0.597211021
            ],
            [
              112.131135033,
              -0.597928418
            ],
            [
              112.128852627,
              -0.597480865
            ],
            [
              112.123824681,
              -0.597481902
            ],
            [
              112.121280178,
              -0.598883948
            ],
            [
              112.11642386,
              -0.601194014
            ],
            [
              112.114096246,
              -0.602970524
            ],
            [
              112.113572072,
              -0.606704204
            ],
            [
              112.112163033,
              -0.608177247
            ],
            [
              112.11061121,
              -0.608981724
            ],
            [
              112.107564367,
              -0.609349969
            ],
            [
              112.105875329,
              -0.608821873
            ],
            [
              112.104532779,
              -0.611797529
            ],
            [
              112.102638966,
              -0.614389604
            ],
            [
              112.100824759,
              -0.615642168
            ],
            [
              112.100699596,
              -0.617422829
            ],
            [
              112.09814357,
              -0.618411327
            ],
            [
              112.096597747,
              -0.620688566
            ],
            [
              112.093391064,
              -0.620792626
            ],
            [
              112.09334588,
              -0.623044282
            ],
            [
              112.093905339,
              -0.624411236
            ],
            [
              112.092684662,
              -0.626261059
            ],
            [
              112.092365087,
              -0.626042854
            ],
            [
              112.089583916,
              -0.625469036
            ],
            [
              112.087826981,
              -0.627803767
            ],
            [
              112.08750802,
              -0.63054947
            ],
            [
              112.088022182,
              -0.633582197
            ],
            [
              112.087223554,
              -0.634535871
            ],
            [
              112.084906789,
              -0.633743687
            ],
            [
              112.084302777,
              -0.637649743
            ],
            [
              112.085592782,
              -0.639880443
            ],
            [
              112.085981227,
              -0.641982668
            ],
            [
              112.087453804,
              -0.644107635
            ],
            [
              112.088367063,
              -0.645577905
            ],
            [
              112.088139371,
              -0.648132887
            ],
            [
              112.087455375,
              -0.651476047
            ],
            [
              112.087923619,
              -0.653141707
            ],
            [
              112.087923948,
              -0.65467191
            ],
            [
              112.088357968,
              -0.656383529
            ],
            [
              112.087023091,
              -0.657819823
            ],
            [
              112.086475607,
              -0.659141065
            ],
            [
              112.08551734,
              -0.660669182
            ],
            [
              112.087458849,
              -0.667483444
            ],
            [
              112.093057234,
              -0.676470399
            ],
            [
              112.099272405,
              -0.682674785
            ],
            [
              112.106583055,
              -0.688548029
            ],
            [
              112.113389474,
              -0.695110626
            ],
            [
              112.115905228,
              -0.697582224
            ],
            [
              112.119997426,
              -0.706794529
            ],
            [
              112.124621837,
              -0.712877378
            ],
            [
              112.128891005,
              -0.71597728
            ],
            [
              112.136431699,
              -0.721141093
            ],
            [
              112.14311073,
              -0.727664092
            ]
          ]
        ]
      }
    }
  ]
}