{
  "type": "FeatureCollection",
  "features": [
    {
      "type": "Feature",
      "properties": {
        "idx": "1951",
        "nama_kewilayahan": "Banying"
      },
      "geometry": {
        "type": "MultiPolygon",
        "coordinates": [
          [
            [
              [
                109.717163291,
                0.498050353
              ],
              [
                109.717350923,
                0.497972039
              ],
              [
                109.718246107,
                0.497602498
              ],
              [
                109.718816158,
                0.497204275
              ],
              [
                109.719577344,
                0.495731602
              ],
              [
                109.719677899,
                0.495536837
              ],
              [
                109.720234487,
                0.495066461
              ],
              [
                109.720265653,
                0.49506728
              ],
              [
                109.721097306,
                0.495088747
              ],
              [
                109.722507109,
                0.494951543
              ],
              [
                109.722662232,
                0.494244858
              ],
              [
                109.722714115,
                0.493096112
              ],
              [
                109.722787194,
                0.492690936
              ],
              [
                109.7229465,
                0.492128479
              ],
              [
                109.723454618,
                0.49110366
              ],
              [
                109.724006699,
                0.490709847
              ],
              [
                109.724693811,
                0.49042937
              ],
              [
                109.724865952,
                0.490294964
              ],
              [
                109.724832579,
                0.490085967
              ],
              [
                109.72456673,
                0.489843962
              ],
              [
                109.724354774,
                0.489683937
              ],
              [
                109.724010282,
                0.489577202
              ],
              [
                109.723692474,
                0.489417122
              ],
              [
                109.723480785,
                0.489337089
              ],
              [
                109.722951052,
                0.488856965
              ],
              [
                109.722659661,
                0.488563581
              ],
              [
                109.722447756,
                0.488136868
              ],
              [
                109.722288963,
                0.487470155
              ],
              [
                109.72205071,
                0.486803426
              ],
              [
                109.722077158,
                0.486510104
              ],
              [
                109.72170667,
                0.485790033
              ],
              [
                109.72154753,
                0.485469999
              ],
              [
                109.72154759,
                0.485149996
              ],
              [
                109.721335966,
                0.484723284
              ],
              [
                109.721118125,
                0.484508317
              ],
              [
                109.72093594,
                0.484298444
              ],
              [
                109.720731032,
                0.483989073
              ],
              [
                109.720603028,
                0.483834364
              ],
              [
                109.720398081,
                0.483731225
              ],
              [
                109.720142043,
                0.483576493
              ],
              [
                109.719860454,
                0.48342179
              ],
              [
                109.719553311,
                0.48329284
              ],
              [
                109.719297282,
                0.483086558
              ],
              [
                109.719024427,
                0.482771343
              ],
              [
                109.718836327,
                0.482674003
              ],
              [
                109.718554758,
                0.482416166
              ],
              [
                109.718273179,
                0.482209915
              ],
              [
                109.71799159,
                0.482055177
              ],
              [
                109.717863576,
                0.481952054
              ],
              [
                109.717530615,
                0.481745756
              ],
              [
                109.717351496,
                0.48166838
              ],
              [
                109.717018516,
                0.481565218
              ],
              [
                109.716480842,
                0.481513567
              ],
              [
                109.715738198,
                0.481487634
              ],
              [
                109.715431078,
                0.481229792
              ],
              [
                109.715123678,
                0.480971951
              ],
              [
                109.71486765,
                0.480765669
              ],
              [
                109.714458049,
                0.480507808
              ],
              [
                109.714048433,
                0.48032729
              ],
              [
                109.713766854,
                0.480121039
              ],
              [
                109.713714667,
                0.479924123
              ],
              [
                109.7134503,
                0.479267179
              ],
              [
                109.71320608,
                0.478980308
              ],
              [
                109.713043277,
                0.478734401
              ],
              [
                109.712799345,
                0.478406543
              ],
              [
                109.712514435,
                0.477996744
              ],
              [
                109.712351633,
                0.477750872
              ],
              [
                109.712229542,
                0.477504974
              ],
              [
                109.712188875,
                0.477259125
              ],
              [
                109.712066791,
                0.476972277
              ],
              [
                109.710509143,
                0.474997135
              ],
              [
                109.710337453,
                0.474226581
              ],
              [
                109.71037827,
                0.473652902
              ],
              [
                109.710378354,
                0.473202172
              ],
              [
                109.710256331,
                0.472587513
              ],
              [
                109.710215709,
                0.472095824
              ],
              [
                109.710134376,
                0.471604094
              ],
              [
                109.71005305,
                0.471071377
              ],
              [
                109.709975903,
                0.470709139
              ],
              [
                109.709931018,
                0.470497704
              ],
              [
                109.709890396,
                0.47000598
              ],
              [
                109.709971903,
                0.469555265
              ],
              [
                109.710134865,
                0.46894066
              ],
              [
                109.710257069,
                0.468571922
              ],
              [
                109.710420007,
                0.468080236
              ],
              [
                109.710623658,
                0.467588558
              ],
              [
                109.71086805,
                0.466932982
              ],
              [
                109.710868155,
                0.466359331
              ],
              [
                109.710908964,
                0.465826637
              ],
              [
                109.710949758,
                0.465375913
              ],
              [
                109.7111124,
                0.464966198
              ],
              [
                109.711295275,
                0.464461831
              ],
              [
                109.711417705,
                0.464391366
              ],
              [
                109.711639545,
                0.464231847
              ],
              [
                109.712051727,
                0.464200018
              ],
              [
                109.7123053,
                0.464008565
              ],
              [
                109.712558855,
                0.463912897
              ],
              [
                109.712875866,
                0.463817205
              ],
              [
                109.713541638,
                0.463498207
              ],
              [
                109.714080764,
                0.463274937
              ],
              [
                109.714968348,
                0.462955979
              ],
              [
                109.715760749,
                0.462637004
              ],
              [
                109.716148825,
                0.462378903
              ],
              [
                109.716458266,
                0.462222261
              ],
              [
                109.716616926,
                0.462094635
              ],
              [
                109.71683879,
                0.461807496
              ],
              [
                109.716983686,
                0.46171262
              ],
              [
                109.717219284,
                0.461552255
              ],
              [
                109.71744113,
                0.46136083
              ],
              [
                109.717694697,
                0.461201317
              ],
              [
                109.717948259,
                0.461073708
              ],
              [
                109.718170369,
                0.460977998
              ],
              [
                109.718423953,
                0.460722769
              ],
              [
                109.718677515,
                0.460595159
              ],
              [
                109.718899338,
                0.46053139
              ],
              [
                109.719057987,
                0.460467573
              ],
              [
                109.71943481,
                0.460332991
              ],
              [
                109.719496024,
                0.460304949
              ],
              [
                109.719509238,
                0.460203583
              ],
              [
                109.719681827,
                0.459116903
              ],
              [
                109.719969459,
                0.458447621
              ],
              [
                109.720006285,
                0.45819518
              ],
              [
                109.719956686,
                0.457646533
              ],
              [
                109.719522382,
                0.457340584
              ],
              [
                109.719248932,
                0.457208428
              ],
              [
                109.7188037,
                0.456781077
              ],
              [
                109.718474394,
                0.456541501
              ],
              [
                109.718251802,
                0.456192768
              ],
              [
                109.717833248,
                0.455742632
              ],
              [
                109.717249346,
                0.455132165
              ],
              [
                109.717217064,
                0.455091987
              ],
              [
                109.717007393,
                0.454711599
              ],
              [
                109.716545678,
                0.453816271
              ],
              [
                109.716465137,
                0.453583065
              ],
              [
                109.716365515,
                0.453287034
              ],
              [
                109.71629484,
                0.452833145
              ],
              [
                109.716361726,
                0.45248132
              ],
              [
                109.716496554,
                0.452160281
              ],
              [
                109.716775429,
                0.451779203
              ],
              [
                109.717318818,
                0.451255713
              ],
              [
                109.71747606,
                0.451204544
              ],
              [
                109.717523542,
                0.451021426
              ],
              [
                109.717680601,
                0.450414589
              ],
              [
                109.71776815,
                0.449108269
              ],
              [
                109.717500632,
                0.448764511
              ],
              [
                109.717242376,
                0.448447678
              ],
              [
                109.716483584,
                0.447650027
              ],
              [
                109.716345521,
                0.447201355
              ],
              [
                109.71642704,
                0.446655842
              ],
              [
                109.71643075,
                0.4463092
              ],
              [
                109.716084633,
                0.44586724
              ],
              [
                109.715683722,
                0.445677965
              ],
              [
                109.715386093,
                0.445730664
              ],
              [
                109.715231627,
                0.445966373
              ],
              [
                109.715106616,
                0.446354827
              ],
              [
                109.714458234,
                0.446793927
              ],
              [
                109.714282788,
                0.446579713
              ],
              [
                109.71406946,
                0.446235399
              ],
              [
                109.713919288,
                0.445996174
              ],
              [
                109.713842097,
                0.445873206
              ],
              [
                109.713637197,
                0.445497272
              ],
              [
                109.713420765,
                0.445243019
              ],
              [
                109.713267786,
                0.445006055
              ],
              [
                109.713154127,
                0.44469218
              ],
              [
                109.713262003,
                0.444353436
              ],
              [
                109.713341758,
                0.44426254
              ],
              [
                109.713682924,
                0.444101379
              ],
              [
                109.714033028,
                0.444223654
              ],
              [
                109.714280076,
                0.444410075
              ],
              [
                109.714578211,
                0.444676955
              ],
              [
                109.715166655,
                0.445003809
              ],
              [
                109.715497673,
                0.445076792
              ],
              [
                109.715797294,
                0.444871
              ],
              [
                109.716036387,
                0.443972688
              ],
              [
                109.716033332,
                0.443779173
              ],
              [
                109.715959274,
                0.443392839
              ],
              [
                109.715856825,
                0.443204854
              ],
              [
                109.715666236,
                0.442878282
              ],
              [
                109.715505986,
                0.44246137
              ],
              [
                109.715278345,
                0.442081192
              ],
              [
                109.71496562,
                0.441751454
              ],
              [
                109.714622002,
                0.441476015
              ],
              [
                109.714290427,
                0.441367029
              ],
              [
                109.714046987,
                0.441423659
              ],
              [
                109.713505695,
                0.441204365
              ],
              [
                109.713068287,
                0.440992968
              ],
              [
                109.712853797,
                0.440869232
              ],
              [
                109.712652231,
                0.44070932
              ],
              [
                109.712495867,
                0.440548956
              ],
              [
                109.712245765,
                0.440164499
              ],
              [
                109.711797706,
                0.439849684
              ],
              [
                109.71158632,
                0.439640411
              ],
              [
                109.711337326,
                0.439341458
              ],
              [
                109.710961427,
                0.439016868
              ],
              [
                109.710823591,
                0.438878802
              ],
              [
                109.710491786,
                0.438481718
              ],
              [
                109.710209679,
                0.438079626
              ],
              [
                109.710131082,
                0.437967928
              ],
              [
                109.709336399,
                0.436891612
              ],
              [
                109.709009364,
                0.436512478
              ],
              [
                109.708720492,
                0.436258991
              ],
              [
                109.708602897,
                0.435981156
              ],
              [
                109.708436438,
                0.435753377
              ],
              [
                109.708111951,
                0.435248179
              ],
              [
                109.708111157,
                0.434961495
              ],
              [
                109.708068576,
                0.434395292
              ],
              [
                109.707912245,
                0.434052192
              ],
              [
                109.707898211,
                0.434021591
              ],
              [
                109.707199951,
                0.433907526
              ],
              [
                109.706579179,
                0.433819619
              ],
              [
                109.706102728,
                0.433707676
              ],
              [
                109.705576564,
                0.433693771
              ],
              [
                109.705471861,
                0.433547867
              ],
              [
                109.704764339,
                0.433420409
              ],
              [
                109.704123423,
                0.432914097
              ],
              [
                109.703789905,
                0.432688092
              ],
              [
                109.703373294,
                0.432368443
              ],
              [
                109.703045148,
                0.431921827
              ],
              [
                109.702951108,
                0.431812423
              ],
              [
                109.702902293,
                0.431584876
              ],
              [
                109.702948091,
                0.431391336
              ],
              [
                109.703016626,
                0.431232495
              ],
              [
                109.703047247,
                0.431133465
              ],
              [
                109.703085467,
                0.430930632
              ],
              [
                109.703077928,
                0.43068154
              ],
              [
                109.703039772,
                0.430506146
              ],
              [
                109.703009207,
                0.430280052
              ],
              [
                109.703055016,
                0.430021924
              ],
              [
                109.703184768,
                0.429808011
              ],
              [
                109.703306936,
                0.429617064
              ],
              [
                109.703429118,
                0.429343085
              ],
              [
                109.703413723,
                0.429061699
              ],
              [
                109.70340618,
                0.428833383
              ],
              [
                109.703475022,
                0.428517668
              ],
              [
                109.703650537,
                0.428324644
              ],
              [
                109.703833623,
                0.428187022
              ],
              [
                109.704116093,
                0.428102803
              ],
              [
                109.704235701,
                0.428108442
              ],
              [
                109.704329478,
                0.428112874
              ],
              [
                109.704711325,
                0.428125906
              ],
              [
                109.705046837,
                0.428182565
              ],
              [
                109.7053596,
                0.428278332
              ],
              [
                109.705664788,
                0.428344101
              ],
              [
                109.705765858,
                0.428386199
              ],
              [
                109.705916622,
                0.428448868
              ],
              [
                109.706165348,
                0.428676837
              ],
              [
                109.706267813,
                0.428770873
              ],
              [
                109.706465986,
                0.429082959
              ],
              [
                109.70692384,
                0.429580511
              ],
              [
                109.707053555,
                0.429594878
              ],
              [
                109.707198459,
                0.429443258
              ],
              [
                109.707328204,
                0.429268492
              ],
              [
                109.707495848,
                0.429135425
              ],
              [
                109.707755569,
                0.429092612
              ],
              [
                109.707976808,
                0.429144199
              ],
              [
                109.708259213,
                0.429449727
              ],
              [
                109.708442246,
                0.429628009
              ],
              [
                109.708686231,
                0.429665891
              ],
              [
                109.708846576,
                0.429521198
              ],
              [
                109.709327269,
                0.429453937
              ],
              [
                109.709525498,
                0.429429486
              ],
              [
                109.709762194,
                0.429400306
              ],
              [
                109.710036782,
                0.429440596
              ],
              [
                109.710502556,
                0.429601541
              ],
              [
                109.711044143,
                0.429735154
              ],
              [
                109.711349315,
                0.429900065
              ],
              [
                109.711639036,
                0.430113343
              ],
              [
                109.711966651,
                0.430388706
              ],
              [
                109.712035993,
                0.43044009
              ],
              [
                109.712242068,
                0.43051238
              ],
              [
                109.71271488,
                0.430562667
              ],
              [
                109.713073455,
                0.43039112
              ],
              [
                109.713295029,
                0.430124471
              ],
              [
                109.713592404,
                0.429906594
              ],
              [
                109.713966731,
                0.429562134
              ],
              [
                109.714256542,
                0.429242746
              ],
              [
                109.71444722,
                0.429042833
              ],
              [
                109.714615444,
                0.428792146
              ],
              [
                109.714722183,
                0.428522721
              ],
              [
                109.714821352,
                0.428181818
              ],
              [
                109.714913203,
                0.42795387
              ],
              [
                109.715080853,
                0.427776992
              ],
              [
                109.715286946,
                0.427740881
              ],
              [
                109.715485163,
                0.427792393
              ],
              [
                109.715737005,
                0.427862571
              ],
              [
                109.716011873,
                0.427912082
              ],
              [
                109.716256134,
                0.427977628
              ],
              [
                109.716454356,
                0.428003737
              ],
              [
                109.716690766,
                0.428002398
              ],
              [
                109.716866262,
                0.427929291
              ],
              [
                109.717034186,
                0.427793891
              ],
              [
                109.717209982,
                0.427598569
              ],
              [
                109.717339473,
                0.427273889
              ],
              [
                109.717370118,
                0.427024944
              ],
              [
                109.717370174,
                0.426681303
              ],
              [
                109.717538108,
                0.426490573
              ],
              [
                109.717635265,
                0.426438051
              ],
              [
                109.71772877,
                0.426387576
              ],
              [
                109.717950025,
                0.42635154
              ],
              [
                109.718079733,
                0.42640509
              ],
              [
                109.718194262,
                0.426564633
              ],
              [
                109.71833153,
                0.426749656
              ],
              [
                109.718400293,
                0.426902161
              ],
              [
                109.718506958,
                0.427075518
              ],
              [
                109.718789124,
                0.427145806
              ],
              [
                109.719193697,
                0.427269607
              ],
              [
                109.719567675,
                0.427342595
              ],
              [
                109.719621028,
                0.427301301
              ],
              [
                109.720132375,
                0.42694121
              ],
              [
                109.720590082,
                0.426659442
              ],
              [
                109.721110952,
                0.426443862
              ],
              [
                109.721208387,
                0.426403529
              ],
              [
                109.721543933,
                0.42627109
              ],
              [
                109.721803674,
                0.426115282
              ],
              [
                109.721933423,
                0.425922073
              ],
              [
                109.722101087,
                0.425662197
              ],
              [
                109.722353278,
                0.425321884
              ],
              [
                109.722803101,
                0.425171408
              ],
              [
                109.723291654,
                0.425124886
              ],
              [
                109.723455065,
                0.425125514
              ],
              [
                109.723680806,
                0.4251264
              ],
              [
                109.723894469,
                0.425164099
              ],
              [
                109.724115721,
                0.425148908
              ],
              [
                109.724428494,
                0.425198531
              ],
              [
                109.724825218,
                0.425248557
              ],
              [
                109.725336508,
                0.425245957
              ],
              [
                109.725809626,
                0.425155549
              ],
              [
                109.725962366,
                0.425160768
              ],
              [
                109.726195695,
                0.425129927
              ],
              [
                109.726267293,
                0.425120435
              ],
              [
                109.726267294,
                0.425118138
              ],
              [
                109.726542177,
                0.425080025
              ],
              [
                109.726977119,
                0.424936436
              ],
              [
                109.727419641,
                0.424799808
              ],
              [
                109.727755482,
                0.424586669
              ],
              [
                109.727930976,
                0.424520485
              ],
              [
                109.728022517,
                0.42446086
              ],
              [
                109.728229183,
                0.424367687
              ],
              [
                109.728526825,
                0.42423358
              ],
              [
                109.728408105,
                0.42394426
              ],
              [
                109.728414078,
                0.423471515
              ],
              [
                109.728520928,
                0.422516077
              ],
              [
                109.728489291,
                0.421958245
              ],
              [
                109.728484011,
                0.421620715
              ],
              [
                109.728414721,
                0.421243319
              ],
              [
                109.728367011,
                0.419375753
              ],
              [
                109.728026493,
                0.419001281
              ],
              [
                109.727774113,
                0.418783416
              ],
              [
                109.727471759,
                0.418534557
              ],
              [
                109.727312572,
                0.418464255
              ],
              [
                109.726780536,
                0.418280864
              ],
              [
                109.726398983,
                0.418163428
              ],
              [
                109.726180834,
                0.418093717
              ],
              [
                109.725873944,
                0.41811953
              ],
              [
                109.725476643,
                0.41815978
              ],
              [
                109.725100972,
                0.41814131
              ],
              [
                109.724860915,
                0.418112369
              ],
              [
                109.724524569,
                0.417989923
              ],
              [
                109.724062701,
                0.417958826
              ],
              [
                109.723697129,
                0.417998762
              ],
              [
                109.723560961,
                0.417950723
              ],
              [
                109.723328777,
                0.417858645
              ],
              [
                109.722706611,
                0.417689761
              ],
              [
                109.722524682,
                0.417610693
              ],
              [
                109.722146511,
                0.417430154
              ],
              [
                109.721894689,
                0.417230309
              ],
              [
                109.721429208,
                0.416980965
              ],
              [
                109.721161948,
                0.416765042
              ],
              [
                109.721083339,
                0.416714574
              ],
              [
                109.720244196,
                0.416176788
              ],
              [
                109.720213882,
                0.416118767
              ],
              [
                109.71995307,
                0.415959164
              ],
              [
                109.719504728,
                0.415639865
              ],
              [
                109.719072924,
                0.415486948
              ],
              [
                109.718814062,
                0.415422177
              ],
              [
                109.718165775,
                0.415316604
              ],
              [
                109.717880239,
                0.415261122
              ],
              [
                109.717096617,
                0.415179482
              ],
              [
                109.716407066,
                0.415015817
              ],
              [
                109.715802317,
                0.414806199
              ],
              [
                109.715702366,
                0.414780284
              ],
              [
                109.715438456,
                0.414679544
              ],
              [
                109.715346382,
                0.414559011
              ],
              [
                109.715257119,
                0.414421697
              ],
              [
                109.715106139,
                0.41395391
              ],
              [
                109.714971404,
                0.413734758
              ],
              [
                109.714823748,
                0.413547298
              ],
              [
                109.714601431,
                0.413207578
              ],
              [
                109.714279439,
                0.412873391
              ],
              [
                109.714003766,
                0.412597261
              ],
              [
                109.713651485,
                0.412047365
              ],
              [
                109.713243902,
                0.41143503
              ],
              [
                109.713075497,
                0.411076735
              ],
              [
                109.712889998,
                0.410507046
              ],
              [
                109.71288782,
                0.410079422
              ],
              [
                109.712931123,
                0.409673851
              ],
              [
                109.712915743,
                0.40928237
              ],
              [
                109.712811068,
                0.408954895
              ],
              [
                109.712841171,
                0.408580981
              ],
              [
                109.712678968,
                0.408051539
              ],
              [
                109.712436411,
                0.407865088
              ],
              [
                109.711946993,
                0.408077389
              ],
              [
                109.711084455,
                0.408127139
              ],
              [
                109.71050157,
                0.408146867
              ],
              [
                109.709805534,
                0.408172299
              ],
              [
                109.709200232,
                0.407917705
              ],
              [
                109.708989401,
                0.407739915
              ],
              [
                109.708472822,
                0.407491201
              ],
              [
                109.708453184,
                0.407392869
              ],
              [
                109.708451811,
                0.407201015
              ],
              [
                109.708324084,
                0.407052353
              ],
              [
                109.708282015,
                0.406757183
              ],
              [
                109.708269138,
                0.40651876
              ],
              [
                109.708206886,
                0.406015269
              ],
              [
                109.708069094,
                0.405593595
              ],
              [
                109.707851271,
                0.40524932
              ],
              [
                109.707583747,
                0.404923587
              ],
              [
                109.707201086,
                0.40474312
              ],
              [
                109.706881057,
                0.404426635
              ],
              [
                109.706693231,
                0.404365941
              ],
              [
                109.706464985,
                0.404233338
              ],
              [
                109.706136792,
                0.404056802
              ],
              [
                109.705966673,
                0.403883083
              ],
              [
                109.705791782,
                0.403691378
              ],
              [
                109.705594152,
                0.403486422
              ],
              [
                109.70541338,
                0.403209284
              ],
              [
                109.705225012,
                0.403022241
              ],
              [
                109.705086342,
                0.402834677
              ],
              [
                109.704591693,
                0.402394115
              ],
              [
                109.704127927,
                0.401971647
              ],
              [
                109.703608584,
                0.401455046
              ],
              [
                109.703350881,
                0.401169736
              ],
              [
                109.703016294,
                0.400592641
              ],
              [
                109.702862799,
                0.400045112
              ],
              [
                109.702665491,
                0.399574601
              ],
              [
                109.702484441,
                0.399279445
              ],
              [
                109.702421033,
                0.398983035
              ],
              [
                109.702313809,
                0.398786113
              ],
              [
                109.702133871,
                0.398558477
              ],
              [
                109.701464651,
                0.39769235
              ],
              [
                109.701139002,
                0.397407771
              ],
              [
                109.70062332,
                0.396819095
              ],
              [
                109.700284194,
                0.396534654
              ],
              [
                109.699419244,
                0.395882185
              ],
              [
                109.699026486,
                0.395638827
              ],
              [
                109.698719923,
                0.395399052
              ],
              [
                109.698276356,
                0.395079406
              ],
              [
                109.698171079,
                0.395008796
              ],
              [
                109.69797206,
                0.394709327
              ],
              [
                109.697668918,
                0.394131921
              ],
              [
                109.697420202,
                0.393841984
              ],
              [
                109.697235214,
                0.393591876
              ],
              [
                109.696974454,
                0.393108531
              ],
              [
                109.696970562,
                0.392860995
              ],
              [
                109.696851572,
                0.392497659
              ],
              [
                109.696417033,
                0.39189914
              ],
              [
                109.696184619,
                0.391500984
              ],
              [
                109.696084713,
                0.391182487
              ],
              [
                109.695937938,
                0.390746116
              ],
              [
                109.69581163,
                0.390501176
              ],
              [
                109.695600009,
                0.389990316
              ],
              [
                109.695447347,
                0.389492289
              ],
              [
                109.694092455,
                0.387022031
              ],
              [
                109.693520872,
                0.386614037
              ],
              [
                109.692944473,
                0.386485164
              ],
              [
                109.692394713,
                0.386585597
              ],
              [
                109.691939806,
                0.386991064
              ],
              [
                109.691139488,
                0.387823392
              ],
              [
                109.69063512,
                0.388522
              ],
              [
                109.690321988,
                0.389011507
              ],
              [
                109.689693732,
                0.390157077
              ],
              [
                109.689162131,
                0.390842464
              ],
              [
                109.689142449,
                0.391027211
              ],
              [
                109.689062973,
                0.391149587
              ],
              [
                109.688938571,
                0.391285984
              ],
              [
                109.688403078,
                0.391723836
              ],
              [
                109.6881043,
                0.391979096
              ],
              [
                109.687805802,
                0.392252375
              ],
              [
                109.687376737,
                0.392576582
              ],
              [
                109.686454884,
                0.393162624
              ],
              [
                109.685974923,
                0.393977969
              ],
              [
                109.685893136,
                0.394514503
              ],
              [
                109.685807177,
                0.394790006
              ],
              [
                109.68559686,
                0.394931829
              ],
              [
                109.685391591,
                0.395105063
              ],
              [
                109.68494118,
                0.3954835
              ],
              [
                109.684633973,
                0.395779354
              ],
              [
                109.684105194,
                0.396370191
              ],
              [
                109.68356354,
                0.396700102
              ],
              [
                109.682722873,
                0.397006187
              ],
              [
                109.682200022,
                0.397389875
              ],
              [
                109.681776519,
                0.398051604
              ],
              [
                109.681220653,
                0.399475486
              ],
              [
                109.680848148,
                0.400775841
              ],
              [
                109.680711891,
                0.401303956
              ],
              [
                109.679925924,
                0.401915524
              ],
              [
                109.679114157,
                0.402333825
              ],
              [
                109.678416974,
                0.402561847
              ],
              [
                109.677021778,
                0.402950407
              ],
              [
                109.67640991,
                0.403425093
              ],
              [
                109.676695907,
                0.404070224
              ],
              [
                109.676818505,
                0.404672081
              ],
              [
                109.67673088,
                0.404835051
              ],
              [
                109.676549742,
                0.405098065
              ],
              [
                109.676378699,
                0.40544199
              ],
              [
                109.67634753,
                0.405460357
              ],
              [
                109.676163055,
                0.405529824
              ],
              [
                109.676045368,
                0.405805673
              ],
              [
                109.675856637,
                0.406145284
              ],
              [
                109.675518768,
                0.406801583
              ],
              [
                109.675303079,
                0.407159491
              ],
              [
                109.675185948,
                0.407475865
              ],
              [
                109.675092115,
                0.407823442
              ],
              [
                109.674772541,
                0.408195995
              ],
              [
                109.674576257,
                0.408364635
              ],
              [
                109.67394197,
                0.408569453
              ],
              [
                109.673924836,
                0.408617324
              ],
              [
                109.67373962,
                0.408063295
              ],
              [
                109.673669015,
                0.407157277
              ],
              [
                109.673544794,
                0.406183414
              ],
              [
                109.673343052,
                0.405389375
              ],
              [
                109.672896697,
                0.404990692
              ],
              [
                109.672318915,
                0.404771576
              ],
              [
                109.672015954,
                0.404846677
              ],
              [
                109.671322938,
                0.405358975
              ],
              [
                109.671265094,
                0.405401717
              ],
              [
                109.669378493,
                0.407905981
              ],
              [
                109.669290031,
                0.408027931
              ],
              [
                109.66845326,
                0.408555502
              ],
              [
                109.667643421,
                0.409213874
              ],
              [
                109.666887783,
                0.409786894
              ],
              [
                109.665712118,
                0.410366873
              ],
              [
                109.664721473,
                0.410974796
              ],
              [
                109.663789495,
                0.41167314
              ],
              [
                109.662925781,
                0.412137496
              ],
              [
                109.661266019,
                0.413053038
              ],
              [
                109.660637622,
                0.413311275
              ],
              [
                109.659933944,
                0.413723726
              ],
              [
                109.659521323,
                0.413524834
              ],
              [
                109.659271665,
                0.41333562
              ],
              [
                109.658751742,
                0.41305307
              ],
              [
                109.658257542,
                0.41287677
              ],
              [
                109.658033619,
                0.412721249
              ],
              [
                109.657387408,
                0.41255302
              ],
              [
                109.656730662,
                0.412269009
              ],
              [
                109.655907789,
                0.411967246
              ],
              [
                109.655091073,
                0.411791405
              ],
              [
                109.653352366,
                0.413034345
              ],
              [
                109.652821596,
                0.413778224
              ],
              [
                109.652029377,
                0.41484449
              ],
              [
                109.651599434,
                0.415389258
              ],
              [
                109.651213632,
                0.415573409
              ],
              [
                109.650798047,
                0.415883934
              ],
              [
                109.650499269,
                0.416143709
              ],
              [
                109.650284412,
                0.416564642
              ],
              [
                109.649757024,
                0.417227434
              ],
              [
                109.64940628,
                0.417627323
              ],
              [
                109.649000514,
                0.417982755
              ],
              [
                109.649000777,
                0.417986826
              ],
              [
                109.648288522,
                0.418703616
              ],
              [
                109.647945629,
                0.419125372
              ],
              [
                109.647145614,
                0.419706826
              ],
              [
                109.646545639,
                0.419933607
              ],
              [
                109.645831411,
                0.420038936
              ],
              [
                109.645345335,
                0.420405809
              ],
              [
                109.64534338,
                0.420412542
              ],
              [
                109.645096482,
                0.421263312
              ],
              [
                109.645036907,
                0.421567079
              ],
              [
                109.644963547,
                0.42202955
              ],
              [
                109.644976101,
                0.422496559
              ],
              [
                109.644907243,
                0.422900098
              ],
              [
                109.644760863,
                0.423489537
              ],
              [
                109.644728209,
                0.423979185
              ],
              [
                109.644803146,
                0.424141368
              ],
              [
                109.644931406,
                0.424418952
              ],
              [
                109.645034332,
                0.425080862
              ],
              [
                109.645101628,
                0.425579573
              ],
              [
                109.645146217,
                0.425883358
              ],
              [
                109.645227301,
                0.426205239
              ],
              [
                109.645330518,
                0.42680366
              ],
              [
                109.645327119,
                0.426978866
              ],
              [
                109.64532032,
                0.427320552
              ],
              [
                109.645500447,
                0.428027807
              ],
              [
                109.645549214,
                0.428521957
              ],
              [
                109.645570546,
                0.428870578
              ],
              [
                109.645580009,
                0.429025219
              ],
              [
                109.645624569,
                0.429487675
              ],
              [
                109.64565476,
                0.430235746
              ],
              [
                109.645744508,
                0.430784348
              ],
              [
                109.645825893,
                0.431244572
              ],
              [
                109.645829494,
                0.431264937
              ],
              [
                109.645914449,
                0.431931368
              ],
              [
                109.645952885,
                0.432090718
              ],
              [
                109.646026953,
                0.43239836
              ],
              [
                109.64609535,
                0.433015182
              ],
              [
                109.646120578,
                0.433241624
              ],
              [
                109.646178619,
                0.433681401
              ],
              [
                109.646200122,
                0.434329766
              ],
              [
                109.646312624,
                0.434805767
              ],
              [
                109.646419024,
                0.435103118
              ],
              [
                109.646426397,
                0.43511011
              ],
              [
                109.646486295,
                0.435291117
              ],
              [
                109.646497556,
                0.435322589
              ],
              [
                109.646498546,
                0.435328138
              ],
              [
                109.64650923,
                0.435360424
              ],
              [
                109.646548561,
                0.435569917
              ],
              [
                109.646621598,
                0.435988901
              ],
              [
                109.646683371,
                0.436504133
              ],
              [
                109.646728238,
                0.43720054
              ],
              [
                109.646738495,
                0.437621801
              ],
              [
                109.646740054,
                0.437661217
              ],
              [
                109.646740918,
                0.437663973
              ],
              [
                109.646740172,
                0.437664229
              ],
              [
                109.646742236,
                0.437716423
              ],
              [
                109.646763758,
                0.438255968
              ],
              [
                109.646822101,
                0.438568801
              ],
              [
                109.64690969,
                0.438622909
              ],
              [
                109.646976224,
                0.438663976
              ],
              [
                109.647144111,
                0.438722868
              ],
              [
                109.647697805,
                0.438586732
              ],
              [
                109.648051547,
                0.438709042
              ],
              [
                109.648523231,
                0.438722554
              ],
              [
                109.649036198,
                0.43867707
              ],
              [
                109.649530632,
                0.438640697
              ],
              [
                109.650097764,
                0.438722169
              ],
              [
                109.650420091,
                0.438676756
              ],
              [
                109.650830282,
                0.438713151
              ],
              [
                109.650843002,
                0.438718841
              ],
              [
                109.651165244,
                0.438669931
              ],
              [
                109.651904802,
                0.438549515
              ],
              [
                109.651955341,
                0.43854713
              ],
              [
                109.652275417,
                0.438532058
              ],
              [
                109.652822904,
                0.438566711
              ],
              [
                109.653131737,
                0.4386151
              ],
              [
                109.65363346,
                0.438648084
              ],
              [
                109.653898503,
                0.438654916
              ],
              [
                109.654126483,
                0.438660823
              ],
              [
                109.654468701,
                0.438864216
              ],
              [
                109.654731194,
                0.438994352
              ],
              [
                109.654992845,
                0.439124207
              ],
              [
                109.65564644,
                0.439283775
              ],
              [
                109.656006628,
                0.439482473
              ],
              [
                109.656459189,
                0.439669352
              ],
              [
                109.657534459,
                0.440037804
              ],
              [
                109.657630475,
                0.440068808
              ],
              [
                109.657952776,
                0.440172881
              ],
              [
                109.658303702,
                0.440353699
              ],
              [
                109.658611092,
                0.44062948
              ],
              [
                109.658710937,
                0.441236101
              ],
              [
                109.658808791,
                0.441982282
              ],
              [
                109.658856066,
                0.442954041
              ],
              [
                109.658939277,
                0.44393443
              ],
              [
                109.659371071,
                0.444078378
              ],
              [
                109.660190161,
                0.443560959
              ],
              [
                109.660627381,
                0.443196207
              ],
              [
                109.661409371,
                0.442895256
              ],
              [
                109.662339059,
                0.442516213
              ],
              [
                109.663015776,
                0.442135394
              ],
              [
                109.663395679,
                0.441997352
              ],
              [
                109.663819346,
                0.442054807
              ],
              [
                109.664303385,
                0.442076623
              ],
              [
                109.664641438,
                0.442023511
              ],
              [
                109.664948603,
                0.441993217
              ],
              [
                109.66513222,
                0.442023706
              ],
              [
                109.66534168,
                0.441980003
              ],
              [
                109.665640966,
                0.442044326
              ],
              [
                109.665841142,
                0.442114211
              ],
              [
                109.66614886,
                0.44212893
              ],
              [
                109.666533506,
                0.442160833
              ],
              [
                109.666803894,
                0.442112937
              ],
              [
                109.667098414,
                0.442141291
              ],
              [
                109.667457229,
                0.442178454
              ],
              [
                109.667778411,
                0.442269067
              ],
              [
                109.66807293,
                0.442301943
              ],
              [
                109.668259348,
                0.442367481
              ],
              [
                109.668535618,
                0.44240053
              ],
              [
                109.668784933,
                0.442433893
              ],
              [
                109.669024984,
                0.442471812
              ],
              [
                109.669247343,
                0.442518984
              ],
              [
                109.669841151,
                0.442611659
              ],
              [
                109.670171886,
                0.442662137
              ],
              [
                109.670543334,
                0.442712199
              ],
              [
                109.67071461,
                0.442669831
              ],
              [
                109.67100996,
                0.442774713
              ],
              [
                109.671205086,
                0.442813154
              ],
              [
                109.671296276,
                0.443149774
              ],
              [
                109.671358794,
                0.443671242
              ],
              [
                109.67134837,
                0.443869415
              ],
              [
                109.671477495,
                0.44403009
              ],
              [
                109.671642561,
                0.444172365
              ],
              [
                109.671751773,
                0.444216231
              ],
              [
                109.671873303,
                0.444453504
              ],
              [
                109.671942913,
                0.444569792
              ],
              [
                109.672227839,
                0.444868324
              ],
              [
                109.672440333,
                0.445140627
              ],
              [
                109.672646386,
                0.445313965
              ],
              [
                109.673105365,
                0.445741207
              ],
              [
                109.673594683,
                0.446087085
              ],
              [
                109.674050608,
                0.446329789
              ],
              [
                109.674404084,
                0.44639352
              ],
              [
                109.674850521,
                0.446312234
              ],
              [
                109.67551848,
                0.446251089
              ],
              [
                109.676126929,
                0.446127574
              ],
              [
                109.676258603,
                0.446162153
              ],
              [
                109.676448404,
                0.446160138
              ],
              [
                109.676493607,
                0.446159651
              ],
              [
                109.676784745,
                0.44626909
              ],
              [
                109.677419543,
                0.446379334
              ],
              [
                109.677938644,
                0.446612369
              ],
              [
                109.678145255,
                0.446812702
              ],
              [
                109.678365621,
                0.447017418
              ],
              [
                109.678605068,
                0.44729393
              ],
              [
                109.678720992,
                0.447482834
              ],
              [
                109.678795344,
                0.447773874
              ],
              [
                109.678855949,
                0.448006967
              ],
              [
                109.678938153,
                0.44834818
              ],
              [
                109.679088026,
                0.448670678
              ],
              [
                109.679157585,
                0.449066051
              ],
              [
                109.679276287,
                0.4494249
              ],
              [
                109.679380678,
                0.449729867
              ],
              [
                109.679485373,
                0.449906685
              ],
              [
                109.679628505,
                0.450240383
              ],
              [
                109.679684916,
                0.450374829
              ],
              [
                109.679789603,
                0.450598286
              ],
              [
                109.680025648,
                0.451050891
              ],
              [
                109.680061298,
                0.45109107
              ],
              [
                109.680140741,
                0.451180191
              ],
              [
                109.68035828,
                0.45149295
              ],
              [
                109.680479531,
                0.451725738
              ],
              [
                109.680702394,
                0.45210146
              ],
              [
                109.680818043,
                0.452257788
              ],
              [
                109.680951937,
                0.452445388
              ],
              [
                109.681030258,
                0.452517443
              ],
              [
                109.681135529,
                0.452614483
              ],
              [
                109.681500719,
                0.453119226
              ],
              [
                109.681738501,
                0.453283244
              ],
              [
                109.681983879,
                0.453366142
              ],
              [
                109.683120189,
                0.453173969
              ],
              [
                109.683809507,
                0.453022558
              ],
              [
                109.684639812,
                0.452649078
              ],
              [
                109.685219364,
                0.452413344
              ],
              [
                109.685300233,
                0.452368735
              ],
              [
                109.685851159,
                0.452064488
              ],
              [
                109.686827731,
                0.451765972
              ],
              [
                109.686901582,
                0.451724471
              ],
              [
                109.687432572,
                0.451426403
              ],
              [
                109.687914118,
                0.451286223
              ],
              [
                109.688299653,
                0.451079568
              ],
              [
                109.688765221,
                0.450795479
              ],
              [
                109.689226576,
                0.450520505
              ],
              [
                109.689698859,
                0.45037142
              ],
              [
                109.689995652,
                0.450269189
              ],
              [
                109.690953695,
                0.449961869
              ],
              [
                109.691165128,
                0.449892092
              ],
              [
                109.691735694,
                0.449669958
              ],
              [
                109.69201535,
                0.449626444
              ],
              [
                109.692348361,
                0.449528352
              ],
              [
                109.692582535,
                0.449467342
              ],
              [
                109.692923142,
                0.449288165
              ],
              [
                109.693224705,
                0.449203917
              ],
              [
                109.693490052,
                0.449102033
              ],
              [
                109.693994059,
                0.448970619
              ],
              [
                109.694323134,
                0.448904077
              ],
              [
                109.694764248,
                0.448777846
              ],
              [
                109.694948723,
                0.448730852
              ],
              [
                109.695075908,
                0.448756491
              ],
              [
                109.695481486,
                0.449526408
              ],
              [
                109.695464524,
                0.45017478
              ],
              [
                109.695479594,
                0.450689284
              ],
              [
                109.695484619,
                0.450854249
              ],
              [
                109.695395875,
                0.450963232
              ],
              [
                109.694876015,
                0.451824069
              ],
              [
                109.694031571,
                0.452746853
              ],
              [
                109.693971193,
                0.452812842
              ],
              [
                109.693271656,
                0.453574222
              ],
              [
                109.692861892,
                0.45423577
              ],
              [
                109.692167651,
                0.455210977
              ],
              [
                109.692069113,
                0.456692986
              ],
              [
                109.693218826,
                0.458494729
              ],
              [
                109.693519735,
                0.458923643
              ],
              [
                109.693720992,
                0.459230854
              ],
              [
                109.694117331,
                0.45983556
              ],
              [
                109.69443,
                0.460444385
              ],
              [
                109.694448529,
                0.460453292
              ],
              [
                109.694224722,
                0.460633443
              ],
              [
                109.69358111,
                0.46108815
              ],
              [
                109.692229044,
                0.461921837
              ],
              [
                109.691803299,
                0.462449438
              ],
              [
                109.691448885,
                0.462888934
              ],
              [
                109.69102503,
                0.463820731
              ],
              [
                109.69088288,
                0.464254401
              ],
              [
                109.690394565,
                0.46454767
              ],
              [
                109.689898153,
                0.464593509
              ],
              [
                109.68929003,
                0.464446945
              ],
              [
                109.688291825,
                0.4647952
              ],
              [
                109.687662298,
                0.465004493
              ],
              [
                109.687027997,
                0.465213821
              ],
              [
                109.685706202,
                0.464818282
              ],
              [
                109.685212114,
                0.464449963
              ],
              [
                109.68497239,
                0.464159951
              ],
              [
                109.684686298,
                0.464086478
              ],
              [
                109.684262651,
                0.463892923
              ],
              [
                109.683826916,
                0.463780557
              ],
              [
                109.683621971,
                0.46368371
              ],
              [
                109.682902869,
                0.463952449
              ],
              [
                109.682253603,
                0.464630094
              ],
              [
                109.681906123,
                0.465529537
              ],
              [
                109.681403068,
                0.466579215
              ],
              [
                109.680629949,
                0.467429219
              ],
              [
                109.680022501,
                0.468191948
              ],
              [
                109.679921971,
                0.468265525
              ],
              [
                109.678923136,
                0.468995887
              ],
              [
                109.678352569,
                0.46921805
              ],
              [
                109.677617994,
                0.469649026
              ],
              [
                109.676380795,
                0.470319418
              ],
              [
                109.67560046,
                0.470723851
              ],
              [
                109.675159403,
                0.470553009
              ],
              [
                109.674620945,
                0.470248171
              ],
              [
                109.67407666,
                0.469569773
              ],
              [
                109.673385785,
                0.469045993
              ],
              [
                109.672620423,
                0.468968612
              ],
              [
                109.671879518,
                0.468724471
              ],
              [
                109.671606405,
                0.468322241
              ],
              [
                109.671313934,
                0.467839239
              ],
              [
                109.670988959,
                0.46701447
              ],
              [
                109.670564641,
                0.465920668
              ],
              [
                109.67004898,
                0.465332019
              ],
              [
                109.669288994,
                0.46503403
              ],
              [
                109.66843673,
                0.465731805
              ],
              [
                109.668086199,
                0.466433279
              ],
              [
                109.667203871,
                0.467243897
              ],
              [
                109.666328363,
                0.467622341
              ],
              [
                109.665800623,
                0.468550749
              ],
              [
                109.665957702,
                0.469355912
              ],
              [
                109.666022215,
                0.469687226
              ],
              [
                109.666882539,
                0.470911378
              ],
              [
                109.667765879,
                0.472168499
              ],
              [
                109.668006434,
                0.472510871
              ],
              [
                109.66842138,
                0.474140402
              ],
              [
                109.669383824,
                0.477240535
              ],
              [
                109.669649559,
                0.478038936
              ],
              [
                109.669900102,
                0.478995019
              ],
              [
                109.669713526,
                0.481193659
              ],
              [
                109.669734489,
                0.48168636
              ],
              [
                109.669749303,
                0.482030527
              ],
              [
                109.669992522,
                0.483103732
              ],
              [
                109.670202679,
                0.483821709
              ],
              [
                109.670694768,
                0.484334112
              ],
              [
                109.671404442,
                0.484907223
              ],
              [
                109.671677609,
                0.485021328
              ],
              [
                109.671819323,
                0.485406928
              ],
              [
                109.671850108,
                0.485915248
              ],
              [
                109.672315738,
                0.486770044
              ],
              [
                109.673054979,
                0.488342124
              ],
              [
                109.673276952,
                0.488938424
              ],
              [
                109.673724392,
                0.489487317
              ],
              [
                109.674116862,
                0.489721678
              ],
              [
                109.674976462,
                0.490329198
              ],
              [
                109.675696956,
                0.490141485
              ],
              [
                109.676526937,
                0.490024596
              ],
              [
                109.677009817,
                0.490253499
              ],
              [
                109.677418264,
                0.490631769
              ],
              [
                109.677799476,
                0.491014804
              ],
              [
                109.678150348,
                0.491479202
              ],
              [
                109.678378865,
                0.491634318
              ],
              [
                109.678699458,
                0.491878488
              ],
              [
                109.678733125,
                0.492008656
              ],
              [
                109.678818375,
                0.492538894
              ],
              [
                109.678972126,
                0.493104407
              ],
              [
                109.678981608,
                0.493432921
              ],
              [
                109.67912108,
                0.493789975
              ],
              [
                109.679430655,
                0.494377919
              ],
              [
                109.679613637,
                0.49478109
              ],
              [
                109.679818747,
                0.495463102
              ],
              [
                109.680000284,
                0.496077837
              ],
              [
                109.680225918,
                0.496611107
              ],
              [
                109.680447667,
                0.496914826
              ],
              [
                109.68062843,
                0.497187481
              ],
              [
                109.68068427,
                0.49735765
              ],
              [
                109.680857166,
                0.497653163
              ],
              [
                109.681032326,
                0.497862856
              ],
              [
                109.681322023,
                0.498161361
              ],
              [
                109.68155054,
                0.498316477
              ],
              [
                109.681775119,
                0.498512119
              ],
              [
                109.681939351,
                0.498604897
              ],
              [
                109.682122666,
                0.498751525
              ],
              [
                109.682273974,
                0.498895036
              ],
              [
                109.682161352,
                0.499055172
              ],
              [
                109.682008019,
                0.49921212
              ],
              [
                109.681604083,
                0.50015186
              ],
              [
                109.681354647,
                0.50070482
              ],
              [
                109.681230969,
                0.501398107
              ],
              [
                109.681391352,
                0.502489321
              ],
              [
                109.681503534,
                0.503116516
              ],
              [
                109.681587952,
                0.503589729
              ],
              [
                109.682096214,
                0.504660134
              ],
              [
                109.682223081,
                0.504868934
              ],
              [
                109.682730829,
                0.505704102
              ],
              [
                109.68282712,
                0.50577058
              ],
              [
                109.683578924,
                0.506289578
              ],
              [
                109.684490795,
                0.506672584
              ],
              [
                109.686812468,
                0.50683728
              ],
              [
                109.687259112,
                0.507160444
              ],
              [
                109.687326488,
                0.507209286
              ],
              [
                109.688071624,
                0.507379702
              ],
              [
                109.688866773,
                0.507374635
              ],
              [
                109.689142779,
                0.507345224
              ],
              [
                109.691412355,
                0.506905701
              ],
              [
                109.692846315,
                0.506646975
              ],
              [
                109.693209649,
                0.506580554
              ],
              [
                109.693615674,
                0.506446234
              ],
              [
                109.694054832,
                0.506300863
              ],
              [
                109.695194308,
                0.505819875
              ],
              [
                109.69522829,
                0.505772678
              ],
              [
                109.696378985,
                0.505348116
              ],
              [
                109.696934962,
                0.50512108
              ],
              [
                109.69722729,
                0.504902293
              ],
              [
                109.697808297,
                0.504467547
              ],
              [
                109.698640106,
                0.503677799
              ],
              [
                109.699285446,
                0.503065027
              ],
              [
                109.699347227,
                0.503006247
              ],
              [
                109.69977779,
                0.502318952
              ],
              [
                109.700064884,
                0.501591243
              ],
              [
                109.700704245,
                0.499971474
              ],
              [
                109.700710423,
                0.499966352
              ],
              [
                109.701297053,
                0.499487757
              ],
              [
                109.701740778,
                0.4989673
              ],
              [
                109.702151865,
                0.49879316
              ],
              [
                109.704342364,
                0.497865071
              ],
              [
                109.70513646,
                0.497528691
              ],
              [
                109.705721223,
                0.496544777
              ],
              [
                109.706425971,
                0.496521242
              ],
              [
                109.706990917,
                0.496379814
              ],
              [
                109.707366038,
                0.496345616
              ],
              [
                109.707569612,
                0.496279055
              ],
              [
                109.708012098,
                0.496353339
              ],
              [
                109.708635727,
                0.496207718
              ],
              [
                109.709815005,
                0.496078387
              ],
              [
                109.710569139,
                0.496217284
              ],
              [
                109.710813115,
                0.496304107
              ],
              [
                109.711295694,
                0.496680488
              ],
              [
                109.711593262,
                0.496952285
              ],
              [
                109.715917757,
                0.498429096
              ],
              [
                109.716668022,
                0.49825707
              ],
              [
                109.717163291,
                0.498050353
              ]
            ]
          ]
        ]
      }
    }
  ]
}