{
  "type": "FeatureCollection",
  "features": [
    {
      "type": "Feature",
      "properties": {
        "idx": "1993",
        "nama_kewilayahan": " Yawa Unat "
      },
      "geometry": {
        "type": "MultiPolygon",
        "coordinates": [
          [
            [
              [
                136.203295099,
                -1.731769377
              ],
              [
                136.203655206,
                -1.733824102
              ],
              [
                136.203899275,
                -1.735315633
              ],
              [
                136.204089106,
                -1.737566491
              ],
              [
                136.204794194,
                -1.739166498
              ],
              [
                136.205661994,
                -1.740061417
              ],
              [
                136.2059603,
                -1.740956336
              ],
              [
                136.206285726,
                -1.742068205
              ],
              [
                136.206367082,
                -1.742990243
              ],
              [
                136.206434879,
                -1.744061434
              ],
              [
                136.206136572,
                -1.745986866
              ],
              [
                136.205431485,
                -1.748183486
              ],
              [
                136.205024703,
                -1.74962078
              ],
              [
                136.204278937,
                -1.753675035
              ],
              [
                136.204061987,
                -1.755681823
              ],
              [
                136.204122228,
                -1.758055312
              ],
              [
                136.204069941,
                -1.758039165
              ],
              [
                136.204048428,
                -1.759193703
              ],
              [
                136.203858596,
                -1.760739472
              ],
              [
                136.203831478,
                -1.762339479
              ],
              [
                136.204590803,
                -1.764237792
              ],
              [
                136.204984025,
                -1.765770002
              ],
              [
                136.205255213,
                -1.767044584
              ],
              [
                136.20530945,
                -1.76802086
              ],
              [
                136.205607757,
                -1.76953951
              ],
              [
                136.205580638,
                -1.770542904
              ],
              [
                136.205200975,
                -1.771410705
              ],
              [
                136.204170462,
                -1.77282088
              ],
              [
                136.203614528,
                -1.773458171
              ],
              [
                136.202529777,
                -1.774217497
              ],
              [
                136.201092483,
                -1.774597159
              ],
              [
                136.200197564,
                -1.775654791
              ],
              [
                136.198489082,
                -1.77741751
              ],
              [
                136.197241619,
                -1.778231073
              ],
              [
                136.195858562,
                -1.778719211
              ],
              [
                136.193160245,
                -1.780115827
              ],
              [
                136.191695832,
                -1.781037865
              ],
              [
                136.190502607,
                -1.782556516
              ],
              [
                136.189797519,
                -1.784129404
              ],
              [
                136.189065312,
                -1.785512461
              ],
              [
                136.18868565,
                -1.78684128
              ],
              [
                136.188834803,
                -1.787831115
              ],
              [
                136.189485653,
                -1.78902434
              ],
              [
                136.190407691,
                -1.790190447
              ],
              [
                136.191275491,
                -1.791926048
              ],
              [
                136.191763629,
                -1.794041311
              ],
              [
                136.192265326,
                -1.795112502
              ],
              [
                136.192438886,
                -1.795936913
              ],
              [
                136.193089736,
                -1.797629123
              ],
              [
                136.193350076,
                -1.798366754
              ],
              [
                136.193632112,
                -1.799060994
              ],
              [
                136.193653807,
                -1.799494894
              ],
              [
                136.193632112,
                -1.800189134
              ],
              [
                136.193278483,
                -1.800928934
              ],
              [
                136.192653667,
                -1.801623174
              ],
              [
                136.192254479,
                -1.802230635
              ],
              [
                136.191178406,
                -1.803862099
              ],
              [
                136.189607687,
                -1.805269672
              ],
              [
                136.188996031,
                -1.805738608
              ],
              [
                136.188739901,
                -1.807458335
              ],
              [
                136.188452671,
                -1.809354054
              ],
              [
                136.18796438,
                -1.81208274
              ],
              [
                136.188079272,
                -1.813289107
              ],
              [
                136.189170747,
                -1.815012488
              ],
              [
                136.190147329,
                -1.816850761
              ],
              [
                136.191181358,
                -1.817769898
              ],
              [
                136.191411142,
                -1.819033711
              ],
              [
                136.19187071,
                -1.820871984
              ],
              [
                136.192560063,
                -1.822480473
              ],
              [
                136.193134523,
                -1.823629393
              ],
              [
                136.194771735,
                -1.827507001
              ],
              [
                136.195288749,
                -1.829747396
              ],
              [
                136.195403641,
                -1.832160129
              ],
              [
                136.195058965,
                -1.835032431
              ],
              [
                136.194484505,
                -1.83664092
              ],
              [
                136.194082382,
                -1.838479193
              ],
              [
                136.190089883,
                -1.845458886
              ],
              [
                136.188194164,
                -1.848963094
              ],
              [
                136.186815459,
                -1.851031152
              ],
              [
                136.185723985,
                -1.853099209
              ],
              [
                136.183742096,
                -1.855598111
              ],
              [
                136.181042133,
                -1.857666168
              ],
              [
                136.179835766,
                -1.858642751
              ],
              [
                136.179146414,
                -1.859849118
              ],
              [
                136.178744291,
                -1.861285269
              ],
              [
                136.178457061,
                -1.862261851
              ],
              [
                136.177940047,
                -1.8644448
              ],
              [
                136.176561342,
                -1.866397966
              ],
              [
                136.174895407,
                -1.867834117
              ],
              [
                136.174435839,
                -1.868351131
              ],
              [
                136.172211336,
                -1.8713118
              ],
              [
                136.172149658,
                -1.87125361
              ],
              [
                136.172134399,
                -1.871245265
              ],
              [
                136.171539307,
                -1.871126771
              ],
              [
                136.171142578,
                -1.870836854
              ],
              [
                136.170898437,
                -1.870586872
              ],
              [
                136.170516968,
                -1.870246768
              ],
              [
                136.170074463,
                -1.869716883
              ],
              [
                136.169433594,
                -1.868936777
              ],
              [
                136.168899536,
                -1.868206859
              ],
              [
                136.168563843,
                -1.86785686
              ],
              [
                136.168212891,
                -1.867426872
              ],
              [
                136.16758728,
                -1.866986871
              ],
              [
                136.167144775,
                -1.866646886
              ],
              [
                136.166412354,
                -1.866206884
              ],
              [
                136.165786743,
                -1.865666866
              ],
              [
                136.164962769,
                -1.865136862
              ],
              [
                136.164321899,
                -1.86488688
              ],
              [
                136.163589478,
                -1.864496827
              ],
              [
                136.162612915,
                -1.864106774
              ],
              [
                136.161987305,
                -1.864006877
              ],
              [
                136.161209106,
                -1.863766789
              ],
              [
                136.160766602,
                -1.863426805
              ],
              [
                136.160125732,
                -1.86303699
              ],
              [
                136.159454346,
                -1.862546921
              ],
              [
                136.158966064,
                -1.862257004
              ],
              [
                136.158432007,
                -1.861817002
              ],
              [
                136.157836914,
                -1.861136913
              ],
              [
                136.157546997,
                -1.860846996
              ],
              [
                136.157104492,
                -1.860356927
              ],
              [
                136.156616211,
                -1.860016942
              ],
              [
                136.156234741,
                -1.859426975
              ],
              [
                136.155792236,
                -1.85908699
              ],
              [
                136.155258179,
                -1.858747005
              ],
              [
                136.154922485,
                -1.858116984
              ],
              [
                136.154571533,
                -1.857726932
              ],
              [
                136.15423584,
                -1.857726932
              ],
              [
                136.153701782,
                -1.857776999
              ],
              [
                136.153259277,
                -1.857436895
              ],
              [
                136.152923584,
                -1.857236981
              ],
              [
                136.152481079,
                -1.856946945
              ],
              [
                136.151794434,
                -1.856506944
              ],
              [
                136.151260376,
                -1.855876923
              ],
              [
                136.150634766,
                -1.855436921
              ],
              [
                136.14994812,
                -1.85499692
              ],
              [
                136.149261475,
                -1.854606986
              ],
              [
                136.148635864,
                -1.854216933
              ],
              [
                136.147750854,
                -1.853926897
              ],
              [
                136.146972656,
                -1.85363698
              ],
              [
                136.146102905,
                -1.853436947
              ],
              [
                136.14541626,
                -1.853246927
              ],
              [
                136.144546509,
                -1.853046894
              ],
              [
                136.143859863,
                -1.852946997
              ],
              [
                136.142883301,
                -1.852996945
              ],
              [
                136.142059326,
                -1.852946997
              ],
              [
                136.140731812,
                -1.852756977
              ],
              [
                136.140014648,
                -1.852806926
              ],
              [
                136.139328003,
                -1.852996945
              ],
              [
                136.138977051,
                -1.853296995
              ],
              [
                136.138397217,
                -1.853486896
              ],
              [
                136.137771606,
                -1.85333693
              ],
              [
                136.136749268,
                -1.853246927
              ],
              [
                136.135375977,
                -1.852996945
              ],
              [
                136.134597778,
                -1.852946997
              ],
              [
                136.133666992,
                -1.852946997
              ],
              [
                136.132705688,
                -1.852756977
              ],
              [
                136.131576538,
                -1.852906942
              ],
              [
                136.130752563,
                -1.852906942
              ],
              [
                136.130065918,
                -1.852856994
              ],
              [
                136.129333496,
                -1.852806926
              ],
              [
                136.128890991,
                -1.852946997
              ],
              [
                136.1277771,
                -1.853436947
              ],
              [
                136.126602173,
                -1.853436947
              ],
              [
                136.125823975,
                -1.85333693
              ],
              [
                136.124801636,
                -1.85333693
              ],
              [
                136.123580933,
                -1.853296995
              ],
              [
                136.122711182,
                -1.853146911
              ],
              [
                136.122024536,
                -1.853096962
              ],
              [
                136.121246338,
                -1.853146911
              ],
              [
                136.120620728,
                -1.853386998
              ],
              [
                136.119781494,
                -1.853486896
              ],
              [
                136.119155884,
                -1.853486896
              ],
              [
                136.118270874,
                -1.853386998
              ],
              [
                136.117538452,
                -1.853146911
              ],
              [
                136.116912842,
                -1.852607012
              ],
              [
                136.116516113,
                -1.852416992
              ],
              [
                136.115844727,
                -1.851826906
              ],
              [
                136.115447998,
                -1.851246953
              ],
              [
                136.115158081,
                -1.850757003
              ],
              [
                136.114517212,
                -1.850616932
              ],
              [
                136.113983154,
                -1.850416899
              ],
              [
                136.113311768,
                -1.849836946
              ],
              [
                136.112915039,
                -1.849396944
              ],
              [
                136.112472534,
                -1.849006891
              ],
              [
                136.11164856,
                -1.848226905
              ],
              [
                136.110671997,
                -1.847546935
              ],
              [
                136.110290527,
                -1.847157001
              ],
              [
                136.109603882,
                -1.846717
              ],
              [
                136.108917236,
                -1.846326947
              ],
              [
                136.10824585,
                -1.845986962
              ],
              [
                136.107803345,
                -1.845786929
              ],
              [
                136.106582642,
                -1.845206976
              ],
              [
                136.105514526,
                -1.844817162
              ],
              [
                136.104293823,
                -1.844427228
              ],
              [
                136.103225708,
                -1.844177246
              ],
              [
                136.102142334,
                -1.844087243
              ],
              [
                136.101074219,
                -1.843987226
              ],
              [
                136.100738525,
                -1.84369719
              ],
              [
                136.100540161,
                -1.843447208
              ],
              [
                136.099853516,
                -1.843397141
              ],
              [
                136.099472046,
                -1.843597174
              ],
              [
                136.099121094,
                -1.844087243
              ],
              [
                136.098403931,
                -1.844127178
              ],
              [
                136.098008845,
                -1.844064701
              ],
              [
                136.097518921,
                -1.843987226
              ],
              [
                136.09664917,
                -1.844037175
              ],
              [
                136.095855713,
                -1.844037175
              ],
              [
                136.095184326,
                -1.844037175
              ],
              [
                136.09425354,
                -1.844127178
              ],
              [
                136.093765259,
                -1.844227195
              ],
              [
                136.092605591,
                -1.844327211
              ],
              [
                136.091567993,
                -1.844327211
              ],
              [
                136.090499878,
                -1.84437716
              ],
              [
                136.089767456,
                -1.844517231
              ],
              [
                136.088851929,
                -1.844717145
              ],
              [
                136.088119507,
                -1.845007181
              ],
              [
                136.087280273,
                -1.845207214
              ],
              [
                136.086898804,
                -1.845447183
              ],
              [
                136.085769653,
                -1.845597148
              ],
              [
                136.085296631,
                -1.845887184
              ],
              [
                136.084365845,
                -1.846127152
              ],
              [
                136.083877563,
                -1.846377134
              ],
              [
                136.083053589,
                -1.846667171
              ],
              [
                136.08241272,
                -1.84715724
              ],
              [
                136.081787109,
                -1.847637177
              ],
              [
                136.081237793,
                -1.847937226
              ],
              [
                136.08052063,
                -1.847977161
              ],
              [
                136.079833984,
                -1.848277211
              ],
              [
                136.079147339,
                -1.848567128
              ],
              [
                136.078521729,
                -1.848717213
              ],
              [
                136.077789307,
                -1.848717213
              ],
              [
                136.077636719,
                -1.848777175
              ],
              [
                136.077056885,
                -1.848807216
              ],
              [
                136.07661438,
                -1.848957181
              ],
              [
                136.07598877,
                -1.849587202
              ],
              [
                136.075500488,
                -1.849787235
              ],
              [
                136.075149536,
                -1.849837184
              ],
              [
                136.074127197,
                -1.849787235
              ],
              [
                136.073547363,
                -1.849837184
              ],
              [
                136.072570801,
                -1.849837184
              ],
              [
                136.071594238,
                -1.849837184
              ],
              [
                136.070770264,
                -1.849537134
              ],
              [
                136.070327759,
                -1.849347115
              ],
              [
                136.070106026,
                -1.849215461
              ],
              [
                136.070253748,
                -1.84820603
              ],
              [
                136.0705567,
                -1.84699422
              ],
              [
                136.071566542,
                -1.846792251
              ],
              [
                136.072071463,
                -1.846792251
              ],
              [
                136.072879337,
                -1.846186346
              ],
              [
                136.072879337,
                -1.84507552
              ],
              [
                136.072374416,
                -1.843964694
              ],
              [
                136.071566542,
                -1.842853868
              ],
              [
                136.071566542,
                -1.842146978
              ],
              [
                136.072778353,
                -1.842146978
              ],
              [
                136.073485242,
                -1.841642058
              ],
              [
                136.073889179,
                -1.840531231
              ],
              [
                136.073889179,
                -1.83952139
              ],
              [
                136.074545576,
                -1.838259087
              ],
              [
                136.075252465,
                -1.838259087
              ],
              [
                136.07656526,
                -1.838259087
              ],
              [
                136.077373133,
                -1.837451214
              ],
              [
                136.077373133,
                -1.836542356
              ],
              [
                136.076464276,
                -1.835936451
              ],
              [
                136.076666244,
                -1.835128577
              ],
              [
                136.076969196,
                -1.834421688
              ],
              [
                136.077979038,
                -1.834017751
              ],
              [
                136.077979038,
                -1.833108894
              ],
              [
                136.077676086,
                -1.832502988
              ],
              [
                136.077070181,
                -1.831897083
              ],
              [
                136.076969196,
                -1.83108921
              ],
              [
                136.07777707,
                -1.831897083
              ],
              [
                136.07898888,
                -1.832200036
              ],
              [
                136.080806596,
                -1.833007909
              ],
              [
                136.081917422,
                -1.832906925
              ],
              [
                136.08211939,
                -1.831493146
              ],
              [
                136.081412501,
                -1.830281336
              ],
              [
                136.080301675,
                -1.829675431
              ],
              [
                136.078584944,
                -1.828463621
              ],
              [
                136.077373133,
                -1.826948858
              ],
              [
                136.076363291,
                -1.825636063
              ],
              [
                136.076262307,
                -1.824323269
              ],
              [
                136.076969196,
                -1.82290949
              ],
              [
                136.075959355,
                -1.821596696
              ],
              [
                136.074949513,
                -1.821293743
              ],
              [
                136.073939671,
                -1.821192759
              ],
              [
                136.073939671,
                -1.82048587
              ],
              [
                136.073939671,
                -1.818971107
              ],
              [
                136.073030813,
                -1.817658312
              ],
              [
                136.071112113,
                -1.815638629
              ],
              [
                136.068839969,
                -1.813467469
              ],
              [
                136.068436032,
                -1.811851722
              ],
              [
                136.067931112,
                -1.810034006
              ],
              [
                136.067527175,
                -1.808317275
              ],
              [
                136.066820285,
                -1.806297591
              ],
              [
                136.066517333,
                -1.804176923
              ],
              [
                136.066315364,
                -1.802965113
              ],
              [
                136.066618317,
                -1.80266216
              ],
              [
                136.067224222,
                -1.801147397
              ],
              [
                136.067022254,
                -1.800440508
              ],
              [
                136.067123238,
                -1.799632635
              ],
              [
                136.06813308,
                -1.798824761
              ],
              [
                136.06813308,
                -1.797713935
              ],
              [
                136.067931112,
                -1.797007046
              ],
              [
                136.067224222,
                -1.796199172
              ],
              [
                136.06692127,
                -1.795391299
              ],
              [
                136.06621438,
                -1.794381457
              ],
              [
                136.066416349,
                -1.793674567
              ],
              [
                136.066870778,
                -1.793220139
              ],
              [
                136.067678651,
                -1.792715218
              ],
              [
                136.068991446,
                -1.792008328
              ],
              [
                136.069698335,
                -1.791301439
              ],
              [
                136.069698335,
                -1.790089629
              ],
              [
                136.068991446,
                -1.788978803
              ],
              [
                136.068284556,
                -1.787666008
              ],
              [
                136.067880619,
                -1.785848293
              ],
              [
                136.068486525,
                -1.784939435
              ],
              [
                136.070809161,
                -1.783727625
              ],
              [
                136.072323924,
                -1.782212862
              ],
              [
                136.072828845,
                -1.781001052
              ],
              [
                136.073636718,
                -1.780193178
              ],
              [
                136.074343608,
                -1.779789241
              ],
              [
                136.075656402,
                -1.779688257
              ],
              [
                136.077474117,
                -1.779082352
              ],
              [
                136.079190849,
                -1.778274479
              ],
              [
                136.079796754,
                -1.777264637
              ],
              [
                136.080503643,
                -1.77564889
              ],
              [
                136.081816438,
                -1.775143969
              ],
              [
                136.082725295,
                -1.775244953
              ],
              [
                136.084139074,
                -1.774740032
              ],
              [
                136.084391534,
                -1.771155093
              ],
              [
                136.084492519,
                -1.769438362
              ],
              [
                136.084492519,
                -1.767721631
              ],
              [
                136.084189566,
                -1.766105884
              ],
              [
                136.084391534,
                -1.764490137
              ],
              [
                136.085199408,
                -1.763076358
              ],
              [
                136.085502361,
                -1.761460611
              ],
              [
                136.085401376,
                -1.75974388
              ],
              [
                136.085603345,
                -1.759339943
              ],
              [
                136.086512202,
                -1.758936006
              ],
              [
                136.087522044,
                -1.756815338
              ],
              [
                136.087219092,
                -1.755199591
              ],
              [
                136.087017123,
                -1.75348286
              ],
              [
                136.087925981,
                -1.752069081
              ],
              [
                136.087925981,
                -1.749948413
              ],
              [
                136.087370568,
                -1.746363475
              ],
              [
                136.087875489,
                -1.74505068
              ],
              [
                136.088784347,
                -1.743131981
              ],
              [
                136.088683362,
                -1.742122139
              ],
              [
                136.088077457,
                -1.740809344
              ],
              [
                136.088178442,
                -1.739395566
              ],
              [
                136.088279426,
                -1.737678834
              ],
              [
                136.087774505,
                -1.735861119
              ],
              [
                136.086764663,
                -1.733538483
              ],
              [
                136.086158758,
                -1.729802068
              ],
              [
                136.085401376,
                -1.722581698
              ],
              [
                136.085805313,
                -1.720763983
              ],
              [
                136.08620925,
                -1.718744299
              ],
              [
                136.086007281,
                -1.716017726
              ],
              [
                136.08429055,
                -1.711271469
              ],
              [
                136.082674803,
                -1.708241943
              ],
              [
                136.080655119,
                -1.706121275
              ],
              [
                136.079847246,
                -1.704505528
              ],
              [
                136.079544293,
                -1.702990765
              ],
              [
                136.079746262,
                -1.701576987
              ],
              [
                136.079241341,
                -1.699860255
              ],
              [
                136.07752461,
                -1.697613357
              ],
              [
                136.07752461,
                -1.695972364
              ],
              [
                136.0779033,
                -1.686378866
              ],
              [
                136.078281991,
                -1.679941124
              ],
              [
                136.078408221,
                -1.673250921
              ],
              [
                136.07752461,
                -1.6673181
              ],
              [
                136.07802953,
                -1.663278733
              ],
              [
                136.079165603,
                -1.659996746
              ],
              [
                136.081059056,
                -1.655704918
              ],
              [
                136.083457431,
                -1.652170472
              ],
              [
                136.085351729,
                -1.650453764
              ],
              [
                136.085586548,
                -1.650387049
              ],
              [
                136.086135864,
                -1.650387049
              ],
              [
                136.086807251,
                -1.650477052
              ],
              [
                136.087173462,
                -1.650517106
              ],
              [
                136.08807373,
                -1.650517106
              ],
              [
                136.088943481,
                -1.650387049
              ],
              [
                136.089569092,
                -1.650017023
              ],
              [
                136.090438843,
                -1.649567008
              ],
              [
                136.091110229,
                -1.649297118
              ],
              [
                136.092010498,
                -1.649297118
              ],
              [
                136.092514038,
                -1.649337053
              ],
              [
                136.092971802,
                -1.649707079
              ],
              [
                136.09324646,
                -1.649977088
              ],
              [
                136.093505859,
                -1.6503371
              ],
              [
                136.094055176,
                -1.650657058
              ],
              [
                136.094604492,
                -1.650877118
              ],
              [
                136.095321655,
                -1.651197076
              ],
              [
                136.095687866,
                -1.651427031
              ],
              [
                136.096054077,
                -1.651827097
              ],
              [
                136.096588135,
                -1.65210712
              ],
              [
                136.097137451,
                -1.652467012
              ],
              [
                136.097808838,
                -1.652417064
              ],
              [
                136.098434448,
                -1.652437091
              ],
              [
                136.098846436,
                -1.652557015
              ],
              [
                136.099304199,
                -1.652687073
              ],
              [
                136.099990845,
                -1.652687073
              ],
              [
                136.100982666,
                -1.652467012
              ],
              [
                136.101577759,
                -1.652377129
              ],
              [
                136.102478027,
                -1.652147055
              ],
              [
                136.103149414,
                -1.652016997
              ],
              [
                136.10369873,
                -1.651826978
              ],
              [
                136.10446167,
                -1.651736975
              ],
              [
                136.105194092,
                -1.651646852
              ],
              [
                136.105697632,
                -1.651466846
              ],
              [
                136.106414795,
                -1.651376843
              ],
              [
                136.107009888,
                -1.651106834
              ],
              [
                136.107589722,
                -1.651106834
              ],
              [
                136.108413696,
                -1.651106834
              ],
              [
                136.108901978,
                -1.651336789
              ],
              [
                136.109634399,
                -1.651516795
              ],
              [
                136.110305786,
                -1.651646852
              ],
              [
                136.111038208,
                -1.651646852
              ],
              [
                136.111755371,
                -1.651926875
              ],
              [
                136.112258911,
                -1.652146816
              ],
              [
                136.112792969,
                -1.652416825
              ],
              [
                136.113479614,
                -1.652506828
              ],
              [
                136.114028931,
                -1.652506828
              ],
              [
                136.114974976,
                -1.652686834
              ],
              [
                136.11555481,
                -1.652876854
              ],
              [
                136.11605835,
                -1.652966857
              ],
              [
                136.116607666,
                -1.65305686
              ],
              [
                136.117279053,
                -1.653146863
              ],
              [
                136.117736816,
                -1.653096795
              ],
              [
                136.11831665,
                -1.653096795
              ],
              [
                136.119094849,
                -1.653326869
              ],
              [
                136.11946106,
                -1.653276801
              ],
              [
                136.120178223,
                -1.653096795
              ],
              [
                136.120819092,
                -1.653006792
              ],
              [
                136.121490479,
                -1.652966857
              ],
              [
                136.1222229,
                -1.65305686
              ],
              [
                136.122756958,
                -1.653236866
              ],
              [
                136.123397827,
                -1.653326869
              ],
              [
                136.124069214,
                -1.653326869
              ],
              [
                136.124664307,
                -1.653096795
              ],
              [
                136.125244141,
                -1.653006792
              ],
              [
                136.125703681,
                -1.652924654
              ],
              [
                136.125747681,
                -1.652916789
              ],
              [
                136.126602173,
                -1.652916789
              ],
              [
                136.127059937,
                -1.65305686
              ],
              [
                136.127655029,
                -1.653276801
              ],
              [
                136.128051758,
                -1.653556824
              ],
              [
                136.128646851,
                -1.653596878
              ],
              [
                136.129226685,
                -1.653506875
              ],
              [
                136.129730225,
                -1.653236866
              ],
              [
                136.130096436,
                -1.652916789
              ],
              [
                136.130554199,
                -1.652686834
              ],
              [
                136.131317139,
                -1.652506828
              ],
              [
                136.131912231,
                -1.652236819
              ],
              [
                136.132583618,
                -1.651826859
              ],
              [
                136.133087158,
                -1.651646852
              ],
              [
                136.133270264,
                -1.651606798
              ],
              [
                136.133895874,
                -1.651466846
              ],
              [
                136.134399414,
                -1.65128684
              ],
              [
                136.134979248,
                -1.651016831
              ],
              [
                136.135437012,
                -1.650836825
              ],
              [
                136.136032104,
                -1.650476813
              ],
              [
                136.13633728,
                -1.650196791
              ],
              [
                136.137023926,
                -1.650016785
              ],
              [
                136.137649536,
                -1.649836779
              ],
              [
                136.138336182,
                -1.649706841
              ],
              [
                136.138916016,
                -1.649616838
              ],
              [
                136.139511108,
                -1.649476767
              ],
              [
                136.139968872,
                -1.64929688
              ],
              [
                136.140731812,
                -1.649116874
              ],
              [
                136.141372681,
                -1.648976803
              ],
              [
                136.141998291,
                -1.648976803
              ],
              [
                136.142593384,
                -1.649156809
              ],
              [
                136.143173218,
                -1.649246812
              ],
              [
                136.143722534,
                -1.649386883
              ],
              [
                136.144271851,
                -1.649656773
              ],
              [
                136.144851685,
                -1.649706841
              ],
              [
                136.145492554,
                -1.650016785
              ],
              [
                136.145980835,
                -1.650426865
              ],
              [
                136.146621704,
                -1.650836825
              ],
              [
                136.147033691,
                -1.651056886
              ],
              [
                136.147842407,
                -1.651606798
              ],
              [
                136.148391724,
                -1.651826859
              ],
              [
                136.14906311,
                -1.652196884
              ],
              [
                136.149658203,
                -1.652556777
              ],
              [
                136.15032959,
                -1.652736902
              ],
              [
                136.151107788,
                -1.652826786
              ],
              [
                136.15196228,
                -1.652916789
              ],
              [
                136.152603149,
                -1.652916789
              ],
              [
                136.15322876,
                -1.652916789
              ],
              [
                136.153869629,
                -1.652916789
              ],
              [
                136.154586792,
                -1.652966857
              ],
              [
                136.155090332,
                -1.653146744
              ],
              [
                136.155761719,
                -1.653416753
              ],
              [
                136.156173706,
                -1.653596759
              ],
              [
                136.156845093,
                -1.653776765
              ],
              [
                136.157440186,
                -1.65400672
              ],
              [
                136.157943726,
                -1.654136658
              ],
              [
                136.158615112,
                -1.654316664
              ],
              [
                136.1590271,
                -1.654366732
              ],
              [
                136.159881592,
                -1.65441668
              ],
              [
                136.160842896,
                -1.654316664
              ],
              [
                136.161239624,
                -1.654226661
              ],
              [
                136.162063599,
                -1.654096723
              ],
              [
                136.162246704,
                -1.654046655
              ],
              [
                136.163238525,
                -1.654096723
              ],
              [
                136.16418457,
                -1.654046655
              ],
              [
                136.164596558,
                -1.65400672
              ],
              [
                136.165588379,
                -1.65400672
              ],
              [
                136.166320801,
                -1.654096723
              ],
              [
                136.167037964,
                -1.654186726
              ],
              [
                136.167678833,
                -1.654186726
              ],
              [
                136.168533325,
                -1.654096723
              ],
              [
                136.169296265,
                -1.653866768
              ],
              [
                136.169754028,
                -1.653736711
              ],
              [
                136.170623779,
                -1.653556705
              ],
              [
                136.171112061,
                -1.653456688
              ],
              [
                136.17175293,
                -1.653416753
              ],
              [
                136.172286987,
                -1.65332675
              ],
              [
                136.17288208,
                -1.653456688
              ],
              [
                136.17350769,
                -1.653646708
              ],
              [
                136.174194336,
                -1.653826714
              ],
              [
                136.175140381,
                -1.654366732
              ],
              [
                136.175964355,
                -1.654726744
              ],
              [
                136.176727295,
                -1.655086756
              ],
              [
                136.177368164,
                -1.65531671
              ],
              [
                136.178085327,
                -1.655456662
              ],
              [
                136.178588867,
                -1.655546665
              ],
              [
                136.179122925,
                -1.655456662
              ],
              [
                136.179580688,
                -1.655276656
              ],
              [
                136.180038452,
                -1.655176759
              ],
              [
                136.18057251,
                -1.655226707
              ],
              [
                136.181030273,
                -1.65531671
              ],
              [
                136.18157959,
                -1.655406713
              ],
              [
                136.182159424,
                -1.655496716
              ],
              [
                136.182937622,
                -1.655636668
              ],
              [
                136.183746338,
                -1.655456662
              ],
              [
                136.184112549,
                -1.655176759
              ],
              [
                136.184646606,
                -1.654866695
              ],
              [
                136.18510437,
                -1.654596686
              ],
              [
                136.185562134,
                -1.654276729
              ],
              [
                136.186096191,
                -1.654186726
              ],
              [
                136.186691284,
                -1.654096723
              ],
              [
                136.187271118,
                -1.654096723
              ],
              [
                136.188095093,
                -1.653956652
              ],
              [
                136.188720703,
                -1.653596759
              ],
              [
                136.189086914,
                -1.653276682
              ],
              [
                136.189727783,
                -1.653006673
              ],
              [
                136.190353394,
                -1.653006673
              ],
              [
                136.191177368,
                -1.652826667
              ],
              [
                136.191711426,
                -1.652686715
              ],
              [
                136.192398071,
                -1.652376771
              ],
              [
                136.192718506,
                -1.6522367
              ],
              [
                136.193023682,
                -1.652016759
              ],
              [
                136.193618774,
                -1.651826739
              ],
              [
                136.194381714,
                -1.651646733
              ],
              [
                136.195068359,
                -1.651286721
              ],
              [
                136.195648193,
                -1.651056767
              ],
              [
                136.196243286,
                -1.650836706
              ],
              [
                136.196914673,
                -1.650566697
              ],
              [
                136.197509766,
                -1.650196671
              ],
              [
                136.198150635,
                -1.650106668
              ],
              [
                136.199050903,
                -1.649836659
              ],
              [
                136.199676514,
                -1.649656653
              ],
              [
                136.200408936,
                -1.649386764
              ],
              [
                136.200958252,
                -1.649116755
              ],
              [
                136.20149231,
                -1.648846745
              ],
              [
                136.201904297,
                -1.648666739
              ],
              [
                136.202484131,
                -1.64847672
              ],
              [
                136.203308105,
                -1.648386717
              ],
              [
                136.203887939,
                -1.648526549
              ],
              [
                136.204574585,
                -1.648846626
              ],
              [
                136.205078125,
                -1.649066567
              ],
              [
                136.205841064,
                -1.649566531
              ],
              [
                136.206086706,
                -1.649715136
              ],
              [
                136.206086706,
                -1.649948757
              ],
              [
                136.206187589,
                -1.65075582
              ],
              [
                136.206389355,
                -1.651688987
              ],
              [
                136.206414575,
                -1.652470829
              ],
              [
                136.206313693,
                -1.653403996
              ],
              [
                136.206086706,
                -1.653958852
              ],
              [
                136.206351524,
                -1.655888238
              ],
              [
                136.206074096,
                -1.656695301
              ],
              [
                136.206149758,
                -1.657477143
              ],
              [
                136.206326303,
                -1.658334648
              ],
              [
                136.206275861,
                -1.659166932
              ],
              [
                136.206364134,
                -1.661953822
              ],
              [
                136.206540679,
                -1.662735665
              ],
              [
                136.2065659,
                -1.663391403
              ],
              [
                136.206540679,
                -1.664122805
              ],
              [
                136.206288472,
                -1.664803764
              ],
              [
                136.206162368,
                -1.665585607
              ],
              [
                136.206439796,
                -1.666342228
              ],
              [
                136.207082925,
                -1.667767199
              ],
              [
                136.206830717,
                -1.668372497
              ],
              [
                136.206099316,
                -1.66882647
              ],
              [
                136.205645343,
                -1.669381326
              ],
              [
                136.205418357,
                -1.670112727
              ],
              [
                136.20587233,
                -1.670844128
              ],
              [
                136.206502848,
                -1.671398984
              ],
              [
                136.207108145,
                -1.672407813
              ],
              [
                136.207372963,
                -1.673858005
              ],
              [
                136.207171197,
                -1.674412861
              ],
              [
                136.206717224,
                -1.674841613
              ],
              [
                136.206036265,
                -1.675169482
              ],
              [
                136.205632733,
                -1.675875663
              ],
              [
                136.206011044,
                -1.677010595
              ],
              [
                136.206137147,
                -1.678322073
              ],
              [
                136.204661735,
                -1.679721823
              ],
              [
                136.204308645,
                -1.680226238
              ],
              [
                136.204283424,
                -1.680957639
              ],
              [
                136.204712176,
                -1.681134184
              ],
              [
                136.205645343,
                -1.681512495
              ],
              [
                136.205746226,
                -1.682218675
              ],
              [
                136.20551924,
                -1.682823973
              ],
              [
                136.205594902,
                -1.683479712
              ],
              [
                136.205796668,
                -1.683933685
              ],
              [
                136.206124537,
                -1.684387658
              ],
              [
                136.206174979,
                -1.685245162
              ],
              [
                136.206023654,
                -1.686027005
              ],
              [
                136.205796668,
                -1.68620355
              ],
              [
                136.205935382,
                -1.686947561
              ],
              [
                136.205960602,
                -1.687376314
              ],
              [
                136.205935382,
                -1.688107715
              ],
              [
                136.20585972,
                -1.688612129
              ],
              [
                136.205380526,
                -1.688813895
              ],
              [
                136.204926553,
                -1.688939999
              ],
              [
                136.203867282,
                -1.689015661
              ],
              [
                136.203261985,
                -1.689141765
              ],
              [
                136.203034998,
                -1.689721841
              ],
              [
                136.20343853,
                -1.69070545
              ],
              [
                136.203388088,
                -1.691310747
              ],
              [
                136.20308544,
                -1.691512513
              ],
              [
                136.202530584,
                -1.691739499
              ],
              [
                136.20137043,
                -1.691638616
              ],
              [
                136.200487705,
                -1.691361188
              ],
              [
                136.199655421,
                -1.691285526
              ],
              [
                136.198848358,
                -1.691537734
              ],
              [
                136.198116957,
                -1.692344797
              ],
              [
                136.198293502,
                -1.692975315
              ],
              [
                136.199214058,
                -1.693290574
              ],
              [
                136.199718473,
                -1.693643664
              ],
              [
                136.199920239,
                -1.694097637
              ],
              [
                136.199995901,
                -1.694627272
              ],
              [
                136.200298549,
                -1.695106466
              ],
              [
                136.200727302,
                -1.695888309
              ],
              [
                136.200929068,
                -1.696493606
              ],
              [
                136.200903847,
                -1.696998021
              ],
              [
                136.200424653,
                -1.697477215
              ],
              [
                136.200084173,
                -1.698397771
              ],
              [
                136.199554538,
                -1.699633587
              ],
              [
                136.198747475,
                -1.701222492
              ],
              [
                136.197927801,
                -1.702748346
              ],
              [
                136.197675594,
                -1.703530189
              ],
              [
                136.197776477,
                -1.704539018
              ],
              [
                136.197953022,
                -1.70529564
              ],
              [
                136.19823045,
                -1.70600182
              ],
              [
                136.198734864,
                -1.707212415
              ],
              [
                136.199516707,
                -1.707565505
              ],
              [
                136.200374212,
                -1.707868154
              ],
              [
                136.201055171,
                -1.708599555
              ],
              [
                136.20172352,
                -1.709267904
              ],
              [
                136.202000948,
                -1.709620994
              ],
              [
                136.202454922,
                -1.709847981
              ],
              [
                136.20308544,
                -1.709948863
              ],
              [
                136.20379162,
                -1.710226291
              ],
              [
                136.205254422,
                -1.71156299
              ],
              [
                136.205683174,
                -1.712143067
              ],
              [
                136.205758837,
                -1.712924909
              ],
              [
                136.20585972,
                -1.713353661
              ],
              [
                136.206313693,
                -1.713883297
              ],
              [
                136.207713443,
                -1.715005619
              ],
              [
                136.207915209,
                -1.716468421
              ],
              [
                136.207663001,
                -1.718284313
              ],
              [
                136.207763884,
                -1.719797557
              ],
              [
                136.208041312,
                -1.720301971
              ],
              [
                136.208760103,
                -1.721676501
              ],
              [
                136.208381792,
                -1.722559226
              ],
              [
                136.207347742,
                -1.724501222
              ],
              [
                136.205771447,
                -1.727817748
              ],
              [
                136.204888722,
                -1.730087613
              ],
              [
                136.203753789,
                -1.731323429
              ],
              [
                136.203295099,
                -1.731769377
              ]
            ]
          ]
        ]
      }
    }
  ]
}