{
  "type": "FeatureCollection",
  "features": [
    {
      "type": "Feature",
      "properties": {
        "idx": "2016",
        "nama_kewilayahan": "Kasepuhan Nunuk"
      },
      "geometry": {
        "type": "MultiPolygon",
        "coordinates": [
          [
            [
              [
                108.216490775,
                -6.923817338
              ],
              [
                108.216526467,
                -6.922472942
              ],
              [
                108.217038051,
                -6.921414082
              ],
              [
                108.217385674,
                -6.919954066
              ],
              [
                108.217383327,
                -6.919852533
              ],
              [
                108.217383245,
                -6.919848994
              ],
              [
                108.217373591,
                -6.91943146
              ],
              [
                108.217281262,
                -6.919296517
              ],
              [
                108.217143253,
                -6.91919658
              ],
              [
                108.216890745,
                -6.919083134
              ],
              [
                108.216814887,
                -6.919049053
              ],
              [
                108.216645549,
                -6.919010385
              ],
              [
                108.216098164,
                -6.918913269
              ],
              [
                108.215605453,
                -6.918923865
              ],
              [
                108.214190818,
                -6.918826336
              ],
              [
                108.213529327,
                -6.918626461
              ],
              [
                108.212974762,
                -6.918398616
              ],
              [
                108.212915427,
                -6.918374238
              ],
              [
                108.212877894,
                -6.91833323
              ],
              [
                108.212813154,
                -6.918262496
              ],
              [
                108.212658445,
                -6.918093462
              ],
              [
                108.212482365,
                -6.917860274
              ],
              [
                108.21245857,
                -6.91770323
              ],
              [
                108.212553748,
                -6.917493837
              ],
              [
                108.212624428,
                -6.917409565
              ],
              [
                108.21267748,
                -6.917346311
              ],
              [
                108.212685937,
                -6.917259211
              ],
              [
                108.212689467,
                -6.917222853
              ],
              [
                108.212701275,
                -6.917101226
              ],
              [
                108.212644168,
                -6.916882316
              ],
              [
                108.212425258,
                -6.91664437
              ],
              [
                108.212196829,
                -6.916354076
              ],
              [
                108.211920812,
                -6.916087576
              ],
              [
                108.211582928,
                -6.915730657
              ],
              [
                108.211216491,
                -6.915235729
              ],
              [
                108.211183841,
                -6.915105126
              ],
              [
                108.211149866,
                -6.914969229
              ],
              [
                108.211126072,
                -6.914726524
              ],
              [
                108.211133925,
                -6.914691541
              ],
              [
                108.211166707,
                -6.914545513
              ],
              [
                108.21117842,
                -6.914493337
              ],
              [
                108.211373536,
                -6.914141177
              ],
              [
                108.211478116,
                -6.914052008
              ],
              [
                108.212172054,
                -6.913366745
              ],
              [
                108.213266606,
                -6.912557728
              ],
              [
                108.213408186,
                -6.912354434
              ],
              [
                108.213638783,
                -6.912147189
              ],
              [
                108.213833898,
                -6.911766475
              ],
              [
                108.213910041,
                -6.911452386
              ],
              [
                108.213900523,
                -6.911209681
              ],
              [
                108.213857693,
                -6.911062154
              ],
              [
                108.213839483,
                -6.911029149
              ],
              [
                108.213837676,
                -6.911011079
              ],
              [
                108.213671114,
                -6.910666057
              ],
              [
                108.213494926,
                -6.910511892
              ],
              [
                108.213286622,
                -6.910295968
              ],
              [
                108.213005846,
                -6.909943808
              ],
              [
                108.212896391,
                -6.909672549
              ],
              [
                108.212924944,
                -6.909177621
              ],
              [
                108.21301744,
                -6.908606826
              ],
              [
                108.213147633,
                -6.908300873
              ],
              [
                108.213230279,
                -6.908166277
              ],
              [
                108.213995702,
                -6.906912374
              ],
              [
                108.214565488,
                -6.905770051
              ],
              [
                108.214813255,
                -6.904886346
              ],
              [
                108.215158277,
                -6.904136816
              ],
              [
                108.215396223,
                -6.903672821
              ],
              [
                108.215610375,
                -6.903137442
              ],
              [
                108.215646067,
                -6.902780523
              ],
              [
                108.215562786,
                -6.902613961
              ],
              [
                108.215289148,
                -6.902494988
              ],
              [
                108.214944126,
                -6.902435501
              ],
              [
                108.214765666,
                -6.902554474
              ],
              [
                108.214551515,
                -6.902947085
              ],
              [
                108.214063725,
                -6.903601437
              ],
              [
                108.210910939,
                -6.907170629
              ],
              [
                108.210173306,
                -6.907337191
              ],
              [
                108.20993536,
                -6.90725391
              ],
              [
                108.209608671,
                -6.906984872
              ],
              [
                108.209504073,
                -6.906570922
              ],
              [
                108.209456483,
                -6.906190208
              ],
              [
                108.209634943,
                -6.905845186
              ],
              [
                108.210167306,
                -6.905280813
              ],
              [
                108.210289295,
                -6.904845812
              ],
              [
                108.210372576,
                -6.904072488
              ],
              [
                108.210241462,
                -6.903116706
              ],
              [
                108.210274225,
                -6.902967228
              ],
              [
                108.210278984,
                -6.902448505
              ],
              [
                108.210283743,
                -6.902172488
              ],
              [
                108.210278984,
                -6.901972613
              ],
              [
                108.21034085,
                -6.901377748
              ],
              [
                108.210378921,
                -6.901320641
              ],
              [
                108.210459823,
                -6.901173114
              ],
              [
                108.210964269,
                -6.900930409
              ],
              [
                108.211240286,
                -6.900697222
              ],
              [
                108.21134876,
                -6.900402966
              ],
              [
                108.2112631,
                -6.900088877
              ],
              [
                108.211171766,
                -6.899986126
              ],
              [
                108.211059447,
                -6.899769232
              ],
              [
                108.210988063,
                -6.899616947
              ],
              [
                108.210988063,
                -6.899393278
              ],
              [
                108.211007099,
                -6.899255269
              ],
              [
                108.211047148,
                -6.899196018
              ],
              [
                108.211316429,
                -6.898826966
              ],
              [
                108.21148775,
                -6.898198788
              ],
              [
                108.211548635,
                -6.897576166
              ],
              [
                108.211948384,
                -6.896840913
              ],
              [
                108.212148259,
                -6.896626761
              ],
              [
                108.212540258,
                -6.896038762
              ],
              [
                108.212629617,
                -6.89587614
              ],
              [
                108.212924944,
                -6.895338676
              ],
              [
                108.21316289,
                -6.894762846
              ],
              [
                108.21324757,
                -6.894056943
              ],
              [
                108.213250056,
                -6.894018403
              ],
              [
                108.213215239,
                -6.893101983
              ],
              [
                108.213233293,
                -6.892229517
              ],
              [
                108.213304677,
                -6.891687
              ],
              [
                108.213311799,
                -6.891580172
              ],
              [
                108.213748238,
                -6.8905512
              ],
              [
                108.214057568,
                -6.889884951
              ],
              [
                108.214124193,
                -6.889375747
              ],
              [
                108.214104949,
                -6.88891927
              ],
              [
                108.213962182,
                -6.888671806
              ],
              [
                108.213714718,
                -6.888429101
              ],
              [
                108.213433941,
                -6.888295852
              ],
              [
                108.213105576,
                -6.888205432
              ],
              [
                108.212858112,
                -6.888138807
              ],
              [
                108.212843835,
                -6.888000798
              ],
              [
                108.212796246,
                -6.887824718
              ],
              [
                108.212767692,
                -6.887700986
              ],
              [
                108.212739139,
                -6.88751063
              ],
              [
                108.212781969,
                -6.887396415
              ],
              [
                108.212915219,
                -6.887320273
              ],
              [
                108.213077022,
                -6.88737738
              ],
              [
                108.21312937,
                -6.887424969
              ],
              [
                108.213224549,
                -6.887515388
              ],
              [
                108.213291174,
                -6.887615326
              ],
              [
                108.213362557,
                -6.887748576
              ],
              [
                108.213491048,
                -6.887848513
              ],
              [
                108.213638575,
                -6.887843754
              ],
              [
                108.213886039,
                -6.887786647
              ],
              [
                108.214095431,
                -6.887705745
              ],
              [
                108.214290547,
                -6.887643879
              ],
              [
                108.214552288,
                -6.88759629
              ],
              [
                108.214890171,
                -6.887501112
              ],
              [
                108.215323233,
                -6.887310755
              ],
              [
                108.215432689,
                -6.887267924
              ],
              [
                108.215551662,
                -6.887301237
              ],
              [
                108.215627804,
                -6.887339308
              ],
              [
                108.215665876,
                -6.887434487
              ],
              [
                108.215703947,
                -6.88751063
              ],
              [
                108.215761054,
                -6.887572496
              ],
              [
                108.215827679,
                -6.887577254
              ],
              [
                108.215884786,
                -6.887524906
              ],
              [
                108.215960929,
                -6.887444005
              ],
              [
                108.216056107,
                -6.887225094
              ],
              [
                108.216117973,
                -6.887101362
              ],
              [
                108.216217911,
                -6.886920523
              ],
              [
                108.216365437,
                -6.886792032
              ],
              [
                108.216541517,
                -6.886696854
              ],
              [
                108.21670808,
                -6.886634988
              ],
              [
                108.216903195,
                -6.886649265
              ],
              [
                108.217088793,
                -6.886654024
              ],
              [
                108.217222043,
                -6.886711131
              ],
              [
                108.217336257,
                -6.88680155
              ],
              [
                108.217417159,
                -6.886877693
              ],
              [
                108.217550409,
                -6.886944318
              ],
              [
                108.217697935,
                -6.88697763
              ],
              [
                108.21781215,
                -6.886991907
              ],
              [
                108.217907328,
                -6.886920523
              ],
              [
                108.218054855,
                -6.886825345
              ],
              [
                108.218088897,
                -6.886794545
              ],
              [
                108.218241966,
                -6.886794545
              ],
              [
                108.218337144,
                -6.886785027
              ],
              [
                108.218437082,
                -6.886804062
              ],
              [
                108.218556055,
                -6.886832616
              ],
              [
                108.218808278,
                -6.886889723
              ],
              [
                108.218941527,
                -6.886937312
              ],
              [
                108.219098572,
                -6.887018214
              ],
              [
                108.219236581,
                -6.887099116
              ],
              [
                108.219365071,
                -6.887194294
              ],
              [
                108.219598074,
                -6.887375207
              ],
              [
                108.219568192,
                -6.887448764
              ],
              [
                108.219539638,
                -6.887543942
              ],
              [
                108.219515844,
                -6.887667674
              ],
              [
                108.219558674,
                -6.887743817
              ],
              [
                108.219625299,
                -6.887800924
              ],
              [
                108.219768066,
                -6.887872308
              ],
              [
                108.219915593,
                -6.88799604
              ],
              [
                108.21992987,
                -6.888053147
              ],
              [
                108.219944147,
                -6.888167361
              ],
              [
                108.219915593,
                -6.888276816
              ],
              [
                108.219915593,
                -6.888395789
              ],
              [
                108.21988704,
                -6.888510003
              ],
              [
                108.219977459,
                -6.888638494
              ],
              [
                108.220139262,
                -6.888766985
              ],
              [
                108.220182093,
                -6.888847887
              ],
              [
                108.220167816,
                -6.888957342
              ],
              [
                108.220158298,
                -6.88905252
              ],
              [
                108.220139262,
                -6.889133422
              ],
              [
                108.220158298,
                -6.889261913
              ],
              [
                108.220215405,
                -6.889366609
              ],
              [
                108.220248718,
                -6.889485582
              ],
              [
                108.220305825,
                -6.889595037
              ],
              [
                108.220334378,
                -6.889704493
              ],
              [
                108.220405762,
                -6.889799671
              ],
              [
                108.220562806,
                -6.889932921
              ],
              [
                108.220672262,
                -6.890047135
              ],
              [
                108.220838824,
                -6.890208938
              ],
              [
                108.220976833,
                -6.890361224
              ],
              [
                108.221138636,
                -6.890494474
              ],
              [
                108.221300439,
                -6.890584893
              ],
              [
                108.221443207,
                -6.890646759
              ],
              [
                108.221614528,
                -6.890708625
              ],
              [
                108.221809644,
                -6.890841875
              ],
              [
                108.221966688,
                -6.890913259
              ],
              [
                108.222128492,
                -6.890946571
              ],
              [
                108.222185599,
                -6.891008437
              ],
              [
                108.222171322,
                -6.891108375
              ],
              [
                108.222190358,
                -6.891251142
              ],
              [
                108.222233188,
                -6.891313008
              ],
              [
                108.222295054,
                -6.89135108
              ],
              [
                108.222380715,
                -6.891379633
              ],
              [
                108.222533,
                -6.891365356
              ],
              [
                108.222756669,
                -6.891370115
              ],
              [
                108.222966062,
                -6.891431981
              ],
              [
                108.223208767,
                -6.891498606
              ],
              [
                108.223437195,
                -6.891646133
              ],
              [
                108.223589481,
                -6.891912632
              ],
              [
                108.223656106,
                -6.892050641
              ],
              [
                108.223808391,
                -6.892093471
              ],
              [
                108.223922605,
                -6.892117266
              ],
              [
                108.224027302,
                -6.892136302
              ],
              [
                108.224227176,
                -6.892174373
              ],
              [
                108.224350908,
                -6.892236239
              ],
              [
                108.224398498,
                -6.892279069
              ],
              [
                108.22452223,
                -6.892340935
              ],
              [
                108.22465072,
                -6.892350453
              ],
              [
                108.224850595,
                -6.892345694
              ],
              [
                108.225017157,
                -6.892421837
              ],
              [
                108.225250345,
                -6.892578881
              ],
              [
                108.225340764,
                -6.892712131
              ],
              [
                108.22540263,
                -6.892902488
              ],
              [
                108.225497809,
                -6.893021461
              ],
              [
                108.225616782,
                -6.893121399
              ],
              [
                108.225745273,
                -6.893188023
              ],
              [
                108.225835692,
                -6.893264166
              ],
              [
                108.225821415,
                -6.893354586
              ],
              [
                108.225835692,
                -6.893440246
              ],
              [
                108.226135504,
                -6.893573496
              ],
              [
                108.226285995,
                -6.893719748
              ],
              [
                108.227461598,
                -6.893908425
              ],
              [
                108.227861347,
                -6.893927461
              ],
              [
                108.228575185,
                -6.893851318
              ],
              [
                108.230897539,
                -6.893546747
              ],
              [
                108.231620895,
                -6.893775175
              ],
              [
                108.232068234,
                -6.894174925
              ],
              [
                108.232677376,
                -6.89481262
              ],
              [
                108.233086643,
                -6.895183816
              ],
              [
                108.233610125,
                -6.895583566
              ],
              [
                108.234333481,
                -6.895926208
              ],
              [
                108.234856962,
                -6.89618319
              ],
              [
                108.235389962,
                -6.896383065
              ],
              [
                108.235475622,
                -6.896421136
              ],
              [
                108.235488856,
                -6.896427173
              ],
              [
                108.23539291,
                -6.896551467
              ],
              [
                108.235283455,
                -6.89662761
              ],
              [
                108.235221589,
                -6.896703753
              ],
              [
                108.235212071,
                -6.89680369
              ],
              [
                108.235397669,
                -6.897084466
              ],
              [
                108.23543574,
                -6.897170127
              ],
              [
                108.235530919,
                -6.897189163
              ],
              [
                108.235645133,
                -6.897227234
              ],
              [
                108.235726034,
                -6.89724627
              ],
              [
                108.235811695,
                -6.89724627
              ],
              [
                108.235916391,
                -6.897227234
              ],
              [
                108.236002052,
                -6.897165368
              ],
              [
                108.236059159,
                -6.897065431
              ],
              [
                108.236159096,
                -6.897003565
              ],
              [
                108.236239998,
                -6.896927422
              ],
              [
                108.236427407,
                -6.89680185
              ],
              [
                108.236575528,
                -6.896744941
              ],
              [
                108.236774808,
                -6.896688429
              ],
              [
                108.236974088,
                -6.89664084
              ],
              [
                108.237167419,
                -6.896667608
              ],
              [
                108.237325058,
                -6.896676531
              ],
              [
                108.237405365,
                -6.896652737
              ],
              [
                108.237533261,
                -6.896608122
              ],
              [
                108.237687926,
                -6.896569456
              ],
              [
                108.237860437,
                -6.89657243
              ],
              [
                108.237994282,
                -6.896575404
              ],
              [
                108.238131101,
                -6.896539712
              ],
              [
                108.238247099,
                -6.896515918
              ],
              [
                108.238592121,
                -6.896611096
              ],
              [
                108.238892528,
                -6.896706275
              ],
              [
                108.239082885,
                -6.896727095
              ],
              [
                108.239302985,
                -6.89679253
              ],
              [
                108.239639084,
                -6.896887709
              ],
              [
                108.239927594,
                -6.896988836
              ],
              [
                108.240236924,
                -6.897086988
              ],
              [
                108.240405845,
                -6.897163247
              ],
              [
                108.24083211,
                -6.896865853
              ],
              [
                108.241160475,
                -6.896551764
              ],
              [
                108.241388904,
                -6.896237676
              ],
              [
                108.2417601,
                -6.895709435
              ],
              [
                108.242812141,
                -6.894586478
              ],
              [
                108.242719796,
                -6.894525788
              ],
              [
                108.242377553,
                -6.89425768
              ],
              [
                108.24199763,
                -6.893963567
              ],
              [
                108.241968963,
                -6.893936492
              ],
              [
                108.24182084,
                -6.893737274
              ],
              [
                108.241718989,
                -6.893479302
              ],
              [
                108.241723908,
                -6.893365119
              ],
              [
                108.241762515,
                -6.893049515
              ],
              [
                108.241720521,
                -6.892839372
              ],
              [
                108.241228709,
                -6.891889483
              ],
              [
                108.247413699,
                -6.89441025
              ],
              [
                108.249769365,
                -6.896052078
              ],
              [
                108.250340436,
                -6.896337613
              ],
              [
                108.25089723,
                -6.896823023
              ],
              [
                108.250772308,
                -6.8984244
              ],
              [
                108.250736616,
                -6.898519579
              ],
              [
                108.250808,
                -6.898632603
              ],
              [
                108.250867487,
                -6.898864601
              ],
              [
                108.25089723,
                -6.898941933
              ],
              [
                108.250837743,
                -6.898971676
              ],
              [
                108.250724719,
                -6.899031163
              ],
              [
                108.250611695,
                -6.899102547
              ],
              [
                108.250439184,
                -6.899173931
              ],
              [
                108.250307001,
                -6.899214821
              ],
              [
                108.250500332,
                -6.899500357
              ],
              [
                108.251014891,
                -6.901198995
              ],
              [
                108.251182643,
                -6.901940316
              ],
              [
                108.25141583,
                -6.903387504
              ],
              [
                108.251577633,
                -6.904034717
              ],
              [
                108.252072561,
                -6.905239676
              ],
              [
                108.252979258,
                -6.905511625
              ],
              [
                108.253026847,
                -6.905749571
              ],
              [
                108.253122026,
                -6.906439615
              ],
              [
                108.253154465,
                -6.90679645
              ],
              [
                108.254133174,
                -6.907764284
              ],
              [
                108.254642379,
                -6.908230659
              ],
              [
                108.254951709,
                -6.908335355
              ],
              [
                108.255103994,
                -6.908411498
              ],
              [
                108.255280074,
                -6.908482882
              ],
              [
                108.255365735,
                -6.908511435
              ],
              [
                108.255908252,
                -6.908835518
              ],
              [
                108.255946324,
                -6.90878317
              ],
              [
                108.255993913,
                -6.908716545
              ],
              [
                108.256046261,
                -6.90864992
              ],
              [
                108.256079573,
                -6.908554741
              ],
              [
                108.256074814,
                -6.90847384
              ],
              [
                108.256070056,
                -6.908416733
              ],
              [
                108.256065297,
                -6.908345349
              ],
              [
                108.256103368,
                -6.908297759
              ],
              [
                108.256160475,
                -6.90825017
              ],
              [
                108.256260412,
                -6.90820734
              ],
              [
                108.256331796,
                -6.908154992
              ],
              [
                108.256379385,
                -6.908088367
              ],
              [
                108.25640318,
                -6.907950358
              ],
              [
                108.256460287,
                -6.90789801
              ],
              [
                108.256498359,
                -6.907850421
              ],
              [
                108.256564983,
                -6.907817108
              ],
              [
                108.256655403,
                -6.907769519
              ],
              [
                108.256717269,
                -6.907693376
              ],
              [
                108.256793412,
                -6.907636269
              ],
              [
                108.256855278,
                -6.907574403
              ],
              [
                108.256936179,
                -6.907536332
              ],
              [
                108.257012322,
                -6.907522055
              ],
              [
                108.257093224,
                -6.907441154
              ],
              [
                108.257069429,
                -6.907407841
              ],
              [
                108.256945697,
                -6.907345975
              ],
              [
                108.25688859,
                -6.907307904
              ],
              [
                108.256860037,
                -6.907212725
              ],
              [
                108.256860037,
                -6.907131824
              ],
              [
                108.256893349,
                -6.907041404
              ],
              [
                108.256959974,
                -6.906960502
              ],
              [
                108.257002804,
                -6.906922431
              ],
              [
                108.257050393,
                -6.906879601
              ],
              [
                108.25706467,
                -6.906822494
              ],
              [
                108.257040876,
                -6.906760628
              ],
              [
                108.256969492,
                -6.906717797
              ],
              [
                108.256874313,
                -6.906670208
              ],
              [
                108.256812447,
                -6.906603583
              ],
              [
                108.256812447,
                -6.906579789
              ],
              [
                108.25684576,
                -6.906515543
              ],
              [
                108.256907626,
                -6.90648699
              ],
              [
                108.256974251,
                -6.906463195
              ],
              [
                108.257045635,
                -6.906458436
              ],
              [
                108.257231232,
                -6.906458436
              ],
              [
                108.25741683,
                -6.906420365
              ],
              [
                108.257569116,
                -6.906358499
              ],
              [
                108.257702366,
                -6.906282356
              ],
              [
                108.257788026,
                -6.906258561
              ],
              [
                108.257873687,
                -6.906239526
              ],
              [
                108.257935553,
                -6.906206213
              ],
              [
                108.258049767,
                -6.906201454
              ],
              [
                108.258135428,
                -6.906239526
              ],
              [
                108.258306749,
                -6.906268079
              ],
              [
                108.258506624,
                -6.90626332
              ],
              [
                108.25865415,
                -6.906272838
              ],
              [
                108.25843524,
                -6.907819488
              ],
              [
                108.258110337,
                -6.909485669
              ],
              [
                108.258285456,
                -6.909604298
              ],
              [
                108.258452019,
                -6.909735168
              ],
              [
                108.258479852,
                -6.910051862
              ],
              [
                108.258738282,
                -6.909793915
              ],
              [
                108.258878515,
                -6.909653943
              ],
              [
                108.259111614,
                -6.909291861
              ],
              [
                108.259335388,
                -6.908944274
              ],
              [
                108.259544984,
                -6.908593586
              ],
              [
                108.259621453,
                -6.908481909
              ],
              [
                108.259731004,
                -6.908310975
              ],
              [
                108.25982728,
                -6.908212577
              ],
              [
                108.259992002,
                -6.908043532
              ],
              [
                108.260006962,
                -6.908027046
              ],
              [
                108.260154349,
                -6.907808196
              ],
              [
                108.260175736,
                -6.907765398
              ],
              [
                108.260351392,
                -6.907492296
              ],
              [
                108.260531042,
                -6.907359462
              ],
              [
                108.260917204,
                -6.907268297
              ],
              [
                108.261056513,
                -6.907222771
              ],
              [
                108.261292557,
                -6.907187243
              ],
              [
                108.261372605,
                -6.907162105
              ],
              [
                108.261549141,
                -6.907060568
              ],
              [
                108.261738054,
                -6.907177248
              ],
              [
                108.26202359,
                -6.90738664
              ],
              [
                108.262328161,
                -6.907691211
              ],
              [
                108.262537553,
                -6.908167103
              ],
              [
                108.262575624,
                -6.908471674
              ],
              [
                108.262575624,
                -6.909023709
              ],
              [
                108.26272791,
                -6.909670923
              ],
              [
                108.263089588,
                -6.909537673
              ],
              [
                108.263298981,
                -6.909442494
              ],
              [
                108.263622587,
                -6.909118888
              ],
              [
                108.26396523,
                -6.908909495
              ],
              [
                108.264460158,
                -6.908795281
              ],
              [
                108.264974121,
                -6.908471674
              ],
              [
                108.265316764,
                -6.908167103
              ],
              [
                108.26590687,
                -6.90765314
              ],
              [
                108.266154334,
                -6.907367604
              ],
              [
                108.266820583,
                -6.907101105
              ],
              [
                108.267106118,
                -6.907196283
              ],
              [
                108.2678556,
                -6.907227143
              ],
              [
                108.268324402,
                -6.90751989
              ],
              [
                108.268628973,
                -6.907481819
              ],
              [
                108.26908583,
                -6.90738664
              ],
              [
                108.269523651,
                -6.907367604
              ],
              [
                108.269961471,
                -6.907557961
              ],
              [
                108.270361221,
                -6.907691211
              ],
              [
                108.270608685,
                -6.907957711
              ],
              [
                108.270551578,
                -6.908109996
              ],
              [
                108.269961471,
                -6.908414567
              ],
              [
                108.269771115,
                -6.908642996
              ],
              [
                108.269542686,
                -6.909042745
              ],
              [
                108.268838366,
                -6.909537673
              ],
              [
                108.268250342,
                -6.90957973
              ],
              [
                108.268244356,
                -6.909845741
              ],
              [
                108.268162142,
                -6.910279392
              ],
              [
                108.268117715,
                -6.910409084
              ],
              [
                108.268059505,
                -6.910676096
              ],
              [
                108.26798711,
                -6.910886291
              ],
              [
                108.267816059,
                -6.911341606
              ],
              [
                108.267664848,
                -6.911631316
              ],
              [
                108.267542332,
                -6.911824172
              ],
              [
                108.267508739,
                -6.911885912
              ],
              [
                108.267143663,
                -6.912565975
              ],
              [
                108.267113919,
                -6.91261084
              ],
              [
                108.266880848,
                -6.912881971
              ],
              [
                108.266619537,
                -6.913071328
              ],
              [
                108.266565239,
                -6.913088708
              ],
              [
                108.266184773,
                -6.913210505
              ],
              [
                108.26593587,
                -6.913346097
              ],
              [
                108.265490944,
                -6.913588472
              ],
              [
                108.265809552,
                -6.913916917
              ],
              [
                108.265591827,
                -6.914758888
              ],
              [
                108.265542421,
                -6.91523789
              ],
              [
                108.265537407,
                -6.915286505
              ],
              [
                108.26576058,
                -6.915508828
              ],
              [
                108.265959191,
                -6.915706681
              ],
              [
                108.265923016,
                -6.91576755
              ],
              [
                108.265430688,
                -6.916595956
              ],
              [
                108.265398232,
                -6.916774202
              ],
              [
                108.265387783,
                -6.916831611
              ],
              [
                108.265381474,
                -6.916849999
              ],
              [
                108.265296342,
                -6.917055863
              ],
              [
                108.265274209,
                -6.917093217
              ],
              [
                108.265163279,
                -6.917244256
              ],
              [
                108.26486013,
                -6.917327893
              ],
              [
                108.264653687,
                -6.917384853
              ],
              [
                108.26459586,
                -6.918033751
              ],
              [
                108.264623614,
                -6.918278142
              ],
              [
                108.264700416,
                -6.918480944
              ],
              [
                108.265005615,
                -6.918909845
              ],
              [
                108.265065597,
                -6.918966962
              ],
              [
                108.26539657,
                -6.919277316
              ],
              [
                108.265531263,
                -6.919376176
              ],
              [
                108.26579095,
                -6.919529066
              ],
              [
                108.265875155,
                -6.919621102
              ],
              [
                108.265893733,
                -6.919763064
              ],
              [
                108.265817348,
                -6.920108005
              ],
              [
                108.265718149,
                -6.920410581
              ],
              [
                108.265652523,
                -6.92065983
              ],
              [
                108.26563729,
                -6.920938808
              ],
              [
                108.265627818,
                -6.920999321
              ],
              [
                108.265653809,
                -6.921276413
              ],
              [
                108.265761111,
                -6.921664635
              ],
              [
                108.264921951,
                -6.923970432
              ],
              [
                108.264826664,
                -6.925478746
              ],
              [
                108.264803607,
                -6.925581927
              ],
              [
                108.264769425,
                -6.925695176
              ],
              [
                108.264751613,
                -6.925928607
              ],
              [
                108.26479857,
                -6.926323865
              ],
              [
                108.264806122,
                -6.926402042
              ],
              [
                108.264822496,
                -6.926595143
              ],
              [
                108.264846872,
                -6.926882535
              ],
              [
                108.26484362,
                -6.927073238
              ],
              [
                108.26484088,
                -6.927628443
              ],
              [
                108.264841216,
                -6.92766261
              ],
              [
                108.264838953,
                -6.928042494
              ],
              [
                108.264852077,
                -6.92833209
              ],
              [
                108.264872174,
                -6.928589919
              ],
              [
                108.264888736,
                -6.928708123
              ],
              [
                108.264900775,
                -6.928861044
              ],
              [
                108.265068724,
                -6.930437243
              ],
              [
                108.26455592,
                -6.930146151
              ],
              [
                108.264302303,
                -6.930006179
              ],
              [
                108.2640757,
                -6.929995394
              ],
              [
                108.263819924,
                -6.930041459
              ],
              [
                108.263421364,
                -6.930185625
              ],
              [
                108.262936711,
                -6.93041679
              ],
              [
                108.262807396,
                -6.930478469
              ],
              [
                108.2623487,
                -6.930697253
              ],
              [
                108.26205995,
                -6.930834975
              ],
              [
                108.261851822,
                -6.931052625
              ],
              [
                108.261635079,
                -6.931279269
              ],
              [
                108.261626818,
                -6.931287914
              ],
              [
                108.26115146,
                -6.931688868
              ],
              [
                108.260878234,
                -6.931826869
              ],
              [
                108.260543362,
                -6.931895091
              ],
              [
                108.260137757,
                -6.931924918
              ],
              [
                108.259882885,
                -6.931809866
              ],
              [
                108.259809373,
                -6.931859555
              ],
              [
                108.259795978,
                -6.932000835
              ],
              [
                108.25971983,
                -6.932126373
              ],
              [
                108.259100373,
                -6.932336071
              ],
              [
                108.258868484,
                -6.932290275
              ],
              [
                108.258592619,
                -6.932207612
              ],
              [
                108.258371317,
                -6.932129276
              ],
              [
                108.257964775,
                -6.931961508
              ],
              [
                108.257310588,
                -6.931655335
              ],
              [
                108.257288191,
                -6.931641146
              ],
              [
                108.256948956,
                -6.93146802
              ],
              [
                108.256752799,
                -6.931477792
              ],
              [
                108.256488403,
                -6.931555527
              ],
              [
                108.256201353,
                -6.931757247
              ],
              [
                108.255906418,
                -6.931629438
              ],
              [
                108.255643294,
                -6.931615583
              ],
              [
                108.255300328,
                -6.931687306
              ],
              [
                108.255013178,
                -6.931807982
              ],
              [
                108.254772109,
                -6.931926782
              ],
              [
                108.2545588,
                -6.931965812
              ],
              [
                108.254445987,
                -6.931947269
              ],
              [
                108.254391724,
                -6.931909718
              ],
              [
                108.254095035,
                -6.931469728
              ],
              [
                108.25389427,
                -6.931083947
              ],
              [
                108.253852175,
                -6.93100642
              ],
              [
                108.253806358,
                -6.93092205
              ],
              [
                108.253643459,
                -6.930780374
              ],
              [
                108.253452698,
                -6.93068912
              ],
              [
                108.253106735,
                -6.930633726
              ],
              [
                108.252880273,
                -6.930639708
              ],
              [
                108.252698704,
                -6.930722374
              ],
              [
                108.252525781,
                -6.930906102
              ],
              [
                108.252454735,
                -6.930998335
              ],
              [
                108.25243061,
                -6.931029649
              ],
              [
                108.252340581,
                -6.93107391
              ],
              [
                108.252297007,
                -6.931078528
              ],
              [
                108.252080523,
                -6.930996169
              ],
              [
                108.251662209,
                -6.930837022
              ],
              [
                108.251296723,
                -6.930655717
              ],
              [
                108.250895584,
                -6.930194944
              ],
              [
                108.250701653,
                -6.929981633
              ],
              [
                108.25055997,
                -6.929884934
              ],
              [
                108.250411618,
                -6.929857699
              ],
              [
                108.250331318,
                -6.929842958
              ],
              [
                108.248279713,
                -6.930124521
              ],
              [
                108.239916265,
                -6.931272324
              ],
              [
                108.236605667,
                -6.930299439
              ],
              [
                108.232254401,
                -6.929273577
              ],
              [
                108.229732172,
                -6.928702506
              ],
              [
                108.227058161,
                -6.928731319
              ],
              [
                108.225544321,
                -6.928274203
              ],
              [
                108.224116644,
                -6.928274203
              ],
              [
                108.22192754,
                -6.928797685
              ],
              [
                108.219119776,
                -6.929749469
              ],
              [
                108.218332217,
                -6.930095943
              ],
              [
                108.218155031,
                -6.929897889
              ],
              [
                108.218050437,
                -6.929755282
              ],
              [
                108.218029602,
                -6.92956469
              ],
              [
                108.217918482,
                -6.929151972
              ],
              [
                108.217890022,
                -6.929001896
              ],
              [
                108.217924442,
                -6.928834343
              ],
              [
                108.217929702,
                -6.928822338
              ],
              [
                108.217930771,
                -6.928683278
              ],
              [
                108.217926491,
                -6.92863616
              ],
              [
                108.217919805,
                -6.928562542
              ],
              [
                108.218426521,
                -6.928555183
              ],
              [
                108.219022874,
                -6.928524326
              ],
              [
                108.219470525,
                -6.92843535
              ],
              [
                108.219861927,
                -6.928162848
              ],
              [
                108.21995579,
                -6.927797007
              ],
              [
                108.220015461,
                -6.927396616
              ],
              [
                108.219880371,
                -6.926972186
              ],
              [
                108.219573784,
                -6.926466604
              ],
              [
                108.219061041,
                -6.925925467
              ],
              [
                108.218515725,
                -6.925681389
              ],
              [
                108.218135917,
                -6.92571493
              ],
              [
                108.218123591,
                -6.92571202
              ],
              [
                108.217403143,
                -6.925699454
              ],
              [
                108.217305056,
                -6.925697743
              ],
              [
                108.217280288,
                -6.925687314
              ],
              [
                108.217273352,
                -6.925684394
              ],
              [
                108.217096234,
                -6.925609818
              ],
              [
                108.217033798,
                -6.925583529
              ],
              [
                108.216862476,
                -6.925369377
              ],
              [
                108.216629289,
                -6.925026735
              ],
              [
                108.216582022,
                -6.924892024
              ],
              [
                108.216490775,
                -6.923817338
              ]
            ]
          ]
        ]
      }
    }
  ]
}