{
  "type": "FeatureCollection",
  "features": [
    {
      "type": "Feature",
      "properties": {
        "idx": "2018",
        "nama_kewilayahan": "Wakaniwin/Jiare"
      },
      "geometry": {
        "type": "MultiPolygon",
        "coordinates": [
          [
            [
              [
                138.976261056,
                -5.843140262
              ],
              [
                138.819768975,
                -5.844002478
              ],
              [
                138.79502258,
                -5.84019534
              ],
              [
                138.768372617,
                -5.83162928
              ],
              [
                138.702223601,
                -5.811641808
              ],
              [
                138.684139697,
                -5.806882886
              ],
              [
                138.673194177,
                -5.803551641
              ],
              [
                138.665579901,
                -5.795937365
              ],
              [
                138.661772764,
                -5.78832309
              ],
              [
                138.660820979,
                -5.778329354
              ],
              [
                138.647495998,
                -5.76452848
              ],
              [
                138.637502262,
                -5.754058852
              ],
              [
                138.623701388,
                -5.747142552
              ],
              [
                138.614818067,
                -5.733183047
              ],
              [
                138.614183544,
                -5.714781882
              ],
              [
                138.61989425,
                -5.699553332
              ],
              [
                138.627508525,
                -5.687497396
              ],
              [
                138.638295415,
                -5.676075983
              ],
              [
                138.655427534,
                -5.676710506
              ],
              [
                138.671290608,
                -5.667827185
              ],
              [
                138.687153681,
                -5.654502203
              ],
              [
                138.73220481,
                -5.646887928
              ],
              [
                138.749971452,
                -5.613892735
              ],
              [
                138.802636855,
                -5.563765424
              ],
              [
                138.982206846,
                -5.414018011
              ],
              [
                139.018691915,
                -5.38191115
              ],
              [
                139.057397814,
                -5.347012389
              ],
              [
                139.104352511,
                -5.31909338
              ],
              [
                139.15828696,
                -5.292443417
              ],
              [
                139.207779749,
                -5.267697022
              ],
              [
                139.218566639,
                -5.26071727
              ],
              [
                139.226815437,
                -5.230260169
              ],
              [
                139.235698758,
                -5.195361408
              ],
              [
                139.247754694,
                -5.172518582
              ],
              [
                139.253465401,
                -5.154117417
              ],
              [
                139.259176107,
                -5.173787628
              ],
              [
                139.268693951,
                -5.199803068
              ],
              [
                139.279480841,
                -5.233432784
              ],
              [
                139.298516529,
                -5.268331545
              ],
              [
                139.318821263,
                -5.296885077
              ],
              [
                139.351181933,
                -5.333052884
              ],
              [
                139.387984263,
                -5.378104013
              ],
              [
                139.420344932,
                -5.408561114
              ],
              [
                139.45651274,
                -5.444728921
              ],
              [
                139.47174129,
                -5.466937224
              ],
              [
                139.491411501,
                -5.489780049
              ],
              [
                139.497831078,
                -5.499392189
              ],
              [
                139.497831078,
                -5.511448124
              ],
              [
                139.507348922,
                -5.531752858
              ],
              [
                139.519404858,
                -5.543808794
              ],
              [
                139.522577473,
                -5.565382574
              ],
              [
                139.514328675,
                -5.580611124
              ],
              [
                139.502907262,
                -5.596474198
              ],
              [
                139.492120372,
                -5.605992042
              ],
              [
                139.313184904,
                -5.618047977
              ],
              [
                139.155823216,
                -5.639621757
              ],
              [
                139.133614914,
                -5.643428895
              ],
              [
                139.08094951,
                -5.558402822
              ],
              [
                138.918511639,
                -5.658022922
              ],
              [
                138.929298529,
                -5.692921684
              ],
              [
                138.941988987,
                -5.73543472
              ],
              [
                138.960390152,
                -5.793176307
              ],
              [
                138.976261056,
                -5.843140262
              ]
            ]
          ]
        ]
      }
    }
  ]
}