{
  "type": "FeatureCollection",
  "features": [
    {
      "type": "Feature",
      "properties": {
        "idx": "2024",
        "nama_kewilayahan": "Kaimon"
      },
      "geometry": {
        "type": "MultiPolygon",
        "coordinates": [
          [
            [
              [
                138.624511927,
                -5.69224201
              ],
              [
                138.492545497,
                -5.691812152
              ],
              [
                138.486358898,
                -5.688480906
              ],
              [
                138.478744623,
                -5.682294308
              ],
              [
                138.469702671,
                -5.679438955
              ],
              [
                138.453998229,
                -5.679438955
              ],
              [
                138.444956277,
                -5.679914847
              ],
              [
                138.433058972,
                -5.677059494
              ],
              [
                138.431155403,
                -5.668969326
              ],
              [
                138.429251834,
                -5.65897559
              ],
              [
                138.418782206,
                -5.655168452
              ],
              [
                138.408312577,
                -5.653740776
              ],
              [
                138.396224916,
                -5.652598634
              ],
              [
                138.411929358,
                -5.612147797
              ],
              [
                138.418591849,
                -5.594539786
              ],
              [
                138.422874879,
                -5.581690696
              ],
              [
                138.423826663,
                -5.568841607
              ],
              [
                138.42097131,
                -5.556944302
              ],
              [
                138.42097131,
                -5.548378242
              ],
              [
                138.420495418,
                -5.531722015
              ],
              [
                138.423826663,
                -5.520776495
              ],
              [
                138.439055214,
                -5.500789022
              ],
              [
                138.449524842,
                -5.484799044
              ],
              [
                138.462849824,
                -5.472901739
              ],
              [
                138.483789081,
                -5.466239248
              ],
              [
                138.503300661,
                -5.461480326
              ],
              [
                138.514722074,
                -5.465763356
              ],
              [
                138.526619379,
                -5.466239248
              ],
              [
                138.534233654,
                -5.466239248
              ],
              [
                138.547558635,
                -5.461956219
              ],
              [
                138.560407725,
                -5.44720356
              ],
              [
                138.577063952,
                -5.426740196
              ],
              [
                138.590864826,
                -5.426264304
              ],
              [
                138.606569268,
                -5.437685716
              ],
              [
                138.629412094,
                -5.459100865
              ],
              [
                138.80213447,
                -5.564243598
              ],
              [
                138.749971452,
                -5.613892735
              ],
              [
                138.73220481,
                -5.646887928
              ],
              [
                138.687153681,
                -5.654502203
              ],
              [
                138.671290608,
                -5.667827185
              ],
              [
                138.655427534,
                -5.676710506
              ],
              [
                138.638295415,
                -5.676075983
              ],
              [
                138.627508525,
                -5.687497396
              ],
              [
                138.624511927,
                -5.69224201
              ]
            ]
          ]
        ]
      }
    }
  ]
}