{
  "type": "FeatureCollection",
  "features": [
    {
      "type": "Feature",
      "properties": {
        "idx": "2237",
        "nama_kewilayahan": "Segale Anyar Paer Pujut"
      },
      "geometry": {
        "type": "Polygon",
        "coordinates": [
          [
            [
              116.295037849,
              -8.791192218
            ],
            [
              116.296096956,
              -8.793672401
            ],
            [
              116.296438978,
              -8.795518125
            ],
            [
              116.296591567,
              -8.796567576
            ],
            [
              116.296808827,
              -8.797074475
            ],
            [
              116.296481144,
              -8.797263799
            ],
            [
              116.296370619,
              -8.798014288
            ],
            [
              116.29715239,
              -8.798106194
            ],
            [
              116.297571849,
              -8.797464814
            ],
            [
              116.298597767,
              -8.798271691
            ],
            [
              116.299324544,
              -8.798598647
            ],
            [
              116.299832509,
              -8.799241754
            ],
            [
              116.301087241,
              -8.79925313
            ],
            [
              116.301813615,
              -8.79979715
            ],
            [
              116.303515832,
              -8.803626146
            ],
            [
              116.304814776,
              -8.804315933
            ],
            [
              116.305294452,
              -8.805510699
            ],
            [
              116.30581158,
              -8.806126683
            ],
            [
              116.306702601,
              -8.80615546
            ],
            [
              116.307520292,
              -8.806500658
            ],
            [
              116.307783237,
              -8.806899102
            ],
            [
              116.310401952,
              -8.806876778
            ],
            [
              116.31059303,
              -8.806804772
            ],
            [
              116.311806257,
              -8.804690567
            ],
            [
              116.312342817,
              -8.80463728
            ],
            [
              116.313097731,
              -8.804512035
            ],
            [
              116.31357046,
              -8.804558121
            ],
            [
              116.314843465,
              -8.804533307
            ],
            [
              116.315716898,
              -8.804236426
            ],
            [
              116.315950512,
              -8.805756338
            ],
            [
              116.316551236,
              -8.80542278
            ],
            [
              116.318163287,
              -8.803969529
            ],
            [
              116.319462957,
              -8.804279397
            ],
            [
              116.319829187,
              -8.802896239
            ],
            [
              116.32164731,
              -8.803107546
            ],
            [
              116.321622553,
              -8.801723681
            ],
            [
              116.324541996,
              -8.80131288
            ],
            [
              116.325344903,
              -8.799785785
            ],
            [
              116.324351163,
              -8.796238526
            ],
            [
              116.324273152,
              -8.794130997
            ],
            [
              116.324229757,
              -8.792991302
            ],
            [
              116.323940509,
              -8.792050146
            ],
            [
              116.322685746,
              -8.792065982
            ],
            [
              116.32174053,
              -8.791856256
            ],
            [
              116.320839822,
              -8.792171194
            ],
            [
              116.319048979,
              -8.79198707
            ],
            [
              116.316766131,
              -8.79236281
            ],
            [
              116.316047794,
              -8.792388641
            ],
            [
              116.314828917,
              -8.792666808
            ],
            [
              116.313310578,
              -8.792627866
            ],
            [
              116.312393813,
              -8.791785049
            ],
            [
              116.311921752,
              -8.791386226
            ],
            [
              116.309758793,
              -8.790848642
            ],
            [
              116.308370237,
              -8.789471323
            ],
            [
              116.308206561,
              -8.789480067
            ],
            [
              116.307715467,
              -8.789542477
            ],
            [
              116.306634509,
              -8.788997817
            ],
            [
              116.30619854,
              -8.788752812
            ],
            [
              116.306045269,
              -8.788056099
            ],
            [
              116.305609403,
              -8.787756826
            ],
            [
              116.304871307,
              -8.788632787
            ],
            [
              116.304553824,
              -8.788234241
            ],
            [
              116.304436031,
              -8.788016955
            ],
            [
              116.303299111,
              -8.788231924
            ],
            [
              116.302726832,
              -8.787950485
            ],
            [
              116.301510352,
              -8.786953333
            ],
            [
              116.301138813,
              -8.786292392
            ],
            [
              116.3004307,
              -8.785721273
            ],
            [
              116.299884294,
              -8.786190575
            ],
            [
              116.299284473,
              -8.786053793
            ],
            [
              116.299041026,
              -8.784967995
            ],
            [
              116.29804058,
              -8.78513798
            ],
            [
              116.297603243,
              -8.785625571
            ],
            [
              116.297429387,
              -8.786213142
            ],
            [
              116.297000663,
              -8.786953996
            ],
            [
              116.29650053,
              -8.786989241
            ],
            [
              116.296500223,
              -8.787152042
            ],
            [
              116.296127107,
              -8.787332236
            ],
            [
              116.295089652,
              -8.787836792
            ],
            [
              116.294585773,
              -8.789852781
            ],
            [
              116.29447588,
              -8.790268624
            ],
            [
              116.294147552,
              -8.790801636
            ],
            [
              116.295037849,
              -8.791192218
            ]
          ]
        ]
      }
    }
  ]
}