{
  "type": "FeatureCollection",
  "features": [
    {
      "type": "Feature",
      "properties": {
        "idx": "2275",
        "nama_kewilayahan": "Matajang"
      },
      "geometry": {
        "type": "MultiPolygon",
        "coordinates": [
          [
            [
              [
                119.888560828,
                -3.571243368
              ],
              [
                119.888846364,
                -3.571293337
              ],
              [
                119.889189006,
                -3.571286199
              ],
              [
                119.889460265,
                -3.571179123
              ],
              [
                119.889731523,
                -3.570993525
              ],
              [
                119.88992426,
                -3.570865034
              ],
              [
                119.890259764,
                -3.570672298
              ],
              [
                119.890595268,
                -3.570586637
              ],
              [
                119.89089508,
                -3.570693713
              ],
              [
                119.89124486,
                -3.570779373
              ],
              [
                119.891658887,
                -3.57101494
              ],
              [
                119.891894453,
                -3.571229092
              ],
              [
                119.891958699,
                -3.571514627
              ],
              [
                119.892001529,
                -3.571793024
              ],
              [
                119.892008667,
                -3.572114251
              ],
              [
                119.891923007,
                -3.57238551
              ],
              [
                119.891701717,
                -3.572685322
              ],
              [
                119.891430458,
                -3.57295658
              ],
              [
                119.891280552,
                -3.57309221
              ],
              [
                119.891152061,
                -3.573384883
              ],
              [
                119.891166338,
                -3.573613311
              ],
              [
                119.891330521,
                -3.573713249
              ],
              [
                119.89164461,
                -3.573827463
              ],
              [
                119.891744547,
                -3.574120137
              ],
              [
                119.891808793,
                -3.574434226
              ],
              [
                119.891994391,
                -3.574734038
              ],
              [
                119.892287064,
                -3.574948189
              ],
              [
                119.892786751,
                -3.575069542
              ],
              [
                119.893107978,
                -3.575190894
              ],
              [
                119.893436344,
                -3.575390769
              ],
              [
                119.893828955,
                -3.575847625
              ],
              [
                119.894164459,
                -3.576233098
              ],
              [
                119.894485686,
                -3.576618571
              ],
              [
                119.894785498,
                -3.577032597
              ],
              [
                119.894992512,
                -3.5774609
              ],
              [
                119.895142418,
                -3.577739297
              ],
              [
                119.895206663,
                -3.578060524
              ],
              [
                119.895028203,
                -3.578238984
              ],
              [
                119.894771222,
                -3.57847455
              ],
              [
                119.894228705,
                -3.578752947
              ],
              [
                119.894185874,
                -3.57909559
              ],
              [
                119.894200151,
                -3.579388263
              ],
              [
                119.89447141,
                -3.579695214
              ],
              [
                119.89477836,
                -3.579880812
              ],
              [
                119.89499965,
                -3.580059271
              ],
              [
                119.895192386,
                -3.580237731
              ],
              [
                119.895477922,
                -3.580337668
              ],
              [
                119.895891948,
                -3.580294838
              ],
              [
                119.896198898,
                -3.580259146
              ],
              [
                119.896527264,
                -3.580309115
              ],
              [
                119.896784246,
                -3.58033053
              ],
              [
                119.897048366,
                -3.580266284
              ],
              [
                119.897170906,
                -3.580193423
              ],
              [
                119.897192291,
                -3.580189797
              ],
              [
                119.897233964,
                -3.580216316
              ],
              [
                119.897705097,
                -3.580323392
              ],
              [
                119.897947802,
                -3.580558958
              ],
              [
                119.898069155,
                -3.580937292
              ],
              [
                119.898219061,
                -3.58134418
              ],
              [
                119.898461766,
                -3.581701099
              ],
              [
                119.898790131,
                -3.582065157
              ],
              [
                119.899239849,
                -3.582529152
              ],
              [
                119.899425447,
                -3.5830217
              ],
              [
                119.899454001,
                -3.583321512
              ],
              [
                119.899561077,
                -3.583742677
              ],
              [
                119.899646737,
                -3.584135288
              ],
              [
                119.899775228,
                -3.584570729
              ],
              [
                119.899818058,
                -3.584806296
              ],
              [
                119.899860889,
                -3.585177492
              ],
              [
                119.899839474,
                -3.585391643
              ],
              [
                119.899653876,
                -3.585727147
              ],
              [
                119.899489693,
                -3.586012683
              ],
              [
                119.89950397,
                -3.586248249
              ],
              [
                119.899508573,
                -3.586423176
              ],
              [
                119.899467085,
                -3.586511053
              ],
              [
                119.899378876,
                -3.586610157
              ],
              [
                119.8992486,
                -3.586736221
              ],
              [
                119.899132351,
                -3.58685518
              ],
              [
                119.899028701,
                -3.586958569
              ],
              [
                119.898938769,
                -3.587091019
              ],
              [
                119.898821957,
                -3.587160475
              ],
              [
                119.898779126,
                -3.587238998
              ],
              [
                119.89885051,
                -3.587610193
              ],
              [
                119.899014693,
                -3.587910006
              ],
              [
                119.899257398,
                -3.587995666
              ],
              [
                119.899507241,
                -3.588059912
              ],
              [
                119.8997785,
                -3.587959974
              ],
              [
                119.900135419,
                -3.587967113
              ],
              [
                119.900399539,
                -3.588131295
              ],
              [
                119.900620829,
                -3.588473938
              ],
              [
                119.900827842,
                -3.589094977
              ],
              [
                119.901084824,
                -3.589473311
              ],
              [
                119.90141319,
                -3.589801677
              ],
              [
                119.901705863,
                -3.589937306
              ],
              [
                119.90198426,
                -3.590001552
              ],
              [
                119.902234104,
                -3.590215703
              ],
              [
                119.902419702,
                -3.590565484
              ],
              [
                119.902512501,
                -3.591008064
              ],
              [
                119.902591023,
                -3.591350706
              ],
              [
                119.902719514,
                -3.591486335
              ],
              [
                119.902905112,
                -3.591693349
              ],
              [
                119.903126402,
                -3.591843255
              ],
              [
                119.903340553,
                -3.592050268
              ],
              [
                119.903519013,
                -3.592300111
              ],
              [
                119.903697472,
                -3.592607062
              ],
              [
                119.903811686,
                -3.592692722
              ],
              [
                119.904011561,
                -3.592592785
              ],
              [
                119.904397034,
                -3.592578508
              ],
              [
                119.904718261,
                -3.592628477
              ],
              [
                119.905182256,
                -3.592764106
              ],
              [
                119.905432099,
                -3.592856905
              ],
              [
                119.905838987,
                -3.593021088
              ],
              [
                119.906110246,
                -3.593199547
              ],
              [
                119.906352951,
                -3.593449391
              ],
              [
                119.906552825,
                -3.593906247
              ],
              [
                119.906638486,
                -3.594227474
              ],
              [
                119.90679553,
                -3.594605809
              ],
              [
                119.906945436,
                -3.594912759
              ],
              [
                119.907088204,
                -3.595248263
              ],
              [
                119.907181003,
                -3.595505245
              ],
              [
                119.907230972,
                -3.595805057
              ],
              [
                119.90723811,
                -3.596104869
              ],
              [
                119.907173865,
                -3.596533172
              ],
              [
                119.907188141,
                -3.596768739
              ],
              [
                119.907259525,
                -3.597097104
              ],
              [
                119.907452262,
                -3.597318394
              ],
              [
                119.907659275,
                -3.597582515
              ],
              [
                119.907787766,
                -3.597782389
              ],
              [
                119.907937672,
                -3.59808934
              ],
              [
                119.907966225,
                -3.598332045
              ],
              [
                119.907802042,
                -3.598610442
              ],
              [
                119.907773489,
                -3.598853147
              ],
              [
                119.907873426,
                -3.598974499
              ],
              [
                119.907980502,
                -3.59914582
              ],
              [
                119.90812327,
                -3.599267173
              ],
              [
                119.908116131,
                -3.599509878
              ],
              [
                119.907937672,
                -3.599838244
              ],
              [
                119.907787766,
                -3.600145194
              ],
              [
                119.907580753,
                -3.600452144
              ],
              [
                119.907259525,
                -3.600951831
              ],
              [
                119.907166726,
                -3.601258782
              ],
              [
                119.907078925,
                -3.601609988
              ],
              [
                119.907031097,
                -3.601801299
              ],
              [
                119.90693049,
                -3.601893749
              ],
              [
                119.906766977,
                -3.602044004
              ],
              [
                119.906603048,
                -3.602317219
              ],
              [
                119.906588517,
                -3.602315262
              ],
              [
                119.906395781,
                -3.602715012
              ],
              [
                119.905917509,
                -3.603600171
              ],
              [
                119.905753326,
                -3.603971367
              ],
              [
                119.905710496,
                -3.604185519
              ],
              [
                119.905760465,
                -3.604556715
              ],
              [
                119.905822278,
                -3.604732645
              ],
              [
                119.905853264,
                -3.604820835
              ],
              [
                119.905974616,
                -3.605042125
              ],
              [
                119.905624836,
                -3.605127785
              ],
              [
                119.905232225,
                -3.604913634
              ],
              [
                119.904818198,
                -3.604592407
              ],
              [
                119.904670814,
                -3.604419757
              ],
              [
                119.904568355,
                -3.604299733
              ],
              [
                119.904400328,
                -3.604299733
              ],
              [
                119.904218574,
                -3.604299733
              ],
              [
                119.904031659,
                -3.604371623
              ],
              [
                119.903940177,
                -3.604406809
              ],
              [
                119.903704611,
                -3.604678067
              ],
              [
                119.903547566,
                -3.605120647
              ],
              [
                119.903519013,
                -3.605434736
              ],
              [
                119.903525428,
                -3.605469221
              ],
              [
                119.90357612,
                -3.605741686
              ],
              [
                119.903533289,
                -3.605977253
              ],
              [
                119.903290584,
                -3.606191404
              ],
              [
                119.903012187,
                -3.606291342
              ],
              [
                119.902398286,
                -3.606448386
              ],
              [
                119.902234798,
                -3.606470826
              ],
              [
                119.902034229,
                -3.606498355
              ],
              [
                119.901713002,
                -3.606569739
              ],
              [
                119.901356083,
                -3.606862412
              ],
              [
                119.901163346,
                -3.607162225
              ],
              [
                119.90105627,
                -3.607426345
              ],
              [
                119.901020602,
                -3.607646301
              ],
              [
                119.90101344,
                -3.607690465
              ],
              [
                119.900984887,
                -3.607790402
              ],
              [
                119.900856396,
                -3.607947447
              ],
              [
                119.900670798,
                -3.608125906
              ],
              [
                119.900456646,
                -3.608282951
              ],
              [
                119.900142557,
                -3.608390026
              ],
              [
                119.899878437,
                -3.608539932
              ],
              [
                119.899771362,
                -3.608654147
              ],
              [
                119.899621455,
                -3.608839745
              ],
              [
                119.899393027,
                -3.608982512
              ],
              [
                119.899193152,
                -3.609046758
              ],
              [
                119.898979001,
                -3.609003927
              ],
              [
                119.898809867,
                -3.609066458
              ],
              [
                119.8987618,
                -3.609084229
              ],
              [
                119.898243748,
                -3.609339431
              ],
              [
                119.898124497,
                -3.609418931
              ],
              [
                119.898072426,
                -3.609453645
              ],
              [
                119.89783686,
                -3.609489337
              ],
              [
                119.897644123,
                -3.609482199
              ],
              [
                119.897408557,
                -3.609682074
              ],
              [
                119.897008807,
                -3.609896225
              ],
              [
                119.896673303,
                -3.6100961
              ],
              [
                119.896302107,
                -3.61040305
              ],
              [
                119.896152201,
                -3.610688586
              ],
              [
                119.896124275,
                -3.610884071
              ],
              [
                119.896109371,
                -3.610988398
              ],
              [
                119.896037987,
                -3.611359594
              ],
              [
                119.896009434,
                -3.611580884
              ],
              [
                119.895923773,
                -3.612009187
              ],
              [
                119.895802421,
                -3.612408936
              ],
              [
                119.895409809,
                -3.612737302
              ],
              [
                119.895207325,
                -3.61283465
              ],
              [
                119.895038614,
                -3.612915761
              ],
              [
                119.894724525,
                -3.613137051
              ],
              [
                119.894410436,
                -3.61345114
              ],
              [
                119.893982133,
                -3.613836613
              ],
              [
                119.893974995,
                -3.614214947
              ],
              [
                119.893846504,
                -3.614471929
              ],
              [
                119.893575245,
                -3.614778879
              ],
              [
                119.893353955,
                -3.614900232
              ],
              [
                119.893039866,
                -3.614978754
              ],
              [
                119.892861407,
                -3.614828848
              ],
              [
                119.892769737,
                -3.614817389
              ],
              [
                119.892632979,
                -3.614800294
              ],
              [
                119.892368858,
                -3.614757464
              ],
              [
                119.892011939,
                -3.614821709
              ],
              [
                119.891704989,
                -3.614893093
              ],
              [
                119.891412315,
                -3.615000169
              ],
              [
                119.891091088,
                -3.615271428
              ],
              [
                119.891081007,
                -3.615298706
              ],
              [
                119.890969735,
                -3.615599793
              ],
              [
                119.890926905,
                -3.61579253
              ],
              [
                119.890891213,
                -3.616106618
              ],
              [
                119.89090549,
                -3.616463538
              ],
              [
                119.890848383,
                -3.616913256
              ],
              [
                119.8906842,
                -3.617213068
              ],
              [
                119.890324268,
                -3.617570758
              ],
              [
                119.890439115,
                -3.618019705
              ],
              [
                119.890391526,
                -3.618543187
              ],
              [
                119.890367732,
                -3.6189239
              ],
              [
                119.890439115,
                -3.619316511
              ],
              [
                119.890843624,
                -3.619792404
              ],
              [
                119.891379003,
                -3.620351577
              ],
              [
                119.891367105,
                -3.620922648
              ],
              [
                119.891402797,
                -3.62122008
              ],
              [
                119.89121244,
                -3.621565102
              ],
              [
                119.891022083,
                -3.622040994
              ],
              [
                119.891010186,
                -3.62227894
              ],
              [
                119.891069673,
                -3.622635859
              ],
              [
                119.890805552,
                -3.623138719
              ],
              [
                119.890500981,
                -3.623938218
              ],
              [
                119.889815697,
                -3.624661574
              ],
              [
                119.889530161,
                -3.625670465
              ],
              [
                119.88935884,
                -3.626336714
              ],
              [
                119.889263662,
                -3.627202838
              ],
              [
                119.888094015,
                -3.629099321
              ],
              [
                119.887923111,
                -3.629284467
              ],
              [
                119.887599504,
                -3.629684216
              ],
              [
                119.887142648,
                -3.63033143
              ],
              [
                119.886723863,
                -3.63098245
              ],
              [
                119.886362185,
                -3.631534485
              ],
              [
                119.886166633,
                -3.631832959
              ],
              [
                119.886000507,
                -3.63208652
              ],
              [
                119.885448472,
                -3.632676627
              ],
              [
                119.884858365,
                -3.632859369
              ],
              [
                119.884249223,
                -3.633125869
              ],
              [
                119.883202261,
                -3.633411404
              ],
              [
                119.882650226,
                -3.633792118
              ],
              [
                119.881926869,
                -3.634439331
              ],
              [
                119.88152712,
                -3.634896188
              ],
              [
                119.881411992,
                -3.635126443
              ],
              [
                119.881298692,
                -3.635353044
              ],
              [
                119.880765692,
                -3.636133508
              ],
              [
                119.880480157,
                -3.636712192
              ],
              [
                119.880270765,
                -3.637397477
              ],
              [
                119.879890051,
                -3.638158905
              ],
              [
                119.879642587,
                -3.638806118
              ],
              [
                119.879299944,
                -3.639472367
              ],
              [
                119.879014409,
                -3.640024402
              ],
              [
                119.878557553,
                -3.640443187
              ],
              [
                119.878079735,
                -3.640688922
              ],
              [
                119.877936831,
                -3.640835909
              ],
              [
                119.877556117,
                -3.641026266
              ],
              [
                119.877163506,
                -3.641192829
              ],
              [
                119.876830381,
                -3.641371288
              ],
              [
                119.876802831,
                -3.64148149
              ],
              [
                119.876791633,
                -3.64152628
              ],
              [
                119.873283874,
                -3.63848587
              ],
              [
                119.873250706,
                -3.638457121
              ],
              [
                119.873040222,
                -3.63815455
              ],
              [
                119.871754451,
                -3.636306254
              ],
              [
                119.868994276,
                -3.632213581
              ],
              [
                119.866614815,
                -3.628120909
              ],
              [
                119.862828437,
                -3.623845968
              ],
              [
                119.86282004,
                -3.623836487
              ],
              [
                119.862264953,
                -3.623209775
              ],
              [
                119.861524109,
                -3.622373337
              ],
              [
                119.860999287,
                -3.622029488
              ],
              [
                119.858143934,
                -3.619364492
              ],
              [
                119.85621892,
                -3.617072809
              ],
              [
                119.85621892,
                -3.616417528
              ],
              [
                119.856357809,
                -3.615556417
              ],
              [
                119.856524476,
                -3.614806417
              ],
              [
                119.856913365,
                -3.614250861
              ],
              [
                119.85746892,
                -3.613584194
              ],
              [
                119.858024476,
                -3.613028639
              ],
              [
                119.858441142,
                -3.61263975
              ],
              [
                119.858448523,
                -3.612351903
              ],
              [
                119.85846892,
                -3.611556417
              ],
              [
                119.858468675,
                -3.611555228
              ],
              [
                119.85846889,
                -3.611546854
              ],
              [
                119.858394301,
                -3.611184564
              ],
              [
                119.858274446,
                -3.61060241
              ],
              [
                119.858246668,
                -3.610130187
              ],
              [
                119.858024446,
                -3.609546854
              ],
              [
                119.857941113,
                -3.609324632
              ],
              [
                119.85746889,
                -3.608630187
              ],
              [
                119.857191113,
                -3.608380187
              ],
              [
                119.856913335,
                -3.607880187
              ],
              [
                119.856635557,
                -3.607074632
              ],
              [
                119.855996668,
                -3.606435743
              ],
              [
                119.855691113,
                -3.605769076
              ],
              [
                119.855330002,
                -3.60510241
              ],
              [
                119.85485778,
                -3.604991299
              ],
              [
                119.854524446,
                -3.60510241
              ],
              [
                119.853746669,
                -3.604574632
              ],
              [
                119.852913335,
                -3.603657965
              ],
              [
                119.852302224,
                -3.602463521
              ],
              [
                119.851663336,
                -3.602157965
              ],
              [
                119.851163336,
                -3.602130187
              ],
              [
                119.850718891,
                -3.601741298
              ],
              [
                119.85010778,
                -3.601296854
              ],
              [
                119.849802225,
                -3.600685743
              ],
              [
                119.849663336,
                -3.600074632
              ],
              [
                119.849385558,
                -3.59960241
              ],
              [
                119.848885558,
                -3.599046854
              ],
              [
                119.848274447,
                -3.598519076
              ],
              [
                119.847718629,
                -3.598266431
              ],
              [
                119.847663336,
                -3.598241298
              ],
              [
                119.847302225,
                -3.598019076
              ],
              [
                119.846941114,
                -3.597657965
              ],
              [
                119.846802225,
                -3.597269076
              ],
              [
                119.846302225,
                -3.596880187
              ],
              [
                119.846193116,
                -3.596471026
              ],
              [
                119.846830033,
                -3.595806417
              ],
              [
                119.847441144,
                -3.59513975
              ],
              [
                119.84785781,
                -3.594778639
              ],
              [
                119.847854302,
                -3.594772091
              ],
              [
                119.847857781,
                -3.594769076
              ],
              [
                119.847441114,
                -3.593991299
              ],
              [
                119.846885559,
                -3.593491299
              ],
              [
                119.846413336,
                -3.592907965
              ],
              [
                119.846274795,
                -3.592132131
              ],
              [
                119.846302255,
                -3.591473084
              ],
              [
                119.846301856,
                -3.591472385
              ],
              [
                119.846302225,
                -3.591463521
              ],
              [
                119.845971358,
                -3.590884503
              ],
              [
                119.846330033,
                -3.590111973
              ],
              [
                119.846468922,
                -3.589473084
              ],
              [
                119.846467308,
                -3.589470806
              ],
              [
                119.846468892,
                -3.589463521
              ],
              [
                119.84599667,
                -3.588796854
              ],
              [
                119.846818634,
                -3.58797475
              ],
              [
                119.847979869,
                -3.58730698
              ],
              [
                119.848058047,
                -3.587262024
              ],
              [
                119.849064379,
                -3.58664776
              ],
              [
                119.849274645,
                -3.586427537
              ],
              [
                119.849386983,
                -3.586155086
              ],
              [
                119.849440915,
                -3.586035769
              ],
              [
                119.849524581,
                -3.585916555
              ],
              [
                119.849596046,
                -3.585886926
              ],
              [
                119.849767459,
                -3.585863757
              ],
              [
                119.849850531,
                -3.58591782
              ],
              [
                119.849951403,
                -3.585983896
              ],
              [
                119.850046512,
                -3.585996175
              ],
              [
                119.850100055,
                -3.585990385
              ],
              [
                119.850195389,
                -3.585936939
              ],
              [
                119.85029665,
                -3.585889487
              ],
              [
                119.850421597,
                -3.585871994
              ],
              [
                119.85046466,
                -3.585887615
              ],
              [
                119.850569989,
                -3.585760193
              ],
              [
                119.850628344,
                -3.585702313
              ],
              [
                119.850857703,
                -3.585581264
              ],
              [
                119.851164342,
                -3.585493927
              ],
              [
                119.851267765,
                -3.585435734
              ],
              [
                119.851990696,
                -3.585028963
              ],
              [
                119.853229778,
                -3.584411824
              ],
              [
                119.853884006,
                -3.583689073
              ],
              [
                119.853898366,
                -3.583673209
              ],
              [
                119.854047648,
                -3.583158842
              ],
              [
                119.854225943,
                -3.582544507
              ],
              [
                119.854355722,
                -3.582097337
              ],
              [
                119.855324305,
                -3.581347962
              ],
              [
                119.855524417,
                -3.581193138
              ],
              [
                119.857048047,
                -3.580839878
              ],
              [
                119.857561249,
                -3.580794784
              ],
              [
                119.857693445,
                -3.580783168
              ],
              [
                119.857833283,
                -3.580770881
              ],
              [
                119.858212452,
                -3.580709767
              ],
              [
                119.858913133,
                -3.580596833
              ],
              [
                119.859285145,
                -3.580536872
              ],
              [
                119.859856945,
                -3.580275931
              ],
              [
                119.860431,
                -3.57977
              ],
              [
                119.86066,
                -3.579934
              ],
              [
                119.860885,
                -3.579639
              ],
              [
                119.861045,
                -3.579502
              ],
              [
                119.861298,
                -3.579669
              ],
              [
                119.861689,
                -3.579473
              ],
              [
                119.862247,
                -3.579548
              ],
              [
                119.8627,
                -3.579879
              ],
              [
                119.862811,
                -3.580325
              ],
              [
                119.862914,
                -3.580797
              ],
              [
                119.862901113,
                -3.581093412
              ],
              [
                119.862895,
                -3.581234
              ],
              [
                119.863125,
                -3.581303
              ],
              [
                119.863382,
                -3.581265
              ],
              [
                119.863477,
                -3.581148
              ],
              [
                119.86361,
                -3.58105
              ],
              [
                119.863634,
                -3.581058
              ],
              [
                119.863876,
                -3.580937
              ],
              [
                119.864304,
                -3.580922
              ],
              [
                119.864529,
                -3.580726
              ],
              [
                119.864624196,
                -3.580689735
              ],
              [
                119.864886,
                -3.58059
              ],
              [
                119.865226,
                -3.580485
              ],
              [
                119.865591,
                -3.580242
              ],
              [
                119.866055,
                -3.58013
              ],
              [
                119.866435,
                -3.579662
              ],
              [
                119.866665586,
                -3.579597459
              ],
              [
                119.867051,
                -3.579311
              ],
              [
                119.867271,
                -3.578948
              ],
              [
                119.867659,
                -3.578566
              ],
              [
                119.867937,
                -3.578239
              ],
              [
                119.868339,
                -3.57789
              ],
              [
                119.868596,
                -3.577504
              ],
              [
                119.868674,
                -3.577119
              ],
              [
                119.868711,
                -3.577095
              ],
              [
                119.868941,
                -3.576739
              ],
              [
                119.868936,
                -3.576371
              ],
              [
                119.868817,
                -3.576066
              ],
              [
                119.86861,
                -3.575589
              ],
              [
                119.868866,
                -3.575476
              ],
              [
                119.869059,
                -3.5752
              ],
              [
                119.869381,
                -3.574981
              ],
              [
                119.869515,
                -3.574739
              ],
              [
                119.869802,
                -3.574421
              ],
              [
                119.86975521,
                -3.574171684
              ],
              [
                119.869735,
                -3.574064
              ],
              [
                119.869718,
                -3.573696
              ],
              [
                119.869962,
                -3.573349
              ],
              [
                119.870153,
                -3.573162
              ],
              [
                119.870463,
                -3.57319
              ],
              [
                119.871007,
                -3.573343
              ],
              [
                119.871304,
                -3.572964
              ],
              [
                119.87172,
                -3.572731
              ],
              [
                119.872049,
                -3.572565
              ],
              [
                119.872593,
                -3.572397
              ],
              [
                119.873035,
                -3.572242
              ],
              [
                119.873479,
                -3.572227
              ],
              [
                119.87402,
                -3.57207
              ],
              [
                119.874563,
                -3.571754
              ],
              [
                119.875284,
                -3.571777
              ],
              [
                119.876147,
                -3.57179
              ],
              [
                119.877071,
                -3.571534
              ],
              [
                119.8773,
                -3.571635
              ],
              [
                119.87774,
                -3.571844
              ],
              [
                119.878285,
                -3.571904
              ],
              [
                119.879058,
                -3.572049
              ],
              [
                119.879704,
                -3.571943
              ],
              [
                119.880555,
                -3.571413
              ],
              [
                119.880878,
                -3.571269
              ],
              [
                119.88083,
                -3.570482
              ],
              [
                119.880776,
                -3.569973
              ],
              [
                119.880758,
                -3.569579
              ],
              [
                119.880999,
                -3.569335
              ],
              [
                119.881345,
                -3.568522
              ],
              [
                119.881606,
                -3.567809
              ],
              [
                119.881719,
                -3.567323
              ],
              [
                119.881901,
                -3.566637
              ],
              [
                119.881998746,
                -3.565896387
              ],
              [
                119.882057,
                -3.565455
              ],
              [
                119.882363,
                -3.56493
              ],
              [
                119.882642,
                -3.564636
              ],
              [
                119.882304,
                -3.564026
              ],
              [
                119.882819,
                -3.5635
              ],
              [
                119.882972,
                -3.56309
              ],
              [
                119.883586639,
                -3.562908496
              ],
              [
                119.883535407,
                -3.563212687
              ],
              [
                119.88352113,
                -3.563683821
              ],
              [
                119.883513992,
                -3.564197784
              ],
              [
                119.883542545,
                -3.564590395
              ],
              [
                119.883863772,
                -3.56505439
              ],
              [
                119.884120754,
                -3.565247127
              ],
              [
                119.884242107,
                -3.565575492
              ],
              [
                119.884342044,
                -3.565853889
              ],
              [
                119.884441981,
                -3.566282192
              ],
              [
                119.884527642,
                -3.56664625
              ],
              [
                119.884777485,
                -3.567074553
              ],
              [
                119.885262895,
                -3.567538548
              ],
              [
                119.885841104,
                -3.567931159
              ],
              [
                119.8862123,
                -3.56818814
              ],
              [
                119.886676295,
                -3.568559336
              ],
              [
                119.886961831,
                -3.568802041
              ],
              [
                119.887147429,
                -3.569059023
              ],
              [
                119.887468656,
                -3.569530156
              ],
              [
                119.887797021,
                -3.570101227
              ],
              [
                119.888039726,
                -3.570615191
              ],
              [
                119.888346677,
                -3.57101494
              ],
              [
                119.888560828,
                -3.571243368
              ]
            ]
          ]
        ]
      }
    }
  ]
}