{
  "type": "FeatureCollection",
  "features": [
    {
      "type": "Feature",
      "properties": {
        "idx": "2396",
        "nama_kewilayahan": "Yano Iwalom Baim"
      },
      "geometry": {
        "type": "MultiPolygon",
        "coordinates": [
          [
            [
              [
                140.239219303,
                -2.529068356
              ],
              [
                140.23820796,
                -2.529652426
              ],
              [
                140.236910406,
                -2.529594251
              ],
              [
                140.235382763,
                -2.52960674
              ],
              [
                140.233740352,
                -2.529779067
              ],
              [
                140.231271346,
                -2.530634225
              ],
              [
                140.229227002,
                -2.531772566
              ],
              [
                140.227816609,
                -2.532588421
              ],
              [
                140.227226132,
                -2.533565734
              ],
              [
                140.226534327,
                -2.534710755
              ],
              [
                140.225772401,
                -2.535342183
              ],
              [
                140.223296599,
                -2.536623612
              ],
              [
                140.222514935,
                -2.538423055
              ],
              [
                140.220554,
                -2.540016
              ],
              [
                140.219543254,
                -2.541140275
              ],
              [
                140.217943246,
                -2.542383924
              ],
              [
                140.216686499,
                -2.542689526
              ],
              [
                140.215239295,
                -2.543109899
              ],
              [
                140.214191233,
                -2.544641098
              ],
              [
                140.213010186,
                -2.545693513
              ],
              [
                140.211924437,
                -2.546573654
              ],
              [
                140.211346572,
                -2.548123027
              ],
              [
                140.207798864,
                -2.550618514
              ],
              [
                140.206159833,
                -2.551815243
              ],
              [
                140.205259447,
                -2.555451718
              ],
              [
                140.203465216,
                -2.556426285
              ],
              [
                140.198615453,
                -2.559598456
              ],
              [
                140.19186662,
                -2.560727514
              ],
              [
                140.180425739,
                -2.552695352
              ],
              [
                140.179294918,
                -2.550369689
              ],
              [
                140.177610522,
                -2.546905524
              ],
              [
                140.17703653,
                -2.545285695
              ],
              [
                140.179976,
                -2.545507
              ],
              [
                140.180228652,
                -2.544834934
              ],
              [
                140.182507249,
                -2.538773709
              ],
              [
                140.182856,
                -2.537846
              ],
              [
                140.182877488,
                -2.533785835
              ],
              [
                140.183583535,
                -2.532716755
              ],
              [
                140.184048801,
                -2.532335548
              ],
              [
                140.184729,
                -2.531816
              ],
              [
                140.185865445,
                -2.531676653
              ],
              [
                140.186579434,
                -2.531605299
              ],
              [
                140.18757918,
                -2.531246907
              ],
              [
                140.188126805,
                -2.530816424
              ],
              [
                140.188650975,
                -2.529835425
              ],
              [
                140.188865708,
                -2.52894997
              ],
              [
                140.189032978,
                -2.527849072
              ],
              [
                140.188605564,
                -2.526316972
              ],
              [
                140.187630602,
                -2.525095682
              ],
              [
                140.186250882,
                -2.524185291
              ],
              [
                140.185513918,
                -2.522940215
              ],
              [
                140.185609899,
                -2.521671729
              ],
              [
                140.18580067,
                -2.521049543
              ],
              [
                140.186021067,
                -2.52000353
              ],
              [
                140.185964906,
                -2.518466878
              ],
              [
                140.186045207,
                -2.517056567
              ],
              [
                140.186423199,
                -2.514952532
              ],
              [
                140.18632677,
                -2.514219188
              ],
              [
                140.186196317,
                -2.513227086
              ],
              [
                140.185467,
                -2.511424
              ],
              [
                140.185013562,
                -2.510492586
              ],
              [
                140.184844392,
                -2.510133193
              ],
              [
                140.183816314,
                -2.507010514
              ],
              [
                140.18522073,
                -2.50574697
              ],
              [
                140.185959035,
                -2.504813972
              ],
              [
                140.186316354,
                -2.504239759
              ],
              [
                140.186388204,
                -2.503497823
              ],
              [
                140.185634303,
                -2.502713885
              ],
              [
                140.184754087,
                -2.502234639
              ],
              [
                140.18325515,
                -2.50173107
              ],
              [
                140.182041636,
                -2.501467027
              ],
              [
                140.181875365,
                -2.500964291
              ],
              [
                140.1818994,
                -2.500581349
              ],
              [
                140.182232951,
                -2.499959252
              ],
              [
                140.18263785,
                -2.499409005
              ],
              [
                140.183233025,
                -2.499026419
              ],
              [
                140.184232979,
                -2.498285064
              ],
              [
                140.185732813,
                -2.497328606
              ],
              [
                140.188634942,
                -2.496056143
              ],
              [
                140.190923104,
                -2.493358637
              ],
              [
                140.191875675,
                -2.492258221
              ],
              [
                140.192753403,
                -2.490002411
              ],
              [
                140.192996224,
                -2.488860156
              ],
              [
                140.194258112,
                -2.487831731
              ],
              [
                140.1946869,
                -2.487113947
              ],
              [
                140.19475883,
                -2.4862284
              ],
              [
                140.194878353,
                -2.485342881
              ],
              [
                140.195116848,
                -2.484481371
              ],
              [
                140.195990944,
                -2.482360654
              ],
              [
                140.195191657,
                -2.478832777
              ],
              [
                140.194479142,
                -2.476510655
              ],
              [
                140.193124078,
                -2.474236011
              ],
              [
                140.191887872,
                -2.472176853
              ],
              [
                140.191293683,
                -2.47095581
              ],
              [
                140.19113707,
                -2.468564582
              ],
              [
                140.1928319,
                -2.465815479
              ],
              [
                140.193544729,
                -2.463485604
              ],
              [
                140.192891789,
                -2.461031879
              ],
              [
                140.1917484,
                -2.459139614
              ],
              [
                140.191511886,
                -2.456722045
              ],
              [
                140.191917942,
                -2.454209127
              ],
              [
                140.193013742,
                -2.452294999
              ],
              [
                140.193732104,
                -2.448646072
              ],
              [
                140.193555703,
                -2.445175403
              ],
              [
                140.19842875,
                -2.445731485
              ],
              [
                140.203373753,
                -2.44629576
              ],
              [
                140.204100954,
                -2.44746005
              ],
              [
                140.206498956,
                -2.448667802
              ],
              [
                140.20804092,
                -2.448783607
              ],
              [
                140.214279521,
                -2.44915337
              ],
              [
                140.216101405,
                -2.449848713
              ],
              [
                140.216320505,
                -2.451718149
              ],
              [
                140.219175266,
                -2.453213374
              ],
              [
                140.220888312,
                -2.45378882
              ],
              [
                140.223176957,
                -2.453894141
              ],
              [
                140.225222581,
                -2.454691963
              ],
              [
                140.22808257,
                -2.457182225
              ],
              [
                140.231164366,
                -2.461205114
              ],
              [
                140.2319627,
                -2.46338846
              ],
              [
                140.232590057,
                -2.46493982
              ],
              [
                140.23384563,
                -2.466548989
              ],
              [
                140.238241957,
                -2.469021635
              ],
              [
                140.239326396,
                -2.470286036
              ],
              [
                140.243223399,
                -2.472904483
              ],
              [
                140.244061032,
                -2.474403131
              ],
              [
                140.243945274,
                -2.477102954
              ],
              [
                140.244344127,
                -2.478769073
              ],
              [
                140.245371822,
                -2.479401551
              ],
              [
                140.24759898,
                -2.479919826
              ],
              [
                140.248740388,
                -2.48147148
              ],
              [
                140.248738669,
                -2.484516039
              ],
              [
                140.253191168,
                -2.48882692
              ],
              [
                140.254618387,
                -2.489976624
              ],
              [
                140.254848713,
                -2.491483563
              ],
              [
                140.254170459,
                -2.494339506
              ],
              [
                140.253047472,
                -2.499068047
              ],
              [
                140.248806445,
                -2.510740107
              ],
              [
                140.243976967,
                -2.518319973
              ],
              [
                140.242319806,
                -2.522063815
              ],
              [
                140.240023769,
                -2.527963711
              ],
              [
                140.239219303,
                -2.529068356
              ]
            ]
          ]
        ]
      }
    }
  ]
}