{
  "type": "FeatureCollection",
  "features": [
    {
      "type": "Feature",
      "properties": {
        "idx": "2471",
        "nama_kewilayahan": "Pansur Batu"
      },
      "geometry": {
        "type": "Polygon",
        "coordinates": [
          [
            [
              98.923564473,
              1.935545131
            ],
            [
              98.92391244,
              1.935248053
            ],
            [
              98.925100113,
              1.934234072
            ],
            [
              98.925925066,
              1.933258181
            ],
            [
              98.926300777,
              1.933124155
            ],
            [
              98.926471251,
              1.933202853
            ],
            [
              98.926660014,
              1.933352362
            ],
            [
              98.926619939,
              1.933711443
            ],
            [
              98.926620499,
              1.933875595
            ],
            [
              98.926681672,
              1.934030061
            ],
            [
              98.92674511,
              1.934228985
            ],
            [
              98.926891042,
              1.934562318
            ],
            [
              98.926964888,
              1.934683833
            ],
            [
              98.927066849,
              1.934802963
            ],
            [
              98.927159751,
              1.934855404
            ],
            [
              98.92725152,
              1.934885047
            ],
            [
              98.927338758,
              1.93489873
            ],
            [
              98.927577249,
              1.93490501
            ],
            [
              98.927751159,
              1.934928386
            ],
            [
              98.92793753,
              1.934984252
            ],
            [
              98.928370318,
              1.935145573
            ],
            [
              98.928834261,
              1.935362182
            ],
            [
              98.929126558,
              1.935589614
            ],
            [
              98.929416585,
              1.935914511
            ],
            [
              98.929690752,
              1.936214329
            ],
            [
              98.929925834,
              1.936452588
            ],
            [
              98.930069717,
              1.936570008
            ],
            [
              98.930388641,
              1.936745574
            ],
            [
              98.930616929,
              1.936880666
            ],
            [
              98.930774407,
              1.937028296
            ],
            [
              98.931054235,
              1.93741019
            ],
            [
              98.931254052,
              1.937699265
            ],
            [
              98.931405569,
              1.938318468
            ],
            [
              98.931448349,
              1.939410017
            ],
            [
              98.931434054,
              1.939912703
            ],
            [
              98.931483841,
              1.940321951
            ],
            [
              98.931628578,
              1.940454282
            ],
            [
              98.931722423,
              1.940523442
            ],
            [
              98.931792475,
              1.940630509
            ],
            [
              98.931824849,
              1.940740227
            ],
            [
              98.931850625,
              1.940849282
            ],
            [
              98.931906137,
              1.94094571
            ],
            [
              98.931956362,
              1.941028828
            ],
            [
              98.932030379,
              1.941121927
            ],
            [
              98.93211365,
              1.941205056
            ],
            [
              98.932147348,
              1.941290174
            ],
            [
              98.932142721,
              1.941407208
            ],
            [
              98.932136106,
              1.941557491
            ],
            [
              98.932163195,
              1.941644598
            ],
            [
              98.932253078,
              1.941656571
            ],
            [
              98.932377994,
              1.941635967
            ],
            [
              98.932477785,
              1.9416506
            ],
            [
              98.932518757,
              1.941733058
            ],
            [
              98.93250157,
              1.941825483
            ],
            [
              98.932497601,
              1.941927228
            ],
            [
              98.932602022,
              1.941961142
            ],
            [
              98.932728915,
              1.941974446
            ],
            [
              98.932816818,
              1.942024987
            ],
            [
              98.932950975,
              1.942049601
            ],
            [
              98.933110913,
              1.942057587
            ],
            [
              98.933227232,
              1.942056922
            ],
            [
              98.933391136,
              1.942056268
            ],
            [
              98.933498867,
              1.942068242
            ],
            [
              98.933573542,
              1.942127423
            ],
            [
              98.933619802,
              1.94221587
            ],
            [
              98.933649543,
              1.942320266
            ],
            [
              98.933691837,
              1.942432653
            ],
            [
              98.933775763,
              1.942521092
            ],
            [
              98.933891424,
              1.942574964
            ],
            [
              98.933995843,
              1.942647445
            ],
            [
              98.934058621,
              1.942739214
            ],
            [
              98.934066549,
              1.942819679
            ],
            [
              98.93405597,
              1.942924075
            ],
            [
              98.934055309,
              1.943048428
            ],
            [
              98.934076453,
              1.943174104
            ],
            [
              98.934098919,
              1.94328782
            ],
            [
              98.934155753,
              1.943400197
            ],
            [
              98.934246289,
              1.943464707
            ],
            [
              98.934347411,
              1.94349596
            ],
            [
              98.934460421,
              1.943507273
            ],
            [
              98.934576081,
              1.943547836
            ],
            [
              98.934663318,
              1.943606357
            ],
            [
              98.934728741,
              1.943648918
            ],
            [
              98.934770381,
              1.943706107
            ],
            [
              98.934828536,
              1.943806524
            ],
            [
              98.935110071,
              1.944374309
            ],
            [
              98.935496661,
              1.944763307
            ],
            [
              98.936269855,
              1.945212164
            ],
            [
              98.936626723,
              1.945152333
            ],
            [
              98.937048907,
              1.945293254
            ],
            [
              98.937615534,
              1.945506589
            ],
            [
              98.938083904,
              1.945780746
            ],
            [
              98.938916581,
              1.946109916
            ],
            [
              98.939154481,
              1.946409143
            ],
            [
              98.939660978,
              1.946897084
            ],
            [
              98.939660045,
              1.947340958
            ],
            [
              98.939696727,
              1.947484918
            ],
            [
              98.939791193,
              1.947552287
            ],
            [
              98.939926013,
              1.947681486
            ],
            [
              98.940014976,
              1.947766388
            ],
            [
              98.940106691,
              1.947829143
            ],
            [
              98.940168139,
              1.947925117
            ],
            [
              98.940171804,
              1.948014631
            ],
            [
              98.940108515,
              1.948141054
            ],
            [
              98.939974602,
              1.948274857
            ],
            [
              98.939867289,
              1.948374517
            ],
            [
              98.93980033,
              1.948518475
            ],
            [
              98.939777397,
              1.948632903
            ],
            [
              98.939802157,
              1.948739027
            ],
            [
              98.93988103,
              1.948841463
            ],
            [
              98.940006683,
              1.948859923
            ],
            [
              98.940089231,
              1.948772259
            ],
            [
              98.940207551,
              1.948677213
            ],
            [
              98.940287343,
              1.948719666
            ],
            [
              98.940353373,
              1.948915305
            ],
            [
              98.940360241,
              1.948941532
            ],
            [
              98.940389138,
              1.949051882
            ],
            [
              98.940423985,
              1.949206916
            ],
            [
              98.940504692,
              1.949319503
            ],
            [
              98.940644102,
              1.949354574
            ],
            [
              98.940763332,
              1.94944686
            ],
            [
              98.940820191,
              1.949589899
            ],
            [
              98.94083211,
              1.949716325
            ],
            [
              98.94085595,
              1.949912885
            ],
            [
              98.940912812,
              1.950001477
            ],
            [
              98.941071481,
              1.950063311
            ],
            [
              98.941223734,
              1.949993183
            ],
            [
              98.94133288,
              1.949924898
            ],
            [
              98.941410841,
              1.949918441
            ],
            [
              98.941466787,
              1.949974735
            ],
            [
              98.941493381,
              1.950079014
            ],
            [
              98.941508052,
              1.950187907
            ],
            [
              98.941493373,
              1.95033002
            ],
            [
              98.94145668,
              1.950475823
            ],
            [
              98.941448421,
              1.950613322
            ],
            [
              98.941536464,
              1.95076559
            ],
            [
              98.941635516,
              1.950878177
            ],
            [
              98.941757497,
              1.950953852
            ],
            [
              98.941894155,
              1.95099446
            ],
            [
              98.942013386,
              1.951065521
            ],
            [
              98.942083087,
              1.951193795
            ],
            [
              98.942168379,
              1.951334989
            ],
            [
              98.942218819,
              1.951476181
            ],
            [
              98.942197719,
              1.951622908
            ],
            [
              98.942169282,
              1.951717957
            ],
            [
              98.942167444,
              1.95184992
            ],
            [
              98.942137175,
              1.951921898
            ],
            [
              98.942020691,
              1.952009561
            ],
            [
              98.941923467,
              1.952099071
            ],
            [
              98.941827159,
              1.952229184
            ],
            [
              98.941791384,
              1.952341767
            ],
            [
              98.94180055,
              1.952513411
            ],
            [
              98.941828977,
              1.952662908
            ],
            [
              98.941859239,
              1.952817941
            ],
            [
              98.941861068,
              1.952947136
            ],
            [
              98.941916096,
              1.953047724
            ],
            [
              98.942055503,
              1.953167695
            ],
            [
              98.942124286,
              1.953318116
            ],
            [
              98.942132537,
              1.953419626
            ],
            [
              98.942140787,
              1.953534056
            ],
            [
              98.942174719,
              1.953649408
            ],
            [
              98.942243505,
              1.953714931
            ],
            [
              98.942403093,
              1.953740775
            ],
            [
              98.94249114,
              1.953815526
            ],
            [
              98.942493888,
              1.953903193
            ],
            [
              98.942458115,
              1.954020389
            ],
            [
              98.942484708,
              1.954156968
            ],
            [
              98.942599353,
              1.954201266
            ],
            [
              98.942694741,
              1.954180968
            ],
            [
              98.942815809,
              1.95416067
            ],
            [
              98.942953385,
              1.954189282
            ],
            [
              98.943044182,
              1.954277875
            ],
            [
              98.943061604,
              1.954410761
            ],
            [
              98.943070772,
              1.954541801
            ],
            [
              98.943073519,
              1.954658999
            ],
            [
              98.943080851,
              1.954807572
            ],
            [
              98.943136797,
              1.954883245
            ],
            [
              98.943234934,
              1.954918315
            ],
            [
              98.943318397,
              1.954897093
            ],
            [
              98.943421121,
              1.954910938
            ],
            [
              98.943522008,
              1.954977385
            ],
            [
              98.943545852,
              1.955054902
            ],
            [
              98.943573364,
              1.955153644
            ],
            [
              98.943652239,
              1.955227472
            ],
            [
              98.943776973,
              1.955292073
            ],
            [
              98.943930139,
              1.955378823
            ],
            [
              98.943963154,
              1.955495099
            ],
            [
              98.943947558,
              1.95561045
            ],
            [
              98.943930127,
              1.955753486
            ],
            [
              98.94400258,
              1.955862381
            ],
            [
              98.944086959,
              1.955929749
            ],
            [
              98.944285068,
              1.955967591
            ],
            [
              98.944476757,
              1.955997127
            ],
            [
              98.944626255,
              1.956070958
            ],
            [
              98.944641843,
              1.956195538
            ],
            [
              98.944604235,
              1.956296124
            ],
            [
              98.944515266,
              1.956405935
            ],
            [
              98.944529937,
              1.956522211
            ],
            [
              98.944591385,
              1.956631105
            ],
            [
              98.944592298,
              1.956755685
            ],
            [
              98.944484983,
              1.95689964
            ],
            [
              98.944413438,
              1.957050057
            ],
            [
              98.944429026,
              1.957184788
            ],
            [
              98.944503315,
              1.957250311
            ],
            [
              98.94458586,
              1.957284457
            ],
            [
              98.944683996,
              1.957357363
            ],
            [
              98.944700501,
              1.957451491
            ],
            [
              98.944676651,
              1.957576993
            ],
            [
              98.944623451,
              1.957663735
            ],
            [
              98.944507884,
              1.957741248
            ],
            [
              98.944402405,
              1.9578446
            ],
            [
              98.944365715,
              1.957917501
            ],
            [
              98.944305177,
              1.958047616
            ],
            [
              98.944163011,
              1.958159272
            ],
            [
              98.944008922,
              1.958238629
            ],
            [
              98.943889687,
              1.958285689
            ],
            [
              98.943790629,
              1.95836597
            ],
            [
              98.943731925,
              1.958473937
            ],
            [
              98.943734674,
              1.958607746
            ],
            [
              98.943748427,
              1.958733249
            ],
            [
              98.943715404,
              1.958862442
            ],
            [
              98.943654867,
              1.958961181
            ],
            [
              98.943554888,
              1.959142049
            ],
            [
              98.943540211,
              1.959236176
            ],
            [
              98.943459495,
              1.959360752
            ],
            [
              98.943376945,
              1.959460414
            ],
            [
              98.943343005,
              1.959599758
            ],
            [
              98.943318237,
              1.959695729
            ],
            [
              98.94327054,
              1.959824922
            ],
            [
              98.943266865,
              1.959980877
            ],
            [
              98.943289792,
              1.960094384
            ],
            [
              98.943363163,
              1.960186668
            ],
            [
              98.943434699,
              1.960302946
            ],
            [
              98.943480549,
              1.960529037
            ],
            [
              98.943491551,
              1.960693299
            ],
            [
              98.943497967,
              1.96082803
            ],
            [
              98.94349888,
              1.96093969
            ],
            [
              98.943451183,
              1.961046735
            ],
            [
              98.9433402,
              1.961175003
            ],
            [
              98.943220963,
              1.961261743
            ],
            [
              98.943154924,
              1.96133372
            ],
            [
              98.943103557,
              1.961456453
            ],
            [
              98.943102635,
              1.961623482
            ],
            [
              98.943122807,
              1.961781284
            ],
            [
              98.943243871,
              1.961928938
            ],
            [
              98.943427302,
              1.962095051
            ],
            [
              98.94349517,
              1.96219195
            ],
            [
              98.94366851,
              1.962413431
            ],
            [
              98.943755639,
              1.96249741
            ],
            [
              98.94387487,
              1.962593386
            ],
            [
              98.943959248,
              1.962676443
            ],
            [
              98.944063804,
              1.962744735
            ],
            [
              98.944138094,
              1.962801952
            ],
            [
              98.944191287,
              1.962885929
            ],
            [
              98.944206874,
              1.963042809
            ],
            [
              98.944202284,
              1.963170157
            ],
            [
              98.944198611,
              1.96329566
            ],
            [
              98.944258225,
              1.963389789
            ],
            [
              98.944361865,
              1.963423936
            ],
            [
              98.944475595,
              1.963455315
            ],
            [
              98.944601246,
              1.963547601
            ],
            [
              98.944627842,
              1.96363527
            ],
            [
              98.944604909,
              1.963735855
            ],
            [
              98.944527879,
              1.963850246
            ],
            [
              98.94446092,
              1.964002508
            ],
            [
              98.944399464,
              1.964145542
            ],
            [
              98.9443802,
              1.96426643
            ],
            [
              98.944349926,
              1.964455606
            ],
            [
              98.944346252,
              1.964622635
            ],
            [
              98.944349915,
              1.964799816
            ],
            [
              98.94434991,
              1.964964077
            ],
            [
              98.944349904,
              1.965120956
            ],
            [
              98.944331556,
              1.965251994
            ],
            [
              98.944271935,
              1.965393184
            ],
            [
              98.94421323,
              1.965528835
            ],
            [
              98.944257253,
              1.965602662
            ],
            [
              98.944334294,
              1.965678335
            ],
            [
              98.944375564,
              1.965778923
            ],
            [
              98.944388398,
              1.965960719
            ],
            [
              98.944389313,
              1.966044695
            ],
            [
              98.944384717,
              1.966327076
            ],
            [
              98.944451614,
              1.966792536
            ],
            [
              98.944344525,
              1.967618374
            ],
            [
              98.944502475,
              1.968559132
            ],
            [
              98.944880671,
              1.969029465
            ],
            [
              98.944996989,
              1.969583584
            ],
            [
              98.944764308,
              1.970145573
            ],
            [
              98.944152891,
              1.971039027
            ],
            [
              98.942571921,
              1.971845665
            ],
            [
              98.942143663,
              1.972180774
            ],
            [
              98.941572661,
              1.972372253
            ],
            [
              98.94107426,
              1.972624921
            ],
            [
              98.94080026,
              1.973101921
            ],
            [
              98.94012426,
              1.974098921
            ],
            [
              98.94031826,
              1.975584921
            ],
            [
              98.940269956,
              1.975922684
            ],
            [
              98.93930726,
              1.976206921
            ],
            [
              98.937514259,
              1.976421921
            ],
            [
              98.936622259,
              1.976373921
            ],
            [
              98.935272585,
              1.97713625
            ],
            [
              98.934678387,
              1.978165173
            ],
            [
              98.933821822,
              1.979888634
            ],
            [
              98.933250763,
              1.981420607
            ],
            [
              98.931279259,
              1.981830921
            ],
            [
              98.930205483,
              1.980367234
            ],
            [
              98.927944259,
              1.98052592
            ],
            [
              98.927255289,
              1.981228853
            ],
            [
              98.925732525,
              1.983526778
            ],
            [
              98.924495274,
              1.985441716
            ],
            [
              98.923816259,
              1.98725592
            ],
            [
              98.924114433,
              1.989271686
            ],
            [
              98.923543379,
              1.990420655
            ],
            [
              98.922686788,
              1.992335609
            ],
            [
              98.922020524,
              1.99434632
            ],
            [
              98.920497786,
              1.995686742
            ],
            [
              98.918475259,
              1.99523292
            ],
            [
              98.917254259,
              1.99378692
            ],
            [
              98.915013259,
              1.99398892
            ],
            [
              98.912949259,
              1.99673892
            ],
            [
              98.912027755,
              1.998558798
            ],
            [
              98.910409864,
              1.999420457
            ],
            [
              98.908411307,
              2.000186343
            ],
            [
              98.907459574,
              2.001239535
            ],
            [
              98.904414165,
              2.002101106
            ],
            [
              98.902065258,
              2.00362292
            ],
            [
              98.899941135,
              2.004686077
            ],
            [
              98.897847483,
              2.00411145
            ],
            [
              98.894516617,
              2.004111237
            ],
            [
              98.892137402,
              2.00449408
            ],
            [
              98.890957258,
              2.00596992
            ],
            [
              98.891185403,
              2.009377245
            ],
            [
              98.890423913,
              2.011579434
            ],
            [
              98.888375258,
              2.01368592
            ],
            [
              98.886420258,
              2.01203292
            ],
            [
              98.884238013,
              2.011291755
            ],
            [
              98.882334633,
              2.011578867
            ],
            [
              98.879384454,
              2.011195652
            ],
            [
              98.875016258,
              2.010721919
            ],
            [
              98.872817925,
              2.010429155
            ],
            [
              98.868916011,
              2.010811842
            ],
            [
              98.866441623,
              2.011098889
            ],
            [
              98.864624258,
              2.012446919
            ],
            [
              98.862920131,
              2.014449827
            ],
            [
              98.859580257,
              2.016124919
            ],
            [
              98.857019568,
              2.016077057
            ],
            [
              98.855401811,
              2.01492792
            ],
            [
              98.853793994,
              2.013976174
            ],
            [
              98.851301691,
              2.01346476
            ],
            [
              98.849567232,
              2.013772789
            ],
            [
              98.846650855,
              2.013945742
            ],
            [
              98.844905621,
              2.014181281
            ],
            [
              98.843564876,
              2.014209199
            ],
            [
              98.842340976,
              2.014803479
            ],
            [
              98.840250257,
              2.014556919
            ],
            [
              98.839994846,
              2.014541302
            ],
            [
              98.839952589,
              2.014478913
            ],
            [
              98.839832478,
              2.014317092
            ],
            [
              98.839686109,
              2.014153288
            ],
            [
              98.839552864,
              2.014046282
            ],
            [
              98.839329302,
              2.013846324
            ],
            [
              98.839166911,
              2.013748385
            ],
            [
              98.839002153,
              2.013673738
            ],
            [
              98.83884921,
              2.013612301
            ],
            [
              98.838711362,
              2.013589832
            ],
            [
              98.838594519,
              2.013565385
            ],
            [
              98.838477682,
              2.013481497
            ],
            [
              98.838456681,
              2.013431962
            ],
            [
              98.838444875,
              2.01334214
            ],
            [
              98.838459344,
              2.013062114
            ],
            [
              98.838460669,
              2.012933327
            ],
            [
              98.838457412,
              2.012679056
            ],
            [
              98.838455461,
              2.012495454
            ],
            [
              98.838443007,
              2.012305244
            ],
            [
              98.838425953,
              2.012175135
            ],
            [
              98.83834391,
              2.012068795
            ],
            [
              98.83820541,
              2.011989528
            ],
            [
              98.838073476,
              2.011901017
            ],
            [
              98.83800784,
              2.011823737
            ],
            [
              98.837954681,
              2.011715419
            ],
            [
              98.837932372,
              2.011613049
            ],
            [
              98.837920567,
              2.011492848
            ],
            [
              98.837885141,
              2.011280182
            ],
            [
              98.837865456,
              2.011198945
            ],
            [
              98.837810325,
              2.011111761
            ],
            [
              98.837789325,
              2.011052979
            ],
            [
              98.837794592,
              2.010891832
            ],
            [
              98.837814953,
              2.010778238
            ],
            [
              98.83787404,
              2.010687762
            ],
            [
              98.837908841,
              2.010586058
            ],
            [
              98.837925915,
              2.01052662
            ],
            [
              98.837937744,
              2.010387268
            ],
            [
              98.837930928,
              2.010290261
            ],
            [
              98.837909554,
              2.010016096
            ],
            [
              98.837870183,
              2.009870133
            ],
            [
              98.837839343,
              2.009743326
            ],
            [
              98.837804565,
              2.009609913
            ],
            [
              98.837803266,
              2.009464614
            ],
            [
              98.837815094,
              2.009347058
            ],
            [
              98.837813139,
              2.009203742
            ],
            [
              98.837785579,
              2.009093444
            ],
            [
              98.837775087,
              2.008986452
            ],
            [
              98.837767887,
              2.008783035
            ],
            [
              98.837762658,
              2.008547255
            ],
            [
              98.837766629,
              2.008228262
            ],
            [
              98.837786572,
              2.007984164
            ],
            [
              98.837766673,
              2.007782463
            ],
            [
              98.837750701,
              2.007626879
            ],
            [
              98.837739788,
              2.007486581
            ],
            [
              98.837689254,
              2.007374302
            ],
            [
              98.837591464,
              2.007185405
            ],
            [
              98.837545519,
              2.007143792
            ],
            [
              98.837427371,
              2.007039431
            ],
            [
              98.837397179,
              2.007007726
            ],
            [
              98.837336794,
              2.006938374
            ],
            [
              98.83725344,
              2.00681156
            ],
            [
              98.837120863,
              2.006585675
            ],
            [
              98.837023725,
              2.006455558
            ],
            [
              98.836999439,
              2.006433761
            ],
            [
              98.836868159,
              2.006370345
            ],
            [
              98.83679278,
              2.006279187
            ],
            [
              98.836755274,
              2.006167578
            ],
            [
              98.836761194,
              2.006046058
            ],
            [
              98.836773748,
              2.005951384
            ],
            [
              98.836761213,
              2.005849905
            ],
            [
              98.836686407,
              2.005575813
            ],
            [
              98.836620782,
              2.005402771
            ],
            [
              98.836560402,
              2.005283226
            ],
            [
              98.836448164,
              2.005167636
            ],
            [
              98.836258467,
              2.005046756
            ],
            [
              98.83612062,
              2.005019005
            ],
            [
              98.835986056,
              2.004992573
            ],
            [
              98.835879063,
              2.004931141
            ],
            [
              98.835776013,
              2.004841971
            ],
            [
              98.835688061,
              2.004752141
            ],
            [
              98.835520028,
              2.004618055
            ],
            [
              98.835401879,
              2.004530863
            ],
            [
              98.835299485,
              2.004446977
            ],
            [
              98.835163609,
              2.00439809
            ],
            [
              98.835132101,
              2.004392805
            ],
            [
              98.83498178,
              2.004384203
            ],
            [
              98.834827519,
              2.004377583
            ],
            [
              98.834687046,
              2.004357095
            ],
            [
              98.834614186,
              2.004327368
            ],
            [
              98.834383791,
              2.004203842
            ],
            [
              98.834234787,
              2.004153633
            ],
            [
              98.83407659,
              2.004127199
            ],
            [
              98.833942686,
              2.004049913
            ],
            [
              98.833889525,
              2.003967352
            ],
            [
              98.83388888,
              2.003852435
            ],
            [
              98.833931564,
              2.00368733
            ],
            [
              98.83396966,
              2.003448253
            ],
            [
              98.833974927,
              2.003306257
            ],
            [
              98.833956559,
              2.003180111
            ],
            [
              98.833924401,
              2.00310944
            ],
            [
              98.833845635,
              2.003063201
            ],
            [
              98.833755705,
              2.003054607
            ],
            [
              98.833642798,
              2.003063181
            ],
            [
              98.833556805,
              2.003070436
            ],
            [
              98.833398608,
              2.003050608
            ],
            [
              98.833306714,
              2.002987195
            ],
            [
              98.833246334,
              2.002881518
            ],
            [
              98.8332365,
              2.002761318
            ],
            [
              98.833260143,
              2.00264376
            ],
            [
              98.833281166,
              2.002464122
            ],
            [
              98.833268048,
              2.002368357
            ],
            [
              98.833199789,
              2.002279849
            ],
            [
              98.833118699,
              2.002218718
            ],
            [
              98.832929352,
              2.002167547
            ],
            [
              98.832813164,
              2.002167535
            ],
            [
              98.832695005,
              2.00219328
            ],
            [
              98.832597193,
              2.002235539
            ],
            [
              98.832399604,
              2.00226854
            ],
            [
              98.832236811,
              2.002263901
            ],
            [
              98.832117346,
              2.002213694
            ],
            [
              98.831986071,
              2.002110651
            ],
            [
              98.831922407,
              2.002014221
            ],
            [
              98.831800337,
              2.001754654
            ],
            [
              98.831720264,
              2.001646334
            ],
            [
              98.831550262,
              2.001525455
            ],
            [
              98.831389444,
              2.001460715
            ],
            [
              98.831214838,
              2.001424373
            ],
            [
              98.831147886,
              2.001394646
            ],
            [
              98.831007419,
              2.001308774
            ],
            [
              98.830928653,
              2.001253949
            ],
            [
              98.83067135,
              2.001089471
            ],
            [
              98.830569612,
              2.00101615
            ],
            [
              98.830337254,
              2.000849695
            ],
            [
              98.830278184,
              2.000771097
            ],
            [
              98.83023553,
              2.000631078
            ],
            [
              98.830249326,
              2.000518804
            ],
            [
              98.830301193,
              2.000436916
            ],
            [
              98.830356342,
              2.00034644
            ],
            [
              98.830403614,
              2.000257946
            ],
            [
              98.830464524,
              2.000176815
            ],
            [
              98.830552484,
              2.000073407
            ],
            [
              98.830631036,
              2.000000006
            ],
            [
              98.830754525,
              1.999893643
            ],
            [
              98.830915101,
              1.999767289
            ],
            [
              98.831106758,
              1.999614883
            ],
            [
              98.831275109,
              1.999429903
            ],
            [
              98.83135541,
              1.999246219
            ],
            [
              98.831376149,
              1.999039077
            ],
            [
              98.831417611,
              1.998781128
            ],
            [
              98.831517345,
              1.99849713
            ],
            [
              98.831633904,
              1.99828609
            ],
            [
              98.831795785,
              1.998067237
            ],
            [
              98.831868314,
              1.997907001
            ],
            [
              98.831870922,
              1.997732428
            ],
            [
              98.831785475,
              1.997586506
            ],
            [
              98.831663774,
              1.997427553
            ],
            [
              98.831574448,
              1.997232125
            ],
            [
              98.831579648,
              1.997023679
            ],
            [
              98.831586148,
              1.996778755
            ],
            [
              98.831570649,
              1.996393127
            ],
            [
              98.831566794,
              1.996097393
            ],
            [
              98.831540923,
              1.995847254
            ],
            [
              98.831467135,
              1.995650525
            ],
            [
              98.831353205,
              1.995469426
            ],
            [
              98.831262578,
              1.995335228
            ],
            [
              98.831108493,
              1.995297431
            ],
            [
              98.830835277,
              1.9952961
            ],
            [
              98.830586661,
              1.995310406
            ],
            [
              98.830411851,
              1.995341654
            ],
            [
              98.830143812,
              1.995350746
            ],
            [
              98.829948291,
              1.995325973
            ],
            [
              98.829811049,
              1.995185257
            ],
            [
              98.829743736,
              1.994989832
            ],
            [
              98.829623274,
              1.994334506
            ],
            [
              98.829431577,
              1.994388933
            ],
            [
              98.829195856,
              1.994405519
            ],
            [
              98.828971143,
              1.994404572
            ],
            [
              98.828772114,
              1.994381481
            ],
            [
              98.828600599,
              1.994370389
            ],
            [
              98.828439173,
              1.994363912
            ],
            [
              98.828234639,
              1.9943602
            ],
            [
              98.828086058,
              1.99431958
            ],
            [
              98.827937481,
              1.994236512
            ],
            [
              98.827821005,
              1.994149756
            ],
            [
              98.827648589,
              1.993980862
            ],
            [
              98.827586234,
              1.993858123
            ],
            [
              98.827521132,
              1.9936754
            ],
            [
              98.827435845,
              1.993563731
            ],
            [
              98.827307441,
              1.993526805
            ],
            [
              98.827133177,
              1.993494487
            ],
            [
              98.827013954,
              1.99338097
            ],
            [
              98.826934173,
              1.993230543
            ],
            [
              98.826869988,
              1.993051511
            ],
            [
              98.826794794,
              1.992902931
            ],
            [
              98.826715015,
              1.992732202
            ],
            [
              98.826660923,
              1.992527332
            ],
            [
              98.826635257,
              1.992375065
            ],
            [
              98.826623344,
              1.992273555
            ],
            [
              98.826619714,
              1.99190074
            ],
            [
              98.826616057,
              1.991790925
            ],
            [
              98.82655003,
              1.991683872
            ],
            [
              98.826408791,
              1.991597112
            ],
            [
              98.826244626,
              1.99147713
            ],
            [
              98.826152005,
              1.991330393
            ],
            [
              98.826096072,
              1.991155975
            ],
            [
              98.826018126,
              1.991027697
            ],
            [
              98.825907161,
              1.990882804
            ],
            [
              98.825802614,
              1.990734219
            ],
            [
              98.825691654,
              1.990562565
            ],
            [
              98.825652231,
              1.990408452
            ],
            [
              98.825719199,
              1.99028388
            ],
            [
              98.825881548,
              1.990224838
            ],
            [
              98.826051228,
              1.990241466
            ],
            [
              98.826230992,
              1.990295931
            ],
            [
              98.826432774,
              1.990297798
            ],
            [
              98.826585956,
              1.99020461
            ],
            [
              98.826630913,
              1.990058811
            ],
            [
              98.82662176,
              1.989860404
            ],
            [
              98.82660255,
              1.989387925
            ],
            [
              98.826608073,
              1.98920244
            ],
            [
              98.826598922,
              1.98899573
            ],
            [
              98.826499884,
              1.988803774
            ],
            [
              98.826338476,
              1.988647803
            ],
            [
              98.826164225,
              1.98849552
            ],
            [
              98.826002815,
              1.988343239
            ],
            [
              98.825748775,
              1.988130966
            ],
            [
              98.8255626,
              1.987986065
            ],
            [
              98.825402108,
              1.987820865
            ],
            [
              98.825209519,
              1.987630746
            ],
            [
              98.82499309,
              1.987355725
            ],
            [
              98.824870206,
              1.98717115
            ],
            [
              98.824797431,
              1.986993903
            ],
            [
              98.824830257,
              1.986831918
            ],
            [
              98.824824993,
              1.98682306
            ],
            [
              98.824749657,
              1.986696292
            ],
            [
              98.824749187,
              1.986692198
            ],
            [
              98.824665744,
              1.986469791
            ],
            [
              98.824521775,
              1.986203084
            ],
            [
              98.824375047,
              1.985990822
            ],
            [
              98.824297279,
              1.985935079
            ],
            [
              98.823999511,
              1.985434027
            ],
            [
              98.823979486,
              1.985428218
            ],
            [
              98.824021087,
              1.985271915
            ],
            [
              98.824114664,
              1.985054141
            ],
            [
              98.824149536,
              1.984876966
            ],
            [
              98.824133043,
              1.984721009
            ],
            [
              98.824021164,
              1.9845512
            ],
            [
              98.823826731,
              1.984434905
            ],
            [
              98.823612109,
              1.984438573
            ],
            [
              98.823384651,
              1.984370261
            ],
            [
              98.823244339,
              1.984214291
            ],
            [
              98.823197585,
              1.984000194
            ],
            [
              98.82324071,
              1.983839629
            ],
            [
              98.82336454,
              1.983754744
            ],
            [
              98.82349938,
              1.983629256
            ],
            [
              98.823511315,
              1.983519443
            ],
            [
              98.823410435,
              1.983417
            ],
            [
              98.823268281,
              1.983322858
            ],
            [
              98.823205929,
              1.983162283
            ],
            [
              98.823242638,
              1.982957422
            ],
            [
              98.823309322,
              1.982856808
            ],
            [
              98.823347215,
              1.982799634
            ],
            [
              98.823519661,
              1.982652925
            ],
            [
              98.82374072,
              1.982505299
            ],
            [
              98.823928762,
              1.982333676
            ],
            [
              98.824050766,
              1.982160201
            ],
            [
              98.824115911,
              1.98192766
            ],
            [
              98.824114102,
              1.981685883
            ],
            [
              98.82408569,
              1.981490244
            ],
            [
              98.823993986,
              1.981345354
            ],
            [
              98.823863755,
              1.981257672
            ],
            [
              98.823656472,
              1.981229042
            ],
            [
              98.82341525,
              1.981238244
            ],
            [
              98.823193281,
              1.981322196
            ],
            [
              98.822918121,
              1.981357234
            ],
            [
              98.822559503,
              1.981352581
            ],
            [
              98.82244486,
              1.981296278
            ],
            [
              98.822295368,
              1.981205826
            ],
            [
              98.822103678,
              1.981181813
            ],
            [
              98.821906479,
              1.981215936
            ],
            [
              98.821767983,
              1.981226071
            ],
            [
              98.821544192,
              1.981194671
            ],
            [
              98.821361681,
              1.98110883
            ],
            [
              98.821239708,
              1.980983315
            ],
            [
              98.821195702,
              1.980806131
            ],
            [
              98.821201231,
              1.980567123
            ],
            [
              98.821237947,
              1.980281055
            ],
            [
              98.821254486,
              1.980006982
            ],
            [
              98.821254508,
              1.979809501
            ],
            [
              98.821206831,
              1.979644313
            ],
            [
              98.821058262,
              1.979503107
            ],
            [
              98.820932624,
              1.979348984
            ],
            [
              98.820839087,
              1.979203169
            ],
            [
              98.820674961,
              1.978728827
            ],
            [
              98.820679567,
              1.978557185
            ],
            [
              98.820691511,
              1.978368934
            ],
            [
              98.820719055,
              1.978099475
            ],
            [
              98.820725503,
              1.97782171
            ],
            [
              98.820734701,
              1.977582702
            ],
            [
              98.820737473,
              1.977393527
            ],
            [
              98.820690714,
              1.977234799
            ],
            [
              98.820566909,
              1.977083444
            ],
            [
              98.820443098,
              1.977004069
            ],
            [
              98.820298196,
              1.976885011
            ],
            [
              98.820193655,
              1.97670782
            ],
            [
              98.820143234,
              1.976485417
            ],
            [
              98.820095557,
              1.976334994
            ],
            [
              98.82002861,
              1.976255624
            ],
            [
              98.819830508,
              1.976167936
            ],
            [
              98.819590206,
              1.976156836
            ],
            [
              98.819442544,
              1.976118062
            ],
            [
              98.819304971,
              1.976072829
            ],
            [
              98.8190931,
              1.976073729
            ],
            [
              98.818868391,
              1.976062631
            ],
            [
              98.818721653,
              1.975958337
            ],
            [
              98.818686817,
              1.975818066
            ],
            [
              98.818768457,
              1.975717489
            ],
            [
              98.818891377,
              1.975563394
            ],
            [
              98.818881304,
              1.975420356
            ],
            [
              98.818773085,
              1.97534006
            ],
            [
              98.818607073,
              1.975350193
            ],
            [
              98.818320906,
              1.975391652
            ],
            [
              98.818271386,
              1.975318745
            ],
            [
              98.81826682,
              1.975141564
            ],
            [
              98.818256741,
              1.975050205
            ],
            [
              98.818192718,
              1.974964593
            ],
            [
              98.818067075,
              1.974858456
            ],
            [
              98.817935012,
              1.974734784
            ],
            [
              98.817831388,
              1.974591738
            ],
            [
              98.817799304,
              1.974424706
            ],
            [
              98.817849772,
              1.974222617
            ],
            [
              98.817958015,
              1.974073133
            ],
            [
              98.817996553,
              1.973931024
            ],
            [
              98.817998403,
              1.973787989
            ],
            [
              98.817986493,
              1.973648642
            ],
            [
              98.817924137,
              1.973527748
            ],
            [
              98.817817753,
              1.973446529
            ],
            [
              98.817692109,
              1.973351465
            ],
            [
              98.817595827,
              1.973162279
            ],
            [
              98.817593096,
              1.972974026
            ],
            [
              98.817639891,
              1.972807925
            ],
            [
              98.817714193,
              1.972704578
            ],
            [
              98.817731634,
              1.972581847
            ],
            [
              98.817613332,
              1.972438798
            ],
            [
              98.817408808,
              1.97236495
            ],
            [
              98.81720612,
              1.972279107
            ],
            [
              98.817062133,
              1.972178505
            ],
            [
              98.816952083,
              1.972056681
            ],
            [
              98.816850293,
              1.971918249
            ],
            [
              98.816770517,
              1.971740137
            ],
            [
              98.816709087,
              1.971547263
            ],
            [
              98.816673336,
              1.971376539
            ],
            [
              98.816654096,
              1.971186438
            ],
            [
              98.816600128,
              1.970916628
            ],
            [
              98.817149662,
              1.969099512
            ],
            [
              98.818059916,
              1.967724663
            ],
            [
              98.818793059,
              1.965633887
            ],
            [
              98.819977748,
              1.963719068
            ],
            [
              98.820694039,
              1.96268509
            ],
            [
              98.821094248,
              1.959594703
            ],
            [
              98.821037981,
              1.957512393
            ],
            [
              98.820753386,
              1.955918108
            ],
            [
              98.820630787,
              1.954475629
            ],
            [
              98.821493608,
              1.95205458
            ],
            [
              98.822575621,
              1.951347112
            ],
            [
              98.826191944,
              1.950581496
            ],
            [
              98.828285635,
              1.949815718
            ],
            [
              98.830189006,
              1.948954167
            ],
            [
              98.83218753,
              1.948188373
            ],
            [
              98.834947412,
              1.946943905
            ],
            [
              98.839229943,
              1.94541233
            ],
            [
              98.841989816,
              1.94416785
            ],
            [
              98.843512484,
              1.943689245
            ],
            [
              98.845796367,
              1.944263953
            ],
            [
              98.847414155,
              1.944264101
            ],
            [
              98.849983711,
              1.94282809
            ],
            [
              98.85169667,
              1.942732493
            ],
            [
              98.853504736,
              1.943307149
            ],
            [
              98.855852259,
              1.943326919
            ],
            [
              98.857661259,
              1.943253919
            ],
            [
              98.859645432,
              1.943215115
            ],
            [
              98.862386193,
              1.942755744
            ],
            [
              98.863142881,
              1.942718667
            ],
            [
              98.863051,
              1.942769
            ],
            [
              98.864216,
              1.943488
            ],
            [
              98.865337,
              1.944107
            ],
            [
              98.865723,
              1.945049
            ],
            [
              98.865988,
              1.94557
            ],
            [
              98.866719,
              1.945845
            ],
            [
              98.86745,
              1.946163
            ],
            [
              98.869016,
              1.947539
            ],
            [
              98.869971,
              1.946387
            ],
            [
              98.868987,
              1.945887
            ],
            [
              98.871099,
              1.945632
            ],
            [
              98.872003,
              1.945748
            ],
            [
              98.873693,
              1.945669
            ],
            [
              98.875673,
              1.946676
            ],
            [
              98.87606,
              1.947175
            ],
            [
              98.877108,
              1.946666
            ],
            [
              98.878001,
              1.945461
            ],
            [
              98.878391,
              1.945302
            ],
            [
              98.879673,
              1.945691
            ],
            [
              98.880178,
              1.94638
            ],
            [
              98.880431,
              1.946552
            ],
            [
              98.881351,
              1.947105
            ],
            [
              98.881181,
              1.947859
            ],
            [
              98.881936,
              1.948065
            ],
            [
              98.882578,
              1.948102
            ],
            [
              98.883421,
              1.948482
            ],
            [
              98.88413,
              1.948782
            ],
            [
              98.885200128,
              1.949267885
            ],
            [
              98.885188259,
              1.94930592
            ],
            [
              98.886099259,
              1.94885192
            ],
            [
              98.887202259,
              1.94882692
            ],
            [
              98.887636259,
              1.94865592
            ],
            [
              98.88761837,
              1.948644767
            ],
            [
              98.887666,
              1.948626
            ],
            [
              98.886155,
              1.946793
            ],
            [
              98.885515,
              1.946431
            ],
            [
              98.886191,
              1.94523
            ],
            [
              98.886448,
              1.944146
            ],
            [
              98.885975,
              1.943166
            ],
            [
              98.885931,
              1.941819
            ],
            [
              98.885422666,
              1.94146015
            ],
            [
              98.884728854,
              1.940970364
            ],
            [
              98.883771666,
              1.939914157
            ],
            [
              98.883693789,
              1.939828223
            ],
            [
              98.884300551,
              1.938079319
            ],
            [
              98.885478384,
              1.938543314
            ],
            [
              98.886156531,
              1.938543314
            ],
            [
              98.886804,
              1.939077
            ],
            [
              98.888255,
              1.938064
            ],
            [
              98.889867,
              1.937614
            ],
            [
              98.890537,
              1.937591
            ],
            [
              98.891049,
              1.93758
            ],
            [
              98.892037,
              1.936399
            ],
            [
              98.892869,
              1.935906
            ],
            [
              98.893657,
              1.935561
            ],
            [
              98.894569802,
              1.935209828
            ],
            [
              98.895149,
              1.934987
            ],
            [
              98.895381027,
              1.935038447
            ],
            [
              98.896051,
              1.935187
            ],
            [
              98.897021,
              1.93531
            ],
            [
              98.8984,
              1.93546
            ],
            [
              98.89963,
              1.935698
            ],
            [
              98.899655,
              1.934309
            ],
            [
              98.899895,
              1.933535
            ],
            [
              98.900249233,
              1.932944375
            ],
            [
              98.900397513,
              1.932851756
            ],
            [
              98.900492051,
              1.932900543
            ],
            [
              98.900549448,
              1.933019101
            ],
            [
              98.900618913,
              1.933426446
            ],
            [
              98.90065213,
              1.933710675
            ],
            [
              98.900724631,
              1.933871791
            ],
            [
              98.900872667,
              1.933973636
            ],
            [
              98.901114364,
              1.934028367
            ],
            [
              98.901393823,
              1.934140858
            ],
            [
              98.901641558,
              1.934274626
            ],
            [
              98.901910442,
              1.934397756
            ],
            [
              98.902158173,
              1.934602962
            ],
            [
              98.902315264,
              1.934853758
            ],
            [
              98.902420999,
              1.934995118
            ],
            [
              98.902664204,
              1.935107607
            ],
            [
              98.902902882,
              1.935131939
            ],
            [
              98.903218603,
              1.935139557
            ],
            [
              98.903519214,
              1.935206452
            ],
            [
              98.903756374,
              1.935350858
            ],
            [
              98.903937639,
              1.935525661
            ],
            [
              98.904064522,
              1.935717178
            ],
            [
              98.904114356,
              1.936005968
            ],
            [
              98.904192892,
              1.936308439
            ],
            [
              98.904393794,
              1.93651668
            ],
            [
              98.904649078,
              1.936718845
            ],
            [
              98.90494213,
              1.936892134
            ],
            [
              98.905105271,
              1.937033496
            ],
            [
              98.90531977,
              1.93722198
            ],
            [
              98.905552399,
              1.937331427
            ],
            [
              98.905804674,
              1.93735728
            ],
            [
              98.906106798,
              1.937392256
            ],
            [
              98.906271451,
              1.9375017
            ],
            [
              98.906363063,
              1.937456388
            ],
            [
              98.906452947,
              1.937419824
            ],
            [
              98.906517063,
              1.937352662
            ],
            [
              98.906594389,
              1.937259571
            ],
            [
              98.906707411,
              1.93718577
            ],
            [
              98.906825709,
              1.937171147
            ],
            [
              98.906946656,
              1.937211051
            ],
            [
              98.907073545,
              1.937277555
            ],
            [
              98.907232816,
              1.937302163
            ],
            [
              98.907428445,
              1.937268265
            ],
            [
              98.907593016,
              1.937215077
            ],
            [
              98.907765507,
              1.937209097
            ],
            [
              98.907871917,
              1.937202454
            ],
            [
              98.907956515,
              1.937138621
            ],
            [
              98.908014016,
              1.93701228
            ],
            [
              98.908037798,
              1.936947929
            ],
            [
              98.908060951,
              1.936885278
            ],
            [
              98.908086074,
              1.936735657
            ],
            [
              98.908144239,
              1.936617965
            ],
            [
              98.908238748,
              1.936533515
            ],
            [
              98.90839208,
              1.936442426
            ],
            [
              98.908550042,
              1.936422486
            ],
            [
              98.908655785,
              1.936436452
            ],
            [
              98.908793906,
              1.936490987
            ],
            [
              98.908937981,
              1.936510943
            ],
            [
              98.909041747,
              1.936508959
            ],
            [
              98.909185158,
              1.936514286
            ],
            [
              98.90928892,
              1.936572809
            ],
            [
              98.909360948,
              1.936675218
            ],
            [
              98.909374826,
              1.936782944
            ],
            [
              98.909423063,
              1.936862743
            ],
            [
              98.909654375,
              1.936920603
            ],
            [
              98.909771359,
              1.93690598
            ],
            [
              98.909899574,
              1.936908647
            ],
            [
              98.91004629,
              1.936975821
            ],
            [
              98.910169215,
              1.937029686
            ],
            [
              98.910284212,
              1.937022382
            ],
            [
              98.910387972,
              1.936953891
            ],
            [
              98.910501653,
              1.936852161
            ],
            [
              98.910596828,
              1.936743111
            ],
            [
              98.910725713,
              1.936661322
            ],
            [
              98.910887631,
              1.936606803
            ],
            [
              98.911035017,
              1.936587531
            ],
            [
              98.911198256,
              1.936570911
            ],
            [
              98.911361506,
              1.936517723
            ],
            [
              98.911514837,
              1.936473182
            ],
            [
              98.911679396,
              1.93648649
            ],
            [
              98.911817524,
              1.936574273
            ],
            [
              98.911906737,
              1.936662714
            ],
            [
              98.912042875,
              1.936799045
            ],
            [
              98.912125487,
              1.936885495
            ],
            [
              98.912264929,
              1.936914091
            ],
            [
              98.912440076,
              1.936882852
            ],
            [
              98.912576882,
              1.936812372
            ],
            [
              98.91271964,
              1.936727263
            ],
            [
              98.912867029,
              1.936652124
            ],
            [
              98.912995245,
              1.936625532
            ],
            [
              98.913114207,
              1.936630858
            ],
            [
              98.913252994,
              1.936681404
            ],
            [
              98.913351458,
              1.936776503
            ],
            [
              98.913445968,
              1.936843006
            ],
            [
              98.913576826,
              1.936848331
            ],
            [
              98.913710986,
              1.93682107
            ],
            [
              98.913871591,
              1.93678052
            ],
            [
              98.914032851,
              1.93675858
            ],
            [
              98.914139252,
              1.936757255
            ],
            [
              98.914388414,
              1.936799165
            ],
            [
              98.914512662,
              1.93683641
            ],
            [
              98.914644175,
              1.936859686
            ],
            [
              98.91477041,
              1.93689494
            ],
            [
              98.914907211,
              1.936902257
            ],
            [
              98.915034104,
              1.936902934
            ],
            [
              98.915102839,
              1.936874339
            ],
            [
              98.915218503,
              1.936836446
            ],
            [
              98.915400247,
              1.936814506
            ],
            [
              98.915566794,
              1.936817174
            ],
            [
              98.915700961,
              1.936820511
            ],
            [
              98.915870152,
              1.9368132
            ],
            [
              98.916066432,
              1.936840477
            ],
            [
              98.916192668,
              1.936881042
            ],
            [
              98.916320215,
              1.936912307
            ],
            [
              98.916465613,
              1.936916965
            ],
            [
              98.916625551,
              1.936914982
            ],
            [
              98.916788798,
              1.93692164
            ],
            [
              98.916932872,
              1.936968195
            ],
            [
              98.916999615,
              1.937022726
            ],
            [
              98.91702207,
              1.937365182
            ],
            [
              98.917014799,
              1.937486875
            ],
            [
              98.916994964,
              1.937629178
            ],
            [
              98.916985039,
              1.93778411
            ],
            [
              98.916981731,
              1.937929074
            ],
            [
              98.917026003,
              1.938028161
            ],
            [
              98.917123156,
              1.938094662
            ],
            [
              98.91717999,
              1.938179111
            ],
            [
              98.917176022,
              1.938237628
            ],
            [
              98.917194523,
              1.938318756
            ],
            [
              98.917266555,
              1.938358657
            ],
            [
              98.917354459,
              1.938348692
            ],
            [
              98.917417242,
              1.938317437
            ],
            [
              98.917526297,
              1.938269564
            ],
            [
              98.917671696,
              1.938255612
            ],
            [
              98.917768844,
              1.938261597
            ],
            [
              98.91784485,
              1.938303498
            ],
            [
              98.91788119,
              1.938398585
            ],
            [
              98.917925468,
              1.938544221
            ],
            [
              98.917937357,
              1.938700484
            ],
            [
              98.917943293,
              1.938853427
            ],
            [
              98.917971709,
              1.939010362
            ],
            [
              98.918002105,
              1.939124738
            ],
            [
              98.918048363,
              1.939223156
            ],
            [
              98.918147496,
              1.939272368
            ],
            [
              98.918269102,
              1.939282354
            ],
            [
              98.918392686,
              1.93926773
            ],
            [
              98.91853082,
              1.939251778
            ],
            [
              98.918696703,
              1.939213217
            ],
            [
              98.918805093,
              1.939162684
            ],
            [
              98.918931335,
              1.939072255
            ],
            [
              98.919031795,
              1.939000443
            ],
            [
              98.919125645,
              1.93896121
            ],
            [
              98.919257826,
              1.938951247
            ],
            [
              98.919364226,
              1.938908022
            ],
            [
              98.919466677,
              1.938809613
            ],
            [
              98.919536738,
              1.938699231
            ],
            [
              98.919592915,
              1.938592179
            ],
            [
              98.919711225,
              1.938500419
            ],
            [
              98.919842744,
              1.93840932
            ],
            [
              98.919940559,
              1.938362776
            ],
            [
              98.920056224,
              1.938320224
            ],
            [
              98.920185096,
              1.93830095
            ],
            [
              98.92029547,
              1.938317575
            ],
            [
              98.92040187,
              1.93831825
            ],
            [
              98.920534717,
              1.938286337
            ],
            [
              98.920845346,
              1.938175967
            ],
            [
              98.920998676,
              1.938164665
            ],
            [
              98.921152662,
              1.938138074
            ],
            [
              98.921307981,
              1.938084224
            ],
            [
              98.921417028,
              1.938023051
            ],
            [
              98.921541946,
              1.937947911
            ],
            [
              98.921639098,
              1.93785881
            ],
            [
              98.921701229,
              1.937736459
            ],
            [
              98.921721726,
              1.937620754
            ],
            [
              98.921706527,
              1.93749508
            ],
            [
              98.921617969,
              1.937422589
            ],
            [
              98.921506937,
              1.937429903
            ],
            [
              98.92143094,
              1.937402631
            ],
            [
              98.921438209,
              1.937336804
            ],
            [
              98.921549313,
              1.937093086
            ],
            [
              98.921632592,
              1.937001325
            ],
            [
              98.921727762,
              1.936973401
            ],
            [
              98.921859286,
              1.936959447
            ],
            [
              98.922024511,
              1.936974083
            ],
            [
              98.922135541,
              1.937005338
            ],
            [
              98.922258468,
              1.937003353
            ],
            [
              98.922393294,
              1.936974762
            ],
            [
              98.922495731,
              1.936926888
            ],
            [
              98.92264312,
              1.93682981
            ],
            [
              98.922724412,
              1.936726077
            ],
            [
              98.922772002,
              1.936591757
            ],
            [
              98.922827525,
              1.936441475
            ],
            [
              98.922917411,
              1.936356363
            ],
            [
              98.923031751,
              1.936346399
            ],
            [
              98.923117668,
              1.936324454
            ],
            [
              98.923184419,
              1.936247321
            ],
            [
              98.923189712,
              1.936137606
            ],
            [
              98.923214832,
              1.936007273
            ],
            [
              98.923321246,
              1.935900213
            ],
            [
              98.923389984,
              1.935798481
            ],
            [
              98.923442862,
              1.935666819
            ],
            [
              98.923564473,
              1.935545131
            ]
          ]
        ]
      }
    }
  ]
}