{
  "type": "FeatureCollection",
  "features": [
    {
      "type": "Feature",
      "properties": {
        "idx": "2584",
        "nama_kewilayahan": "Kampung Dodalim"
      },
      "geometry": {
        "type": "MultiPolygon",
        "coordinates": [
          [
            [
              [
                139.223307074,
                -7.949217315
              ],
              [
                139.223301927,
                -7.950413393
              ],
              [
                139.225701438,
                -7.950423649
              ],
              [
                139.225696297,
                -7.951619728
              ],
              [
                139.226896057,
                -7.951624852
              ],
              [
                139.228090684,
                -7.952826053
              ],
              [
                139.229290449,
                -7.952831171
              ],
              [
                139.230485086,
                -7.954032367
              ],
              [
                139.231684856,
                -7.954037479
              ],
              [
                139.232879505,
                -7.955238671
              ],
              [
                139.23406904,
                -7.957635945
              ],
              [
                139.237668392,
                -7.957651245
              ],
              [
                139.238868177,
                -7.957656338
              ],
              [
                139.240073067,
                -7.95646534
              ],
              [
                139.24127285,
                -7.956470425
              ],
              [
                139.24247773,
                -7.955279417
              ],
              [
                139.242482825,
                -7.954083327
              ],
              [
                139.243682603,
                -7.954088404
              ],
              [
                139.243687694,
                -7.952892314
              ],
              [
                139.244892555,
                -7.951701295
              ],
              [
                139.246092328,
                -7.951706363
              ],
              [
                139.247292102,
                -7.951711428
              ],
              [
                139.248491876,
                -7.95171649
              ],
              [
                139.249691652,
                -7.951721548
              ],
              [
                139.250891428,
                -7.951726603
              ],
              [
                139.252091204,
                -7.951731654
              ],
              [
                139.253290982,
                -7.951736702
              ],
              [
                139.25449076,
                -7.951741746
              ],
              [
                139.254485702,
                -7.952937843
              ],
              [
                139.255685485,
                -7.952942885
              ],
              [
                139.255680429,
                -7.954138983
              ],
              [
                139.255675372,
                -7.955335082
              ],
              [
                139.256870109,
                -7.95653622
              ],
              [
                139.258064852,
                -7.957737357
              ],
              [
                139.2580598,
                -7.958933457
              ],
              [
                139.259254554,
                -7.960134592
              ],
              [
                139.260444266,
                -7.962531826
              ],
              [
                139.261633991,
                -7.96492906
              ],
              [
                139.262823726,
                -7.967326293
              ],
              [
                139.262818682,
                -7.968522395
              ],
              [
                139.264013474,
                -7.969723525
              ],
              [
                139.265213312,
                -7.969728549
              ],
              [
                139.266408114,
                -7.970929675
              ],
              [
                139.266403078,
                -7.972125779
              ],
              [
                139.267602924,
                -7.972130798
              ],
              [
                139.268797741,
                -7.973331919
              ],
              [
                139.26879271,
                -7.974528025
              ],
              [
                139.269992565,
                -7.974533039
              ],
              [
                139.27119242,
                -7.974538049
              ],
              [
                139.272392277,
                -7.974543056
              ],
              [
                139.273592134,
                -7.974548059
              ],
              [
                139.274791991,
                -7.974553059
              ],
              [
                139.27599185,
                -7.974558055
              ],
              [
                139.277191709,
                -7.974563048
              ],
              [
                139.278391569,
                -7.974568038
              ],
              [
                139.279596429,
                -7.973376911
              ],
              [
                139.280796288,
                -7.973381893
              ],
              [
                139.281996147,
                -7.973386871
              ],
              [
                139.283200994,
                -7.972195731
              ],
              [
                139.288000427,
                -7.972215592
              ],
              [
                139.289200287,
                -7.972220549
              ],
              [
                139.290405114,
                -7.971029383
              ],
              [
                139.29041008,
                -7.969833263
              ],
              [
                139.291609935,
                -7.969838212
              ],
              [
                139.29280979,
                -7.969843156
              ],
              [
                139.294009646,
                -7.969848098
              ],
              [
                139.295209503,
                -7.969853035
              ],
              [
                139.296409361,
                -7.96985797
              ],
              [
                139.298804137,
                -7.971063953
              ],
              [
                139.300004001,
                -7.971068877
              ],
              [
                139.299999062,
                -7.972265003
              ],
              [
                139.301193994,
                -7.973466051
              ],
              [
                139.302388932,
                -7.974667097
              ],
              [
                139.303588809,
                -7.974672013
              ],
              [
                139.304788686,
                -7.974676926
              ],
              [
                139.307188442,
                -7.974686742
              ],
              [
                139.308388321,
                -7.974691644
              ],
              [
                139.309588201,
                -7.974696544
              ],
              [
                139.310792991,
                -7.973505307
              ],
              [
                139.311992869,
                -7.973510199
              ],
              [
                139.314402422,
                -7.971127703
              ],
              [
                139.315607188,
                -7.969936447
              ],
              [
                139.316807059,
                -7.969941322
              ],
              [
                139.31800693,
                -7.969946194
              ],
              [
                139.318011815,
                -7.968750058
              ],
              [
                139.318016699,
                -7.967553921
              ],
              [
                139.319221444,
                -7.96636265
              ],
              [
                139.320426183,
                -7.965171375
              ],
              [
                139.321626042,
                -7.965176233
              ],
              [
                139.321630914,
                -7.963980094
              ],
              [
                139.322830771,
                -7.963984948
              ],
              [
                139.324030629,
                -7.963989799
              ],
              [
                139.325230487,
                -7.963994647
              ],
              [
                139.326430346,
                -7.96399949
              ],
              [
                139.327630207,
                -7.964004331
              ],
              [
                139.328830067,
                -7.964009168
              ],
              [
                139.330029929,
                -7.964014001
              ],
              [
                139.331229791,
                -7.964018831
              ],
              [
                139.332429654,
                -7.964023658
              ],
              [
                139.333629518,
                -7.964028481
              ],
              [
                139.334824549,
                -7.965229448
              ],
              [
                139.336024418,
                -7.965234265
              ],
              [
                139.337224288,
                -7.965239078
              ],
              [
                139.338419334,
                -7.966440038
              ],
              [
                139.339619209,
                -7.966444845
              ],
              [
                139.340819084,
                -7.966449648
              ],
              [
                139.342009332,
                -7.968846752
              ],
              [
                139.342004516,
                -7.970042903
              ],
              [
                139.343199591,
                -7.971243854
              ],
              [
                139.343194778,
                -7.972440006
              ],
              [
                139.343189964,
                -7.973636158
              ],
              [
                139.343185149,
                -7.97483231
              ],
              [
                139.343180333,
                -7.976028461
              ],
              [
                139.343175517,
                -7.977224613
              ],
              [
                139.344370612,
                -7.978425565
              ],
              [
                139.345570525,
                -7.978430362
              ],
              [
                139.346770439,
                -7.978435156
              ],
              [
                139.346775245,
                -7.977239002
              ],
              [
                139.347975157,
                -7.977243792
              ],
              [
                139.349175068,
                -7.977248578
              ],
              [
                139.350374981,
                -7.97725336
              ],
              [
                139.350379776,
                -7.976057204
              ],
              [
                139.350384571,
                -7.974861048
              ],
              [
                139.350389365,
                -7.973664892
              ],
              [
                139.350394158,
                -7.972468736
              ],
              [
                139.350398951,
                -7.971272579
              ],
              [
                139.350403742,
                -7.970076423
              ],
              [
                139.350408533,
                -7.968880267
              ],
              [
                139.351608422,
                -7.968885041
              ],
              [
                139.351613209,
                -7.967688883
              ],
              [
                139.351617995,
                -7.966492726
              ],
              [
                139.35162278,
                -7.965296569
              ],
              [
                139.351627565,
                -7.964100411
              ],
              [
                139.351632349,
                -7.962904254
              ],
              [
                139.351637132,
                -7.961708096
              ],
              [
                139.351641914,
                -7.960511938
              ],
              [
                139.352841779,
                -7.960516704
              ],
              [
                139.354041645,
                -7.960521466
              ],
              [
                139.35404642,
                -7.959325307
              ],
              [
                139.354051194,
                -7.958129147
              ],
              [
                139.355251054,
                -7.958133904
              ],
              [
                139.355255823,
                -7.956937744
              ],
              [
                139.35645568,
                -7.956942497
              ],
              [
                139.356460446,
                -7.955746336
              ],
              [
                139.3576603,
                -7.955751085
              ],
              [
                139.358860155,
                -7.95575583
              ],
              [
                139.360060011,
                -7.955760572
              ],
              [
                139.361259868,
                -7.95576531
              ],
              [
                139.362459725,
                -7.955770045
              ],
              [
                139.363659583,
                -7.955774776
              ],
              [
                139.364859442,
                -7.955779504
              ],
              [
                139.366059301,
                -7.955784229
              ],
              [
                139.367254428,
                -7.956985117
              ],
              [
                139.368454292,
                -7.956989835
              ],
              [
                139.368449561,
                -7.958186003
              ],
              [
                139.368444828,
                -7.959382171
              ],
              [
                139.368440096,
                -7.960578339
              ],
              [
                139.368435362,
                -7.961774507
              ],
              [
                139.368430628,
                -7.962970674
              ],
              [
                139.369611579,
                -7.967760066
              ],
              [
                139.370811477,
                -7.967764783
              ],
              [
                139.372011375,
                -7.967769498
              ],
              [
                139.373211273,
                -7.967774208
              ],
              [
                139.374411173,
                -7.967778916
              ],
              [
                139.375615789,
                -7.966587448
              ],
              [
                139.376815687,
                -7.966592148
              ],
              [
                139.378020294,
                -7.965400671
              ],
              [
                139.379220189,
                -7.965405363
              ],
              [
                139.379224893,
                -7.964209189
              ],
              [
                139.379229597,
                -7.963013015
              ],
              [
                139.3792343,
                -7.96181684
              ],
              [
                139.379239003,
                -7.960620666
              ],
              [
                139.380438885,
                -7.960625352
              ],
              [
                139.380443583,
                -7.959429177
              ],
              [
                139.38044828,
                -7.958233002
              ],
              [
                139.38165285,
                -7.957041507
              ],
              [
                139.381657542,
                -7.955845331
              ],
              [
                139.384057282,
                -7.955854679
              ],
              [
                139.385261835,
                -7.95466317
              ],
              [
                139.38646638,
                -7.953471656
              ],
              [
                139.387670919,
                -7.952280137
              ],
              [
                139.390075311,
                -7.951093265
              ],
              [
                139.391275172,
                -7.951097914
              ],
              [
                139.392475034,
                -7.95110256
              ],
              [
                139.393674896,
                -7.951107201
              ],
              [
                139.393670241,
                -7.952303385
              ],
              [
                139.394870108,
                -7.952308024
              ],
              [
                139.396065326,
                -7.953508844
              ],
              [
                139.397260552,
                -7.954709662
              ],
              [
                139.398460428,
                -7.954714293
              ],
              [
                139.398455785,
                -7.955910479
              ],
              [
                139.399655665,
                -7.955915106
              ],
              [
                139.400850908,
                -7.957115917
              ],
              [
                139.400846271,
                -7.958312104
              ],
              [
                139.402046159,
                -7.958316726
              ],
              [
                139.402041524,
                -7.959512914
              ],
              [
                139.403236785,
                -7.960713722
              ],
              [
                139.404436681,
                -7.960718338
              ],
              [
                139.405636579,
                -7.960722951
              ],
              [
                139.406836477,
                -7.96072756
              ],
              [
                139.408036376,
                -7.960732166
              ],
              [
                139.409236275,
                -7.960736769
              ],
              [
                139.40923166,
                -7.961932961
              ],
              [
                139.409227044,
                -7.963129152
              ],
              [
                139.409222427,
                -7.964325344
              ],
              [
                139.40921781,
                -7.965521536
              ],
              [
                139.409213191,
                -7.966717727
              ],
              [
                139.409208572,
                -7.967913919
              ],
              [
                139.409203953,
                -7.96911011
              ],
              [
                139.409199332,
                -7.970306302
              ],
              [
                139.409194711,
                -7.971502493
              ],
              [
                139.409190089,
                -7.972698684
              ],
              [
                139.409185467,
                -7.973894875
              ],
              [
                139.409180844,
                -7.975091066
              ],
              [
                139.40917622,
                -7.976287257
              ],
              [
                139.409171595,
                -7.977483448
              ],
              [
                139.409166969,
                -7.978679639
              ],
              [
                139.409157716,
                -7.981072021
              ],
              [
                139.409148461,
                -7.983464402
              ],
              [
                139.407948495,
                -7.983459786
              ],
              [
                139.407943862,
                -7.984655976
              ],
              [
                139.407939229,
                -7.985852166
              ],
              [
                139.40673462,
                -7.987043734
              ],
              [
                139.406729982,
                -7.988239923
              ],
              [
                139.406725343,
                -7.989436112
              ],
              [
                139.406720703,
                -7.990632301
              ],
              [
                139.405516074,
                -7.991823862
              ],
              [
                139.404311438,
                -7.993015418
              ],
              [
                139.40430214,
                -7.995407792
              ],
              [
                139.403097489,
                -7.996599341
              ],
              [
                139.401888172,
                -7.998987071
              ],
              [
                139.400688165,
                -7.998982426
              ],
              [
                139.400683503,
                -8.00017861
              ],
              [
                139.400678839,
                -8.001374795
              ],
              [
                139.400674175,
                -8.002570979
              ],
              [
                139.39946949,
                -8.003762512
              ],
              [
                139.399460151,
                -8.006154879
              ],
              [
                139.39825545,
                -8.007346405
              ],
              [
                139.397046064,
                -8.009734108
              ],
              [
                139.395846029,
                -8.009729441
              ],
              [
                139.395841345,
                -8.010925623
              ],
              [
                139.394631932,
                -8.013313313
              ],
              [
                139.393427195,
                -8.014504818
              ],
              [
                139.393422502,
                -8.015700997
              ],
              [
                139.392222451,
                -8.015696317
              ],
              [
                139.392217753,
                -8.016892496
              ],
              [
                139.391008296,
                -8.019280167
              ],
              [
                139.38980353,
                -8.020471655
              ],
              [
                139.389798822,
                -8.021667832
              ],
              [
                139.389794114,
                -8.022864009
              ],
              [
                139.389789406,
                -8.024060186
              ],
              [
                139.389784696,
                -8.025256363
              ],
              [
                139.388579906,
                -8.026447842
              ],
              [
                139.388575192,
                -8.027644018
              ],
              [
                139.38737039,
                -8.028835492
              ],
              [
                139.387365671,
                -8.030031667
              ],
              [
                139.386160858,
                -8.031223136
              ],
              [
                139.384956038,
                -8.032414599
              ],
              [
                139.383751211,
                -8.033606057
              ],
              [
                139.383746479,
                -8.03480223
              ],
              [
                139.383741745,
                -8.035998403
              ],
              [
                139.383732276,
                -8.038390747
              ],
              [
                139.382527425,
                -8.039582198
              ],
              [
                139.382522685,
                -8.040778369
              ],
              [
                139.382517945,
                -8.041974541
              ],
              [
                139.381313078,
                -8.043165984
              ],
              [
                139.381308333,
                -8.044362155
              ],
              [
                139.381303586,
                -8.045558326
              ],
              [
                139.381298839,
                -8.046754496
              ],
              [
                139.380098704,
                -8.046749763
              ],
              [
                139.380089201,
                -8.049142102
              ],
              [
                139.37888906,
                -8.049137364
              ],
              [
                139.378884304,
                -8.050333532
              ],
              [
                139.378879547,
                -8.051529701
              ],
              [
                139.378874789,
                -8.05272587
              ],
              [
                139.37887003,
                -8.053922039
              ],
              [
                139.378865271,
                -8.055118207
              ],
              [
                139.377665113,
                -8.055113462
              ],
              [
                139.377655586,
                -8.057505797
              ],
              [
                139.377646055,
                -8.059898132
              ],
              [
                139.377641289,
                -8.0610943
              ],
              [
                139.377636521,
                -8.062290467
              ],
              [
                139.377622216,
                -8.065878969
              ],
              [
                139.377612675,
                -8.068271304
              ],
              [
                139.377603131,
                -8.070663637
              ],
              [
                139.377598358,
                -8.071859804
              ],
              [
                139.37758881,
                -8.074252138
              ],
              [
                139.376383818,
                -8.075443543
              ],
              [
                139.376379038,
                -8.076639709
              ],
              [
                139.376374258,
                -8.077835875
              ],
              [
                139.37516925,
                -8.079027274
              ],
              [
                139.375159679,
                -8.081419604
              ],
              [
                139.375154892,
                -8.082615768
              ],
              [
                139.375150105,
                -8.083811933
              ],
              [
                139.375145317,
                -8.085008098
              ],
              [
                139.375135739,
                -8.087400427
              ],
              [
                139.375130948,
                -8.088596591
              ],
              [
                139.373925899,
                -8.089787979
              ],
              [
                139.373921104,
                -8.090984142
              ],
              [
                139.373911511,
                -8.093376469
              ],
              [
                139.373906714,
                -8.094572633
              ],
              [
                139.373901916,
                -8.095768796
              ],
              [
                139.373897117,
                -8.096964959
              ],
              [
                139.372692035,
                -8.098156337
              ],
              [
                139.372682426,
                -8.100548661
              ],
              [
                139.371482138,
                -8.100543871
              ],
              [
                139.371477329,
                -8.101740033
              ],
              [
                139.371476928,
                -8.101839713
              ],
              [
                139.371472519,
                -8.102936194
              ],
              [
                139.371467709,
                -8.104132355
              ],
              [
                139.370267411,
                -8.104127559
              ],
              [
                139.367866816,
                -8.104117957
              ],
              [
                139.36666652,
                -8.10411315
              ],
              [
                139.365466225,
                -8.10410834
              ],
              [
                139.36426593,
                -8.104103526
              ],
              [
                139.363065637,
                -8.104098709
              ],
              [
                139.361865343,
                -8.104093889
              ],
              [
                139.360665051,
                -8.104089064
              ],
              [
                139.359464759,
                -8.104084237
              ],
              [
                139.359469605,
                -8.102888082
              ],
              [
                139.358269318,
                -8.102883252
              ],
              [
                139.357069031,
                -8.102878418
              ],
              [
                139.357073884,
                -8.101682265
              ],
              [
                139.35467332,
                -8.101672588
              ],
              [
                139.353473039,
                -8.101667744
              ],
              [
                139.352272759,
                -8.101662896
              ],
              [
                139.351077349,
                -8.100461896
              ],
              [
                139.349877073,
                -8.100457042
              ],
              [
                139.349881945,
                -8.099260894
              ],
              [
                139.348681675,
                -8.099256037
              ],
              [
                139.347481405,
                -8.099251177
              ],
              [
                139.346286017,
                -8.098050167
              ],
              [
                139.343885488,
                -8.09804043
              ],
              [
                139.341484962,
                -8.09803068
              ],
              [
                139.339089341,
                -8.096824773
              ],
              [
                139.337889084,
                -8.096819886
              ],
              [
                139.336688827,
                -8.096814996
              ],
              [
                139.335488572,
                -8.096810102
              ],
              [
                139.334288317,
                -8.096805204
              ],
              [
                139.333088063,
                -8.096800303
              ],
              [
                139.33188781,
                -8.096795399
              ],
              [
                139.328287055,
                -8.096780664
              ],
              [
                139.325886555,
                -8.096770823
              ],
              [
                139.32469125,
                -8.095569764
              ],
              [
                139.322290762,
                -8.095559904
              ],
              [
                139.321090519,
                -8.095554968
              ],
              [
                139.319890277,
                -8.095550029
              ],
              [
                139.318690036,
                -8.095545087
              ],
              [
                139.316289555,
                -8.095535191
              ],
              [
                139.315089316,
                -8.095530238
              ],
              [
                139.31268884,
                -8.095520321
              ],
              [
                139.311488603,
                -8.095515357
              ],
              [
                139.310288367,
                -8.09551039
              ],
              [
                139.307887897,
                -8.095500445
              ],
              [
                139.304287198,
                -8.095485501
              ],
              [
                139.301891746,
                -8.094279401
              ],
              [
                139.30069152,
                -8.094274406
              ],
              [
                139.299491294,
                -8.094269408
              ],
              [
                139.298296089,
                -8.093068289
              ],
              [
                139.297095869,
                -8.093063285
              ],
              [
                139.297100892,
                -8.091867168
              ],
              [
                139.295900676,
                -8.091862161
              ],
              [
                139.294705489,
                -8.090661035
              ],
              [
                139.294710518,
                -8.08946492
              ],
              [
                139.292310103,
                -8.08945489
              ],
              [
                139.291109897,
                -8.08944987
              ],
              [
                139.289909692,
                -8.089444847
              ],
              [
                139.288709487,
                -8.08943982
              ],
              [
                139.287509283,
                -8.08943479
              ],
              [
                139.28630908,
                -8.089429756
              ],
              [
                139.285113934,
                -8.088228609
              ],
              [
                139.283913736,
                -8.088223569
              ],
              [
                139.282718601,
                -8.087022417
              ],
              [
                139.280318216,
                -8.08701232
              ],
              [
                139.279118025,
                -8.087007267
              ],
              [
                139.277917834,
                -8.08700221
              ],
              [
                139.276722724,
                -8.085801045
              ],
              [
                139.275522538,
                -8.085795981
              ],
              [
                139.274322353,
                -8.085790915
              ],
              [
                139.270731996,
                -8.083383492
              ],
              [
                139.267146788,
                -8.079779948
              ],
              [
                139.263556531,
                -8.077372482
              ],
              [
                139.261166465,
                -8.074970095
              ],
              [
                139.259971442,
                -8.073768899
              ],
              [
                139.257576292,
                -8.072562592
              ],
              [
                139.256376157,
                -8.072557481
              ],
              [
                139.255181157,
                -8.071356275
              ],
              [
                139.253981028,
                -8.071351157
              ],
              [
                139.253986165,
                -8.070155067
              ],
              [
                139.25278604,
                -8.070149946
              ],
              [
                139.252791179,
                -8.068953857
              ],
              [
                139.252796317,
                -8.067757767
              ],
              [
                139.2515962,
                -8.067752644
              ],
              [
                139.250396084,
                -8.067747519
              ],
              [
                139.249195968,
                -8.067742389
              ],
              [
                139.246800895,
                -8.066536034
              ],
              [
                139.245605943,
                -8.065334809
              ],
              [
                139.243205734,
                -8.065324522
              ],
              [
                139.242010798,
                -8.06412329
              ],
              [
                139.240810698,
                -8.064118139
              ],
              [
                139.239615774,
                -8.062916902
              ],
              [
                139.238420856,
                -8.061715663
              ],
              [
                139.237220766,
                -8.061710502
              ],
              [
                139.23602586,
                -8.060509259
              ],
              [
                139.234825775,
                -8.060504092
              ],
              [
                139.233625691,
                -8.060498922
              ],
              [
                139.232425608,
                -8.060493748
              ],
              [
                139.232435992,
                -8.058101593
              ],
              [
                139.231235917,
                -8.058096417
              ],
              [
                139.230041041,
                -8.056895162
              ],
              [
                139.228846171,
                -8.055693905
              ],
              [
                139.227646105,
                -8.05568872
              ],
              [
                139.226451247,
                -8.054487458
              ],
              [
                139.226456453,
                -8.053291385
              ],
              [
                139.225256396,
                -8.053286194
              ],
              [
                139.224056339,
                -8.053281001
              ],
              [
                139.222856284,
                -8.053275804
              ],
              [
                139.220456175,
                -8.053265399
              ],
              [
                139.216856018,
                -8.053249765
              ],
              [
                139.213255867,
                -8.053234099
              ],
              [
                139.210855771,
                -8.053223638
              ],
              [
                139.209655725,
                -8.053218403
              ],
              [
                139.208460937,
                -8.052017101
              ],
              [
                139.207260895,
                -8.052011859
              ],
              [
                139.206060854,
                -8.052006614
              ],
              [
                139.204860814,
                -8.052001365
              ],
              [
                139.203660775,
                -8.051996112
              ],
              [
                139.202460736,
                -8.051990856
              ],
              [
                139.200060662,
                -8.051980334
              ],
              [
                139.198860626,
                -8.051975067
              ],
              [
                139.197660591,
                -8.051969797
              ],
              [
                139.197655301,
                -8.053165852
              ],
              [
                139.196455263,
                -8.053160577
              ],
              [
                139.195255226,
                -8.0531553
              ],
              [
                139.19405519,
                -8.053150018
              ],
              [
                139.192855154,
                -8.053144733
              ],
              [
                139.191655119,
                -8.053139445
              ],
              [
                139.190455086,
                -8.053134153
              ],
              [
                139.190460396,
                -8.051938103
              ],
              [
                139.189260367,
                -8.051932808
              ],
              [
                139.188060338,
                -8.05192751
              ],
              [
                139.186865631,
                -8.050726161
              ],
              [
                139.186870951,
                -8.049530113
              ],
              [
                139.185676253,
                -8.048328762
              ],
              [
                139.184476237,
                -8.048323456
              ],
              [
                139.183276223,
                -8.048318146
              ],
              [
                139.182076208,
                -8.048312833
              ],
              [
                139.180876195,
                -8.048307516
              ],
              [
                139.179681522,
                -8.047106153
              ],
              [
                139.17968686,
                -8.045910109
              ],
              [
                139.178492197,
                -8.044708745
              ],
              [
                139.177292197,
                -8.04470342
              ],
              [
                139.177297541,
                -8.043507378
              ],
              [
                139.176097545,
                -8.04350205
              ],
              [
                139.1749029,
                -8.042300679
              ],
              [
                139.174908249,
                -8.041104639
              ],
              [
                139.173713613,
                -8.039903266
              ],
              [
                139.173718964,
                -8.038707226
              ],
              [
                139.17132972,
                -8.036304477
              ],
              [
                139.171335076,
                -8.035108438
              ],
              [
                139.170135109,
                -8.035103099
              ],
              [
                139.170140467,
                -8.033907061
              ],
              [
                139.170145824,
                -8.032711023
              ],
              [
                139.168945865,
                -8.032705682
              ],
              [
                139.16775127,
                -8.031504301
              ],
              [
                139.167761995,
                -8.029112229
              ],
              [
                139.166562048,
                -8.029106883
              ],
              [
                139.166567412,
                -8.027910847
              ],
              [
                139.164167527,
                -8.027900146
              ],
              [
                139.162967586,
                -8.027894791
              ],
              [
                139.161773024,
                -8.026693399
              ],
              [
                139.161778401,
                -8.025497367
              ],
              [
                139.160578468,
                -8.025492006
              ],
              [
                139.160583848,
                -8.024295974
              ],
              [
                139.15938392,
                -8.024290611
              ],
              [
                139.159389302,
                -8.02309458
              ],
              [
                139.159394684,
                -8.021898548
              ],
              [
                139.158200148,
                -8.020697153
              ],
              [
                139.158205531,
                -8.019501122
              ],
              [
                139.157005619,
                -8.019495755
              ],
              [
                139.155805707,
                -8.019490384
              ],
              [
                139.155811096,
                -8.018294355
              ],
              [
                139.155816485,
                -8.017098326
              ],
              [
                139.154616581,
                -8.017092953
              ],
              [
                139.154621973,
                -8.015896925
              ],
              [
                139.153427467,
                -8.014695522
              ],
              [
                139.153432861,
                -8.013499495
              ],
              [
                139.153438253,
                -8.012303467
              ],
              [
                139.152238365,
                -8.012298091
              ],
              [
                139.15224376,
                -8.011102064
              ],
              [
                139.152249154,
                -8.009906037
              ],
              [
                139.151049274,
                -8.009900659
              ],
              [
                139.151054671,
                -8.008704632
              ],
              [
                139.151060067,
                -8.007508606
              ],
              [
                139.151065462,
                -8.00631258
              ],
              [
                139.151070857,
                -8.005116553
              ],
              [
                139.15107625,
                -8.003920527
              ],
              [
                139.151081643,
                -8.0027245
              ],
              [
                139.151087035,
                -8.001528474
              ],
              [
                139.14988718,
                -8.001523097
              ],
              [
                139.149892575,
                -8.000327072
              ],
              [
                139.149897968,
                -7.999131046
              ],
              [
                139.149903361,
                -7.997935019
              ],
              [
                139.149908754,
                -7.996738993
              ],
              [
                139.149914145,
                -7.995542967
              ],
              [
                139.149919535,
                -7.994346941
              ],
              [
                139.149924925,
                -7.993150915
              ],
              [
                139.149930314,
                -7.991954888
              ],
              [
                139.149935702,
                -7.990758862
              ],
              [
                139.149941089,
                -7.989562835
              ],
              [
                139.15834521,
                -7.988404305
              ],
              [
                139.159545032,
                -7.988409648
              ],
              [
                139.15955039,
                -7.987213615
              ],
              [
                139.16075021,
                -7.987218953
              ],
              [
                139.16195538,
                -7.986028254
              ],
              [
                139.163155198,
                -7.986033584
              ],
              [
                139.164360359,
                -7.984842875
              ],
              [
                139.165560175,
                -7.984848198
              ],
              [
                139.166759992,
                -7.984853518
              ],
              [
                139.169159629,
                -7.984864146
              ],
              [
                139.170359448,
                -7.984869455
              ],
              [
                139.17275909,
                -7.984880063
              ],
              [
                139.175158734,
                -7.984890657
              ],
              [
                139.175164044,
                -7.983694613
              ],
              [
                139.176363864,
                -7.983699904
              ],
              [
                139.17636917,
                -7.982503859
              ],
              [
                139.177568987,
                -7.982509146
              ],
              [
                139.178768805,
                -7.982514429
              ],
              [
                139.179973919,
                -7.981323661
              ],
              [
                139.181173735,
                -7.981328937
              ],
              [
                139.182378839,
                -7.98013816
              ],
              [
                139.183578653,
                -7.980143427
              ],
              [
                139.183583935,
                -7.978947378
              ],
              [
                139.18598356,
                -7.978957901
              ],
              [
                139.187183374,
                -7.978963157
              ],
              [
                139.188383188,
                -7.97896841
              ],
              [
                139.190782819,
                -7.978978906
              ],
              [
                139.193187707,
                -7.977793331
              ],
              [
                139.196787154,
                -7.977809025
              ],
              [
                139.199192025,
                -7.97662341
              ],
              [
                139.204001732,
                -7.974252129
              ],
              [
                139.205201544,
                -7.97425733
              ],
              [
                139.21361063,
                -7.971901501
              ],
              [
                139.213615819,
                -7.970705431
              ],
              [
                139.213621008,
                -7.969509361
              ],
              [
                139.213626195,
                -7.968313291
              ],
              [
                139.213631382,
                -7.96711722
              ],
              [
                139.213636569,
                -7.96592115
              ],
              [
                139.213646938,
                -7.963529009
              ],
              [
                139.213652122,
                -7.962332938
              ],
              [
                139.214857085,
                -7.961142032
              ],
              [
                139.214862264,
                -7.959945961
              ],
              [
                139.214867441,
                -7.958749889
              ],
              [
                139.214872619,
                -7.957553817
              ],
              [
                139.216082734,
                -7.955166831
              ],
              [
                139.217292832,
                -7.952779838
              ],
              [
                139.218497753,
                -7.951588912
              ],
              [
                139.218508076,
                -7.949196763
              ],
              [
                139.219707824,
                -7.949201906
              ],
              [
                139.220907573,
                -7.949207046
              ],
              [
                139.222107323,
                -7.949212182
              ],
              [
                139.223307074,
                -7.949217315
              ]
            ]
          ]
        ]
      }
    }
  ]
}