{
  "type": "FeatureCollection",
  "features": [
    {
      "type": "Feature",
      "properties": {
        "idx": "2586",
        "nama_kewilayahan": "KAmpung Yulili"
      },
      "geometry": {
        "type": "MultiPolygon",
        "coordinates": [
          [
            [
              [
                139.325409571,
                -7.617106031
              ],
              [
                139.329001554,
                -7.618316086
              ],
              [
                139.330200432,
                -7.61832071
              ],
              [
                139.33139468,
                -7.619521496
              ],
              [
                139.333787822,
                -7.620726896
              ],
              [
                139.33618098,
                -7.621932286
              ],
              [
                139.337379872,
                -7.621936893
              ],
              [
                139.339777659,
                -7.621946096
              ],
              [
                139.34217545,
                -7.621955287
              ],
              [
                139.343374346,
                -7.621959877
              ],
              [
                139.344573243,
                -7.621964464
              ],
              [
                139.351771215,
                -7.620795739
              ],
              [
                139.352970114,
                -7.620800302
              ],
              [
                139.354169014,
                -7.620804862
              ],
              [
                139.355367914,
                -7.620809418
              ],
              [
                139.356566815,
                -7.620813971
              ],
              [
                139.357765717,
                -7.620818521
              ],
              [
                139.360163523,
                -7.620827611
              ],
              [
                139.361362427,
                -7.62083215
              ],
              [
                139.362561331,
                -7.620836687
              ],
              [
                139.364959143,
                -7.62084575
              ],
              [
                139.36615805,
                -7.620850276
              ],
              [
                139.367356957,
                -7.6208548
              ],
              [
                139.369754775,
                -7.620863836
              ],
              [
                139.370953685,
                -7.620868349
              ],
              [
                139.372152595,
                -7.620872859
              ],
              [
                139.373351507,
                -7.620877366
              ],
              [
                139.374550419,
                -7.620881869
              ],
              [
                139.375749331,
                -7.620886369
              ],
              [
                139.376943739,
                -7.622087058
              ],
              [
                139.378142657,
                -7.622091552
              ],
              [
                139.379337075,
                -7.623292236
              ],
              [
                139.380535998,
                -7.623296724
              ],
              [
                139.381734921,
                -7.623301209
              ],
              [
                139.382933845,
                -7.62330569
              ],
              [
                139.384132769,
                -7.623310169
              ],
              [
                139.384128282,
                -7.624506365
              ],
              [
                139.385327211,
                -7.62451084
              ],
              [
                139.38652614,
                -7.624515313
              ],
              [
                139.386521659,
                -7.62571151
              ],
              [
                139.387720592,
                -7.62571598
              ],
              [
                139.388919526,
                -7.625720446
              ],
              [
                139.390118461,
                -7.625724909
              ],
              [
                139.391317396,
                -7.625729369
              ],
              [
                139.392516332,
                -7.625733825
              ],
              [
                139.393715269,
                -7.625738278
              ],
              [
                139.394914207,
                -7.625742728
              ],
              [
                139.39610869,
                -7.626943377
              ],
              [
                139.397307633,
                -7.626947821
              ],
              [
                139.398502126,
                -7.628148466
              ],
              [
                139.399701074,
                -7.628152904
              ],
              [
                139.400895578,
                -7.629353544
              ],
              [
                139.40209453,
                -7.629357976
              ],
              [
                139.403293483,
                -7.629362405
              ],
              [
                139.404492436,
                -7.62936683
              ],
              [
                139.40569139,
                -7.629371252
              ],
              [
                139.405686959,
                -7.630567461
              ],
              [
                139.406885917,
                -7.63057188
              ],
              [
                139.408084876,
                -7.630576296
              ],
              [
                139.409283836,
                -7.630580709
              ],
              [
                139.409279414,
                -7.631776919
              ],
              [
                139.410478378,
                -7.631781329
              ],
              [
                139.410473959,
                -7.63297754
              ],
              [
                139.411672927,
                -7.632981948
              ],
              [
                139.41166851,
                -7.63417816
              ],
              [
                139.411664093,
                -7.635374371
              ],
              [
                139.411659676,
                -7.636570583
              ],
              [
                139.411655257,
                -7.637766794
              ],
              [
                139.411650838,
                -7.638963006
              ],
              [
                139.411646418,
                -7.640159217
              ],
              [
                139.411641998,
                -7.641355429
              ],
              [
                139.411637576,
                -7.64255164
              ],
              [
                139.411633154,
                -7.643747851
              ],
              [
                139.412827733,
                -7.644948473
              ],
              [
                139.412823313,
                -7.646144685
              ],
              [
                139.412818892,
                -7.647340897
              ],
              [
                139.412814471,
                -7.648537108
              ],
              [
                139.412810049,
                -7.64973332
              ],
              [
                139.412805626,
                -7.650929532
              ],
              [
                139.412801202,
                -7.652125743
              ],
              [
                139.412796778,
                -7.653321954
              ],
              [
                139.412792352,
                -7.654518166
              ],
              [
                139.412787927,
                -7.655714377
              ],
              [
                139.4127835,
                -7.656910588
              ],
              [
                139.412779073,
                -7.658106799
              ],
              [
                139.412770216,
                -7.660499221
              ],
              [
                139.412756926,
                -7.664087853
              ],
              [
                139.412748062,
                -7.666480275
              ],
              [
                139.412739196,
                -7.668872696
              ],
              [
                139.412725891,
                -7.672461327
              ],
              [
                139.412721454,
                -7.673657537
              ],
              [
                139.412717017,
                -7.674853747
              ],
              [
                139.412708141,
                -7.677246167
              ],
              [
                139.412699261,
                -7.679638587
              ],
              [
                139.41269482,
                -7.680834796
              ],
              [
                139.412690379,
                -7.682031006
              ],
              [
                139.412681494,
                -7.684423425
              ],
              [
                139.41267705,
                -7.685619635
              ],
              [
                139.412672606,
                -7.686815844
              ],
              [
                139.412663715,
                -7.689208263
              ],
              [
                139.412654822,
                -7.691600681
              ],
              [
                139.412650374,
                -7.69279689
              ],
              [
                139.412645925,
                -7.693993099
              ],
              [
                139.412641476,
                -7.695189308
              ],
              [
                139.412637026,
                -7.696385517
              ],
              [
                139.412632575,
                -7.697581726
              ],
              [
                139.412628124,
                -7.698777935
              ],
              [
                139.412623671,
                -7.699974143
              ],
              [
                139.412619219,
                -7.701170352
              ],
              [
                139.412614765,
                -7.702366561
              ],
              [
                139.411411145,
                -7.703558324
              ],
              [
                139.411406687,
                -7.704754531
              ],
              [
                139.411402227,
                -7.705950739
              ],
              [
                139.411397768,
                -7.707146947
              ],
              [
                139.411388846,
                -7.709539361
              ],
              [
                139.411384384,
                -7.710735569
              ],
              [
                139.411379921,
                -7.711931776
              ],
              [
                139.411375458,
                -7.713127983
              ],
              [
                139.411370994,
                -7.71432419
              ],
              [
                139.411362064,
                -7.716716604
              ],
              [
                139.411357597,
                -7.717912811
              ],
              [
                139.411353131,
                -7.719109018
              ],
              [
                139.411348663,
                -7.720305225
              ],
              [
                139.411344195,
                -7.721501432
              ],
              [
                139.412543411,
                -7.721505888
              ],
              [
                139.412538945,
                -7.722702095
              ],
              [
                139.413738165,
                -7.722706548
              ],
              [
                139.413729239,
                -7.725098964
              ],
              [
                139.413724774,
                -7.726295172
              ],
              [
                139.413720309,
                -7.72749138
              ],
              [
                139.413706909,
                -7.731080002
              ],
              [
                139.413702441,
                -7.73227621
              ],
              [
                139.413697973,
                -7.733472417
              ],
              [
                139.413693503,
                -7.734668625
              ],
              [
                139.413689033,
                -7.735864832
              ],
              [
                139.413684562,
                -7.737061039
              ],
              [
                139.41368009,
                -7.738257246
              ],
              [
                139.413675618,
                -7.739453453
              ],
              [
                139.412476351,
                -7.739448991
              ],
              [
                139.412471874,
                -7.740645197
              ],
              [
                139.412467397,
                -7.741841403
              ],
              [
                139.41125916,
                -7.744229346
              ],
              [
                139.410059881,
                -7.744224874
              ],
              [
                139.408860602,
                -7.744220398
              ],
              [
                139.407656831,
                -7.745412122
              ],
              [
                139.40645755,
                -7.745407639
              ],
              [
                139.40525827,
                -7.745403152
              ],
              [
                139.40405899,
                -7.745398662
              ],
              [
                139.402855204,
                -7.746590369
              ],
              [
                139.401655923,
                -7.746585872
              ],
              [
                139.400456642,
                -7.746581371
              ],
              [
                139.399257362,
                -7.746576867
              ],
              [
                139.398058083,
                -7.746572359
              ],
              [
                139.396858805,
                -7.746567848
              ],
              [
                139.395659527,
                -7.746563334
              ],
              [
                139.39446025,
                -7.746558816
              ],
              [
                139.393260973,
                -7.746554295
              ],
              [
                139.392061698,
                -7.746549771
              ],
              [
                139.390862423,
                -7.746545243
              ],
              [
                139.389663148,
                -7.746540712
              ],
              [
                139.389667693,
                -7.745344519
              ],
              [
                139.388468422,
                -7.745339985
              ],
              [
                139.388472969,
                -7.744143793
              ],
              [
                139.387273703,
                -7.744139257
              ],
              [
                139.386074438,
                -7.744134717
              ],
              [
                139.384870616,
                -7.745326363
              ],
              [
                139.383666788,
                -7.746518005
              ],
              [
                139.382467518,
                -7.746513454
              ],
              [
                139.381263681,
                -7.747705086
              ],
              [
                139.380059836,
                -7.748896714
              ],
              [
                139.378860562,
                -7.748892151
              ],
              [
                139.377661288,
                -7.748887585
              ],
              [
                139.376457431,
                -7.7500792
              ],
              [
                139.375258156,
                -7.750074626
              ],
              [
                139.374058881,
                -7.750070049
              ],
              [
                139.372859607,
                -7.750065468
              ],
              [
                139.371660333,
                -7.750060884
              ],
              [
                139.371655735,
                -7.751257066
              ],
              [
                139.370456459,
                -7.751252478
              ],
              [
                139.369257184,
                -7.751247887
              ],
              [
                139.368057909,
                -7.751243292
              ],
              [
                139.366858635,
                -7.751238694
              ],
              [
                139.365659362,
                -7.751234092
              ],
              [
                139.36446009,
                -7.751229487
              ],
              [
                139.363260818,
                -7.751224879
              ],
              [
                139.362061547,
                -7.751220268
              ],
              [
                139.360862277,
                -7.751215653
              ],
              [
                139.359663007,
                -7.751211034
              ],
              [
                139.358463738,
                -7.751206412
              ],
              [
                139.35726447,
                -7.751201787
              ],
              [
                139.356065203,
                -7.751197159
              ],
              [
                139.354865936,
                -7.751192527
              ],
              [
                139.353666671,
                -7.751187892
              ],
              [
                139.352467406,
                -7.751183253
              ],
              [
                139.351268141,
                -7.751178611
              ],
              [
                139.350073536,
                -7.749977797
              ],
              [
                139.348874277,
                -7.749973149
              ],
              [
                139.347675018,
                -7.749968498
              ],
              [
                139.346480428,
                -7.748767676
              ],
              [
                139.345281174,
                -7.748763019
              ],
              [
                139.344086595,
                -7.747562193
              ],
              [
                139.342887346,
                -7.74755753
              ],
              [
                139.341688098,
                -7.747552863
              ],
              [
                139.340488851,
                -7.747548193
              ],
              [
                139.339289604,
                -7.747543519
              ],
              [
                139.338090358,
                -7.747538842
              ],
              [
                139.338095048,
                -7.746342681
              ],
              [
                139.336895806,
                -7.746338001
              ],
              [
                139.335696565,
                -7.746333318
              ],
              [
                139.334497325,
                -7.746328632
              ],
              [
                139.333298085,
                -7.746323942
              ],
              [
                139.332098846,
                -7.746319249
              ],
              [
                139.330899608,
                -7.746314553
              ],
              [
                139.329700371,
                -7.746309853
              ],
              [
                139.328501134,
                -7.74630515
              ],
              [
                139.327301898,
                -7.746300443
              ],
              [
                139.326102663,
                -7.746295733
              ],
              [
                139.324903428,
                -7.74629102
              ],
              [
                139.323704195,
                -7.746286304
              ],
              [
                139.322504962,
                -7.746281583
              ],
              [
                139.32130573,
                -7.74627686
              ],
              [
                139.320106498,
                -7.746272133
              ],
              [
                139.318907268,
                -7.746267403
              ],
              [
                139.317708038,
                -7.74626267
              ],
              [
                139.316513559,
                -7.745061784
              ],
              [
                139.314119866,
                -7.743856155
              ],
              [
                139.312920646,
                -7.74385141
              ],
              [
                139.310526974,
                -7.742645764
              ],
              [
                139.308133318,
                -7.741440107
              ],
              [
                139.305739677,
                -7.74023444
              ],
              [
                139.304540472,
                -7.740229673
              ],
              [
                139.302142065,
                -7.740220129
              ],
              [
                139.302146852,
                -7.739023989
              ],
              [
                139.299748455,
                -7.739014434
              ],
              [
                139.298549258,
                -7.739009651
              ],
              [
                139.297354861,
                -7.737808727
              ],
              [
                139.296155668,
                -7.737803938
              ],
              [
                139.294956477,
                -7.737799146
              ],
              [
                139.293757286,
                -7.73779435
              ],
              [
                139.292558095,
                -7.737789551
              ],
              [
                139.291358906,
                -7.737784749
              ],
              [
                139.290159717,
                -7.737779943
              ],
              [
                139.288960529,
                -7.737775134
              ],
              [
                139.287766168,
                -7.73657419
              ],
              [
                139.286566985,
                -7.736569375
              ],
              [
                139.285367803,
                -7.736564557
              ],
              [
                139.284168621,
                -7.736559735
              ],
              [
                139.282969441,
                -7.73655491
              ],
              [
                139.281770261,
                -7.736550081
              ],
              [
                139.280571081,
                -7.736545249
              ],
              [
                139.279376752,
                -7.735344288
              ],
              [
                139.278177578,
                -7.73533945
              ],
              [
                139.276978404,
                -7.735334609
              ],
              [
                139.27578409,
                -7.734133641
              ],
              [
                139.274584921,
                -7.734128793
              ],
              [
                139.273390618,
                -7.73292782
              ],
              [
                139.272191454,
                -7.732922967
              ],
              [
                139.270992291,
                -7.732918111
              ],
              [
                139.268593968,
                -7.732908387
              ],
              [
                139.265001376,
                -7.73169766
              ],
              [
                139.263802221,
                -7.731692784
              ],
              [
                139.262603067,
                -7.731687905
              ],
              [
                139.261403913,
                -7.731683022
              ],
              [
                139.260209661,
                -7.730482022
              ],
              [
                139.259010512,
                -7.730477133
              ],
              [
                139.259015415,
                -7.72928102
              ],
              [
                139.257816271,
                -7.729276129
              ],
              [
                139.256617127,
                -7.729271234
              ],
              [
                139.255417985,
                -7.729266336
              ],
              [
                139.254218843,
                -7.729261434
              ],
              [
                139.254223758,
                -7.728065324
              ],
              [
                139.25302462,
                -7.72806042
              ],
              [
                139.251825483,
                -7.728055513
              ],
              [
                139.250626347,
                -7.728050602
              ],
              [
                139.250631272,
                -7.726854494
              ],
              [
                139.24943214,
                -7.726849581
              ],
              [
                139.248233009,
                -7.726844664
              ],
              [
                139.248237939,
                -7.725648557
              ],
              [
                139.247038812,
                -7.725643638
              ],
              [
                139.245839686,
                -7.725638715
              ],
              [
                139.24464056,
                -7.725633789
              ],
              [
                139.243441436,
                -7.72562886
              ],
              [
                139.242242312,
                -7.725623927
              ],
              [
                139.239839112,
                -7.726810153
              ],
              [
                139.238639988,
                -7.726805209
              ],
              [
                139.237440864,
                -7.726800262
              ],
              [
                139.236236775,
                -7.72799141
              ],
              [
                139.235037649,
                -7.727986456
              ],
              [
                139.233833552,
                -7.729177595
              ],
              [
                139.232634424,
                -7.729172633
              ],
              [
                139.231435297,
                -7.729167668
              ],
              [
                139.231430317,
                -7.730363763
              ],
              [
                139.230231188,
                -7.730358794
              ],
              [
                139.229032059,
                -7.730353821
              ],
              [
                139.227832931,
                -7.730348845
              ],
              [
                139.226633804,
                -7.730343865
              ],
              [
                139.225434678,
                -7.730338882
              ],
              [
                139.224235553,
                -7.730333896
              ],
              [
                139.223036428,
                -7.730328906
              ],
              [
                139.221837304,
                -7.730323913
              ],
              [
                139.219434044,
                -7.731510005
              ],
              [
                139.217035795,
                -7.731499993
              ],
              [
                139.215836672,
                -7.731494983
              ],
              [
                139.21463755,
                -7.731489969
              ],
              [
                139.214632521,
                -7.732686053
              ],
              [
                139.212229235,
                -7.733872096
              ],
              [
                139.209830983,
                -7.733862041
              ],
              [
                139.208631857,
                -7.733857009
              ],
              [
                139.207432733,
                -7.733851973
              ],
              [
                139.207427682,
                -7.735048053
              ],
              [
                139.206228555,
                -7.735043013
              ],
              [
                139.205029429,
                -7.735037969
              ],
              [
                139.203830304,
                -7.735032923
              ],
              [
                139.202631179,
                -7.735027873
              ],
              [
                139.201426987,
                -7.736218895
              ],
              [
                139.200227861,
                -7.736213837
              ],
              [
                139.19902366,
                -7.73740485
              ],
              [
                139.197824532,
                -7.737399785
              ],
              [
                139.196625404,
                -7.737394717
              ],
              [
                139.195426278,
                -7.737389645
              ],
              [
                139.194227152,
                -7.73738457
              ],
              [
                139.193028028,
                -7.737379491
              ],
              [
                139.191828904,
                -7.737374409
              ],
              [
                139.19062978,
                -7.737369324
              ],
              [
                139.189430658,
                -7.737364235
              ],
              [
                139.189425554,
                -7.738560303
              ],
              [
                139.188226429,
                -7.73855521
              ],
              [
                139.187027305,
                -7.738550114
              ],
              [
                139.185823067,
                -7.739741079
              ],
              [
                139.184618823,
                -7.74093204
              ],
              [
                139.183419694,
                -7.740926932
              ],
              [
                139.182220567,
                -7.740921821
              ],
              [
                139.18221544,
                -7.742117883
              ],
              [
                139.18101631,
                -7.742112768
              ],
              [
                139.179817181,
                -7.742107649
              ],
              [
                139.178618052,
                -7.742102527
              ],
              [
                139.177418924,
                -7.742097401
              ],
              [
                139.177413784,
                -7.74329346
              ],
              [
                139.176214653,
                -7.743288331
              ],
              [
                139.175015524,
                -7.743283198
              ],
              [
                139.173816395,
                -7.743278061
              ],
              [
                139.172617267,
                -7.743272921
              ],
              [
                139.172612112,
                -7.744468977
              ],
              [
                139.171412982,
                -7.744463833
              ],
              [
                139.170213852,
                -7.744458686
              ],
              [
                139.169014724,
                -7.744453535
              ],
              [
                139.167810426,
                -7.745644434
              ],
              [
                139.165412166,
                -7.745634114
              ],
              [
                139.164213037,
                -7.745628949
              ],
              [
                139.163013909,
                -7.74562378
              ],
              [
                139.160610465,
                -7.746809481
              ],
              [
                139.159411336,
                -7.746804302
              ],
              [
                139.159406142,
                -7.748000349
              ],
              [
                139.15820701,
                -7.747995165
              ],
              [
                139.157002677,
                -7.749186024
              ],
              [
                139.155803544,
                -7.749180833
              ],
              [
                139.154604412,
                -7.749175638
              ],
              [
                139.154599202,
                -7.750371682
              ],
              [
                139.153394853,
                -7.751562525
              ],
              [
                139.152195715,
                -7.751557323
              ],
              [
                139.150996579,
                -7.751552117
              ],
              [
                139.149792218,
                -7.752742947
              ],
              [
                139.14859308,
                -7.752737733
              ],
              [
                139.147393942,
                -7.752732516
              ],
              [
                139.146194805,
                -7.752727296
              ],
              [
                139.146189569,
                -7.753923333
              ],
              [
                139.14499043,
                -7.753918109
              ],
              [
                139.143791292,
                -7.753912881
              ],
              [
                139.142592154,
                -7.753907649
              ],
              [
                139.142586907,
                -7.755103684
              ],
              [
                139.141387767,
                -7.755098449
              ],
              [
                139.140183373,
                -7.756289243
              ],
              [
                139.138984231,
                -7.756284
              ],
              [
                139.13778509,
                -7.756278754
              ],
              [
                139.13658595,
                -7.756273504
              ],
              [
                139.135386811,
                -7.75626825
              ],
              [
                139.134187672,
                -7.756262994
              ],
              [
                139.1341824,
                -7.757459023
              ],
              [
                139.132983259,
                -7.757453762
              ],
              [
                139.131784119,
                -7.757448498
              ],
              [
                139.131778839,
                -7.758644525
              ],
              [
                139.130579696,
                -7.758639257
              ],
              [
                139.129380554,
                -7.758633985
              ],
              [
                139.128181413,
                -7.75862871
              ],
              [
                139.126976978,
                -7.759819455
              ],
              [
                139.125777836,
                -7.759814173
              ],
              [
                139.124578694,
                -7.759808887
              ],
              [
                139.123374247,
                -7.760999619
              ],
              [
                139.122175104,
                -7.760994325
              ],
              [
                139.120970648,
                -7.762185048
              ],
              [
                139.119771502,
                -7.762179746
              ],
              [
                139.118567037,
                -7.76337046
              ],
              [
                139.11736789,
                -7.763365151
              ],
              [
                139.117362565,
                -7.764561168
              ],
              [
                139.116163416,
                -7.764555855
              ],
              [
                139.114964267,
                -7.764550539
              ],
              [
                139.113765119,
                -7.764545219
              ],
              [
                139.112565972,
                -7.764539896
              ],
              [
                139.111366826,
                -7.764534569
              ],
              [
                139.110167681,
                -7.764529239
              ],
              [
                139.108968536,
                -7.764523906
              ],
              [
                139.107769393,
                -7.764518569
              ],
              [
                139.106564894,
                -7.765709239
              ],
              [
                139.105365748,
                -7.765703895
              ],
              [
                139.104166604,
                -7.765698547
              ],
              [
                139.10296746,
                -7.765693196
              ],
              [
                139.101768318,
                -7.765687841
              ],
              [
                139.100569176,
                -7.765682484
              ],
              [
                139.099370035,
                -7.765677122
              ],
              [
                139.098170894,
                -7.765671758
              ],
              [
                139.096971755,
                -7.76566639
              ],
              [
                139.095767229,
                -7.766857021
              ],
              [
                139.094562696,
                -7.768047646
              ],
              [
                139.093363553,
                -7.768042266
              ],
              [
                139.09216441,
                -7.768036883
              ],
              [
                139.092159011,
                -7.769232883
              ],
              [
                139.090959865,
                -7.769227495
              ],
              [
                139.089760721,
                -7.769222105
              ],
              [
                139.088561578,
                -7.769216711
              ],
              [
                139.087362435,
                -7.769211313
              ],
              [
                139.086163293,
                -7.769205912
              ],
              [
                139.084964152,
                -7.769200508
              ],
              [
                139.083765012,
                -7.7691951
              ],
              [
                139.082565873,
                -7.769189689
              ],
              [
                139.081366735,
                -7.769184275
              ],
              [
                139.080167597,
                -7.769178857
              ],
              [
                139.07896846,
                -7.769173436
              ],
              [
                139.077769325,
                -7.769168012
              ],
              [
                139.07657019,
                -7.769162584
              ],
              [
                139.075371056,
                -7.769157152
              ],
              [
                139.07297279,
                -7.76914628
              ],
              [
                139.071773659,
                -7.769140838
              ],
              [
                139.070574528,
                -7.769135393
              ],
              [
                139.069375398,
                -7.769129945
              ],
              [
                139.06817627,
                -7.769124494
              ],
              [
                139.066977142,
                -7.769119039
              ],
              [
                139.065778014,
                -7.76911358
              ],
              [
                139.064578888,
                -7.769108119
              ],
              [
                139.063379763,
                -7.769102654
              ],
              [
                139.062180638,
                -7.769097185
              ],
              [
                139.060981515,
                -7.769091713
              ],
              [
                139.059782392,
                -7.769086238
              ],
              [
                139.05858327,
                -7.76908076
              ],
              [
                139.057384149,
                -7.769075278
              ],
              [
                139.056185029,
                -7.769069792
              ],
              [
                139.05498591,
                -7.769064304
              ],
              [
                139.053786791,
                -7.769058811
              ],
              [
                139.051388557,
                -7.769047817
              ],
              [
                139.051394072,
                -7.767851847
              ],
              [
                139.050194959,
                -7.767846345
              ],
              [
                139.048995848,
                -7.76784084
              ],
              [
                139.047796737,
                -7.767835332
              ],
              [
                139.046597627,
                -7.767829821
              ],
              [
                139.04419941,
                -7.767818787
              ],
              [
                139.043000303,
                -7.767813266
              ],
              [
                139.041801197,
                -7.767807741
              ],
              [
                139.040607636,
                -7.766606249
              ],
              [
                139.039408535,
                -7.766600718
              ],
              [
                139.038209434,
                -7.766595184
              ],
              [
                139.037010335,
                -7.766589646
              ],
              [
                139.035811237,
                -7.766584105
              ],
              [
                139.035816793,
                -7.765388146
              ],
              [
                139.034617699,
                -7.765382602
              ],
              [
                139.033418606,
                -7.765377055
              ],
              [
                139.033424169,
                -7.764181097
              ],
              [
                139.03222508,
                -7.764175548
              ],
              [
                139.031025992,
                -7.764169995
              ],
              [
                139.029826904,
                -7.764164439
              ],
              [
                139.028627818,
                -7.764158879
              ],
              [
                139.028633393,
                -7.762962925
              ],
              [
                139.027434311,
                -7.762957363
              ],
              [
                139.02623523,
                -7.762951797
              ],
              [
                139.02503615,
                -7.762946228
              ],
              [
                139.023842658,
                -7.761744705
              ],
              [
                139.022649174,
                -7.76054318
              ],
              [
                139.021450103,
                -7.760537603
              ],
              [
                139.020251033,
                -7.760532022
              ],
              [
                139.019051964,
                -7.760526438
              ],
              [
                139.017852895,
                -7.760520851
              ],
              [
                139.016653828,
                -7.76051526
              ],
              [
                139.015454761,
                -7.760509666
              ],
              [
                139.014255696,
                -7.760504068
              ],
              [
                139.020306957,
                -7.748572533
              ],
              [
                139.020312545,
                -7.747376584
              ],
              [
                139.020318132,
                -7.746180635
              ],
              [
                139.020323717,
                -7.744984685
              ],
              [
                139.021522743,
                -7.744990255
              ],
              [
                139.021528325,
                -7.743794304
              ],
              [
                139.022732926,
                -7.742603918
              ],
              [
                139.02393752,
                -7.741413527
              ],
              [
                139.025147675,
                -7.739027177
              ],
              [
                139.026352251,
                -7.737836774
              ],
              [
                139.026357814,
                -7.73664082
              ],
              [
                139.02756238,
                -7.735450411
              ],
              [
                139.027567937,
                -7.734254456
              ],
              [
                139.028772491,
                -7.733064041
              ],
              [
                139.029977039,
                -7.731873621
              ],
              [
                139.03118158,
                -7.730683196
              ],
              [
                139.031187124,
                -7.729487238
              ],
              [
                139.032391654,
                -7.728296806
              ],
              [
                139.033590641,
                -7.72830233
              ],
              [
                139.033596177,
                -7.72710637
              ],
              [
                139.033601711,
                -7.72591041
              ],
              [
                139.034806223,
                -7.724719967
              ],
              [
                139.034811753,
                -7.723524006
              ],
              [
                139.034817281,
                -7.722328045
              ],
              [
                139.036021778,
                -7.721137595
              ],
              [
                139.036027301,
                -7.719941633
              ],
              [
                139.037231787,
                -7.718751177
              ],
              [
                139.038436267,
                -7.717560716
              ],
              [
                139.040845205,
                -7.715179779
              ],
              [
                139.043254116,
                -7.712798822
              ],
              [
                139.043259613,
                -7.711602854
              ],
              [
                139.044458561,
                -7.711608335
              ],
              [
                139.045663,
                -7.710417843
              ],
              [
                139.045668489,
                -7.709221874
              ],
              [
                139.046872917,
                -7.708031376
              ],
              [
                139.0468784,
                -7.706835405
              ],
              [
                139.046889364,
                -7.704443463
              ],
              [
                139.046900325,
                -7.702051522
              ],
              [
                139.0481102,
                -7.699665042
              ],
              [
                139.049320058,
                -7.697278555
              ],
              [
                139.049330995,
                -7.694886609
              ],
              [
                139.049336462,
                -7.693690636
              ],
              [
                139.049341929,
                -7.692494663
              ],
              [
                139.05054629,
                -7.691304139
              ],
              [
                139.051756101,
                -7.688917636
              ],
              [
                139.051761557,
                -7.68772166
              ],
              [
                139.052960444,
                -7.687727101
              ],
              [
                139.052965896,
                -7.686531125
              ],
              [
                139.052971347,
                -7.685335148
              ],
              [
                139.054181121,
                -7.68294863
              ],
              [
                139.055385439,
                -7.681758082
              ],
              [
                139.055390879,
                -7.680562104
              ],
              [
                139.055396319,
                -7.679366125
              ],
              [
                139.055401758,
                -7.678170147
              ],
              [
                139.05541807,
                -7.674582211
              ],
              [
                139.055434374,
                -7.670994275
              ],
              [
                139.055445238,
                -7.668602317
              ],
              [
                139.056665781,
                -7.663823814
              ],
              [
                139.056671205,
                -7.662627834
              ],
              [
                139.057875446,
                -7.661437263
              ],
              [
                139.057880865,
                -7.660241281
              ],
              [
                139.059090509,
                -7.657854721
              ],
              [
                139.060305545,
                -7.654272171
              ],
              [
                139.060321764,
                -7.650684221
              ],
              [
                139.060327169,
                -7.649488238
              ],
              [
                139.061525956,
                -7.649493628
              ],
              [
                139.062724743,
                -7.649499014
              ],
              [
                139.06273014,
                -7.648303029
              ],
              [
                139.062735537,
                -7.647107044
              ],
              [
                139.062740932,
                -7.645911058
              ],
              [
                139.063945102,
                -7.644720453
              ],
              [
                139.063950492,
                -7.643524466
              ],
              [
                139.063955881,
                -7.64232848
              ],
              [
                139.063966658,
                -7.639936507
              ],
              [
                139.065170804,
                -7.638745892
              ],
              [
                139.066385699,
                -7.635163296
              ],
              [
                139.067595196,
                -7.63277668
              ],
              [
                139.07000878,
                -7.629199419
              ],
              [
                139.071212876,
                -7.628008775
              ],
              [
                139.072416965,
                -7.626818127
              ],
              [
                139.072422319,
                -7.625622133
              ],
              [
                139.073621048,
                -7.625627473
              ],
              [
                139.074819777,
                -7.625632809
              ],
              [
                139.076023851,
                -7.624442147
              ],
              [
                139.077222579,
                -7.624447475
              ],
              [
                139.078421308,
                -7.624452801
              ],
              [
                139.080824097,
                -7.623267443
              ],
              [
                139.083221554,
                -7.623278069
              ],
              [
                139.084420284,
                -7.623283378
              ],
              [
                139.085619014,
                -7.623288682
              ],
              [
                139.086817746,
                -7.623293984
              ],
              [
                139.088016478,
                -7.623299282
              ],
              [
                139.089215212,
                -7.623304577
              ],
              [
                139.090413946,
                -7.623309869
              ],
              [
                139.092811416,
                -7.623320442
              ],
              [
                139.09520889,
                -7.623331002
              ],
              [
                139.096407629,
                -7.623336277
              ],
              [
                139.097606368,
                -7.623341549
              ],
              [
                139.098805108,
                -7.623346817
              ],
              [
                139.100003849,
                -7.623352082
              ],
              [
                139.101202591,
                -7.623357344
              ],
              [
                139.102401333,
                -7.623362603
              ],
              [
                139.103605342,
                -7.622171842
              ],
              [
                139.106002825,
                -7.622182341
              ],
              [
                139.107201567,
                -7.622187585
              ],
              [
                139.1107978,
                -7.622203299
              ],
              [
                139.11559279,
                -7.622224203
              ],
              [
                139.11799029,
                -7.622234636
              ],
              [
                139.119189041,
                -7.622239847
              ],
              [
                139.120387793,
                -7.622245055
              ],
              [
                139.121586546,
                -7.622250259
              ],
              [
                139.127580322,
                -7.622276232
              ],
              [
                139.129977839,
                -7.622286598
              ],
              [
                139.132375359,
                -7.622296951
              ],
              [
                139.135971645,
                -7.622312456
              ],
              [
                139.139567939,
                -7.62232793
              ],
              [
                139.141965472,
                -7.62233823
              ],
              [
                139.145561778,
                -7.622353654
              ],
              [
                139.14795932,
                -7.622363921
              ],
              [
                139.149158092,
                -7.622369049
              ],
              [
                139.157529053,
                -7.627189064
              ],
              [
                139.159921526,
                -7.628395325
              ],
              [
                139.16231912,
                -7.62840552
              ],
              [
                139.164726915,
                -7.626023587
              ],
              [
                139.168323299,
                -7.62603883
              ],
              [
                139.171919689,
                -7.626054043
              ],
              [
                139.174317287,
                -7.626064169
              ],
              [
                139.176714888,
                -7.626074281
              ],
              [
                139.179112493,
                -7.62608438
              ],
              [
                139.180311296,
                -7.626089425
              ],
              [
                139.183907712,
                -7.626104538
              ],
              [
                139.185106518,
                -7.626109569
              ],
              [
                139.186305326,
                -7.626114597
              ],
              [
                139.188702943,
                -7.626124643
              ],
              [
                139.191100564,
                -7.626134676
              ],
              [
                139.193498188,
                -7.626144695
              ],
              [
                139.195895815,
                -7.626154701
              ],
              [
                139.199492262,
                -7.626169685
              ],
              [
                139.201889897,
                -7.626179658
              ],
              [
                139.204282548,
                -7.627385701
              ],
              [
                139.205481372,
                -7.627390677
              ],
              [
                139.210281646,
                -7.626214459
              ],
              [
                139.21268426,
                -7.625028283
              ],
              [
                139.213883083,
                -7.625033234
              ],
              [
                139.216280731,
                -7.625043125
              ],
              [
                139.218678382,
                -7.625053004
              ],
              [
                139.222274865,
                -7.625067797
              ],
              [
                139.223473694,
                -7.625072721
              ],
              [
                139.225871355,
                -7.625082559
              ],
              [
                139.229467852,
                -7.625097292
              ],
              [
                139.230666686,
                -7.625102197
              ],
              [
                139.233064356,
                -7.625111996
              ],
              [
                139.234263193,
                -7.62511689
              ],
              [
                139.23546203,
                -7.625121781
              ],
              [
                139.237859706,
                -7.625131553
              ],
              [
                139.239058546,
                -7.625136435
              ],
              [
                139.241456227,
                -7.625146187
              ],
              [
                139.245052755,
                -7.62516079
              ],
              [
                139.252255539,
                -7.622797679
              ],
              [
                139.263054791,
                -7.620448874
              ],
              [
                139.269049012,
                -7.620472883
              ],
              [
                139.275043252,
                -7.620496809
              ],
              [
                139.276242103,
                -7.620501584
              ],
              [
                139.282236366,
                -7.62052541
              ],
              [
                139.289429508,
                -7.620553893
              ],
              [
                139.291827228,
                -7.62056336
              ],
              [
                139.295423814,
                -7.620577537
              ],
              [
                139.299020407,
                -7.620591684
              ],
              [
                139.300209835,
                -7.622988683
              ],
              [
                139.302602869,
                -7.62419424
              ],
              [
                139.303801747,
                -7.624198942
              ],
              [
                139.305005333,
                -7.623007491
              ],
              [
                139.305010038,
                -7.621811343
              ],
              [
                139.309814917,
                -7.619437793
              ],
              [
                139.311018474,
                -7.61824632
              ],
              [
                139.314619752,
                -7.617064178
              ],
              [
                139.315818618,
                -7.617068842
              ],
              [
                139.317017484,
                -7.617073502
              ],
              [
                139.318216352,
                -7.617078159
              ],
              [
                139.31941522,
                -7.617082813
              ],
              [
                139.320614088,
                -7.617087463
              ],
              [
                139.321812958,
                -7.61709211
              ],
              [
                139.323011828,
                -7.617096754
              ],
              [
                139.324210699,
                -7.617101394
              ],
              [
                139.325409571,
                -7.617106031
              ]
            ]
          ]
        ]
      }
    }
  ]
}