{
  "type": "FeatureCollection",
  "features": [
    {
      "type": "Feature",
      "properties": {
        "idx": "2634",
        "nama_kewilayahan": "Bonan Dolok Debataraja"
      },
      "geometry": {
        "type": "Polygon",
        "coordinates": [
          [
            [
              98.841963124,
              2.138426472
            ],
            [
              98.841421028,
              2.137697453
            ],
            [
              98.840613681,
              2.13661172
            ],
            [
              98.840515377,
              2.136712269
            ],
            [
              98.840431963,
              2.13674544
            ],
            [
              98.840685609,
              2.136346956
            ],
            [
              98.840698681,
              2.136286594
            ],
            [
              98.840785322,
              2.136152524
            ],
            [
              98.840900276,
              2.136103924
            ],
            [
              98.840949275,
              2.136093208
            ],
            [
              98.841418128,
              2.135990352
            ],
            [
              98.841957274,
              2.135811977
            ],
            [
              98.842500176,
              2.135393312
            ],
            [
              98.842674074,
              2.134848559
            ],
            [
              98.842912144,
              2.134584332
            ],
            [
              98.843285539,
              2.134801945
            ],
            [
              98.84357128,
              2.135078379
            ],
            [
              98.844010783,
              2.135191788
            ],
            [
              98.844060108,
              2.135204516
            ],
            [
              98.844455637,
              2.135144549
            ],
            [
              98.844497137,
              2.135130548
            ],
            [
              98.844685393,
              2.135060183
            ],
            [
              98.84479534,
              2.135058511
            ],
            [
              98.844913107,
              2.13505326
            ],
            [
              98.84531346,
              2.134956603
            ],
            [
              98.845530465,
              2.134751022
            ],
            [
              98.846225073,
              2.135308381
            ],
            [
              98.846259588,
              2.13533815
            ],
            [
              98.846849607,
              2.135847033
            ],
            [
              98.847563321,
              2.13686444
            ],
            [
              98.847697508,
              2.137073962
            ],
            [
              98.847811472,
              2.136443734
            ],
            [
              98.847640185,
              2.136156469
            ],
            [
              98.847486883,
              2.136010781
            ],
            [
              98.847450299,
              2.135817455
            ],
            [
              98.847469027,
              2.135554059
            ],
            [
              98.847543857,
              2.135290668
            ],
            [
              98.847828822,
              2.135019965
            ],
            [
              98.84792582,
              2.135045806
            ],
            [
              98.848363594,
              2.135371398
            ],
            [
              98.848991745,
              2.135428909
            ],
            [
              98.849753151,
              2.135390685
            ],
            [
              98.850685922,
              2.134835431
            ],
            [
              98.850889449,
              2.134533749
            ],
            [
              98.85104764,
              2.134299269
            ],
            [
              98.85165679,
              2.133992931
            ],
            [
              98.852304045,
              2.133322748
            ],
            [
              98.852951233,
              2.133361111
            ],
            [
              98.853163833,
              2.133310085
            ],
            [
              98.853243916,
              2.133290864
            ],
            [
              98.853376782,
              2.1335655
            ],
            [
              98.85359033,
              2.1340247
            ],
            [
              98.853709825,
              2.134234469
            ],
            [
              98.853803894,
              2.134299708
            ],
            [
              98.85396917,
              2.134357283
            ],
            [
              98.854136993,
              2.134380323
            ],
            [
              98.854318789,
              2.134431503
            ],
            [
              98.854439566,
              2.134515933
            ],
            [
              98.854625179,
              2.134615714
            ],
            [
              98.854794259,
              2.13465666
            ],
            [
              98.854997677,
              2.13468865
            ],
            [
              98.855325687,
              2.134759032
            ],
            [
              98.855513849,
              2.134820444
            ],
            [
              98.855620635,
              2.134878013
            ],
            [
              98.855687722,
              2.134898808
            ],
            [
              98.855878505,
              2.134957943
            ],
            [
              98.856215441,
              2.135590812
            ],
            [
              98.857023003,
              2.137107657
            ],
            [
              98.858368693,
              2.139635262
            ],
            [
              98.858560523,
              2.139995575
            ],
            [
              98.859107772,
              2.141023467
            ],
            [
              98.859271748,
              2.141035035
            ],
            [
              98.859168751,
              2.144186987
            ],
            [
              98.859166686,
              2.144250179
            ],
            [
              98.859458019,
              2.144278197
            ],
            [
              98.859571006,
              2.144301125
            ],
            [
              98.85959,
              2.144757
            ],
            [
              98.859731736,
              2.145118239
            ],
            [
              98.859816,
              2.145333
            ],
            [
              98.860712,
              2.145025
            ],
            [
              98.861228494,
              2.144502188
            ],
            [
              98.861366,
              2.144363
            ],
            [
              98.862061,
              2.143718
            ],
            [
              98.862566,
              2.144145
            ],
            [
              98.863128566,
              2.144814383
            ],
            [
              98.863277,
              2.144991
            ],
            [
              98.863877,
              2.144821
            ],
            [
              98.864332,
              2.145056
            ],
            [
              98.865250843,
              2.145344954
            ],
            [
              98.866345101,
              2.145341557
            ],
            [
              98.866727,
              2.144957
            ],
            [
              98.867448,
              2.144635
            ],
            [
              98.867952,
              2.144676
            ],
            [
              98.868408,
              2.144497
            ],
            [
              98.868724,
              2.143929
            ],
            [
              98.869004,
              2.143284
            ],
            [
              98.869502,
              2.142958
            ],
            [
              98.869991,
              2.142843
            ],
            [
              98.870363,
              2.142604
            ],
            [
              98.870739,
              2.142609
            ],
            [
              98.871313,
              2.142511
            ],
            [
              98.871505,
              2.142578
            ],
            [
              98.871543851,
              2.142520539
            ],
            [
              98.871797,
              2.142531
            ],
            [
              98.872429934,
              2.142463789
            ],
            [
              98.872775,
              2.142519
            ],
            [
              98.872901,
              2.142508
            ],
            [
              98.873142,
              2.14245
            ],
            [
              98.873667,
              2.142755
            ],
            [
              98.874259,
              2.142414
            ],
            [
              98.874583,
              2.142229
            ],
            [
              98.875011,
              2.141793
            ],
            [
              98.875519,
              2.141929
            ],
            [
              98.876152,
              2.141195
            ],
            [
              98.876326,
              2.140644
            ],
            [
              98.876456,
              2.140403
            ],
            [
              98.876622,
              2.140372
            ],
            [
              98.87674,
              2.140238
            ],
            [
              98.876744696,
              2.140207598
            ],
            [
              98.877331,
              2.139422
            ],
            [
              98.877499,
              2.139211
            ],
            [
              98.87778,
              2.138716
            ],
            [
              98.878149,
              2.138266
            ],
            [
              98.878486,
              2.137871
            ],
            [
              98.878854,
              2.137335
            ],
            [
              98.878976,
              2.136949
            ],
            [
              98.879126,
              2.136537
            ],
            [
              98.879256,
              2.136433
            ],
            [
              98.879636,
              2.135977
            ],
            [
              98.879918,
              2.135294
            ],
            [
              98.880274,
              2.135112
            ],
            [
              98.880803,
              2.135001
            ],
            [
              98.88077,
              2.134552
            ],
            [
              98.881386,
              2.1347
            ],
            [
              98.881665,
              2.134559
            ],
            [
              98.882263,
              2.134424
            ],
            [
              98.882494,
              2.134313
            ],
            [
              98.882987,
              2.134588
            ],
            [
              98.883108,
              2.134625
            ],
            [
              98.883452,
              2.134772
            ],
            [
              98.883478,
              2.134803
            ],
            [
              98.883741,
              2.13475
            ],
            [
              98.883969,
              2.134826
            ],
            [
              98.884233,
              2.134954
            ],
            [
              98.884524,
              2.135225
            ],
            [
              98.884512,
              2.135397
            ],
            [
              98.884611,
              2.135585
            ],
            [
              98.884643,
              2.136102
            ],
            [
              98.884839,
              2.137059
            ],
            [
              98.884906,
              2.1375
            ],
            [
              98.884532,
              2.137945
            ],
            [
              98.884554,
              2.138355
            ],
            [
              98.884378,
              2.138662
            ],
            [
              98.884576,
              2.139067
            ],
            [
              98.884995,
              2.139724
            ],
            [
              98.885646,
              2.139125
            ],
            [
              98.885787,
              2.139359
            ],
            [
              98.886176,
              2.139756
            ],
            [
              98.886671,
              2.140385
            ],
            [
              98.886111,
              2.141036
            ],
            [
              98.885519,
              2.141683
            ],
            [
              98.885098,
              2.142564
            ],
            [
              98.88514,
              2.142736
            ],
            [
              98.885829963,
              2.143069788
            ],
            [
              98.886157,
              2.143228
            ],
            [
              98.886153,
              2.143671
            ],
            [
              98.886447,
              2.143901
            ],
            [
              98.885889,
              2.144296
            ],
            [
              98.885901,
              2.144321
            ],
            [
              98.886146,
              2.144785
            ],
            [
              98.885910478,
              2.14512695
            ],
            [
              98.885668,
              2.145479
            ],
            [
              98.885078,
              2.145952
            ],
            [
              98.885121,
              2.146636
            ],
            [
              98.884793,
              2.147701
            ],
            [
              98.884415,
              2.148107
            ],
            [
              98.884246,
              2.148594
            ],
            [
              98.884228,
              2.148621
            ],
            [
              98.88428769,
              2.148746503
            ],
            [
              98.884336538,
              2.148925187
            ],
            [
              98.884379996,
              2.148940581
            ],
            [
              98.884384,
              2.148949
            ],
            [
              98.88468002,
              2.149080183
            ],
            [
              98.885039,
              2.149382
            ],
            [
              98.884695,
              2.149413
            ],
            [
              98.884466717,
              2.149533745
            ],
            [
              98.884087,
              2.150306
            ],
            [
              98.883666,
              2.150989
            ],
            [
              98.884970664,
              2.151517873
            ],
            [
              98.88523,
              2.151623
            ],
            [
              98.884297015,
              2.152179418
            ],
            [
              98.883736,
              2.152514
            ],
            [
              98.882566,
              2.152804
            ],
            [
              98.881854354,
              2.152595752
            ],
            [
              98.881153629,
              2.152390699
            ],
            [
              98.880748,
              2.152272
            ],
            [
              98.880429,
              2.152286
            ],
            [
              98.880176,
              2.152664
            ],
            [
              98.880023031,
              2.152759883
            ],
            [
              98.880019,
              2.152794
            ],
            [
              98.879732,
              2.153043
            ],
            [
              98.879693622,
              2.153102937
            ],
            [
              98.879580714,
              2.153279271
            ],
            [
              98.879479427,
              2.153491113
            ],
            [
              98.879468858,
              2.153868259
            ],
            [
              98.880074,
              2.154232
            ],
            [
              98.879988,
              2.154623
            ],
            [
              98.879619,
              2.155164
            ],
            [
              98.879610089,
              2.15516775
            ],
            [
              98.879642,
              2.155281
            ],
            [
              98.879285,
              2.155863
            ],
            [
              98.878610027,
              2.155588626
            ],
            [
              98.878430313,
              2.155515572
            ],
            [
              98.878421907,
              2.155512155
            ],
            [
              98.877224938,
              2.155025589
            ],
            [
              98.876863567,
              2.154878692
            ],
            [
              98.876392,
              2.154687
            ],
            [
              98.874896,
              2.155194
            ],
            [
              98.873440778,
              2.155653818
            ],
            [
              98.872937,
              2.155813
            ],
            [
              98.871064,
              2.155049
            ],
            [
              98.870153,
              2.153855
            ],
            [
              98.868025,
              2.153766
            ],
            [
              98.867482173,
              2.153353036
            ],
            [
              98.867684453,
              2.152639839
            ],
            [
              98.867397812,
              2.152085823
            ],
            [
              98.866055712,
              2.1510456
            ],
            [
              98.864949263,
              2.150760065
            ],
            [
              98.863581073,
              2.149974843
            ],
            [
              98.862260471,
              2.14954654
            ],
            [
              98.861522838,
              2.149296696
            ],
            [
              98.860892281,
              2.148678036
            ],
            [
              98.858621,
              2.147581
            ],
            [
              98.858609215,
              2.147561927
            ],
            [
              98.8586367,
              2.14751192
            ],
            [
              98.858696337,
              2.147367967
            ],
            [
              98.858680294,
              2.147303384
            ],
            [
              98.858697,
              2.147288
            ],
            [
              98.858587988,
              2.147200404
            ],
            [
              98.858487469,
              2.147119635
            ],
            [
              98.858253918,
              2.146931967
            ],
            [
              98.85818648,
              2.146877778
            ],
            [
              98.857058,
              2.145971
            ],
            [
              98.856561786,
              2.146131471
            ],
            [
              98.855851884,
              2.146361047
            ],
            [
              98.855784,
              2.146383
            ],
            [
              98.855353811,
              2.146402861
            ],
            [
              98.854571,
              2.146439
            ],
            [
              98.854182698,
              2.146493534
            ],
            [
              98.852430975,
              2.14673955
            ],
            [
              98.851823912,
              2.146824806
            ],
            [
              98.851673,
              2.146846
            ],
            [
              98.851374661,
              2.146875912
            ],
            [
              98.850219431,
              2.146991738
            ],
            [
              98.848943292,
              2.145533618
            ],
            [
              98.847119218,
              2.144836964
            ],
            [
              98.845148474,
              2.142756191
            ],
            [
              98.842917403,
              2.140217627
            ],
            [
              98.842906243,
              2.140195911
            ],
            [
              98.842179198,
              2.138781129
            ],
            [
              98.842072599,
              2.138573695
            ],
            [
              98.841963124,
              2.138426472
            ]
          ]
        ]
      }
    }
  ]
}