{
  "type": "FeatureCollection",
  "features": [
    {
      "type": "Feature",
      "properties": {
        "idx": "2635",
        "nama_kewilayahan": "Bassikalling"
      },
      "geometry": {
        "type": "Polygon",
        "coordinates": [
          [
            [
              119.722073237,
              -5.07748387
            ],
            [
              119.721983534,
              -5.077471816
            ],
            [
              119.721657071,
              -5.077405291
            ],
            [
              119.721529502,
              -5.077389332
            ],
            [
              119.721401129,
              -5.077480728
            ],
            [
              119.721248771,
              -5.077538752
            ],
            [
              119.721157286,
              -5.077628319
            ],
            [
              119.721111254,
              -5.077642825
            ],
            [
              119.721068353,
              -5.077623797
            ],
            [
              119.720985988,
              -5.07759904
            ],
            [
              119.720944592,
              -5.077637412
            ],
            [
              119.720899869,
              -5.077625505
            ],
            [
              119.720824679,
              -5.07761705
            ],
            [
              119.720648791,
              -5.07765553
            ],
            [
              119.720400447,
              -5.077661876
            ],
            [
              119.720107322,
              -5.077698976
            ],
            [
              119.720000538,
              -5.077821362
            ],
            [
              119.719977977,
              -5.07792353
            ],
            [
              119.719921061,
              -5.078006109
            ],
            [
              119.71980715,
              -5.077941129
            ],
            [
              119.719721374,
              -5.077955837
            ],
            [
              119.719592156,
              -5.078023005
            ],
            [
              119.719321062,
              -5.078196294
            ],
            [
              119.719249913,
              -5.078287449
            ],
            [
              119.719135905,
              -5.078393129
            ],
            [
              119.71905091,
              -5.078594325
            ],
            [
              119.71901783,
              -5.078666191
            ],
            [
              119.719043708,
              -5.07879507
            ],
            [
              119.719000199,
              -5.079010558
            ],
            [
              119.71899724,
              -5.07920803
            ],
            [
              119.718778861,
              -5.079316163
            ],
            [
              119.718649344,
              -5.079362614
            ],
            [
              119.718640918,
              -5.079369175
            ],
            [
              119.718514,
              -5.079468
            ],
            [
              119.718302665,
              -5.079479461
            ],
            [
              119.718218768,
              -5.079487466
            ],
            [
              119.718093034,
              -5.07952625
            ],
            [
              119.718003688,
              -5.07959931
            ],
            [
              119.717904,
              -5.079654
            ],
            [
              119.717596301,
              -5.079807545
            ],
            [
              119.717533331,
              -5.079838968
            ],
            [
              119.717511084,
              -5.079850069
            ],
            [
              119.71725019,
              -5.080048153
            ],
            [
              119.717008265,
              -5.080075579
            ],
            [
              119.716991649,
              -5.080071995
            ],
            [
              119.716775121,
              -5.080025289
            ],
            [
              119.716508097,
              -5.080032153
            ],
            [
              119.716205014,
              -5.08008316
            ],
            [
              119.715816807,
              -5.080176906
            ],
            [
              119.715695004,
              -5.080206319
            ],
            [
              119.715655411,
              -5.080217234
            ],
            [
              119.715625392,
              -5.080225509
            ],
            [
              119.715471391,
              -5.08026796
            ],
            [
              119.715277148,
              -5.080345288
            ],
            [
              119.715241906,
              -5.080364429
            ],
            [
              119.715236616,
              -5.080386521
            ],
            [
              119.715191215,
              -5.080576143
            ],
            [
              119.715174431,
              -5.080646245
            ],
            [
              119.715096047,
              -5.080718303
            ],
            [
              119.714981537,
              -5.080704439
            ],
            [
              119.714891928,
              -5.080658194
            ],
            [
              119.714809593,
              -5.080640609
            ],
            [
              119.71472865,
              -5.080612069
            ],
            [
              119.714569994,
              -5.08064879
            ],
            [
              119.714444919,
              -5.080674421
            ],
            [
              119.714337698,
              -5.080692805
            ],
            [
              119.714302382,
              -5.080691592
            ],
            [
              119.714295231,
              -5.080691346
            ],
            [
              119.714242742,
              -5.080672205
            ],
            [
              119.714196842,
              -5.080643707
            ],
            [
              119.714106745,
              -5.080639785
            ],
            [
              119.714087054,
              -5.080625719
            ],
            [
              119.714004568,
              -5.08057227
            ],
            [
              119.713922172,
              -5.08054034
            ],
            [
              119.713783514,
              -5.080540986
            ],
            [
              119.713748511,
              -5.08051505
            ],
            [
              119.713712505,
              -5.08045782
            ],
            [
              119.713673698,
              -5.080414946
            ],
            [
              119.71365747,
              -5.080390028
            ],
            [
              119.71364302,
              -5.080383809
            ],
            [
              119.713603249,
              -5.080332039
            ],
            [
              119.713555823,
              -5.080280594
            ],
            [
              119.713449698,
              -5.080219355
            ],
            [
              119.713392311,
              -5.080180863
            ],
            [
              119.713333626,
              -5.080173938
            ],
            [
              119.713299333,
              -5.080184124
            ],
            [
              119.713222037,
              -5.080174407
            ],
            [
              119.713180441,
              -5.08014876
            ],
            [
              119.713094454,
              -5.080113258
            ],
            [
              119.713044322,
              -5.080099123
            ],
            [
              119.713011435,
              -5.08009994
            ],
            [
              119.71295736,
              -5.080172652
            ],
            [
              119.712933154,
              -5.08020001
            ],
            [
              119.712898993,
              -5.080241756
            ],
            [
              119.712874775,
              -5.080266245
            ],
            [
              119.712827666,
              -5.080290831
            ],
            [
              119.712810129,
              -5.080299085
            ],
            [
              119.712787687,
              -5.080309648
            ],
            [
              119.712750563,
              -5.080327019
            ],
            [
              119.712713522,
              -5.080364474
            ],
            [
              119.712659531,
              -5.080411951
            ],
            [
              119.712635445,
              -5.080419596
            ],
            [
              119.7126135,
              -5.080449236
            ],
            [
              119.712585415,
              -5.080487168
            ],
            [
              119.712569816,
              -5.080508236
            ],
            [
              119.712503615,
              -5.080597647
            ],
            [
              119.712502447,
              -5.080599225
            ],
            [
              119.71239926,
              -5.080714113
            ],
            [
              119.71232352,
              -5.080848323
            ],
            [
              119.712298081,
              -5.080939041
            ],
            [
              119.712267135,
              -5.081049399
            ],
            [
              119.712096461,
              -5.08128921
            ],
            [
              119.711987399,
              -5.081437906
            ],
            [
              119.711883605,
              -5.081629928
            ],
            [
              119.71187738,
              -5.081635422
            ],
            [
              119.711872498,
              -5.081643328
            ],
            [
              119.711440157,
              -5.081813273
            ],
            [
              119.71121904,
              -5.081964832
            ],
            [
              119.710954764,
              -5.082059189
            ],
            [
              119.710769051,
              -5.082124526
            ],
            [
              119.710362,
              -5.082288
            ],
            [
              119.71036657,
              -5.082308045
            ],
            [
              119.710372211,
              -5.082332786
            ],
            [
              119.710387493,
              -5.082399811
            ],
            [
              119.710653977,
              -5.083568588
            ],
            [
              119.710864438,
              -5.084487416
            ],
            [
              119.710873791,
              -5.08452825
            ],
            [
              119.710935221,
              -5.084796887
            ],
            [
              119.711003124,
              -5.085069167
            ],
            [
              119.711070668,
              -5.085255375
            ],
            [
              119.711171124,
              -5.085448412
            ],
            [
              119.711276699,
              -5.085649901
            ],
            [
              119.711304412,
              -5.085702791
            ],
            [
              119.711481657,
              -5.086031892
            ],
            [
              119.711623464,
              -5.086401381
            ],
            [
              119.711687789,
              -5.086568984
            ],
            [
              119.711735991,
              -5.086770593
            ],
            [
              119.711752358,
              -5.08683905
            ],
            [
              119.711771751,
              -5.086920165
            ],
            [
              119.71178291,
              -5.086948836
            ],
            [
              119.711863012,
              -5.087154619
            ],
            [
              119.711920317,
              -5.087291261
            ],
            [
              119.712001516,
              -5.087464261
            ],
            [
              119.71202,
              -5.087670311
            ],
            [
              119.712020276,
              -5.087673388
            ],
            [
              119.712013697,
              -5.087749495
            ],
            [
              119.712006061,
              -5.087837824
            ],
            [
              119.711927616,
              -5.088098088
            ],
            [
              119.71192669,
              -5.088101161
            ],
            [
              119.711993113,
              -5.08830411
            ],
            [
              119.712011647,
              -5.088459442
            ],
            [
              119.712050818,
              -5.088560891
            ],
            [
              119.712151776,
              -5.088796328
            ],
            [
              119.712153158,
              -5.088799553
            ],
            [
              119.712151178,
              -5.088803566
            ],
            [
              119.712091093,
              -5.088925338
            ],
            [
              119.712044144,
              -5.089101866
            ],
            [
              119.712030538,
              -5.089165918
            ],
            [
              119.712070653,
              -5.089213555
            ],
            [
              119.712137341,
              -5.089292748
            ],
            [
              119.712161773,
              -5.08933185
            ],
            [
              119.712191354,
              -5.089379192
            ],
            [
              119.71221191,
              -5.089398536
            ],
            [
              119.712358926,
              -5.089536885
            ],
            [
              119.712416207,
              -5.089692053
            ],
            [
              119.712448203,
              -5.089766054
            ],
            [
              119.712450445,
              -5.089771239
            ],
            [
              119.712479411,
              -5.089838231
            ],
            [
              119.712478019,
              -5.08984093
            ],
            [
              119.712479437,
              -5.089844209
            ],
            [
              119.712441706,
              -5.089917332
            ],
            [
              119.712409976,
              -5.089940764
            ],
            [
              119.712368191,
              -5.089967548
            ],
            [
              119.712175531,
              -5.08996836
            ],
            [
              119.711931047,
              -5.089892881
            ],
            [
              119.711805126,
              -5.089887673
            ],
            [
              119.711778461,
              -5.089897349
            ],
            [
              119.711722075,
              -5.089903358
            ],
            [
              119.711714776,
              -5.089906735
            ],
            [
              119.711559432,
              -5.089978607
            ],
            [
              119.711424046,
              -5.089990654
            ],
            [
              119.711399312,
              -5.09000606
            ],
            [
              119.711359703,
              -5.090113341
            ],
            [
              119.711358076,
              -5.090180293
            ],
            [
              119.711349863,
              -5.090226694
            ],
            [
              119.711343168,
              -5.090264517
            ],
            [
              119.711328079,
              -5.090307286
            ],
            [
              119.711313892,
              -5.090347499
            ],
            [
              119.711230354,
              -5.090385589
            ],
            [
              119.711141644,
              -5.090426036
            ],
            [
              119.711008089,
              -5.090448934
            ],
            [
              119.710830916,
              -5.090475164
            ],
            [
              119.710701445,
              -5.090533092
            ],
            [
              119.710481974,
              -5.090509151
            ],
            [
              119.710375281,
              -5.090540204
            ],
            [
              119.710289787,
              -5.090622812
            ],
            [
              119.710160467,
              -5.090717081
            ],
            [
              119.710088231,
              -5.090872459
            ],
            [
              119.71004102,
              -5.090960622
            ],
            [
              119.709992035,
              -5.091037219
            ],
            [
              119.709986235,
              -5.091075498
            ],
            [
              119.709943606,
              -5.091145015
            ],
            [
              119.7098735,
              -5.091201497
            ],
            [
              119.709849842,
              -5.09124027
            ],
            [
              119.709848634,
              -5.091242247
            ],
            [
              119.709882477,
              -5.091352088
            ],
            [
              119.709920998,
              -5.091432754
            ],
            [
              119.709982251,
              -5.091547724
            ],
            [
              119.710041928,
              -5.091613014
            ],
            [
              119.710090026,
              -5.091660839
            ],
            [
              119.710184623,
              -5.091730495
            ],
            [
              119.710323639,
              -5.091826276
            ],
            [
              119.710543481,
              -5.091938919
            ],
            [
              119.710840717,
              -5.092027327
            ],
            [
              119.710994473,
              -5.092054459
            ],
            [
              119.711059057,
              -5.092065856
            ],
            [
              119.711286695,
              -5.092122746
            ],
            [
              119.711338484,
              -5.092172271
            ],
            [
              119.711330471,
              -5.092179726
            ],
            [
              119.711237372,
              -5.092257646
            ],
            [
              119.711056442,
              -5.092295397
            ],
            [
              119.710827733,
              -5.092342984
            ],
            [
              119.710659722,
              -5.09236521
            ],
            [
              119.710595477,
              -5.092397759
            ],
            [
              119.710627953,
              -5.092465763
            ],
            [
              119.710731991,
              -5.092540639
            ],
            [
              119.710873657,
              -5.092511895
            ],
            [
              119.710875064,
              -5.092512035
            ],
            [
              119.711067245,
              -5.092531174
            ],
            [
              119.71111478,
              -5.092529816
            ],
            [
              119.711325651,
              -5.092523791
            ],
            [
              119.71151159,
              -5.092512249
            ],
            [
              119.711640846,
              -5.092630055
            ],
            [
              119.711959752,
              -5.09276858
            ],
            [
              119.712081658,
              -5.092839793
            ],
            [
              119.712268548,
              -5.092881402
            ],
            [
              119.712544144,
              -5.092926863
            ],
            [
              119.712642674,
              -5.092939912
            ],
            [
              119.712701605,
              -5.092947717
            ],
            [
              119.712764243,
              -5.092961676
            ],
            [
              119.712826578,
              -5.092975567
            ],
            [
              119.71294435,
              -5.093001813
            ],
            [
              119.712970108,
              -5.093007553
            ],
            [
              119.713033096,
              -5.093009543
            ],
            [
              119.713114603,
              -5.093012118
            ],
            [
              119.713126421,
              -5.093006514
            ],
            [
              119.713154437,
              -5.092993231
            ],
            [
              119.713185437,
              -5.092978532
            ],
            [
              119.713189509,
              -5.092976601
            ],
            [
              119.713298487,
              -5.092924929
            ],
            [
              119.713337708,
              -5.092865396
            ],
            [
              119.71334141,
              -5.092859776
            ],
            [
              119.713376676,
              -5.092806249
            ],
            [
              119.713559023,
              -5.092791134
            ],
            [
              119.713705559,
              -5.09276541
            ],
            [
              119.713884406,
              -5.092768243
            ],
            [
              119.714095457,
              -5.092774524
            ],
            [
              119.714231519,
              -5.092809814
            ],
            [
              119.714262359,
              -5.092873452
            ],
            [
              119.714204851,
              -5.092969592
            ],
            [
              119.714142519,
              -5.093073797
            ],
            [
              119.714141309,
              -5.093075227
            ],
            [
              119.714089297,
              -5.093136701
            ],
            [
              119.714024997,
              -5.093216239
            ],
            [
              119.713943979,
              -5.093327467
            ],
            [
              119.713867027,
              -5.093415762
            ],
            [
              119.713758883,
              -5.093539845
            ],
            [
              119.713686744,
              -5.093670072
            ],
            [
              119.713617403,
              -5.093783118
            ],
            [
              119.713617266,
              -5.093783337
            ],
            [
              119.713591971,
              -5.093823874
            ],
            [
              119.713530203,
              -5.093923335
            ],
            [
              119.713431992,
              -5.094060003
            ],
            [
              119.713334655,
              -5.094183422
            ],
            [
              119.713254277,
              -5.094285338
            ],
            [
              119.713087233,
              -5.094497143
            ],
            [
              119.713022338,
              -5.094579428
            ],
            [
              119.713066287,
              -5.094697584
            ],
            [
              119.713020242,
              -5.09480537
            ],
            [
              119.712963302,
              -5.094873752
            ],
            [
              119.712862459,
              -5.094888599
            ],
            [
              119.712857801,
              -5.094891124
            ],
            [
              119.712787674,
              -5.094929153
            ],
            [
              119.712685986,
              -5.094986698
            ],
            [
              119.712602769,
              -5.095043833
            ],
            [
              119.712581911,
              -5.095187377
            ],
            [
              119.712538217,
              -5.095280656
            ],
            [
              119.712492228,
              -5.095378834
            ],
            [
              119.712440507,
              -5.095439933
            ],
            [
              119.712322457,
              -5.095579388
            ],
            [
              119.712208192,
              -5.095657507
            ],
            [
              119.712190498,
              -5.095669605
            ],
            [
              119.712110401,
              -5.095732325
            ],
            [
              119.712003984,
              -5.095815655
            ],
            [
              119.711912933,
              -5.095880662
            ],
            [
              119.711838,
              -5.095931
            ],
            [
              119.711745933,
              -5.09600023
            ],
            [
              119.711662795,
              -5.096062747
            ],
            [
              119.71156761,
              -5.096123836
            ],
            [
              119.711516543,
              -5.09615661
            ],
            [
              119.7114826,
              -5.096204998
            ],
            [
              119.711438323,
              -5.096268118
            ],
            [
              119.711330447,
              -5.096391134
            ],
            [
              119.711271018,
              -5.096458903
            ],
            [
              119.711216267,
              -5.096566694
            ],
            [
              119.711165539,
              -5.096666563
            ],
            [
              119.711145,
              -5.096707
            ],
            [
              119.711132556,
              -5.096896514
            ],
            [
              119.711122502,
              -5.097049628
            ],
            [
              119.711114466,
              -5.097151775
            ],
            [
              119.711086795,
              -5.097298434
            ],
            [
              119.711074518,
              -5.097363503
            ],
            [
              119.711050733,
              -5.097510154
            ],
            [
              119.711037002,
              -5.097585509
            ],
            [
              119.710975609,
              -5.097849737
            ],
            [
              119.710948421,
              -5.097966752
            ],
            [
              119.71091843,
              -5.098095829
            ],
            [
              119.710864025,
              -5.098078977
            ],
            [
              119.710785608,
              -5.098089444
            ],
            [
              119.710748469,
              -5.098094402
            ],
            [
              119.710748439,
              -5.098094406
            ],
            [
              119.710706163,
              -5.098100049
            ],
            [
              119.710625539,
              -5.098110811
            ],
            [
              119.710551578,
              -5.098123144
            ],
            [
              119.710456486,
              -5.098136033
            ],
            [
              119.710345093,
              -5.098183843
            ],
            [
              119.710266407,
              -5.098184175
            ],
            [
              119.710258852,
              -5.098173202
            ],
            [
              119.710228981,
              -5.09812982
            ],
            [
              119.71020187,
              -5.098147149
            ],
            [
              119.71015749,
              -5.098140163
            ],
            [
              119.710113151,
              -5.098143219
            ],
            [
              119.710048885,
              -5.098170747
            ],
            [
              119.710011802,
              -5.09819816
            ],
            [
              119.709973108,
              -5.098182543
            ],
            [
              119.709944345,
              -5.0981468
            ],
            [
              119.70987991,
              -5.098134161
            ],
            [
              119.709831226,
              -5.098124325
            ],
            [
              119.709814691,
              -5.09809711
            ],
            [
              119.709780803,
              -5.098041333
            ],
            [
              119.709699219,
              -5.09803307
            ],
            [
              119.70960922,
              -5.098065009
            ],
            [
              119.709585765,
              -5.098072601
            ],
            [
              119.709546355,
              -5.098085358
            ],
            [
              119.709473986,
              -5.098115804
            ],
            [
              119.709441274,
              -5.098129566
            ],
            [
              119.709429245,
              -5.098134627
            ],
            [
              119.709367822,
              -5.098157839
            ],
            [
              119.709238816,
              -5.098099566
            ],
            [
              119.709115147,
              -5.097949459
            ],
            [
              119.709046325,
              -5.097913885
            ],
            [
              119.709000015,
              -5.097872367
            ],
            [
              119.708919096,
              -5.097799821
            ],
            [
              119.708911886,
              -5.097798807
            ],
            [
              119.70889779,
              -5.097796827
            ],
            [
              119.708867183,
              -5.097792528
            ],
            [
              119.708853173,
              -5.097796534
            ],
            [
              119.70874579,
              -5.097827242
            ],
            [
              119.708624724,
              -5.097764446
            ],
            [
              119.708486568,
              -5.097764277
            ],
            [
              119.708395007,
              -5.097764165
            ],
            [
              119.708223176,
              -5.097729025
            ],
            [
              119.70808736,
              -5.097739608
            ],
            [
              119.707877,
              -5.097756
            ],
            [
              119.707907163,
              -5.097898413
            ],
            [
              119.707908213,
              -5.097903372
            ],
            [
              119.707956,
              -5.098129
            ],
            [
              119.70787537,
              -5.098243694
            ],
            [
              119.707875138,
              -5.098244025
            ],
            [
              119.70782504,
              -5.098315286
            ],
            [
              119.707750861,
              -5.098537956
            ],
            [
              119.707729943,
              -5.098667155
            ],
            [
              119.707778266,
              -5.098798377
            ],
            [
              119.707791527,
              -5.098829036
            ],
            [
              119.707820043,
              -5.098894961
            ],
            [
              119.707863644,
              -5.098995759
            ],
            [
              119.707863658,
              -5.098995792
            ],
            [
              119.707973164,
              -5.09924011
            ],
            [
              119.708026234,
              -5.099379248
            ],
            [
              119.707962387,
              -5.099385045
            ],
            [
              119.70788003,
              -5.099378898
            ],
            [
              119.707868,
              -5.099378
            ],
            [
              119.707807221,
              -5.099376896
            ],
            [
              119.707551667,
              -5.099394404
            ],
            [
              119.707193007,
              -5.099418976
            ],
            [
              119.70715905,
              -5.099489043
            ],
            [
              119.707154623,
              -5.099498178
            ],
            [
              119.707114,
              -5.099582
            ],
            [
              119.706979644,
              -5.099653368
            ],
            [
              119.706805413,
              -5.099745916
            ],
            [
              119.706771776,
              -5.099763783
            ],
            [
              119.706698656,
              -5.099802623
            ],
            [
              119.706636088,
              -5.099923282
            ],
            [
              119.706529874,
              -5.100128042
            ],
            [
              119.706529872,
              -5.100128111
            ],
            [
              119.706529735,
              -5.100131703
            ],
            [
              119.706513463,
              -5.100562796
            ],
            [
              119.706392774,
              -5.100782075
            ],
            [
              119.70636454,
              -5.100865976
            ],
            [
              119.706347487,
              -5.100916652
            ],
            [
              119.706346842,
              -5.10091855
            ],
            [
              119.706256912,
              -5.101181526
            ],
            [
              119.706157489,
              -5.101472272
            ],
            [
              119.706042,
              -5.10181
            ],
            [
              119.706068547,
              -5.102050073
            ],
            [
              119.706108159,
              -5.102408296
            ],
            [
              119.706155218,
              -5.102833864
            ],
            [
              119.706175685,
              -5.103011682
            ],
            [
              119.7062637,
              -5.10361905
            ],
            [
              119.706284078,
              -5.103680914
            ],
            [
              119.706172453,
              -5.103972036
            ],
            [
              119.706036123,
              -5.104157909
            ],
            [
              119.706067834,
              -5.104612054
            ],
            [
              119.70616441,
              -5.104770821
            ],
            [
              119.706164774,
              -5.104771419
            ],
            [
              119.706241911,
              -5.104898233
            ],
            [
              119.706262001,
              -5.105500371
            ],
            [
              119.70626295,
              -5.105793544
            ],
            [
              119.706262962,
              -5.105797213
            ],
            [
              119.706253549,
              -5.106045197
            ],
            [
              119.706252161,
              -5.10615536
            ],
            [
              119.70630104,
              -5.106235835
            ],
            [
              119.706312345,
              -5.106302019
            ],
            [
              119.706312701,
              -5.106304101
            ],
            [
              119.706302161,
              -5.106428372
            ],
            [
              119.706301863,
              -5.106431889
            ],
            [
              119.70632068,
              -5.106574871
            ],
            [
              119.706335403,
              -5.106753328
            ],
            [
              119.706376972,
              -5.106854524
            ],
            [
              119.70636831,
              -5.106924142
            ],
            [
              119.706330685,
              -5.107049825
            ],
            [
              119.706331164,
              -5.107054286
            ],
            [
              119.706333092,
              -5.107072236
            ],
            [
              119.706337863,
              -5.107105155
            ],
            [
              119.706343823,
              -5.107146274
            ],
            [
              119.706339593,
              -5.10718368
            ],
            [
              119.706299042,
              -5.107180264
            ],
            [
              119.706232422,
              -5.107215214
            ],
            [
              119.706187287,
              -5.10725605
            ],
            [
              119.706076689,
              -5.107323463
            ],
            [
              119.706024336,
              -5.107348789
            ],
            [
              119.705966107,
              -5.107394463
            ],
            [
              119.705934062,
              -5.107429266
            ],
            [
              119.705934413,
              -5.107434953
            ],
            [
              119.705934087,
              -5.107435244
            ],
            [
              119.705937925,
              -5.107497391
            ],
            [
              119.705959595,
              -5.10754751
            ],
            [
              119.70600464,
              -5.107595741
            ],
            [
              119.705976789,
              -5.107666984
            ],
            [
              119.705943581,
              -5.107708966
            ],
            [
              119.705915153,
              -5.107753318
            ],
            [
              119.705916161,
              -5.107757919
            ],
            [
              119.705941006,
              -5.107871346
            ],
            [
              119.705943117,
              -5.107882311
            ],
            [
              119.705956492,
              -5.107944419
            ],
            [
              119.705960315,
              -5.108002981
            ],
            [
              119.705978445,
              -5.108313603
            ],
            [
              119.706140971,
              -5.108403773
            ],
            [
              119.706384571,
              -5.108493601
            ],
            [
              119.706599295,
              -5.108521386
            ],
            [
              119.706699323,
              -5.108407479
            ],
            [
              119.706707384,
              -5.108417827
            ],
            [
              119.706767838,
              -5.108539887
            ],
            [
              119.706856445,
              -5.108630369
            ],
            [
              119.706897544,
              -5.108661936
            ],
            [
              119.7069091,
              -5.10867677
            ],
            [
              119.707074027,
              -5.108769291
            ],
            [
              119.707086317,
              -5.108776186
            ],
            [
              119.707113274,
              -5.108804361
            ],
            [
              119.707200826,
              -5.108840424
            ],
            [
              119.707240853,
              -5.108862879
            ],
            [
              119.707454527,
              -5.108895543
            ],
            [
              119.707678568,
              -5.108870688
            ],
            [
              119.707869187,
              -5.108836409
            ],
            [
              119.708013276,
              -5.108823752
            ],
            [
              119.70801978,
              -5.108820573
            ],
            [
              119.708119315,
              -5.108863233
            ],
            [
              119.708165037,
              -5.108848694
            ],
            [
              119.708203,
              -5.108731
            ],
            [
              119.708441586,
              -5.108576251
            ],
            [
              119.708956554,
              -5.108554948
            ],
            [
              119.709247464,
              -5.108376163
            ],
            [
              119.709622117,
              -5.108341254
            ],
            [
              119.709807986,
              -5.108311778
            ],
            [
              119.710131813,
              -5.108200427
            ],
            [
              119.710589592,
              -5.108188928
            ],
            [
              119.710770732,
              -5.108169035
            ],
            [
              119.711161002,
              -5.107980893
            ],
            [
              119.711436898,
              -5.107812361
            ],
            [
              119.711888721,
              -5.107518758
            ],
            [
              119.712150631,
              -5.107426795
            ],
            [
              119.712474235,
              -5.107262844
            ],
            [
              119.712764437,
              -5.107094252
            ],
            [
              119.71306991,
              -5.10681328
            ],
            [
              119.71308,
              -5.106804
            ],
            [
              119.713099627,
              -5.106802133
            ],
            [
              119.713300451,
              -5.106783027
            ],
            [
              119.713410053,
              -5.106671918
            ],
            [
              119.713644663,
              -5.106578032
            ],
            [
              119.713658802,
              -5.106578361
            ],
            [
              119.713973734,
              -5.106610952
            ],
            [
              119.714145275,
              -5.106576753
            ],
            [
              119.714178033,
              -5.106428378
            ],
            [
              119.714180915,
              -5.106361783
            ],
            [
              119.714297779,
              -5.106265767
            ],
            [
              119.714459078,
              -5.106064247
            ],
            [
              119.71455341,
              -5.105815192
            ],
            [
              119.714666174,
              -5.10541304
            ],
            [
              119.714666149,
              -5.105407064
            ],
            [
              119.714664644,
              -5.105049627
            ],
            [
              119.714664619,
              -5.105043649
            ],
            [
              119.714634909,
              -5.104712523
            ],
            [
              119.714680622,
              -5.104313155
            ],
            [
              119.714745777,
              -5.103930332
            ],
            [
              119.714745227,
              -5.103927438
            ],
            [
              119.714745752,
              -5.103924355
            ],
            [
              119.714663757,
              -5.103492621
            ],
            [
              119.714627452,
              -5.103458243
            ],
            [
              119.71458424,
              -5.103389089
            ],
            [
              119.714490049,
              -5.103104968
            ],
            [
              119.714480241,
              -5.102986004
            ],
            [
              119.714480489,
              -5.102982501
            ],
            [
              119.714619998,
              -5.102819899
            ],
            [
              119.714769765,
              -5.102711674
            ],
            [
              119.714849528,
              -5.102566471
            ],
            [
              119.715111252,
              -5.102430874
            ],
            [
              119.715316131,
              -5.102244712
            ],
            [
              119.715431832,
              -5.10211571
            ],
            [
              119.715520444,
              -5.101924062
            ],
            [
              119.715603246,
              -5.101768302
            ],
            [
              119.715834258,
              -5.101417653
            ],
            [
              119.715851488,
              -5.10126217
            ],
            [
              119.715842542,
              -5.101159755
            ],
            [
              119.715833444,
              -5.101101731
            ],
            [
              119.716006855,
              -5.100865036
            ],
            [
              119.716144,
              -5.100608
            ],
            [
              119.716145847,
              -5.10060684
            ],
            [
              119.716302026,
              -5.099994978
            ],
            [
              119.716827025,
              -5.099480977
            ],
            [
              119.716833341,
              -5.099474564
            ],
            [
              119.717010112,
              -5.099462407
            ],
            [
              119.717174457,
              -5.099418675
            ],
            [
              119.717288759,
              -5.099382328
            ],
            [
              119.717367264,
              -5.09933896
            ],
            [
              119.717424098,
              -5.099245473
            ],
            [
              119.71752355,
              -5.099080079
            ],
            [
              119.717580444,
              -5.099000938
            ],
            [
              119.717773251,
              -5.098921223
            ],
            [
              119.718009159,
              -5.098884361
            ],
            [
              119.718280441,
              -5.098754104
            ],
            [
              119.718437601,
              -5.098703229
            ],
            [
              119.718608918,
              -5.098616432
            ],
            [
              119.718637079,
              -5.098508721
            ],
            [
              119.718657632,
              -5.098293452
            ],
            [
              119.718692494,
              -5.098078122
            ],
            [
              119.718777186,
              -5.0978052
            ],
            [
              119.71891186,
              -5.097510548
            ],
            [
              119.719100812,
              -5.097169559
            ],
            [
              119.719105025,
              -5.097167977
            ],
            [
              119.719163819,
              -5.0970959
            ],
            [
              119.719169404,
              -5.09708982
            ],
            [
              119.719250324,
              -5.097088351
            ],
            [
              119.719431636,
              -5.097110537
            ],
            [
              119.719594008,
              -5.097145997
            ],
            [
              119.719654885,
              -5.097181354
            ],
            [
              119.719723166,
              -5.097217649
            ],
            [
              119.719784824,
              -5.097263203
            ],
            [
              119.719885119,
              -5.097297925
            ],
            [
              119.720024794,
              -5.097341805
            ],
            [
              119.72018526,
              -5.097396356
            ],
            [
              119.72033855,
              -5.097445916
            ],
            [
              119.72044677,
              -5.097494232
            ],
            [
              119.720551353,
              -5.097528219
            ],
            [
              119.720652374,
              -5.097565806
            ],
            [
              119.720772726,
              -5.097607617
            ],
            [
              119.720910935,
              -5.097642894
            ],
            [
              119.721046135,
              -5.09764304
            ],
            [
              119.72118195,
              -5.097619512
            ],
            [
              119.721258375,
              -5.097591931
            ],
            [
              119.721414189,
              -5.097561147
            ],
            [
              119.721461325,
              -5.097545661
            ],
            [
              119.721520454,
              -5.097520249
            ],
            [
              119.721529174,
              -5.097517384
            ],
            [
              119.721663474,
              -5.097473779
            ],
            [
              119.721764153,
              -5.097430316
            ],
            [
              119.721911912,
              -5.097387548
            ],
            [
              119.721987717,
              -5.097353906
            ],
            [
              119.722069446,
              -5.097323202
            ],
            [
              119.722074637,
              -5.097327238
            ],
            [
              119.722103336,
              -5.097347439
            ],
            [
              119.722125958,
              -5.097387629
            ],
            [
              119.722125083,
              -5.097415488
            ],
            [
              119.72213943,
              -5.097424991
            ],
            [
              119.722171649,
              -5.097418493
            ],
            [
              119.722178663,
              -5.09742306
            ],
            [
              119.72220149,
              -5.097440269
            ],
            [
              119.722228372,
              -5.097453902
            ],
            [
              119.7223238,
              -5.097465453
            ],
            [
              119.722356651,
              -5.09744502
            ],
            [
              119.722380892,
              -5.097433531
            ],
            [
              119.722427413,
              -5.097439312
            ],
            [
              119.722463146,
              -5.09743139
            ],
            [
              119.722494816,
              -5.097449188
            ],
            [
              119.72253908,
              -5.097428788
            ],
            [
              119.722578357,
              -5.097412843
            ],
            [
              119.722659647,
              -5.09735153
            ],
            [
              119.722699538,
              -5.097311911
            ],
            [
              119.722750339,
              -5.097314565
            ],
            [
              119.722786941,
              -5.097343101
            ],
            [
              119.72280149,
              -5.097400421
            ],
            [
              119.722802519,
              -5.097475013
            ],
            [
              119.722902003,
              -5.097487502
            ],
            [
              119.722959969,
              -5.097492995
            ],
            [
              119.72298298,
              -5.097521588
            ],
            [
              119.722999981,
              -5.097546756
            ],
            [
              119.723010249,
              -5.097612606
            ],
            [
              119.723011376,
              -5.097653725
            ],
            [
              119.723054453,
              -5.09769084
            ],
            [
              119.723089686,
              -5.097677302
            ],
            [
              119.723116322,
              -5.09766093
            ],
            [
              119.723140187,
              -5.097665611
            ],
            [
              119.723174623,
              -5.097689374
            ],
            [
              119.723219446,
              -5.097688228
            ],
            [
              119.723231701,
              -5.09773377
            ],
            [
              119.723228428,
              -5.097782631
            ],
            [
              119.723228809,
              -5.097783298
            ],
            [
              119.723228453,
              -5.097788608
            ],
            [
              119.72326881,
              -5.097859208
            ],
            [
              119.72330135,
              -5.097885849
            ],
            [
              119.723343332,
              -5.097889496
            ],
            [
              119.723408217,
              -5.097895915
            ],
            [
              119.723449184,
              -5.097885222
            ],
            [
              119.723505658,
              -5.0979328
            ],
            [
              119.723545821,
              -5.097957495
            ],
            [
              119.723595549,
              -5.097988845
            ],
            [
              119.723631978,
              -5.098032683
            ],
            [
              119.72367015,
              -5.098037303
            ],
            [
              119.723722449,
              -5.097999783
            ],
            [
              119.723843858,
              -5.098009311
            ],
            [
              119.723902281,
              -5.098010258
            ],
            [
              119.723994061,
              -5.098005087
            ],
            [
              119.724106028,
              -5.097980703
            ],
            [
              119.724175619,
              -5.097951329
            ],
            [
              119.724251719,
              -5.097903189
            ],
            [
              119.724295988,
              -5.097930962
            ],
            [
              119.724282,
              -5.097996
            ],
            [
              119.724283088,
              -5.097997033
            ],
            [
              119.724282025,
              -5.098001977
            ],
            [
              119.724431568,
              -5.098143907
            ],
            [
              119.724538917,
              -5.098155407
            ],
            [
              119.724605761,
              -5.09817425
            ],
            [
              119.724722789,
              -5.098219181
            ],
            [
              119.724822601,
              -5.098139858
            ],
            [
              119.724876351,
              -5.098123524
            ],
            [
              119.724939186,
              -5.098079591
            ],
            [
              119.724967799,
              -5.09807947
            ],
            [
              119.724989339,
              -5.098098505
            ],
            [
              119.725007608,
              -5.098160085
            ],
            [
              119.725051899,
              -5.09823213
            ],
            [
              119.725099627,
              -5.098241492
            ],
            [
              119.725166643,
              -5.098300981
            ],
            [
              119.725259927,
              -5.098369921
            ],
            [
              119.725314668,
              -5.09834578
            ],
            [
              119.725324055,
              -5.098309876
            ],
            [
              119.725341241,
              -5.098281835
            ],
            [
              119.725407277,
              -5.098254533
            ],
            [
              119.725431151,
              -5.098261604
            ],
            [
              119.725452702,
              -5.098283031
            ],
            [
              119.725467062,
              -5.09832775
            ],
            [
              119.725496146,
              -5.098407173
            ],
            [
              119.725579771,
              -5.098447464
            ],
            [
              119.725603576,
              -5.098437799
            ],
            [
              119.725636896,
              -5.098423312
            ],
            [
              119.725654025,
              -5.098395977
            ],
            [
              119.725844832,
              -5.098351396
            ],
            [
              119.725919968,
              -5.098319064
            ],
            [
              119.725981401,
              -5.098298719
            ],
            [
              119.726105752,
              -5.098270936
            ],
            [
              119.72615862,
              -5.098254931
            ],
            [
              119.726217112,
              -5.098215951
            ],
            [
              119.726321568,
              -5.098219811
            ],
            [
              119.726385808,
              -5.098186544
            ],
            [
              119.726435741,
              -5.098153338
            ],
            [
              119.726488681,
              -5.098154548
            ],
            [
              119.726510025,
              -5.098195977
            ],
            [
              119.726998025,
              -5.097802977
            ],
            [
              119.727123878,
              -5.097838764
            ],
            [
              119.727137427,
              -5.097811301
            ],
            [
              119.727163669,
              -5.097775475
            ],
            [
              119.727219427,
              -5.097766632
            ],
            [
              119.72725243,
              -5.097789444
            ],
            [
              119.727273017,
              -5.097819398
            ],
            [
              119.727328466,
              -5.09783933
            ],
            [
              119.727438679,
              -5.097851773
            ],
            [
              119.727530258,
              -5.097855688
            ],
            [
              119.727603264,
              -5.09786542
            ],
            [
              119.727651966,
              -5.097879558
            ],
            [
              119.727736472,
              -5.097902152
            ],
            [
              119.727785095,
              -5.097897643
            ],
            [
              119.727842266,
              -5.097884489
            ],
            [
              119.727852623,
              -5.097854009
            ],
            [
              119.72786914,
              -5.097811214
            ],
            [
              119.72790918,
              -5.09780674
            ],
            [
              119.727973649,
              -5.097827985
            ],
            [
              119.728030948,
              -5.097844956
            ],
            [
              119.728120025,
              -5.097869977
            ],
            [
              119.728199739,
              -5.097838501
            ],
            [
              119.728266901,
              -5.097819566
            ],
            [
              119.728281044,
              -5.097780773
            ],
            [
              119.728284072,
              -5.097718227
            ],
            [
              119.728308932,
              -5.097608941
            ],
            [
              119.728529878,
              -5.097417927
            ],
            [
              119.728583345,
              -5.097374664
            ],
            [
              119.728650337,
              -5.097379416
            ],
            [
              119.728692797,
              -5.097404085
            ],
            [
              119.728765363,
              -5.097422905
            ],
            [
              119.728824367,
              -5.097392051
            ],
            [
              119.728873574,
              -5.097300031
            ],
            [
              119.728873005,
              -5.097295074
            ],
            [
              119.72887355,
              -5.097294054
            ],
            [
              119.728860967,
              -5.097184574
            ],
            [
              119.728955165,
              -5.097097436
            ],
            [
              119.729061515,
              -5.097085009
            ],
            [
              119.729164351,
              -5.097044406
            ],
            [
              119.729206098,
              -5.096992585
            ],
            [
              119.729205806,
              -5.096986939
            ],
            [
              119.729206073,
              -5.096986608
            ],
            [
              119.729202205,
              -5.096911812
            ],
            [
              119.729254025,
              -5.096820977
            ],
            [
              119.729402359,
              -5.096715365
            ],
            [
              119.729429339,
              -5.096724659
            ],
            [
              119.729529874,
              -5.096759293
            ],
            [
              119.729607025,
              -5.096734579
            ],
            [
              119.729610036,
              -5.096729966
            ],
            [
              119.729709941,
              -5.096712623
            ],
            [
              119.729789844,
              -5.096662075
            ],
            [
              119.729851228,
              -5.096630254
            ],
            [
              119.729959709,
              -5.096570978
            ],
            [
              119.730011108,
              -5.096546372
            ],
            [
              119.73001264,
              -5.096404189
            ],
            [
              119.730013026,
              -5.096403977
            ],
            [
              119.730100865,
              -5.096401103
            ],
            [
              119.730153164,
              -5.096363822
            ],
            [
              119.73018882,
              -5.096337371
            ],
            [
              119.730214947,
              -5.096313351
            ],
            [
              119.730217835,
              -5.096262532
            ],
            [
              119.730217547,
              -5.096261172
            ],
            [
              119.730217809,
              -5.096256555
            ],
            [
              119.73019518,
              -5.096149659
            ],
            [
              119.730186651,
              -5.096021548
            ],
            [
              119.730240983,
              -5.095985688
            ],
            [
              119.730313707,
              -5.095985379
            ],
            [
              119.730403173,
              -5.095996954
            ],
            [
              119.730465278,
              -5.09602299
            ],
            [
              119.730562978,
              -5.09600823
            ],
            [
              119.730574658,
              -5.09600469
            ],
            [
              119.730604412,
              -5.095938717
            ],
            [
              119.730651782,
              -5.095863204
            ],
            [
              119.730737461,
              -5.095903668
            ],
            [
              119.730791445,
              -5.095904451
            ],
            [
              119.730838062,
              -5.095932944
            ],
            [
              119.730884346,
              -5.095882538
            ],
            [
              119.730910402,
              -5.095841782
            ],
            [
              119.730966228,
              -5.095792532
            ],
            [
              119.73096584,
              -5.095786875
            ],
            [
              119.730966203,
              -5.095786555
            ],
            [
              119.730963527,
              -5.095747541
            ],
            [
              119.731090819,
              -5.095659632
            ],
            [
              119.731179419,
              -5.095633249
            ],
            [
              119.731249381,
              -5.095599958
            ],
            [
              119.731390843,
              -5.09555919
            ],
            [
              119.73145481,
              -5.095461371
            ],
            [
              119.731523189,
              -5.095392222
            ],
            [
              119.731558073,
              -5.095367013
            ],
            [
              119.731557182,
              -5.095361662
            ],
            [
              119.731542728,
              -5.095274942
            ],
            [
              119.731637907,
              -5.095036995
            ],
            [
              119.731852058,
              -5.094918023
            ],
            [
              119.732090003,
              -5.094870434
            ],
            [
              119.732280361,
              -5.094791911
            ],
            [
              119.732430267,
              -5.094720528
            ],
            [
              119.73255162,
              -5.094592037
            ],
            [
              119.732644418,
              -5.094506376
            ],
            [
              119.732722941,
              -5.094392162
            ],
            [
              119.732808601,
              -5.094299362
            ],
            [
              119.732894262,
              -5.094213702
            ],
            [
              119.732965646,
              -5.094128042
            ],
            [
              119.733022752,
              -5.094028104
            ],
            [
              119.733072722,
              -5.093949582
            ],
            [
              119.733087654,
              -5.093947591
            ],
            [
              119.733179797,
              -5.093935305
            ],
            [
              119.733258319,
              -5.093963859
            ],
            [
              119.733287005,
              -5.093992545
            ],
            [
              119.73330115,
              -5.094006689
            ],
            [
              119.733301547,
              -5.094007776
            ],
            [
              119.733359248,
              -5.094040748
            ],
            [
              119.733367625,
              -5.094045535
            ],
            [
              119.73337774,
              -5.094051315
            ],
            [
              119.733484816,
              -5.094110801
            ],
            [
              119.733619519,
              -5.094152248
            ],
            [
              119.733620949,
              -5.094155167
            ],
            [
              119.73374944,
              -5.094212274
            ],
            [
              119.734020699,
              -5.094069507
            ],
            [
              119.734263404,
              -5.093755418
            ],
            [
              119.73450797,
              -5.093510851
            ],
            [
              119.734532025,
              -5.093498977
            ],
            [
              119.735161899,
              -5.093507261
            ],
            [
              119.735189692,
              -5.093313481
            ],
            [
              119.735367762,
              -5.093133408
            ],
            [
              119.73566019,
              -5.09293133
            ],
            [
              119.735952921,
              -5.092800977
            ],
            [
              119.736130748,
              -5.092563524
            ],
            [
              119.736200762,
              -5.092204594
            ],
            [
              119.73637877,
              -5.092010176
            ],
            [
              119.736463666,
              -5.091787463
            ],
            [
              119.736698049,
              -5.09139197
            ],
            [
              119.736974987,
              -5.09119215
            ],
            [
              119.737432461,
              -5.091113696
            ],
            [
              119.738333769,
              -5.091114643
            ],
            [
              119.738546743,
              -5.090731196
            ],
            [
              119.738557784,
              -5.090559577
            ],
            [
              119.738535869,
              -5.09045208
            ],
            [
              119.73854975,
              -5.090351605
            ],
            [
              119.738574315,
              -5.090240324
            ],
            [
              119.738588318,
              -5.090168538
            ],
            [
              119.738648785,
              -5.090089382
            ],
            [
              119.738723588,
              -5.090017338
            ],
            [
              119.738851918,
              -5.089916375
            ],
            [
              119.738959078,
              -5.089883642
            ],
            [
              119.739123659,
              -5.089897287
            ],
            [
              119.739259431,
              -5.089864432
            ],
            [
              119.739423739,
              -5.089813525
            ],
            [
              119.739534337,
              -5.0897485
            ],
            [
              119.739698949,
              -5.089769317
            ],
            [
              119.739938667,
              -5.089789814
            ],
            [
              119.740124449,
              -5.089742401
            ],
            [
              119.740202222,
              -5.089526892
            ],
            [
              119.740240804,
              -5.089347412
            ],
            [
              119.740297603,
              -5.089246754
            ],
            [
              119.740314848,
              -5.089096055
            ],
            [
              119.740200005,
              -5.0890033
            ],
            [
              119.740056428,
              -5.088881977
            ],
            [
              119.73994172,
              -5.088821498
            ],
            [
              119.739746968,
              -5.088695374
            ],
            [
              119.739744622,
              -5.088693855
            ],
            [
              119.73964058,
              -5.088654223
            ],
            [
              119.739447417,
              -5.088647872
            ],
            [
              119.739350729,
              -5.088619593
            ],
            [
              119.739296672,
              -5.088522993
            ],
            [
              119.739267665,
              -5.088429872
            ],
            [
              119.739238734,
              -5.088354683
            ],
            [
              119.739227565,
              -5.088250727
            ],
            [
              119.739209242,
              -5.088146802
            ],
            [
              119.739216136,
              -5.088085806
            ],
            [
              119.739305443,
              -5.088060322
            ],
            [
              119.739391264,
              -5.08805637
            ],
            [
              119.739459203,
              -5.088052495
            ],
            [
              119.739494832,
              -5.088020067
            ],
            [
              119.739523277,
              -5.087980496
            ],
            [
              119.739562406,
              -5.087930121
            ],
            [
              119.739515638,
              -5.087865767
            ],
            [
              119.739513188,
              -5.087824695
            ],
            [
              119.739511788,
              -5.08780123
            ],
            [
              119.739576908,
              -5.087824424
            ],
            [
              119.739601338,
              -5.087833125
            ],
            [
              119.739614472,
              -5.087824264
            ],
            [
              119.739686931,
              -5.08777538
            ],
            [
              119.739704,
              -5.087603
            ],
            [
              119.739807926,
              -5.087631413
            ],
            [
              119.739892966,
              -5.087641704
            ],
            [
              119.739922435,
              -5.087645271
            ],
            [
              119.740025972,
              -5.087601795
            ],
            [
              119.740093805,
              -5.087572815
            ],
            [
              119.740154681,
              -5.087590488
            ],
            [
              119.740240715,
              -5.087636743
            ],
            [
              119.740330204,
              -5.087654294
            ],
            [
              119.740466111,
              -5.087653716
            ],
            [
              119.7405698,
              -5.087646102
            ],
            [
              119.740712875,
              -5.08764908
            ],
            [
              119.740852298,
              -5.08763414
            ],
            [
              119.740991843,
              -5.087647892
            ],
            [
              119.741249383,
              -5.087653968
            ],
            [
              119.741467595,
              -5.087663797
            ],
            [
              119.741589212,
              -5.087666866
            ],
            [
              119.741786239,
              -5.087741339
            ],
            [
              119.741919128,
              -5.087754727
            ],
            [
              119.741921787,
              -5.087754995
            ],
            [
              119.74192222,
              -5.087748025
            ],
            [
              119.741929769,
              -5.087626498
            ],
            [
              119.741963,
              -5.087529
            ],
            [
              119.742018589,
              -5.087486254
            ],
            [
              119.742125,
              -5.087504438
            ],
            [
              119.742142866,
              -5.087507491
            ],
            [
              119.742228794,
              -5.087528643
            ],
            [
              119.742350759,
              -5.087614195
            ],
            [
              119.742463239,
              -5.087711742
            ],
            [
              119.74258281,
              -5.087794913
            ],
            [
              119.742722176,
              -5.087857718
            ],
            [
              119.742756822,
              -5.087867365
            ],
            [
              119.742790788,
              -5.087876824
            ],
            [
              119.742874962,
              -5.087900263
            ],
            [
              119.742889198,
              -5.087897246
            ],
            [
              119.743020699,
              -5.087869372
            ],
            [
              119.743227229,
              -5.087842777
            ],
            [
              119.743239666,
              -5.087841176
            ],
            [
              119.743360003,
              -5.087767693
            ],
            [
              119.743528815,
              -5.087654603
            ],
            [
              119.743638038,
              -5.087546548
            ],
            [
              119.743811547,
              -5.087416702
            ],
            [
              119.743875377,
              -5.087287324
            ],
            [
              119.743917413,
              -5.087079139
            ],
            [
              119.743919332,
              -5.086969151
            ],
            [
              119.743919216,
              -5.086968389
            ],
            [
              119.74389971,
              -5.086840128
            ],
            [
              119.743884806,
              -5.086699131
            ],
            [
              119.743876934,
              -5.086529413
            ],
            [
              119.743877165,
              -5.086528946
            ],
            [
              119.743933672,
              -5.08641441
            ],
            [
              119.743932544,
              -5.086410666
            ],
            [
              119.743879298,
              -5.086233948
            ],
            [
              119.743823898,
              -5.086076806
            ],
            [
              119.743794,
              -5.085992
            ],
            [
              119.743782637,
              -5.085948938
            ],
            [
              119.743763236,
              -5.0859485
            ],
            [
              119.743761831,
              -5.085942016
            ],
            [
              119.743596044,
              -5.085881073
            ],
            [
              119.74355806,
              -5.085859606
            ],
            [
              119.743544583,
              -5.085857952
            ],
            [
              119.743347971,
              -5.08576282
            ],
            [
              119.743211563,
              -5.085645054
            ],
            [
              119.743128696,
              -5.085501954
            ],
            [
              119.743074532,
              -5.08538025
            ],
            [
              119.74305127,
              -5.085178118
            ],
            [
              119.743050195,
              -5.085169348
            ],
            [
              119.74301891,
              -5.084914268
            ],
            [
              119.74289281,
              -5.084763299
            ],
            [
              119.742885452,
              -5.084743656
            ],
            [
              119.742746473,
              -5.084581669
            ],
            [
              119.742731542,
              -5.084585609
            ],
            [
              119.742552462,
              -5.084561211
            ],
            [
              119.742391657,
              -5.084594172
            ],
            [
              119.742209591,
              -5.084673845
            ],
            [
              119.742038313,
              -5.084767818
            ],
            [
              119.741892011,
              -5.08484734
            ],
            [
              119.741755816,
              -5.084870411
            ],
            [
              119.741748624,
              -5.084865648
            ],
            [
              119.741708924,
              -5.084849354
            ],
            [
              119.741561613,
              -5.084766764
            ],
            [
              119.741504864,
              -5.084734948
            ],
            [
              119.741358112,
              -5.084612916
            ],
            [
              119.741200139,
              -5.084470135
            ],
            [
              119.741053032,
              -5.084359586
            ],
            [
              119.740923869,
              -5.084263305
            ],
            [
              119.740795876,
              -5.08405482
            ],
            [
              119.740759331,
              -5.084016556
            ],
            [
              119.740680205,
              -5.083912173
            ],
            [
              119.740538036,
              -5.083785105
            ],
            [
              119.740415822,
              -5.083640737
            ],
            [
              119.740276375,
              -5.083480664
            ],
            [
              119.740172765,
              -5.083337652
            ],
            [
              119.740046424,
              -5.083232035
            ],
            [
              119.739924374,
              -5.083126399
            ],
            [
              119.739814091,
              -5.083096742
            ],
            [
              119.739678123,
              -5.083082975
            ],
            [
              119.739469584,
              -5.083161326
            ],
            [
              119.739178616,
              -5.083369135
            ],
            [
              119.738951569,
              -5.083469083
            ],
            [
              119.738727056,
              -5.083491554
            ],
            [
              119.738452388,
              -5.083494156
            ],
            [
              119.738263591,
              -5.083505
            ],
            [
              119.738090494,
              -5.083507171
            ],
            [
              119.737924678,
              -5.083539435
            ],
            [
              119.737740467,
              -5.083582137
            ],
            [
              119.737435507,
              -5.083638902
            ],
            [
              119.737115211,
              -5.083724899
            ],
            [
              119.736760793,
              -5.083786176
            ],
            [
              119.73671088,
              -5.083783954
            ],
            [
              119.73632793,
              -5.083766901
            ],
            [
              119.736107615,
              -5.083678372
            ],
            [
              119.735906515,
              -5.083626854
            ],
            [
              119.735603461,
              -5.083522749
            ],
            [
              119.735282555,
              -5.083418356
            ],
            [
              119.735266,
              -5.083412971
            ],
            [
              119.734976408,
              -5.083249263
            ],
            [
              119.734865127,
              -5.083152905
            ],
            [
              119.73479675,
              -5.083052779
            ],
            [
              119.734735555,
              -5.082959794
            ],
            [
              119.734684848,
              -5.082809383
            ],
            [
              119.734604894,
              -5.082508472
            ],
            [
              119.734581544,
              -5.08206028
            ],
            [
              119.73455219,
              -5.081884674
            ],
            [
              119.73455503,
              -5.081790663
            ],
            [
              119.734322068,
              -5.081595158
            ],
            [
              119.734217845,
              -5.081468514
            ],
            [
              119.734208491,
              -5.081456662
            ],
            [
              119.734027237,
              -5.081227017
            ],
            [
              119.733692704,
              -5.081146615
            ],
            [
              119.733666602,
              -5.081134371
            ],
            [
              119.73362298,
              -5.081160997
            ],
            [
              119.733180197,
              -5.081370476
            ],
            [
              119.73300285,
              -5.081477666
            ],
            [
              119.732926067,
              -5.081467134
            ],
            [
              119.732777713,
              -5.081569376
            ],
            [
              119.732763803,
              -5.081588679
            ],
            [
              119.732644841,
              -5.081638134
            ],
            [
              119.732498537,
              -5.081717654
            ],
            [
              119.732344913,
              -5.081757754
            ],
            [
              119.732183127,
              -5.08180355
            ],
            [
              119.731987935,
              -5.081809312
            ],
            [
              119.731734026,
              -5.081830942
            ],
            [
              119.731298847,
              -5.081644584
            ],
            [
              119.731256804,
              -5.081620613
            ],
            [
              119.731237158,
              -5.081616142
            ],
            [
              119.731034839,
              -5.081508676
            ],
            [
              119.730733566,
              -5.081309118
            ],
            [
              119.730461208,
              -5.081181163
            ],
            [
              119.730368118,
              -5.081140358
            ],
            [
              119.730363465,
              -5.081132352
            ],
            [
              119.730211453,
              -5.081045489
            ],
            [
              119.730014771,
              -5.080882785
            ],
            [
              119.729942649,
              -5.080742506
            ],
            [
              119.7298432,
              -5.080567914
            ],
            [
              119.72974103,
              -5.080426327
            ],
            [
              119.7296506,
              -5.080354983
            ],
            [
              119.729571522,
              -5.080305072
            ],
            [
              119.729441069,
              -5.080138272
            ],
            [
              119.7293048,
              -5.080052776
            ],
            [
              119.729124729,
              -5.079949124
            ],
            [
              119.729112924,
              -5.079936366
            ],
            [
              119.728995723,
              -5.079736027
            ],
            [
              119.7289281,
              -5.079531653
            ],
            [
              119.728846884,
              -5.079269954
            ],
            [
              119.728785822,
              -5.079088818
            ],
            [
              119.728750303,
              -5.078983455
            ],
            [
              119.728659687,
              -5.078754313
            ],
            [
              119.728555742,
              -5.078530965
            ],
            [
              119.728313107,
              -5.078440181
            ],
            [
              119.72808999,
              -5.078454514
            ],
            [
              119.727916515,
              -5.078480113
            ],
            [
              119.727716464,
              -5.078536427
            ],
            [
              119.727572849,
              -5.078591465
            ],
            [
              119.727514595,
              -5.07861379
            ],
            [
              119.727385072,
              -5.07865833
            ],
            [
              119.727207717,
              -5.078668644
            ],
            [
              119.727142719,
              -5.07863449
            ],
            [
              119.727066589,
              -5.078674979
            ],
            [
              119.726967353,
              -5.078708396
            ],
            [
              119.726885722,
              -5.078728476
            ],
            [
              119.72669792,
              -5.078768507
            ],
            [
              119.726517863,
              -5.078816608
            ],
            [
              119.726376511,
              -5.078883195
            ],
            [
              119.726170788,
              -5.078951488
            ],
            [
              119.726076223,
              -5.078917458
            ],
            [
              119.725992971,
              -5.078851821
            ],
            [
              119.72587236,
              -5.07874761
            ],
            [
              119.725729046,
              -5.078687965
            ],
            [
              119.72557401,
              -5.07856238
            ],
            [
              119.725398916,
              -5.078429708
            ],
            [
              119.725335602,
              -5.078342468
            ],
            [
              119.725190442,
              -5.078183847
            ],
            [
              119.725086999,
              -5.078079563
            ],
            [
              119.724904625,
              -5.077916796
            ],
            [
              119.724776898,
              -5.077821221
            ],
            [
              119.72467203,
              -5.077718377
            ],
            [
              119.724614631,
              -5.077677017
            ],
            [
              119.724483052,
              -5.07768618
            ],
            [
              119.724351358,
              -5.077668088
            ],
            [
              119.724234199,
              -5.077704446
            ],
            [
              119.724111432,
              -5.077768084
            ],
            [
              119.724017241,
              -5.077822995
            ],
            [
              119.723917364,
              -5.077886536
            ],
            [
              119.723814451,
              -5.077908489
            ],
            [
              119.723701439,
              -5.077910401
            ],
            [
              119.723643027,
              -5.077894035
            ],
            [
              119.723537122,
              -5.077845775
            ],
            [
              119.723437818,
              -5.077787299
            ],
            [
              119.72330332,
              -5.077700438
            ],
            [
              119.723146886,
              -5.077612745
            ],
            [
              119.723036487,
              -5.077525116
            ],
            [
              119.722927327,
              -5.07742229
            ],
            [
              119.722847159,
              -5.077409717
            ],
            [
              119.722695581,
              -5.077426137
            ],
            [
              119.722568342,
              -5.077446757
            ],
            [
              119.722437481,
              -5.077456634
            ],
            [
              119.722251668,
              -5.077496868
            ],
            [
              119.722139846,
              -5.077498707
            ],
            [
              119.722073237,
              -5.07748387
            ]
          ]
        ]
      }
    }
  ]
}