{
  "type": "FeatureCollection",
  "features": [
    {
      "type": "Feature",
      "properties": {
        "idx": "2752",
        "nama_kewilayahan": "E.eh Yadouw"
      },
      "geometry": {
        "type": "MultiPolygon",
        "coordinates": [
          [
            [
              [
                139.953783417,
                -2.89761572
              ],
              [
                139.953721197,
                -2.897983759
              ],
              [
                139.953762837,
                -2.898180065
              ],
              [
                139.953715248,
                -2.898519138
              ],
              [
                139.953590326,
                -2.89917349
              ],
              [
                139.953542737,
                -2.899857585
              ],
              [
                139.95235118,
                -2.901011607
              ],
              [
                139.951731372,
                -2.902628269
              ],
              [
                139.95001816,
                -2.905126703
              ],
              [
                139.948412024,
                -2.906304536
              ],
              [
                139.947448343,
                -2.907518061
              ],
              [
                139.94591359,
                -2.908374667
              ],
              [
                139.945235444,
                -2.908767278
              ],
              [
                139.944878525,
                -2.909873727
              ],
              [
                139.945199752,
                -2.911158636
              ],
              [
                139.940524111,
                -2.911051561
              ],
              [
                139.940202884,
                -2.912514929
              ],
              [
                139.939810273,
                -2.915049055
              ],
              [
                139.939596121,
                -2.91979608
              ],
              [
                139.938917975,
                -2.920020939
              ],
              [
                139.928225275,
                -2.91911841
              ],
              [
                139.918266633,
                -2.922172368
              ],
              [
                139.914897316,
                -2.924456651
              ],
              [
                139.909529252,
                -2.926512505
              ],
              [
                139.904560937,
                -2.926398291
              ],
              [
                139.89949579,
                -2.927184772
              ],
              [
                139.886279063,
                -2.932470676
              ],
              [
                139.87542872,
                -2.932851389
              ],
              [
                139.864578378,
                -2.931804426
              ],
              [
                139.855250891,
                -2.929234609
              ],
              [
                139.84554269,
                -2.923714259
              ],
              [
                139.841354839,
                -2.920763727
              ],
              [
                139.835810964,
                -2.915735463
              ],
              [
                139.832655529,
                -2.920649513
              ],
              [
                139.828086964,
                -2.9251229
              ],
              [
                139.823803934,
                -2.928358967
              ],
              [
                139.816189659,
                -2.926169863
              ],
              [
                139.807718778,
                -2.925598792
              ],
              [
                139.800199681,
                -2.923790402
              ],
              [
                139.790586659,
                -2.923219331
              ],
              [
                139.78563738,
                -2.923600045
              ],
              [
                139.777870819,
                -2.923409688
              ],
              [
                139.775205823,
                -2.927312004
              ],
              [
                139.771017971,
                -2.928644502
              ],
              [
                139.766639763,
                -2.928834859
              ],
              [
                139.763118161,
                -2.925598792
              ],
              [
                139.759786916,
                -2.925027721
              ],
              [
                139.755027994,
                -2.926455398
              ],
              [
                139.752267819,
                -2.928263788
              ],
              [
                139.750173893,
                -2.927026469
              ],
              [
                139.751791927,
                -2.924171116
              ],
              [
                139.751316034,
                -2.921315762
              ],
              [
                139.750935321,
                -2.919126658
              ],
              [
                139.75160157,
                -2.916461662
              ],
              [
                139.753314782,
                -2.913225595
              ],
              [
                139.754185525,
                -2.911637378
              ],
              [
                139.761835088,
                -2.889466288
              ],
              [
                139.761835088,
                -2.878520767
              ],
              [
                139.764214549,
                -2.863054271
              ],
              [
                139.765166333,
                -2.846873936
              ],
              [
                139.770639093,
                -2.834738685
              ],
              [
                139.771352932,
                -2.826886464
              ],
              [
                139.769687309,
                -2.814751213
              ],
              [
                139.774922123,
                -2.808326668
              ],
              [
                139.795623434,
                -2.792265306
              ],
              [
                139.802285925,
                -2.782985408
              ],
              [
                139.813171921,
                -2.776241342
              ],
              [
                139.817990367,
                -2.761332313
              ],
              [
                139.817038583,
                -2.751100631
              ],
              [
                139.817276529,
                -2.740393056
              ],
              [
                139.821035387,
                -2.733544696
              ],
              [
                139.821901059,
                -2.728695055
              ],
              [
                139.820845721,
                -2.724021413
              ],
              [
                139.81737818,
                -2.722815311
              ],
              [
                139.814212164,
                -2.719498533
              ],
              [
                139.813156826,
                -2.714523366
              ],
              [
                139.813006063,
                -2.711206587
              ],
              [
                139.816335842,
                -2.710558497
              ],
              [
                139.839118154,
                -2.70498009
              ],
              [
                139.851631454,
                -2.700758736
              ],
              [
                139.862486364,
                -2.699251109
              ],
              [
                139.875602715,
                -2.695632806
              ],
              [
                139.885100762,
                -2.697743483
              ],
              [
                139.895051097,
                -2.698648059
              ],
              [
                139.902739992,
                -2.698045008
              ],
              [
                139.917094226,
                -2.697424479
              ],
              [
                139.913044324,
                -2.711662545
              ],
              [
                139.910188971,
                -2.722251147
              ],
              [
                139.909594106,
                -2.72784288
              ],
              [
                139.905311076,
                -2.738788401
              ],
              [
                139.905905941,
                -2.74616473
              ],
              [
                139.904716211,
                -2.751161598
              ],
              [
                139.9007901,
                -2.757764602
              ],
              [
                139.898253595,
                -2.763142184
              ],
              [
                139.895455349,
                -2.767824964
              ],
              [
                139.89562667,
                -2.771993779
              ],
              [
                139.894770064,
                -2.774677811
              ],
              [
                139.893970565,
                -2.776048381
              ],
              [
                139.895341135,
                -2.777361843
              ],
              [
                139.89522692,
                -2.778503985
              ],
              [
                139.893456601,
                -2.778989395
              ],
              [
                139.893570816,
                -2.78258714
              ],
              [
                139.89522692,
                -2.784414566
              ],
              [
                139.896311955,
                -2.784700101
              ],
              [
                139.896711704,
                -2.787041491
              ],
              [
                139.899681271,
                -2.789668416
              ],
              [
                139.8999097,
                -2.792295341
              ],
              [
                139.90145159,
                -2.793723017
              ],
              [
                139.902701592,
                -2.795726009
              ],
              [
                139.90516355,
                -2.798805546
              ],
              [
                139.906305691,
                -2.800518758
              ],
              [
                139.907957989,
                -2.803699621
              ],
              [
                139.904702886,
                -2.808211079
              ],
              [
                139.901936108,
                -2.810121665
              ],
              [
                139.899997898,
                -2.81073775
              ],
              [
                139.896999777,
                -2.811546766
              ],
              [
                139.89618748,
                -2.814091353
              ],
              [
                139.900616558,
                -2.816020153
              ],
              [
                139.904899588,
                -2.813545514
              ],
              [
                139.909944045,
                -2.812355783
              ],
              [
                139.912609042,
                -2.811594356
              ],
              [
                139.915568348,
                -2.810781797
              ],
              [
                139.917946014,
                -2.810993145
              ],
              [
                139.919468869,
                -2.809446495
              ],
              [
                139.922932178,
                -2.808068414
              ],
              [
                139.925893414,
                -2.809505982
              ],
              [
                139.927440063,
                -2.812599281
              ],
              [
                139.929807786,
                -2.816305688
              ],
              [
                139.935137778,
                -2.816448456
              ],
              [
                139.938278667,
                -2.816876759
              ],
              [
                139.942311695,
                -2.817477176
              ],
              [
                139.947558565,
                -2.81863756
              ],
              [
                139.950877754,
                -2.821760206
              ],
              [
                139.955363197,
                -2.824619525
              ],
              [
                139.955839089,
                -2.830853713
              ],
              [
                139.959408281,
                -2.833233174
              ],
              [
                139.962882294,
                -2.834422904
              ],
              [
                139.966974967,
                -2.836564419
              ],
              [
                139.97014507,
                -2.838005788
              ],
              [
                139.97887707,
                -2.8416716
              ],
              [
                139.976757712,
                -2.843624641
              ],
              [
                139.973959466,
                -2.844309926
              ],
              [
                139.969090535,
                -2.846872563
              ],
              [
                139.964718276,
                -2.845725663
              ],
              [
                139.960613881,
                -2.845058839
              ],
              [
                139.957734558,
                -2.848140816
              ],
              [
                139.955700119,
                -2.851531548
              ],
              [
                139.956521033,
                -2.856635492
              ],
              [
                139.956628108,
                -2.861775128
              ],
              [
                139.955212329,
                -2.863961852
              ],
              [
                139.953499117,
                -2.865151583
              ],
              [
                139.957544201,
                -2.867483455
              ],
              [
                139.959495359,
                -2.869910505
              ],
              [
                139.959028985,
                -2.873160849
              ],
              [
                139.955716775,
                -2.875388024
              ],
              [
                139.954574634,
                -2.878414698
              ],
              [
                139.951833495,
                -2.880584767
              ],
              [
                139.949377891,
                -2.882183765
              ],
              [
                139.945685562,
                -2.883375577
              ],
              [
                139.947470158,
                -2.885338633
              ],
              [
                139.948719375,
                -2.888075013
              ],
              [
                139.950622944,
                -2.890276014
              ],
              [
                139.953002405,
                -2.891049339
              ],
              [
                139.954311108,
                -2.892893421
              ],
              [
                139.95467333,
                -2.895638136
              ],
              [
                139.953783417,
                -2.89761572
              ]
            ]
          ]
        ]
      }
    }
  ]
}