{
  "type": "FeatureCollection",
  "features": [
    {
      "type": "Feature",
      "properties": {
        "idx": "2754",
        "nama_kewilayahan": "E.eh. Mablira"
      },
      "geometry": {
        "type": "MultiPolygon",
        "coordinates": [
          [
            [
              [
                140.168736423,
                -3.040311288
              ],
              [
                140.168289692,
                -3.040617826
              ],
              [
                140.168305733,
                -3.040295843
              ],
              [
                140.168452403,
                -3.04018302
              ],
              [
                140.168736423,
                -3.040311288
              ]
            ]
          ],
          [
            [
              [
                140.023909162,
                -2.806211808
              ],
              [
                140.024366535,
                -2.806655413
              ],
              [
                140.024048226,
                -2.807628721
              ],
              [
                140.024256429,
                -2.808699478
              ],
              [
                140.024583605,
                -2.809740492
              ],
              [
                140.025505646,
                -2.809978438
              ],
              [
                140.026754863,
                -2.809591776
              ],
              [
                140.027627593,
                -2.809818309
              ],
              [
                140.02884284,
                -2.80979403
              ],
              [
                140.030127749,
                -2.809258651
              ],
              [
                140.030789592,
                -2.807881566
              ],
              [
                140.030306209,
                -2.806653142
              ],
              [
                140.030127749,
                -2.805403925
              ],
              [
                140.030877279,
                -2.804583011
              ],
              [
                140.031876653,
                -2.805403925
              ],
              [
                140.032590491,
                -2.806082071
              ],
              [
                140.033601463,
                -2.806159279
              ],
              [
                140.034220158,
                -2.805780324
              ],
              [
                140.034839082,
                -2.805974995
              ],
              [
                140.035262618,
                -2.805141812
              ],
              [
                140.036445218,
                -2.80493993
              ],
              [
                140.037123364,
                -2.804511627
              ],
              [
                140.03797997,
                -2.804119016
              ],
              [
                140.03908642,
                -2.803476561
              ],
              [
                140.039978718,
                -2.802941182
              ],
              [
                140.040621172,
                -2.802298728
              ],
              [
                140.041406394,
                -2.802263036
              ],
              [
                140.041799005,
                -2.803976248
              ],
              [
                140.042013157,
                -2.804868546
              ],
              [
                140.042798379,
                -2.805618076
              ],
              [
                140.042477152,
                -2.806581758
              ],
              [
                140.042548535,
                -2.807295596
              ],
              [
                140.044423542,
                -2.807545067
              ],
              [
                140.045368197,
                -2.807616823
              ],
              [
                140.046231941,
                -2.806867293
              ],
              [
                140.047153982,
                -2.805826279
              ],
              [
                140.047659618,
                -2.804874495
              ],
              [
                140.048522172,
                -2.804666292
              ],
              [
                140.049057551,
                -2.804339116
              ],
              [
                140.049801133,
                -2.804428346
              ],
              [
                140.050574457,
                -2.804844751
              ],
              [
                140.050485228,
                -2.805677563
              ],
              [
                140.050752917,
                -2.80665909
              ],
              [
                140.051437012,
                -2.807670361
              ],
              [
                140.052478026,
                -2.808830348
              ],
              [
                140.053400067,
                -2.810139052
              ],
              [
                140.054500568,
                -2.810258025
              ],
              [
                140.055363123,
                -2.810109309
              ],
              [
                140.056017474,
                -2.809990336
              ],
              [
                140.056909772,
                -2.810406741
              ],
              [
                140.057683097,
                -2.809960592
              ],
              [
                140.057694905,
                -2.809266256
              ],
              [
                140.058622902,
                -2.808944513
              ],
              [
                140.05943795,
                -2.808265226
              ],
              [
                140.059765126,
                -2.807491902
              ],
              [
                140.060419477,
                -2.806688834
              ],
              [
                140.060954856,
                -2.806123712
              ],
              [
                140.061847154,
                -2.805677563
              ],
              [
                140.062858425,
                -2.806272428
              ],
              [
                140.063483033,
                -2.807491902
              ],
              [
                140.064107642,
                -2.807878564
              ],
              [
                140.064643021,
                -2.807819078
              ],
              [
                140.065059426,
                -2.80683755
              ],
              [
                140.065446089,
                -2.806212941
              ],
              [
                140.065951724,
                -2.806123712
              ],
              [
                140.066423039,
                -2.80624015
              ],
              [
                140.067458282,
                -2.806489261
              ],
              [
                140.068378774,
                -2.80682367
              ],
              [
                140.069449532,
                -2.806871259
              ],
              [
                140.070068192,
                -2.806799875
              ],
              [
                140.070639262,
                -2.806490545
              ],
              [
                140.071257922,
                -2.806657107
              ],
              [
                140.071781404,
                -2.807109205
              ],
              [
                140.072519036,
                -2.807656481
              ],
              [
                140.073256669,
                -2.808060989
              ],
              [
                140.07382774,
                -2.808513087
              ],
              [
                140.074279838,
                -2.809060363
              ],
              [
                140.074922292,
                -2.809322104
              ],
              [
                140.075493363,
                -2.809322104
              ],
              [
                140.076016844,
                -2.809322104
              ],
              [
                140.076373763,
                -2.808536882
              ],
              [
                140.076683093,
                -2.808108579
              ],
              [
                140.077279664,
                -2.807999464
              ],
              [
                140.077306942,
                -2.807954948
              ],
              [
                140.077387249,
                -2.80790141
              ],
              [
                140.077538939,
                -2.807895461
              ],
              [
                140.077619246,
                -2.807948999
              ],
              [
                140.077666835,
                -2.808029306
              ],
              [
                140.077648989,
                -2.808145305
              ],
              [
                140.077654938,
                -2.808213714
              ],
              [
                140.077756065,
                -2.808276175
              ],
              [
                140.077895859,
                -2.808139356
              ],
              [
                140.078139753,
                -2.80810069
              ],
              [
                140.07819924,
                -2.808270226
              ],
              [
                140.078166522,
                -2.808377302
              ],
              [
                140.07808919,
                -2.808448686
              ],
              [
                140.078101087,
                -2.808573608
              ],
              [
                140.078226252,
                -2.808577344
              ],
              [
                140.07835093,
                -2.808591454
              ],
              [
                140.07853873,
                -2.808554869
              ],
              [
                140.078684599,
                -2.808509631
              ],
              [
                140.078906536,
                -2.808487352
              ],
              [
                140.078954719,
                -2.808484378
              ],
              [
                140.079243228,
                -2.808392174
              ],
              [
                140.079377073,
                -2.808436789
              ],
              [
                140.079466303,
                -2.808347559
              ],
              [
                140.079647142,
                -2.808365702
              ],
              [
                140.079697705,
                -2.80841924
              ],
              [
                140.079804781,
                -2.808425189
              ],
              [
                140.079870216,
                -2.808460881
              ],
              [
                140.079867242,
                -2.808535239
              ],
              [
                140.079804781,
                -2.808624469
              ],
              [
                140.079813704,
                -2.808740467
              ],
              [
                140.079885088,
                -2.808788057
              ],
              [
                140.079965395,
                -2.808788057
              ],
              [
                140.080033804,
                -2.808752365
              ],
              [
                140.080096265,
                -2.808746416
              ],
              [
                140.080137906,
                -2.808799954
              ],
              [
                140.080102214,
                -2.808990311
              ],
              [
                140.08020929,
                -2.809139027
              ],
              [
                140.08034016,
                -2.809097386
              ],
              [
                140.080432364,
                -2.809049797
              ],
              [
                140.080500774,
                -2.809049797
              ],
              [
                140.080566209,
                -2.809124155
              ],
              [
                140.080557286,
                -2.809293692
              ],
              [
                140.080468056,
                -2.809403742
              ],
              [
                140.08034016,
                -2.809512305
              ],
              [
                140.08034016,
                -2.809610458
              ],
              [
                140.080524568,
                -2.809702662
              ],
              [
                140.080607849,
                -2.809711585
              ],
              [
                140.080714925,
                -2.809788917
              ],
              [
                140.080744668,
                -2.809628304
              ],
              [
                140.080774412,
                -2.809524202
              ],
              [
                140.080970717,
                -2.809539074
              ],
              [
                140.081033178,
                -2.809699688
              ],
              [
                140.081039127,
                -2.809768097
              ],
              [
                140.081155125,
                -2.809747277
              ],
              [
                140.081217586,
                -2.809622355
              ],
              [
                140.081360354,
                -2.809595586
              ],
              [
                140.08152989,
                -2.809637227
              ],
              [
                140.081613172,
                -2.809696713
              ],
              [
                140.081749991,
                -2.809717533
              ],
              [
                140.081803528,
                -2.809678867
              ],
              [
                140.081871938,
                -2.809661021
              ],
              [
                140.082270498,
                -2.809872198
              ],
              [
                140.082508245,
                -2.810523774
              ],
              [
                140.082440133,
                -2.813300704
              ],
              [
                140.083653658,
                -2.813491061
              ],
              [
                140.08379582,
                -2.81349863
              ],
              [
                140.08533411,
                -2.813580529
              ],
              [
                140.087031275,
                -2.813670885
              ],
              [
                140.087235428,
                -2.813681754
              ],
              [
                140.089155629,
                -2.813782851
              ],
              [
                140.089904434,
                -2.813822275
              ],
              [
                140.09041858,
                -2.813849344
              ],
              [
                140.09058928,
                -2.812990378
              ],
              [
                140.091328485,
                -2.812794659
              ],
              [
                140.091789029,
                -2.812304276
              ],
              [
                140.091552311,
                -2.811869434
              ],
              [
                140.091259349,
                -2.81203746
              ],
              [
                140.090910458,
                -2.812402299
              ],
              [
                140.090492246,
                -2.812247738
              ],
              [
                140.090241616,
                -2.81177082
              ],
              [
                140.089809883,
                -2.81106942
              ],
              [
                140.08999178,
                -2.810270352
              ],
              [
                140.090940917,
                -2.809079292
              ],
              [
                140.091471278,
                -2.808462772
              ],
              [
                140.091560279,
                -2.807562474
              ],
              [
                140.092269151,
                -2.80807774
              ],
              [
                140.092940159,
                -2.808220507
              ],
              [
                140.09328994,
                -2.808213369
              ],
              [
                140.093796765,
                -2.808577427
              ],
              [
                140.094706195,
                -2.808755886
              ],
              [
                140.095327235,
                -2.809691014
              ],
              [
                140.096119595,
                -2.810144302
              ],
              [
                140.096719219,
                -2.810451252
              ],
              [
                140.098511191,
                -2.809871758
              ],
              [
                140.098921438,
                -2.80384295
              ],
              [
                140.103047423,
                -2.804071378
              ],
              [
                140.10496051,
                -2.804128485
              ],
              [
                140.106369924,
                -2.803960364
              ],
              [
                140.111511166,
                -2.802886407
              ],
              [
                140.117436024,
                -2.801565806
              ],
              [
                140.117643037,
                -2.801483001
              ],
              [
                140.117602745,
                -2.801356572
              ],
              [
                140.117612263,
                -2.801223322
              ],
              [
                140.117783584,
                -2.801156697
              ],
              [
                140.118012012,
                -2.801223322
              ],
              [
                140.118259476,
                -2.801347054
              ],
              [
                140.11850694,
                -2.801185251
              ],
              [
                140.118583083,
                -2.80096634
              ],
              [
                140.118801993,
                -2.800842608
              ],
              [
                140.119135118,
                -2.800861644
              ],
              [
                140.11947776,
                -2.80074743
              ],
              [
                140.119934617,
                -2.800585627
              ],
              [
                140.120001241,
                -2.800290573
              ],
              [
                140.119887027,
                -2.800071663
              ],
              [
                140.119525349,
                -2.79999552
              ],
              [
                140.119087528,
                -2.800024074
              ],
              [
                140.118840065,
                -2.799919377
              ],
              [
                140.118735368,
                -2.799767092
              ],
              [
                140.118895299,
                -2.799575175
              ],
              [
                140.119182707,
                -2.799662396
              ],
              [
                140.119430171,
                -2.799700467
              ],
              [
                140.119544385,
                -2.799491074
              ],
              [
                140.119287403,
                -2.799129396
              ],
              [
                140.119544385,
                -2.798796272
              ],
              [
                140.119623412,
                -2.79837447
              ],
              [
                140.119997672,
                -2.798816497
              ],
              [
                140.120297484,
                -2.798873604
              ],
              [
                140.12058302,
                -2.798802221
              ],
              [
                140.120997046,
                -2.799487505
              ],
              [
                140.121254028,
                -2.799930085
              ],
              [
                140.121682331,
                -2.800030022
              ],
              [
                140.121910759,
                -2.79973021
              ],
              [
                140.121810822,
                -2.799273354
              ],
              [
                140.121725161,
                -2.799016372
              ],
              [
                140.121769825,
                -2.798869812
              ],
              [
                140.122010696,
                -2.798887881
              ],
              [
                140.122424723,
                -2.799144863
              ],
              [
                140.122984181,
                -2.798850923
              ],
              [
                140.12338869,
                -2.798589183
              ],
              [
                140.123807037,
                -2.798453403
              ],
              [
                140.124021626,
                -2.798383756
              ],
              [
                140.124216333,
                -2.798197514
              ],
              [
                140.124678358,
                -2.797755578
              ],
              [
                140.124354751,
                -2.79745989
              ],
              [
                140.124460298,
                -2.796868238
              ],
              [
                140.124621251,
                -2.796412928
              ],
              [
                140.124792572,
                -2.796203535
              ],
              [
                140.124792572,
                -2.795918
              ],
              [
                140.125078107,
                -2.795670536
              ],
              [
                140.125668213,
                -2.795556322
              ],
              [
                140.126220248,
                -2.795499215
              ],
              [
                140.128238031,
                -2.795213679
              ],
              [
                140.130236779,
                -2.794071538
              ],
              [
                140.130027386,
                -2.793766967
              ],
              [
                140.129933693,
                -2.793400049
              ],
              [
                140.130027386,
                -2.792967468
              ],
              [
                140.1304081,
                -2.792681933
              ],
              [
                140.130370028,
                -2.792129898
              ],
              [
                140.130465207,
                -2.79150172
              ],
              [
                140.130941099,
                -2.791577863
              ],
              [
                140.131302777,
                -2.791273292
              ],
              [
                140.131816741,
                -2.791387506
              ],
              [
                140.131930955,
                -2.791044864
              ],
              [
                140.132064205,
                -2.790511864
              ],
              [
                140.132178419,
                -2.790093079
              ],
              [
                140.13248299,
                -2.790016936
              ],
              [
                140.132768525,
                -2.789959829
              ],
              [
                140.133358631,
                -2.789712365
              ],
              [
                140.13358706,
                -2.789350687
              ],
              [
                140.133301524,
                -2.788760581
              ],
              [
                140.13332056,
                -2.788075296
              ],
              [
                140.133434774,
                -2.787923011
              ],
              [
                140.133910666,
                -2.787903975
              ],
              [
                140.134329451,
                -2.78748519
              ],
              [
                140.134443666,
                -2.787237726
              ],
              [
                140.134329451,
                -2.786780869
              ],
              [
                140.13402488,
                -2.785486443
              ],
              [
                140.132635863,
                -2.784858688
              ],
              [
                140.131478857,
                -2.784867783
              ],
              [
                140.130051181,
                -2.784962961
              ],
              [
                140.128528326,
                -2.785343675
              ],
              [
                140.128230893,
                -2.785081934
              ],
              [
                140.128147612,
                -2.784498966
              ],
              [
                140.128052433,
                -2.783701847
              ],
              [
                140.127778795,
                -2.783095084
              ],
              [
                140.126838236,
                -2.7822385
              ],
              [
                140.127338595,
                -2.781631716
              ],
              [
                140.128266585,
                -2.781512743
              ],
              [
                140.129254061,
                -2.781465154
              ],
              [
                140.131577173,
                -2.781578689
              ],
              [
                140.13234855,
                -2.781441359
              ],
              [
                140.132805407,
                -2.781112993
              ],
              [
                140.13279113,
                -2.780727521
              ],
              [
                140.132576978,
                -2.78011362
              ],
              [
                140.132477041,
                -2.779685317
              ],
              [
                140.132662639,
                -2.779314121
              ],
              [
                140.133090942,
                -2.778828711
              ],
              [
                140.133833334,
                -2.778771604
              ],
              [
                140.1349407,
                -2.778997034
              ],
              [
                140.136334147,
                -2.778959581
              ],
              [
                140.136778095,
                -2.779058673
              ],
              [
                140.137187387,
                -2.779150029
              ],
              [
                140.137347798,
                -2.779365279
              ],
              [
                140.137276414,
                -2.779710301
              ],
              [
                140.139852532,
                -2.780194993
              ],
              [
                140.142161447,
                -2.780503613
              ],
              [
                140.143788155,
                -2.780829109
              ],
              [
                140.144945417,
                -2.781645755
              ],
              [
                140.147086932,
                -2.782930664
              ],
              [
                140.148193381,
                -2.783394658
              ],
              [
                140.150441972,
                -2.783287583
              ],
              [
                140.151691189,
                -2.783953832
              ],
              [
                140.152381232,
                -2.784310751
              ],
              [
                140.153293756,
                -2.784796161
              ],
              [
                140.153115296,
                -2.785956148
              ],
              [
                140.153492958,
                -2.78788734
              ],
              [
                140.154305027,
                -2.78515308
              ],
              [
                140.155137838,
                -2.784141809
              ],
              [
                140.156565515,
                -2.78369566
              ],
              [
                140.158201394,
                -2.78378489
              ],
              [
                140.159480354,
                -2.783993093
              ],
              [
                140.160408721,
                -2.783858152
              ],
              [
                140.161253429,
                -2.783735371
              ],
              [
                140.161978788,
                -2.784141809
              ],
              [
                140.162871086,
                -2.784409499
              ],
              [
                140.163465951,
                -2.784927031
              ],
              [
                140.163918049,
                -2.785667044
              ],
              [
                140.163703225,
                -2.787590859
              ],
              [
                140.164603334,
                -2.787399291
              ],
              [
                140.1651955,
                -2.787947332
              ],
              [
                140.166830509,
                -2.78833204
              ],
              [
                140.167763258,
                -2.788313004
              ],
              [
                140.168581793,
                -2.788541433
              ],
              [
                140.169362256,
                -2.788541433
              ],
              [
                140.170390183,
                -2.788293969
              ],
              [
                140.171170646,
                -2.788826968
              ],
              [
                140.171505744,
                -2.78953486
              ],
              [
                140.171712996,
                -2.78997268
              ],
              [
                140.172465073,
                -2.790311752
              ],
              [
                140.173112286,
                -2.790806679
              ],
              [
                140.173169393,
                -2.791568107
              ],
              [
                140.172903243,
                -2.792487072
              ],
              [
                140.173621491,
                -2.793919014
              ],
              [
                140.174763632,
                -2.795689333
              ],
              [
                140.176591058,
                -2.797002796
              ],
              [
                140.179136697,
                -2.797196802
              ],
              [
                140.17927509,
                -2.798430473
              ],
              [
                140.180531446,
                -2.800086577
              ],
              [
                140.180531446,
                -2.802085325
              ],
              [
                140.180074589,
                -2.804084072
              ],
              [
                140.182533632,
                -2.806042554
              ],
              [
                140.182015468,
                -2.809623267
              ],
              [
                140.1818727,
                -2.811836166
              ],
              [
                140.182443771,
                -2.813192458
              ],
              [
                140.18465667,
                -2.813049691
              ],
              [
                140.18615573,
                -2.813834913
              ],
              [
                140.187512023,
                -2.816119195
              ],
              [
                140.189653538,
                -2.820188074
              ],
              [
                140.191723669,
                -2.819973922
              ],
              [
                140.195693999,
                -2.821610277
              ],
              [
                140.196649153,
                -2.822900659
              ],
              [
                140.199718658,
                -2.82254374
              ],
              [
                140.203430617,
                -2.8240428
              ],
              [
                140.204929678,
                -2.825327709
              ],
              [
                140.206500122,
                -2.826327083
              ],
              [
                140.209426859,
                -2.827112305
              ],
              [
                140.211354222,
                -2.828254446
              ],
              [
                140.213424353,
                -2.83018181
              ],
              [
                140.218705389,
                -2.831094322
              ],
              [
                140.217777838,
                -2.832964549
              ],
              [
                140.218302248,
                -2.8359639
              ],
              [
                140.22187144,
                -2.839652065
              ],
              [
                140.226868308,
                -2.839295146
              ],
              [
                140.231508257,
                -2.839771038
              ],
              [
                140.233887718,
                -2.840722822
              ],
              [
                140.235196422,
                -2.843102283
              ],
              [
                140.238408694,
                -2.843816121
              ],
              [
                140.240907128,
                -2.844648933
              ],
              [
                140.243643508,
                -2.847147367
              ],
              [
                140.244952212,
                -2.848099151
              ],
              [
                140.248283457,
                -2.847861205
              ],
              [
                140.249830107,
                -2.847028394
              ],
              [
                140.253637244,
                -2.848218124
              ],
              [
                140.250920661,
                -2.852396648
              ],
              [
                140.250166848,
                -2.854507325
              ],
              [
                140.247605025,
                -2.856107785
              ],
              [
                140.246347037,
                -2.858548709
              ],
              [
                140.24731949,
                -2.860105279
              ],
              [
                140.246891187,
                -2.86495938
              ],
              [
                140.246891187,
                -2.867671965
              ],
              [
                140.243893066,
                -2.868528571
              ],
              [
                140.241608783,
                -2.872954369
              ],
              [
                140.236677755,
                -2.877310395
              ],
              [
                140.236192369,
                -2.877104149
              ],
              [
                140.235716477,
                -2.87714222
              ],
              [
                140.235145406,
                -2.877085113
              ],
              [
                140.234650478,
                -2.876894756
              ],
              [
                140.234336389,
                -2.877218363
              ],
              [
                140.234165068,
                -2.877656184
              ],
              [
                140.233974711,
                -2.878036898
              ],
              [
                140.23353689,
                -2.877960755
              ],
              [
                140.233060998,
                -2.878360504
              ],
              [
                140.233080034,
                -2.878836397
              ],
              [
                140.232984855,
                -2.879255182
              ],
              [
                140.232529195,
                -2.879392405
              ],
              [
                140.232204392,
                -2.879369396
              ],
              [
                140.231899821,
                -2.879274217
              ],
              [
                140.23132551,
                -2.879454237
              ],
              [
                140.230986108,
                -2.879654931
              ],
              [
                140.230909965,
                -2.879883359
              ],
              [
                140.231138394,
                -2.88018793
              ],
              [
                140.231671393,
                -2.880625751
              ],
              [
                140.231747536,
                -2.880873215
              ],
              [
                140.231690429,
                -2.881082608
              ],
              [
                140.231471518,
                -2.88107309
              ],
              [
                140.231257367,
                -2.881037398
              ],
              [
                140.231086045,
                -2.881165889
              ],
              [
                140.230836202,
                -2.881251549
              ],
              [
                140.230643466,
                -2.881287241
              ],
              [
                140.230443591,
                -2.881358625
              ],
              [
                140.230307962,
                -2.881572777
              ],
              [
                140.230108087,
                -2.881758375
              ],
              [
                140.230029565,
                -2.881936834
              ],
              [
                140.230193748,
                -2.882236646
              ],
              [
                140.230186609,
                -2.882386552
              ],
              [
                140.229779721,
                -2.882386552
              ],
              [
                140.229451356,
                -2.882457936
              ],
              [
                140.228023679,
                -2.882258061
              ],
              [
                140.227766697,
                -2.882229508
              ],
              [
                140.227723867,
                -2.882065325
              ],
              [
                140.227987987,
                -2.881858312
              ],
              [
                140.228159308,
                -2.881629884
              ],
              [
                140.228102201,
                -2.881358625
              ],
              [
                140.22788805,
                -2.881137335
              ],
              [
                140.227588238,
                -2.881023121
              ],
              [
                140.227281287,
                -2.881051675
              ],
              [
                140.227145658,
                -2.881201581
              ],
              [
                140.227031444,
                -2.881408594
              ],
              [
                140.226888676,
                -2.881701268
              ],
              [
                140.22673877,
                -2.881886866
              ],
              [
                140.226524619,
                -2.882058187
              ],
              [
                140.226360436,
                -2.88204391
              ],
              [
                140.226224807,
                -2.881915419
              ],
              [
                140.22621053,
                -2.88151567
              ],
              [
                140.226074901,
                -2.88129438
              ],
              [
                140.226124869,
                -2.880944599
              ],
              [
                140.226082039,
                -2.880623372
              ],
              [
                140.225839334,
                -2.880537711
              ],
              [
                140.225560937,
                -2.880580541
              ],
              [
                140.225111219,
                -2.880759001
              ],
              [
                140.224947036,
                -2.880973153
              ],
              [
                140.224818545,
                -2.881222996
              ],
              [
                140.224954174,
                -2.881479978
              ],
              [
                140.225146911,
                -2.881958249
              ],
              [
                140.225089804,
                -2.882065325
              ],
              [
                140.225046973,
                -2.882150986
              ],
              [
                140.225132634,
                -2.882279477
              ],
              [
                140.225196879,
                -2.882536458
              ],
              [
                140.225204018,
                -2.882772025
              ],
              [
                140.225161188,
                -2.882950485
              ],
              [
                140.22497559,
                -2.883136083
              ],
              [
                140.224747161,
                -2.883150359
              ],
              [
                140.224504456,
                -2.883043284
              ],
              [
                140.22356219,
                -2.882229508
              ],
              [
                140.223290931,
                -2.882179539
              ],
              [
                140.223019673,
                -2.882200954
              ],
              [
                140.222876905,
                -2.882243785
              ],
              [
                140.222719861,
                -2.882343722
              ],
              [
                140.22267703,
                -2.882565012
              ],
              [
                140.222470017,
                -2.882679226
              ],
              [
                140.222248727,
                -2.882807717
              ],
              [
                140.221963192,
                -2.882736333
              ],
              [
                140.22188467,
                -2.882500766
              ],
              [
                140.22188467,
                -2.882008218
              ],
              [
                140.221834701,
                -2.881729821
              ],
              [
                140.221556304,
                -2.881579915
              ],
              [
                140.221277907,
                -2.881637022
              ],
              [
                140.221028064,
                -2.881808343
              ],
              [
                140.220871019,
                -2.882101017
              ],
              [
                140.220821051,
                -2.882522182
              ],
              [
                140.22077822,
                -2.882650673
              ],
              [
                140.220185735,
                -2.882664949
              ],
              [
                140.219921614,
                -2.882593565
              ],
              [
                140.219628941,
                -2.882465075
              ],
              [
                140.219393374,
                -2.882507905
              ],
              [
                140.219214914,
                -2.882779163
              ],
              [
                140.219086424,
                -2.883064699
              ],
              [
                140.218950794,
                -2.883228882
              ],
              [
                140.218700951,
                -2.883171774
              ],
              [
                140.218543906,
                -2.883093252
              ],
              [
                140.218401139,
                -2.883228882
              ],
              [
                140.218222679,
                -2.883585801
              ],
              [
                140.21804422,
                -2.883707153
              ],
              [
                140.217708716,
                -2.88372143
              ],
              [
                140.217608778,
                -2.883835644
              ],
              [
                140.217523118,
                -2.88398555
              ],
              [
                140.217580225,
                -2.884228255
              ],
              [
                140.217894314,
                -2.884585174
              ],
              [
                140.218051358,
                -2.885063446
              ],
              [
                140.218101327,
                -2.885627378
              ],
              [
                140.218137019,
                -2.885812976
              ],
              [
                140.21883658,
                -2.886291248
              ],
              [
                140.219136392,
                -2.886555368
              ],
              [
                140.219136392,
                -2.886748104
              ],
              [
                140.219200638,
                -2.88685518
              ],
              [
                140.219186361,
                -2.886940841
              ],
              [
                140.219079285,
                -2.887069332
              ],
              [
                140.218915102,
                -2.88707647
              ],
              [
                140.218779473,
                -2.887197823
              ],
              [
                140.218608152,
                -2.887226376
              ],
              [
                140.21830834,
                -2.886940841
              ],
              [
                140.217244721,
                -2.88689801
              ],
              [
                140.216823556,
                -2.886755243
              ],
              [
                140.216595128,
                -2.886733828
              ],
              [
                140.216373838,
                -2.886341217
              ],
              [
                140.216402392,
                -2.885848668
              ],
              [
                140.216344888,
                -2.885720574
              ],
              [
                140.216106942,
                -2.885696779
              ],
              [
                140.215857098,
                -2.885708676
              ],
              [
                140.215571563,
                -2.885803855
              ],
              [
                140.215345514,
                -2.885922828
              ],
              [
                140.215131363,
                -2.886029904
              ],
              [
                140.214798238,
                -2.886041801
              ],
              [
                140.214512703,
                -2.885839547
              ],
              [
                140.214072503,
                -2.885256579
              ],
              [
                140.213989222,
                -2.885078119
              ],
              [
                140.213989222,
                -2.884744995
              ],
              [
                140.213810762,
                -2.884364281
              ],
              [
                140.213511247,
                -2.88432502
              ],
              [
                140.211244811,
                -2.883474363
              ],
              [
                140.210733227,
                -2.883141238
              ],
              [
                140.210411999,
                -2.883010368
              ],
              [
                140.210138361,
                -2.882784319
              ],
              [
                140.209936107,
                -2.882843805
              ],
              [
                140.209793339,
                -2.882974676
              ],
              [
                140.209686264,
                -2.883034162
              ],
              [
                140.209412626,
                -2.883069854
              ],
              [
                140.209043809,
                -2.882903292
              ],
              [
                140.208734479,
                -2.882641551
              ],
              [
                140.208508431,
                -2.882308427
              ],
              [
                140.208365663,
                -2.881951508
              ],
              [
                140.208294279,
                -2.881428026
              ],
              [
                140.208222895,
                -2.881178183
              ],
              [
                140.207842181,
                -2.880987826
              ],
              [
                140.207378187,
                -2.880975929
              ],
              [
                140.20700937,
                -2.881142491
              ],
              [
                140.206759527,
                -2.881273361
              ],
              [
                140.206604862,
                -2.881761151
              ],
              [
                140.206581067,
                -2.881987199
              ],
              [
                140.2068785,
                -2.882677243
              ],
              [
                140.207080754,
                -2.883057957
              ],
              [
                140.20714024,
                -2.883224519
              ],
              [
                140.206997473,
                -2.883414876
              ],
              [
                140.206771424,
                -2.883438671
              ],
              [
                140.206509683,
                -2.883402979
              ],
              [
                140.20625984,
                -2.883057957
              ],
              [
                140.206140867,
                -2.882938984
              ],
              [
                140.206009996,
                -2.882974676
              ],
              [
                140.205914818,
                -2.883188827
              ],
              [
                140.205914818,
                -2.883579059
              ],
              [
                140.205822019,
                -2.883614751
              ],
              [
                140.205714943,
                -2.883686135
              ],
              [
                140.205472238,
                -2.883693273
              ],
              [
                140.205172426,
                -2.883693273
              ],
              [
                140.204972551,
                -2.883786072
              ],
              [
                140.204894029,
                -2.884028777
              ],
              [
                140.205001105,
                -2.884428526
              ],
              [
                140.205015382,
                -2.884649816
              ],
              [
                140.205186703,
                -2.88494249
              ],
              [
                140.205215256,
                -2.885085258
              ],
              [
                140.205222395,
                -2.885277994
              ],
              [
                140.205115319,
                -2.885477869
              ],
              [
                140.204986828,
                -2.885584945
              ],
              [
                140.204544248,
                -2.885399347
              ],
              [
                140.204265058,
                -2.885004356
              ],
              [
                140.204074702,
                -2.884754513
              ],
              [
                140.204003318,
                -2.884361902
              ],
              [
                140.203872447,
                -2.884064469
              ],
              [
                140.20355122,
                -2.883921701
              ],
              [
                140.20311102,
                -2.883921701
              ],
              [
                140.202968252,
                -2.884028777
              ],
              [
                140.203063431,
                -2.884231031
              ],
              [
                140.20324189,
                -2.884516567
              ],
              [
                140.203313274,
                -2.884802102
              ],
              [
                140.203194301,
                -2.885016253
              ],
              [
                140.202990595,
                -2.885289312
              ],
              [
                140.203170691,
                -2.885248158
              ],
              [
                140.203510954,
                -2.88523626
              ],
              [
                140.203790278,
                -2.885264869
              ],
              [
                140.204826795,
                -2.886007206
              ],
              [
                140.205840446,
                -2.886623486
              ],
              [
                140.206656601,
                -2.887068445
              ],
              [
                140.207225292,
                -2.887484851
              ],
              [
                140.208136626,
                -2.888303386
              ],
              [
                140.208333502,
                -2.888587065
              ],
              [
                140.20843344,
                -2.889086752
              ],
              [
                140.208419163,
                -2.889415117
              ],
              [
                140.20829781,
                -2.889736345
              ],
              [
                140.20821215,
                -2.890000465
              ],
              [
                140.207605387,
                -2.890871348
              ],
              [
                140.207248468,
                -2.891349619
              ],
              [
                140.206006389,
                -2.893441165
              ],
              [
                140.205727993,
                -2.893848053
              ],
              [
                140.205135507,
                -2.895040163
              ],
              [
                140.204628682,
                -2.896075229
              ],
              [
                140.204450222,
                -2.896539224
              ],
              [
                140.203993365,
                -2.897388691
              ],
              [
                140.203572201,
                -2.898088253
              ],
              [
                140.203136759,
                -2.898787814
              ],
              [
                140.202936885,
                -2.89915901
              ],
              [
                140.202594242,
                -2.899722942
              ],
              [
                140.201858989,
                -2.900586687
              ],
              [
                140.201502709,
                -2.900957864
              ],
              [
                140.200909584,
                -2.901386186
              ],
              [
                140.200681156,
                -2.901614614
              ],
              [
                140.200581218,
                -2.901778797
              ],
              [
                140.200545526,
                -2.902328452
              ],
              [
                140.200559803,
                -2.90264968
              ],
              [
                140.200592901,
                -2.902868078
              ],
              [
                140.199388646,
                -2.90326519
              ],
              [
                140.196761721,
                -2.904007581
              ],
              [
                140.196361971,
                -2.905892115
              ],
              [
                140.195733794,
                -2.908633254
              ],
              [
                140.199782794,
                -2.912489393
              ],
              [
                140.202067077,
                -2.916106173
              ],
              [
                140.208348854,
                -2.922197594
              ],
              [
                140.209490995,
                -2.926004731
              ],
              [
                140.210823493,
                -2.9279083
              ],
              [
                140.215772772,
                -2.929050441
              ],
              [
                140.216914913,
                -2.931905794
              ],
              [
                140.221673835,
                -2.93647436
              ],
              [
                140.22567133,
                -2.93952007
              ],
              [
                140.22567133,
                -2.942375423
              ],
              [
                140.229478468,
                -2.943898278
              ],
              [
                140.23423739,
                -2.948466843
              ],
              [
                140.230810966,
                -2.950180055
              ],
              [
                140.230620609,
                -2.952083624
              ],
              [
                140.225480973,
                -2.956842546
              ],
              [
                140.222054549,
                -2.959317185
              ],
              [
                140.217866698,
                -2.959507542
              ],
              [
                140.21405956,
                -2.962172538
              ],
              [
                140.209871709,
                -2.962362895
              ],
              [
                140.202257434,
                -2.960459327
              ],
              [
                140.199592437,
                -2.961791825
              ],
              [
                140.200163508,
                -2.967692888
              ],
              [
                140.199782794,
                -2.972642167
              ],
              [
                140.197117798,
                -2.973213237
              ],
              [
                140.196166013,
                -2.974926449
              ],
              [
                140.193120303,
                -2.974545736
              ],
              [
                140.190074593,
                -2.97549752
              ],
              [
                140.186077099,
                -2.976068591
              ],
              [
                140.185315671,
                -2.970548241
              ],
              [
                140.181508534,
                -2.965789319
              ],
              [
                140.178272467,
                -2.964456821
              ],
              [
                140.174846043,
                -2.964456821
              ],
              [
                140.16892506,
                -2.965779248
              ],
              [
                140.166999636,
                -2.965824086
              ],
              [
                140.165072273,
                -2.967394531
              ],
              [
                140.163216293,
                -2.96867944
              ],
              [
                140.164144283,
                -2.970035732
              ],
              [
                140.164786737,
                -2.971249257
              ],
              [
                140.16464397,
                -2.972891086
              ],
              [
                140.162015386,
                -2.973620859
              ],
              [
                140.161539494,
                -2.975809963
              ],
              [
                140.163728598,
                -2.975714785
              ],
              [
                140.165632167,
                -2.97600032
              ],
              [
                140.166108059,
                -2.977142461
              ],
              [
                140.16544181,
                -2.978379781
              ],
              [
                140.166869487,
                -2.979712279
              ],
              [
                140.167821271,
                -2.979712279
              ],
              [
                140.168963412,
                -2.979236387
              ],
              [
                140.168963412,
                -2.980949599
              ],
              [
                140.1659185,
                -2.983333533
              ],
              [
                140.165251453,
                -2.984471201
              ],
              [
                140.162967171,
                -2.983614595
              ],
              [
                140.164965918,
                -2.985708521
              ],
              [
                140.164965918,
                -2.987516911
              ],
              [
                140.162110565,
                -2.98761209
              ],
              [
                140.163728598,
                -2.988373517
              ],
              [
                140.16363342,
                -2.989706015
              ],
              [
                140.164109312,
                -2.9906578
              ],
              [
                140.165917702,
                -2.989134945
              ],
              [
                140.167155022,
                -2.988563874
              ],
              [
                140.168106806,
                -2.98942048
              ],
              [
                140.167155022,
                -2.991324049
              ],
              [
                140.166774308,
                -2.99246619
              ],
              [
                140.16791645,
                -2.995226365
              ],
              [
                140.169344126,
                -2.991799941
              ],
              [
                140.169629662,
                -2.988468696
              ],
              [
                140.170782979,
                -2.987691333
              ],
              [
                140.173182261,
                -2.989862112
              ],
              [
                140.172485015,
                -2.991514406
              ],
              [
                140.172294658,
                -2.992561369
              ],
              [
                140.172865728,
                -2.994560116
              ],
              [
                140.173865102,
                -2.995226365
              ],
              [
                140.174162535,
                -2.996475582
              ],
              [
                140.173828689,
                -2.998922389
              ],
              [
                140.172675372,
                -2.999033503
              ],
              [
                140.171485641,
                -2.999806827
              ],
              [
                140.171163693,
                -3.001206671
              ],
              [
                140.173567669,
                -3.00165091
              ],
              [
                140.175649698,
                -3.002245775
              ],
              [
                140.177374807,
                -3.001923556
              ],
              [
                140.18023016,
                -3.000971772
              ],
              [
                140.182371675,
                -3.002161502
              ],
              [
                140.182014756,
                -3.004540963
              ],
              [
                140.178802484,
                -3.004778909
              ],
              [
                140.176423023,
                -3.005135829
              ],
              [
                140.176303329,
                -3.007488449
              ],
              [
                140.177826184,
                -3.011485943
              ],
              [
                140.180681537,
                -3.013389512
              ],
              [
                140.181252607,
                -3.015483438
              ],
              [
                140.178397254,
                -3.016625579
              ],
              [
                140.175732258,
                -3.016815936
              ],
              [
                140.173638332,
                -3.02024236
              ],
              [
                140.17135405,
                -3.022907356
              ],
              [
                140.16887941,
                -3.02690485
              ],
              [
                140.168689053,
                -3.0324252
              ],
              [
                140.168498697,
                -3.036422694
              ],
              [
                140.168305733,
                -3.040295843
              ],
              [
                140.164585779,
                -3.043157347
              ],
              [
                140.158042261,
                -3.047916269
              ],
              [
                140.151201311,
                -3.047916269
              ],
              [
                140.146144956,
                -3.048213701
              ],
              [
                140.140493736,
                -3.051188028
              ],
              [
                140.132760488,
                -3.056839248
              ],
              [
                140.129786162,
                -3.052972623
              ],
              [
                140.123093499,
                -3.051274545
              ],
              [
                140.117515281,
                -3.050822257
              ],
              [
                140.113947353,
                -3.05091615
              ],
              [
                140.114238727,
                -3.048752605
              ],
              [
                140.115279741,
                -3.045778279
              ],
              [
                140.1185515,
                -3.045926995
              ],
              [
                140.120930961,
                -3.043250101
              ],
              [
                140.124648869,
                -3.039532194
              ],
              [
                140.123607855,
                -3.037004016
              ],
              [
                140.121228394,
                -3.036260435
              ],
              [
                140.117659202,
                -3.037598882
              ],
              [
                140.115173114,
                -3.037533344
              ],
              [
                140.114090011,
                -3.033583541
              ],
              [
                140.11171055,
                -3.031798945
              ],
              [
                140.109628522,
                -3.029419484
              ],
              [
                140.107843926,
                -3.027486172
              ],
              [
                140.107046488,
                -3.026408626
              ],
              [
                140.107236845,
                -3.025599609
              ],
              [
                140.106665774,
                -3.024743003
              ],
              [
                140.107332023,
                -3.024124343
              ],
              [
                140.107950683,
                -3.02307738
              ],
              [
                140.107236845,
                -3.021744882
              ],
              [
                140.10690372,
                -3.020793098
              ],
              [
                140.10659439,
                -3.019960286
              ],
              [
                140.10571399,
                -3.019984081
              ],
              [
                140.105142919,
                -3.020412384
              ],
              [
                140.104500465,
                -3.019912697
              ],
              [
                140.103667653,
                -3.019650956
              ],
              [
                140.103025199,
                -3.01941301
              ],
              [
                140.102596896,
                -3.018270869
              ],
              [
                140.10262069,
                -3.017652209
              ],
              [
                140.102525512,
                -3.01698596
              ],
              [
                140.10262069,
                -3.0163673
              ],
              [
                140.102216182,
                -3.015724846
              ],
              [
                140.10174029,
                -3.015534489
              ],
              [
                140.101097835,
                -3.015677257
              ],
              [
                140.100669532,
                -3.015201364
              ],
              [
                140.100645738,
                -3.014392348
              ],
              [
                140.100907479,
                -3.013797482
              ],
              [
                140.101668906,
                -3.013464358
              ],
              [
                140.101716495,
                -3.012679136
              ],
              [
                140.101193014,
                -3.011774941
              ],
              [
                140.1008123,
                -3.011560789
              ],
              [
                140.100526765,
                -3.011156281
              ],
              [
                140.10050297,
                -3.010632799
              ],
              [
                140.100740916,
                -3.009918961
              ],
              [
                140.101002657,
                -3.00908615
              ],
              [
                140.101383371,
                -3.008229544
              ],
              [
                140.101906852,
                -3.007277759
              ],
              [
                140.101859263,
                -3.006421153
              ],
              [
                140.101002657,
                -3.00599285
              ],
              [
                140.100146051,
                -3.005897672
              ],
              [
                140.100241229,
                -3.00480312
              ],
              [
                140.099827203,
                -3.004436683
              ],
              [
                140.099389382,
                -3.004474754
              ],
              [
                140.098989633,
                -3.004722218
              ],
              [
                140.098723133,
                -3.004874504
              ],
              [
                140.09807592,
                -3.005045825
              ],
              [
                140.097657135,
                -3.005064861
              ],
              [
                140.097295457,
                -3.004893539
              ],
              [
                140.097371599,
                -3.004379576
              ],
              [
                140.097466778,
                -3.003998862
              ],
              [
                140.097466778,
                -3.00365622
              ],
              [
                140.097257385,
                -3.00338972
              ],
              [
                140.097542921,
                -3.003009006
              ],
              [
                140.097752313,
                -3.002456971
              ],
              [
                140.097999777,
                -3.001847829
              ],
              [
                140.097714242,
                -3.001657472
              ],
              [
                140.097276421,
                -3.001714579
              ],
              [
                140.096933779,
                -3.002323721
              ],
              [
                140.096572101,
                -3.002399864
              ],
              [
                140.096096208,
                -3.002647328
              ],
              [
                140.095582245,
                -3.003009006
              ],
              [
                140.095334781,
                -3.003637184
              ],
              [
                140.095049246,
                -3.004798361
              ],
              [
                140.094211675,
                -3.005367052
              ],
              [
                140.093997524,
                -3.005938123
              ],
              [
                140.094532902,
                -3.00625935
              ],
              [
                140.093819064,
                -3.006509193
              ],
              [
                140.092891074,
                -3.006937496
              ],
              [
                140.092320004,
                -3.00700888
              ],
              [
                140.092320004,
                -3.005795355
              ],
              [
                140.092355696,
                -3.004688906
              ],
              [
                140.091713241,
                -3.004082143
              ],
              [
                140.090928019,
                -3.003546764
              ],
              [
                140.090873291,
                -3.002920966
              ],
              [
                140.090797149,
                -3.002159539
              ],
              [
                140.090473542,
                -3.001664611
              ],
              [
                140.090073793,
                -3.001321968
              ],
              [
                140.089293329,
                -3.001055469
              ],
              [
                140.088988758,
                -3.00136004
              ],
              [
                140.088569973,
                -3.001816896
              ],
              [
                140.088455759,
                -3.001969182
              ],
              [
                140.088474795,
                -3.002292788
              ],
              [
                140.088151188,
                -3.002387967
              ],
              [
                140.087637225,
                -3.002483145
              ],
              [
                140.08681869,
                -3.002483145
              ],
              [
                140.086304726,
                -3.002387967
              ],
              [
                140.085962084,
                -3.001950146
              ],
              [
                140.086000155,
                -3.001455218
              ],
              [
                140.085828834,
                -3.001150647
              ],
              [
                140.085467156,
                -3.001264861
              ],
              [
                140.085086442,
                -3.001816896
              ],
              [
                140.084724764,
                -3.002159539
              ],
              [
                140.084096587,
                -3.002121467
              ],
              [
                140.083468409,
                -3.002140503
              ],
              [
                140.083030588,
                -3.002292788
              ],
              [
                140.082706981,
                -3.001950146
              ],
              [
                140.082649874,
                -3.001283897
              ],
              [
                140.082516624,
                -3.000903183
              ],
              [
                140.082059768,
                -3.000750898
              ],
              [
                140.081602911,
                -3.000731862
              ],
              [
                140.081293581,
                -3.000138186
              ],
              [
                140.081947933,
                -2.999573065
              ],
              [
                140.082572542,
                -2.999067429
              ],
              [
                140.082185879,
                -2.998264361
              ],
              [
                140.081472041,
                -2.997818212
              ],
              [
                140.080728459,
                -2.997669496
              ],
              [
                140.079925391,
                -2.997193603
              ],
              [
                140.079360269,
                -2.996658225
              ],
              [
                140.079241296,
                -2.99606336
              ],
              [
                140.079387952,
                -2.99567901
              ],
              [
                140.07948313,
                -2.99541251
              ],
              [
                140.079844808,
                -2.994879511
              ],
              [
                140.079768665,
                -2.99457494
              ],
              [
                140.079521201,
                -2.994270369
              ],
              [
                140.079478179,
                -2.994127169
              ],
              [
                140.080187451,
                -2.99276655
              ],
              [
                140.080168415,
                -2.992328729
              ],
              [
                140.079920951,
                -2.992024158
              ],
              [
                140.078931095,
                -2.991129481
              ],
              [
                140.078442878,
                -2.990681145
              ],
              [
                140.074151324,
                -2.990478193
              ],
              [
                140.071817919,
                -2.990367844
              ],
              [
                140.070111464,
                -2.989606308
              ],
              [
                140.068112717,
                -2.989225595
              ],
              [
                140.067440499,
                -2.990160832
              ],
              [
                140.067065754,
                -2.990843628
              ],
              [
                140.066780219,
                -2.991747823
              ],
              [
                140.06673263,
                -2.992747197
              ],
              [
                140.065780845,
                -2.993223089
              ],
              [
                140.064829061,
                -2.994555587
              ],
              [
                140.064638704,
                -2.995459782
              ],
              [
                140.064115223,
                -2.995983264
              ],
              [
                140.062830314,
                -2.995697728
              ],
              [
                140.061926118,
                -2.995840496
              ],
              [
                140.060867258,
                -2.996114134
              ],
              [
                140.059677528,
                -2.996292594
              ],
              [
                140.05860677,
                -2.995757215
              ],
              [
                140.058249851,
                -2.994686458
              ],
              [
                140.058011905,
                -2.993377754
              ],
              [
                140.058011905,
                -2.99224751
              ],
              [
                140.057119607,
                -2.991652645
              ],
              [
                140.05587039,
                -2.992782889
              ],
              [
                140.055097065,
                -2.99343724
              ],
              [
                140.053805871,
                -2.993058857
              ],
              [
                140.053520335,
                -2.991488412
              ],
              [
                140.053948638,
                -2.990346271
              ],
              [
                140.054383405,
                -2.98954335
              ],
              [
                140.054234174,
                -2.988680648
              ],
              [
                140.053472746,
                -2.988537881
              ],
              [
                140.052140248,
                -2.988823416
              ],
              [
                140.05130599,
                -2.989397816
              ],
              [
                140.05018909,
                -2.991440823
              ],
              [
                140.049046949,
                -2.991726358
              ],
              [
                140.048237932,
                -2.991060109
              ],
              [
                140.047666861,
                -2.990155914
              ],
              [
                140.047381326,
                -2.988680648
              ],
              [
                140.046810255,
                -2.987824042
              ],
              [
                140.045572936,
                -2.987871632
              ],
              [
                140.044376041,
                -2.989070093
              ],
              [
                140.043430871,
                -2.989025395
              ],
              [
                140.042717582,
                -2.988442702
              ],
              [
                140.043241064,
                -2.986967436
              ],
              [
                140.044573562,
                -2.986206009
              ],
              [
                140.046429542,
                -2.986015652
              ],
              [
                140.047095791,
                -2.985349403
              ],
              [
                140.04776204,
                -2.984159672
              ],
              [
                140.04652472,
                -2.98368378
              ],
              [
                140.044954276,
                -2.983874137
              ],
              [
                140.043812134,
                -2.983398245
              ],
              [
                140.042907939,
                -2.982684407
              ],
              [
                140.041385084,
                -2.982113336
              ],
              [
                140.04105196,
                -2.981113962
              ],
              [
                140.040290532,
                -2.980304946
              ],
              [
                140.039862229,
                -2.979020037
              ],
              [
                140.040242943,
                -2.977830306
              ],
              [
                140.041289906,
                -2.976735754
              ],
              [
                140.040100175,
                -2.975974327
              ],
              [
                140.03857732,
                -2.976021916
              ],
              [
                140.036340627,
                -2.975593613
              ],
              [
                140.035484021,
                -2.974356293
              ],
              [
                140.035506884,
                -2.972909754
              ],
              [
                140.035814535,
                -2.972319145
              ],
              [
                140.035816853,
                -2.971238461
              ],
              [
                140.03556463,
                -2.971094503
              ],
              [
                140.03547897,
                -2.970937459
              ],
              [
                140.03547897,
                -2.970466326
              ],
              [
                140.035464693,
                -2.970195067
              ],
              [
                140.035578907,
                -2.969923809
              ],
              [
                140.035864442,
                -2.969823871
              ],
              [
                140.03600721,
                -2.969595443
              ],
              [
                140.036235638,
                -2.969081479
              ],
              [
                140.036349852,
                -2.968624623
              ],
              [
                140.035992933,
                -2.968024999
              ],
              [
                140.035336202,
                -2.967996445
              ],
              [
                140.034393936,
                -2.968210597
              ],
              [
                140.03353733,
                -2.968182043
              ],
              [
                140.032223867,
                -2.967867954
              ],
              [
                140.031979809,
                -2.967194455
              ],
              [
                140.030504918,
                -2.966970751
              ],
              [
                140.030137744,
                -2.966960851
              ],
              [
                140.029806168,
                -2.966070597
              ],
              [
                140.02909233,
                -2.964928456
              ],
              [
                140.028711616,
                -2.964286002
              ],
              [
                140.028568849,
                -2.96376252
              ],
              [
                140.027212556,
                -2.963786315
              ],
              [
                140.019479308,
                -2.963334217
              ],
              [
                140.009470651,
                -2.962437878
              ],
              [
                139.997211668,
                -2.961352844
              ],
              [
                139.996263135,
                -2.962146965
              ],
              [
                139.995983866,
                -2.962380771
              ],
              [
                139.994998199,
                -2.962610219
              ],
              [
                139.993417591,
                -2.962224217
              ],
              [
                139.991991767,
                -2.961814935
              ],
              [
                139.990846619,
                -2.961477891
              ],
              [
                139.990039021,
                -2.960705631
              ],
              [
                139.976940945,
                -2.959823136
              ],
              [
                139.977740444,
                -2.95080022
              ],
              [
                139.975170626,
                -2.950400471
              ],
              [
                139.975741696,
                -2.941092019
              ],
              [
                139.965215925,
                -2.940200005
              ],
              [
                139.963213304,
                -2.94003635
              ],
              [
                139.961753481,
                -2.939917052
              ],
              [
                139.95665999,
                -2.939500799
              ],
              [
                139.947138196,
                -2.938804088
              ],
              [
                139.947190817,
                -2.936225656
              ],
              [
                139.947328552,
                -2.929476601
              ],
              [
                139.945827107,
                -2.926067069
              ],
              [
                139.943090557,
                -2.919852821
              ],
              [
                139.942037604,
                -2.911086221
              ],
              [
                139.945199752,
                -2.911158636
              ],
              [
                139.944878525,
                -2.909873727
              ],
              [
                139.945235444,
                -2.908767278
              ],
              [
                139.947095648,
                -2.907714914
              ],
              [
                139.947448343,
                -2.907518061
              ],
              [
                139.947968291,
                -2.906863312
              ],
              [
                139.948412024,
                -2.906304536
              ],
              [
                139.95001816,
                -2.905126703
              ],
              [
                139.951481991,
                -2.90299195
              ],
              [
                139.951731372,
                -2.902628269
              ],
              [
                139.952286634,
                -2.901099212
              ],
              [
                139.953283935,
                -2.900108234
              ],
              [
                139.953542737,
                -2.899857585
              ],
              [
                139.953715248,
                -2.898519138
              ],
              [
                139.953718871,
                -2.897703324
              ],
              [
                139.95467333,
                -2.895638136
              ],
              [
                139.954311108,
                -2.892893421
              ],
              [
                139.953002405,
                -2.891049339
              ],
              [
                139.950622944,
                -2.890276014
              ],
              [
                139.948719375,
                -2.888075013
              ],
              [
                139.947470158,
                -2.885338633
              ],
              [
                139.945685562,
                -2.883375577
              ],
              [
                139.949377891,
                -2.882183765
              ],
              [
                139.951833495,
                -2.880584767
              ],
              [
                139.954574634,
                -2.878414698
              ],
              [
                139.955716775,
                -2.875388024
              ],
              [
                139.959028985,
                -2.873160849
              ],
              [
                139.959495359,
                -2.869910505
              ],
              [
                139.957544201,
                -2.867483455
              ],
              [
                139.953499117,
                -2.865151583
              ],
              [
                139.955212329,
                -2.863961852
              ],
              [
                139.956628108,
                -2.861775128
              ],
              [
                139.956529935,
                -2.857062808
              ],
              [
                139.955700119,
                -2.851531548
              ],
              [
                139.957734558,
                -2.848140816
              ],
              [
                139.960613881,
                -2.845058839
              ],
              [
                139.964718276,
                -2.845725663
              ],
              [
                139.969090535,
                -2.846872563
              ],
              [
                139.973959466,
                -2.844309926
              ],
              [
                139.976757712,
                -2.843624641
              ],
              [
                139.978833278,
                -2.841807854
              ],
              [
                139.970134542,
                -2.834217382
              ],
              [
                139.963134188,
                -2.824936483
              ],
              [
                139.964159172,
                -2.820098573
              ],
              [
                139.96787584,
                -2.818023619
              ],
              [
                139.971446835,
                -2.81709021
              ],
              [
                139.974587723,
                -2.816554831
              ],
              [
                139.979084905,
                -2.816376372
              ],
              [
                139.982175149,
                -2.817967702
              ],
              [
                139.984192254,
                -2.819781818
              ],
              [
                139.986690688,
                -2.818949006
              ],
              [
                139.987642473,
                -2.818116195
              ],
              [
                139.987166169,
                -2.816777807
              ],
              [
                139.987820932,
                -2.815022896
              ],
              [
                139.988772717,
                -2.813773679
              ],
              [
                139.990735772,
                -2.812821894
              ],
              [
                139.993234206,
                -2.812940867
              ],
              [
                139.996637248,
                -2.812061765
              ],
              [
                139.997933642,
                -2.809669108
              ],
              [
                139.998231074,
                -2.808479378
              ],
              [
                139.996743911,
                -2.807349134
              ],
              [
                139.996446478,
                -2.805505052
              ],
              [
                139.997517236,
                -2.804017889
              ],
              [
                139.998290561,
                -2.80193586
              ],
              [
                139.999123372,
                -2.801697914
              ],
              [
                140.000313103,
                -2.80211432
              ],
              [
                140.000313103,
                -2.803423023
              ],
              [
                139.999718237,
                -2.804553267
              ],
              [
                140.000907968,
                -2.805683511
              ],
              [
                140.00257359,
                -2.80604043
              ],
              [
                140.004067884,
                -2.805593909
              ],
              [
                140.004415557,
                -2.804080944
              ],
              [
                140.005428944,
                -2.802947131
              ],
              [
                140.004996695,
                -2.801552016
              ],
              [
                140.004417673,
                -2.799615886
              ],
              [
                140.004358186,
                -2.797057965
              ],
              [
                140.006054047,
                -2.796950748
              ],
              [
                140.007629945,
                -2.796938992
              ],
              [
                140.009208182,
                -2.795917875
              ],
              [
                140.009521617,
                -2.795059218
              ],
              [
                140.009634721,
                -2.794231644
              ],
              [
                140.010556682,
                -2.793702925
              ],
              [
                140.011912975,
                -2.793595849
              ],
              [
                140.0131265,
                -2.793774309
              ],
              [
                140.013804646,
                -2.795059218
              ],
              [
                140.014768328,
                -2.795808748
              ],
              [
                140.015482166,
                -2.796486894
              ],
              [
                140.016410156,
                -2.796629662
              ],
              [
                140.017424131,
                -2.796821252
              ],
              [
                140.018551671,
                -2.796736738
              ],
              [
                140.019122742,
                -2.797557652
              ],
              [
                140.01914483,
                -2.798126959
              ],
              [
                140.018783669,
                -2.798408309
              ],
              [
                140.018783669,
                -2.799181634
              ],
              [
                140.019051358,
                -2.799925216
              ],
              [
                140.019973399,
                -2.800103675
              ],
              [
                140.020954927,
                -2.79959804
              ],
              [
                140.021490305,
                -2.799776499
              ],
              [
                140.020979778,
                -2.800952779
              ],
              [
                140.0210739,
                -2.802126217
              ],
              [
                140.021282103,
                -2.803256461
              ],
              [
                140.020954927,
                -2.804416448
              ],
              [
                140.020925184,
                -2.805189773
              ],
              [
                140.021728252,
                -2.805933355
              ],
              [
                140.022977469,
                -2.805933355
              ],
              [
                140.023643645,
                -2.805735133
              ],
              [
                140.023909162,
                -2.806211808
              ]
            ]
          ]
        ]
      }
    }
  ]
}