{
  "type": "FeatureCollection",
  "features": [
    {
      "type": "Feature",
      "properties": {
        "idx": "2761",
        "nama_kewilayahan": "Marga Iba 2"
      },
      "geometry": {
        "type": "MultiPolygon",
        "coordinates": [
          [
            [
              [
                133.415949888,
                -1.413095479
              ],
              [
                133.413272781,
                -1.413784369
              ],
              [
                133.410276321,
                -1.414883009
              ],
              [
                133.408040612,
                -1.416077881
              ],
              [
                133.40547221,
                -1.417033235
              ],
              [
                133.402286402,
                -1.416887456
              ],
              [
                133.400289729,
                -1.416216079
              ],
              [
                133.397817619,
                -1.415448659
              ],
              [
                133.395299407,
                -1.412575529
              ],
              [
                133.393636092,
                -1.411186541
              ],
              [
                133.391591981,
                -1.410371564
              ],
              [
                133.389975136,
                -1.410561863
              ],
              [
                133.388311038,
                -1.410321423
              ],
              [
                133.386266836,
                -1.409650012
              ],
              [
                133.385126289,
                -1.408692096
              ],
              [
                133.38296817,
                -1.407733469
              ],
              [
                133.380115559,
                -1.407157205
              ],
              [
                133.377453087,
                -1.406676784
              ],
              [
                133.375741751,
                -1.406005604
              ],
              [
                133.374820459,
                -1.405561359
              ],
              [
                133.374648466,
                -1.405478424
              ],
              [
                133.372035408,
                -1.402318113
              ],
              [
                133.370419642,
                -1.400977022
              ],
              [
                133.366425635,
                -1.400734944
              ],
              [
                133.365332591,
                -1.399872777
              ],
              [
                133.366903349,
                -1.397528953
              ],
              [
                133.368712642,
                -1.394036754
              ],
              [
                133.368855508,
                -1.393721007
              ],
              [
                133.365765449,
                -1.392761739
              ],
              [
                133.361106303,
                -1.391753517
              ],
              [
                133.357733049,
                -1.387779156
              ],
              [
                133.3505542,
                -1.386242761
              ],
              [
                133.34812957,
                -1.385714653
              ],
              [
                133.345136613,
                -1.381931997
              ],
              [
                133.34480546,
                -1.379491155
              ],
              [
                133.345044691,
                -1.377337842
              ],
              [
                133.345904585,
                -1.371500118
              ],
              [
                133.344337731,
                -1.368225739
              ],
              [
                133.343197487,
                -1.366885005
              ],
              [
                133.341868166,
                -1.36391707
              ],
              [
                133.340538059,
                -1.362097657
              ],
              [
                133.337191025,
                -1.356749868
              ],
              [
                133.340704746,
                -1.355505491
              ],
              [
                133.342782455,
                -1.354349872
              ],
              [
                133.344325159,
                -1.356230469
              ],
              [
                133.349360097,
                -1.361137078
              ],
              [
                133.354232306,
                -1.366370468
              ],
              [
                133.362353739,
                -1.373567385
              ],
              [
                133.367065032,
                -1.376512545
              ],
              [
                133.372587874,
                -1.381092669
              ],
              [
                133.378972737,
                -1.386064918
              ],
              [
                133.383032975,
                -1.390480618
              ],
              [
                133.385469704,
                -1.39228015
              ],
              [
                133.388069746,
                -1.392935707
              ],
              [
                133.393108089,
                -1.393102612
              ],
              [
                133.396032652,
                -1.394575596
              ],
              [
                133.399768886,
                -1.397520117
              ],
              [
                133.401230568,
                -1.399155543
              ],
              [
                133.415949888,
                -1.413095479
              ]
            ]
          ]
        ]
      }
    }
  ]
}