{
  "type": "FeatureCollection",
  "features": [
    {
      "type": "Feature",
      "properties": {
        "idx": "2798",
        "nama_kewilayahan": "Dayak Tahol Desa Salap"
      },
      "geometry": {
        "type": "MultiPolygon",
        "coordinates": [
          [
            [
              [
                116.61548773,
                3.790773182
              ],
              [
                116.6153491,
                3.790497394
              ],
              [
                116.615277972,
                3.79036611
              ],
              [
                116.615183746,
                3.790231416
              ],
              [
                116.615058927,
                3.790086385
              ],
              [
                116.61490653,
                3.789928556
              ],
              [
                116.61473463,
                3.789762752
              ],
              [
                116.614166974,
                3.789191419
              ],
              [
                116.613973553,
                3.788882303
              ],
              [
                116.6139371,
                3.788809521
              ],
              [
                116.613925698,
                3.788757336
              ],
              [
                116.613918462,
                3.788724184
              ],
              [
                116.613907734,
                3.788672961
              ],
              [
                116.613904324,
                3.788603072
              ],
              [
                116.613912366,
                3.788553353
              ],
              [
                116.613915324,
                3.788503834
              ],
              [
                116.613912427,
                3.788390936
              ],
              [
                116.614121151,
                3.78806318
              ],
              [
                116.614240348,
                3.787839978
              ],
              [
                116.614369047,
                3.787639291
              ],
              [
                116.614460899,
                3.787429334
              ],
              [
                116.614533869,
                3.787224615
              ],
              [
                116.614586603,
                3.787020739
              ],
              [
                116.614625934,
                3.786808396
              ],
              [
                116.61466222,
                3.786583284
              ],
              [
                116.614741177,
                3.786111603
              ],
              [
                116.614756953,
                3.78586443
              ],
              [
                116.614730537,
                3.785597818
              ],
              [
                116.614665815,
                3.785303113
              ],
              [
                116.614581746,
                3.784981824
              ],
              [
                116.614495857,
                3.784656157
              ],
              [
                116.614421254,
                3.784357064
              ],
              [
                116.61436832,
                3.784101619
              ],
              [
                116.61434528,
                3.783886359
              ],
              [
                116.614354911,
                3.783697825
              ],
              [
                116.614384909,
                3.783518386
              ],
              [
                116.61440368,
                3.783327704
              ],
              [
                116.614384624,
                3.783119874
              ],
              [
                116.614322932,
                3.782908633
              ],
              [
                116.614230928,
                3.782712625
              ],
              [
                116.614037579,
                3.78237052
              ],
              [
                116.61396885,
                3.78219158
              ],
              [
                116.613919298,
                3.781997007
              ],
              [
                116.613883849,
                3.781792826
              ],
              [
                116.613859923,
                3.781589279
              ],
              [
                116.613846573,
                3.781394105
              ],
              [
                116.613848326,
                3.781185207
              ],
              [
                116.613873055,
                3.781029334
              ],
              [
                116.613892006,
                3.780968784
              ],
              [
                116.613926977,
                3.780856975
              ],
              [
                116.614008042,
                3.780692173
              ],
              [
                116.614206155,
                3.780365223
              ],
              [
                116.614290132,
                3.780181344
              ],
              [
                116.614353783,
                3.779971565
              ],
              [
                116.614413626,
                3.779726991
              ],
              [
                116.614494907,
                3.779441089
              ],
              [
                116.614610409,
                3.779120674
              ],
              [
                116.614766846,
                3.778791303
              ],
              [
                116.61497184,
                3.778489053
              ],
              [
                116.615218878,
                3.778235332
              ],
              [
                116.615481983,
                3.778013489
              ],
              [
                116.615735727,
                3.777786776
              ],
              [
                116.615970892,
                3.777540524
              ],
              [
                116.616189254,
                3.777286282
              ],
              [
                116.616390606,
                3.777044223
              ],
              [
                116.616543752,
                3.776854999
              ],
              [
                116.616611111,
                3.77675
              ],
              [
                116.616704641,
                3.776620535
              ],
              [
                116.616773665,
                3.776422285
              ],
              [
                116.616760437,
                3.776216447
              ],
              [
                116.616667517,
                3.77603294
              ],
              [
                116.616524199,
                3.775881752
              ],
              [
                116.616365364,
                3.775754315
              ],
              [
                116.616084568,
                3.775543398
              ],
              [
                116.615976802,
                3.775448514
              ],
              [
                116.615809996,
                3.775270032
              ],
              [
                116.615648853,
                3.775096554
              ],
              [
                116.61555496,
                3.774997403
              ],
              [
                116.615475035,
                3.774899915
              ],
              [
                116.615368796,
                3.774766341
              ],
              [
                116.615309736,
                3.77463721
              ],
              [
                116.615298464,
                3.774503364
              ],
              [
                116.615338008,
                3.774379102
              ],
              [
                116.615418268,
                3.774274612
              ],
              [
                116.61552655,
                3.774186735
              ],
              [
                116.615646438,
                3.774093673
              ],
              [
                116.615751912,
                3.773962658
              ],
              [
                116.615819504,
                3.773785227
              ],
              [
                116.615845843,
                3.773576394
              ],
              [
                116.615844577,
                3.773143014
              ],
              [
                116.615849255,
                3.772948946
              ],
              [
                116.615892688,
                3.772616686
              ],
              [
                116.615906423,
                3.77245653
              ],
              [
                116.615887949,
                3.772286523
              ],
              [
                116.615828226,
                3.772109972
              ],
              [
                116.61573148,
                3.771937762
              ],
              [
                116.615481853,
                3.771641204
              ],
              [
                116.615365288,
                3.771498085
              ],
              [
                116.615276932,
                3.771330128
              ],
              [
                116.615221707,
                3.771130719
              ],
              [
                116.615191552,
                3.770904392
              ],
              [
                116.615165007,
                3.77043547
              ],
              [
                116.615162562,
                3.770235248
              ],
              [
                116.615176902,
                3.769935562
              ],
              [
                116.615166868,
                3.769641959
              ],
              [
                116.615145779,
                3.769519203
              ],
              [
                116.615350108,
                3.769181978
              ],
              [
                116.615515371,
                3.76897153
              ],
              [
                116.615702473,
                3.768772389
              ],
              [
                116.615973224,
                3.768521068
              ],
              [
                116.616237754,
                3.768238931
              ],
              [
                116.616433352,
                3.767864517
              ],
              [
                116.616512819,
                3.767429215
              ],
              [
                116.616455931,
                3.766995194
              ],
              [
                116.61629259,
                3.766618191
              ],
              [
                116.616096048,
                3.766303829
              ],
              [
                116.615930428,
                3.766015806
              ],
              [
                116.615821621,
                3.765721551
              ],
              [
                116.615754448,
                3.765409042
              ],
              [
                116.615697499,
                3.765076172
              ],
              [
                116.615554071,
                3.76440177
              ],
              [
                116.615454226,
                3.76410208
              ],
              [
                116.615325126,
                3.763839836
              ],
              [
                116.615182239,
                3.763600502
              ],
              [
                116.615062088,
                3.763361737
              ],
              [
                116.61500066,
                3.763119806
              ],
              [
                116.615013236,
                3.762893584
              ],
              [
                116.615082142,
                3.7627024
              ],
              [
                116.615243472,
                3.762385933
              ],
              [
                116.615278354,
                3.762225091
              ],
              [
                116.615251907,
                3.762060064
              ],
              [
                116.615155093,
                3.761913398
              ],
              [
                116.61499983,
                3.761807163
              ],
              [
                116.614809712,
                3.761738606
              ],
              [
                116.614607312,
                3.761683959
              ],
              [
                116.614413363,
                3.761611027
              ],
              [
                116.614249261,
                3.761495226
              ],
              [
                116.614131568,
                3.761338461
              ],
              [
                116.614069739,
                3.761200468
              ],
              [
                116.61401822,
                3.760970909
              ],
              [
                116.613975715,
                3.760586265
              ],
              [
                116.613920474,
                3.760171646
              ],
              [
                116.61384015,
                3.759717036
              ],
              [
                116.613810281,
                3.759502579
              ],
              [
                116.613766769,
                3.759161178
              ],
              [
                116.613720069,
                3.759027932
              ],
              [
                116.613643183,
                3.75891022
              ],
              [
                116.613535708,
                3.758804613
              ],
              [
                116.613397887,
                3.758711342
              ],
              [
                116.613236344,
                3.758625652
              ],
              [
                116.613065239,
                3.758535297
              ],
              [
                116.612902451,
                3.758431022
              ],
              [
                116.612766002,
                3.758307469
              ],
              [
                116.612672124,
                3.758160889
              ],
              [
                116.612632776,
                3.75799539
              ],
              [
                116.61264992,
                3.757822821
              ],
              [
                116.612711927,
                3.757651424
              ],
              [
                116.612800049,
                3.757483132
              ],
              [
                116.61289944,
                3.757322693
              ],
              [
                116.613000462,
                3.757179684
              ],
              [
                116.613072627,
                3.757097355
              ],
              [
                116.61318144,
                3.756969698
              ],
              [
                116.613248879,
                3.756885587
              ],
              [
                116.613286087,
                3.756789835
              ],
              [
                116.613286874,
                3.756681602
              ],
              [
                116.613249879,
                3.756569069
              ],
              [
                116.613177146,
                3.756462352
              ],
              [
                116.612960131,
                3.756294026
              ],
              [
                116.612565173,
                3.756111359
              ],
              [
                116.612364481,
                3.756087546
              ],
              [
                116.611972917,
                3.756008312
              ],
              [
                116.611570943,
                3.755940935
              ],
              [
                116.611493694,
                3.755912557
              ],
              [
                116.611450766,
                3.755878239
              ],
              [
                116.611417602,
                3.755824392
              ],
              [
                116.611401564,
                3.755789313
              ],
              [
                116.611397296,
                3.755737961
              ],
              [
                116.611420994,
                3.755628693
              ],
              [
                116.611423962,
                3.75553088
              ],
              [
                116.611388324,
                3.755346734
              ],
              [
                116.611384379,
                3.755256841
              ],
              [
                116.611400929,
                3.755164046
              ],
              [
                116.61144176,
                3.755068372
              ],
              [
                116.61159305,
                3.754874834
              ],
              [
                116.611772765,
                3.754684325
              ],
              [
                116.61190073,
                3.75451367
              ],
              [
                116.612142808,
                3.754065922
              ],
              [
                116.612351901,
                3.753551392
              ],
              [
                116.61241609,
                3.753355618
              ],
              [
                116.612461705,
                3.753162947
              ],
              [
                116.612525635,
                3.752808106
              ],
              [
                116.612579502,
                3.752641982
              ],
              [
                116.612661658,
                3.752479972
              ],
              [
                116.612771211,
                3.75232286
              ],
              [
                116.612904203,
                3.752175527
              ],
              [
                116.6130563,
                3.752044559
              ],
              [
                116.613403392,
                3.751796149
              ],
              [
                116.613594346,
                3.751628526
              ],
              [
                116.613796764,
                3.751419609
              ],
              [
                116.613997576,
                3.751176793
              ],
              [
                116.614128481,
                3.75093288
              ],
              [
                116.614258248,
                3.750592923
              ],
              [
                116.614259462,
                3.750263687
              ],
              [
                116.614188741,
                3.749926646
              ],
              [
                116.613978633,
                3.749275664
              ],
              [
                116.613797683,
                3.748822771
              ],
              [
                116.613715862,
                3.748690415
              ],
              [
                116.613562192,
                3.748526916
              ],
              [
                116.613501606,
                3.748458211
              ],
              [
                116.613460225,
                3.748383163
              ],
              [
                116.613440526,
                3.748301633
              ],
              [
                116.613437852,
                3.748217955
              ],
              [
                116.613445785,
                3.748135867
              ],
              [
                116.613461207,
                3.748057385
              ],
              [
                116.613481288,
                3.747979877
              ],
              [
                116.613499943,
                3.747893072
              ],
              [
                116.613530292,
                3.747640515
              ],
              [
                116.613552461,
                3.747462274
              ],
              [
                116.613579791,
                3.747258593
              ],
              [
                116.613601731,
                3.747045912
              ],
              [
                116.613595974,
                3.746837762
              ],
              [
                116.613541512,
                3.746644465
              ],
              [
                116.613442314,
                3.746472232
              ],
              [
                116.613318835,
                3.746315022
              ],
              [
                116.613183236,
                3.746169866
              ],
              [
                116.613036106,
                3.74604466
              ],
              [
                116.612877505,
                3.745946048
              ],
              [
                116.612711609,
                3.745867356
              ],
              [
                116.612545358,
                3.745785802
              ],
              [
                116.612389161,
                3.745677959
              ],
              [
                116.612258676,
                3.745533989
              ],
              [
                116.612167027,
                3.745359019
              ],
              [
                116.612160293,
                3.74515411
              ],
              [
                116.612123396,
                3.744953054
              ],
              [
                116.612086487,
                3.744714457
              ],
              [
                116.612077853,
                3.744492861
              ],
              [
                116.612023629,
                3.744328032
              ],
              [
                116.611998526,
                3.744273423
              ],
              [
                116.611954846,
                3.744209796
              ],
              [
                116.611897609,
                3.744154185
              ],
              [
                116.611824809,
                3.744093564
              ],
              [
                116.611691258,
                3.743970319
              ],
              [
                116.611629002,
                3.743927734
              ],
              [
                116.611578292,
                3.74389066
              ],
              [
                116.611544152,
                3.743853586
              ],
              [
                116.611503986,
                3.743801482
              ],
              [
                116.611479887,
                3.743767414
              ],
              [
                116.611470849,
                3.743723827
              ],
              [
                116.611477878,
                3.743618617
              ],
              [
                116.61149261,
                3.743585503
              ],
              [
                116.611502982,
                3.743510401
              ],
              [
                116.611509007,
                3.743370121
              ],
              [
                116.611513023,
                3.743290963
              ],
              [
                116.611526077,
                3.743199781
              ],
              [
                116.61154616,
                3.743137657
              ],
              [
                116.611915505,
                3.742622273
              ],
              [
                116.612019377,
                3.742354271
              ],
              [
                116.612053981,
                3.742083117
              ],
              [
                116.612038142,
                3.74181651
              ],
              [
                116.611999137,
                3.741543439
              ],
              [
                116.611951543,
                3.741245298
              ],
              [
                116.611903401,
                3.740907942
              ],
              [
                116.611864035,
                3.740105227
              ],
              [
                116.611866904,
                3.740077497
              ],
              [
                116.611878953,
                3.739921936
              ],
              [
                116.611886484,
                3.739717528
              ],
              [
                116.611906065,
                3.739546936
              ],
              [
                116.611919621,
                3.739431205
              ],
              [
                116.611939202,
                3.739277898
              ],
              [
                116.611969326,
                3.738987818
              ],
              [
                116.611995078,
                3.738763285
              ],
              [
                116.612003015,
                3.738283346
              ],
              [
                116.611944313,
                3.737764092
              ],
              [
                116.611901546,
                3.737587015
              ],
              [
                116.611812621,
                3.737215982
              ],
              [
                116.611696702,
                3.736903146
              ],
              [
                116.611616551,
                3.736674512
              ],
              [
                116.611541562,
                3.736519878
              ],
              [
                116.611379419,
                3.736181225
              ],
              [
                116.611326173,
                3.73609152
              ],
              [
                116.611127485,
                3.73576139
              ],
              [
                116.610874616,
                3.735416694
              ],
              [
                116.610628984,
                3.735131792
              ],
              [
                116.610406623,
                3.734882559
              ],
              [
                116.610230925,
                3.734646149
              ],
              [
                116.610119284,
                3.734412165
              ],
              [
                116.610065441,
                3.734185521
              ],
              [
                116.610018741,
                3.73376746
              ],
              [
                116.609987271,
                3.733380422
              ],
              [
                116.609962845,
                3.732989431
              ],
              [
                116.609936344,
                3.732779486
              ],
              [
                116.609893388,
                3.732553296
              ],
              [
                116.609832269,
                3.732307288
              ],
              [
                116.609679827,
                3.731778449
              ],
              [
                116.609607929,
                3.731525461
              ],
              [
                116.609544061,
                3.731297352
              ],
              [
                116.60942516,
                3.730914058
              ],
              [
                116.609364796,
                3.73074622
              ],
              [
                116.609298379,
                3.730589014
              ],
              [
                116.60921907,
                3.730443248
              ],
              [
                116.60912489,
                3.730308948
              ],
              [
                116.609017334,
                3.730183533
              ],
              [
                116.608900317,
                3.730062801
              ],
              [
                116.608750655,
                3.729979093
              ],
              [
                116.608611367,
                3.729876301
              ],
              [
                116.608454525,
                3.7298011
              ],
              [
                116.608314582,
                3.729667406
              ],
              [
                116.607847196,
                3.729423569
              ],
              [
                116.607327825,
                3.72919041
              ],
              [
                116.607062089,
                3.729091202
              ],
              [
                116.606922135,
                3.72904802
              ],
              [
                116.606851272,
                3.729032076
              ],
              [
                116.606777778,
                3.729027778
              ],
              [
                116.606739663,
                3.729025654
              ],
              [
                116.606699802,
                3.729036283
              ],
              [
                116.606628054,
                3.7290664
              ],
              [
                116.606521759,
                3.729121319
              ],
              [
                116.606348145,
                3.729209898
              ],
              [
                116.606232078,
                3.729281669
              ],
              [
                116.606590691,
                3.729348767
              ],
              [
                116.606778963,
                3.729429284
              ],
              [
                116.606917926,
                3.729572426
              ],
              [
                116.606998614,
                3.729775955
              ],
              [
                116.606828272,
                3.730254585
              ],
              [
                116.606723337,
                3.730327233
              ],
              [
                116.606648254,
                3.730477082
              ],
              [
                116.606424832,
                3.730563234
              ],
              [
                116.606272542,
                3.730634565
              ],
              [
                116.606205182,
                3.730666116
              ],
              [
                116.606012427,
                3.730692955
              ],
              [
                116.605860016,
                3.73074216
              ],
              [
                116.60576588,
                3.730871882
              ],
              [
                116.605819672,
                3.73112238
              ],
              [
                116.60593483,
                3.731305112
              ],
              [
                116.606093115,
                3.731556277
              ],
              [
                116.606245526,
                3.731712837
              ],
              [
                116.606330696,
                3.731762042
              ],
              [
                116.606798421,
                3.732200345
              ],
              [
                116.606873505,
                3.732312732
              ],
              [
                116.606948588,
                3.732425119
              ],
              [
                116.607124129,
                3.732615298
              ],
              [
                116.607236195,
                3.732767385
              ],
              [
                116.607594809,
                3.733423821
              ],
              [
                116.607590326,
                3.733759307
              ],
              [
                116.607545499,
                3.733924814
              ],
              [
                116.60739909,
                3.734148378
              ],
              [
                116.607222747,
                3.734300559
              ],
              [
                116.607079302,
                3.734448173
              ],
              [
                116.606980683,
                3.734582367
              ],
              [
                116.606898151,
                3.734664296
              ],
              [
                116.606549226,
                3.735010671
              ],
              [
                116.60648715,
                3.735593613
              ],
              [
                116.606486469,
                3.735600008
              ],
              [
                116.606414746,
                3.735850504
              ],
              [
                116.606410264,
                3.736320184
              ],
              [
                116.606368042,
                3.736451262
              ],
              [
                116.606229836,
                3.736537131
              ],
              [
                116.605972501,
                3.736920571
              ],
              [
                116.605579849,
                3.73731993
              ],
              [
                116.605196637,
                3.737594887
              ],
              [
                116.604996414,
                3.737744734
              ],
              [
                116.604620995,
                3.737969506
              ],
              [
                116.604170493,
                3.738119354
              ],
              [
                116.603950399,
                3.738276063
              ],
              [
                116.603735231,
                3.738352106
              ],
              [
                116.603587303,
                3.738361052
              ],
              [
                116.603486386,
                3.738385165
              ],
              [
                116.603344573,
                3.73841905
              ],
              [
                116.603206276,
                3.738477353
              ],
              [
                116.602659391,
                3.738732322
              ],
              [
                116.602619047,
                3.738857569
              ],
              [
                116.60262095,
                3.73889453
              ],
              [
                116.602645943,
                3.739379807
              ],
              [
                116.602435257,
                3.739514001
              ],
              [
                116.602143235,
                3.739542907
              ],
              [
                116.60196906,
                3.73959899
              ],
              [
                116.601767817,
                3.739542907
              ],
              [
                116.601610447,
                3.73938428
              ],
              [
                116.601499646,
                3.739296479
              ],
              [
                116.601458036,
                3.739263506
              ],
              [
                116.600913392,
                3.739250086
              ],
              [
                116.600326162,
                3.739357441
              ],
              [
                116.599954101,
                3.739585571
              ],
              [
                116.599797207,
                3.739746603
              ],
              [
                116.599810655,
                3.739907635
              ],
              [
                116.599873413,
                3.740041829
              ],
              [
                116.599920529,
                3.740143813
              ],
              [
                116.600025823,
                3.740371722
              ],
              [
                116.599989962,
                3.740564066
              ],
              [
                116.600012375,
                3.740774302
              ],
              [
                116.600186095,
                3.741111004
              ],
              [
                116.600266144,
                3.741266153
              ],
              [
                116.600566478,
                3.741416
              ],
              [
                116.600716645,
                3.741416
              ],
              [
                116.600765464,
                3.741368109
              ],
              [
                116.600941896,
                3.741266153
              ],
              [
                116.600980315,
                3.741227816
              ],
              [
                116.60101698,
                3.741191229
              ],
              [
                116.601167147,
                3.741041382
              ],
              [
                116.601317315,
                3.740966458
              ],
              [
                116.6018429,
                3.740966458
              ],
              [
                116.602156211,
                3.741103076
              ],
              [
                116.602250347,
                3.741282001
              ],
              [
                116.602304139,
                3.741456453
              ],
              [
                116.602277243,
                3.74163985
              ],
              [
                116.602165177,
                3.74178299
              ],
              [
                116.601658635,
                3.742426
              ],
              [
                116.601392398,
                3.742614777
              ],
              [
                116.601165542,
                3.742828579
              ],
              [
                116.600901064,
                3.742971719
              ],
              [
                116.600605208,
                3.743114858
              ],
              [
                116.600304869,
                3.743316148
              ],
              [
                116.600103149,
                3.74347718
              ],
              [
                116.599779277,
                3.743695243
              ],
              [
                116.599371354,
                3.74407993
              ],
              [
                116.599178599,
                3.744218596
              ],
              [
                116.598923458,
                3.744331933
              ],
              [
                116.598657489,
                3.744450079
              ],
              [
                116.598442321,
                3.744637949
              ],
              [
                116.598303358,
                3.744788916
              ],
              [
                116.598240601,
                3.745119925
              ],
              [
                116.598287888,
                3.745316533
              ],
              [
                116.598294393,
                3.74534358
              ],
              [
                116.598285427,
                3.745544869
              ],
              [
                116.598334737,
                3.745728266
              ],
              [
                116.598285427,
                3.746335488
              ],
              [
                116.598313969,
                3.746510792
              ],
              [
                116.598290637,
                3.746534073
              ],
              [
                116.598332495,
                3.746588218
              ],
              [
                116.598328013,
                3.74673583
              ],
              [
                116.598108362,
                3.746914753
              ],
              [
                116.597418031,
                3.747254708
              ],
              [
                116.597090796,
                3.747375481
              ],
              [
                116.596914046,
                3.747398997
              ],
              [
                116.596821836,
                3.747411266
              ],
              [
                116.59591808,
                3.747852634
              ],
              [
                116.595551,
                3.748031906
              ],
              [
                116.595317901,
                3.748215302
              ],
              [
                116.595174456,
                3.748322656
              ],
              [
                116.594645501,
                3.748366269
              ],
              [
                116.594642213,
                3.748377749
              ],
              [
                116.59435861,
                3.748307
              ],
              [
                116.594286887,
                3.748432246
              ],
              [
                116.594367575,
                3.748633535
              ],
              [
                116.594511021,
                3.748799039
              ],
              [
                116.594663431,
                3.748982435
              ],
              [
                116.594904464,
                3.749196227
              ],
              [
                116.594945839,
                3.749232927
              ],
              [
                116.595156525,
                3.749282131
              ],
              [
                116.595542034,
                3.74941185
              ],
              [
                116.595757202,
                3.749532623
              ],
              [
                116.595980273,
                3.749657759
              ],
              [
                116.596196504,
                3.749850211
              ],
              [
                116.596308571,
                3.750011242
              ],
              [
                116.596416155,
                3.75051558
              ],
              [
                116.596577531,
                3.751034456
              ],
              [
                116.596443051,
                3.751182067
              ],
              [
                116.596250296,
                3.751347571
              ],
              [
                116.596079955,
                3.751432559
              ],
              [
                116.596053494,
                3.751436191
              ],
              [
                116.595911292,
                3.751455708
              ],
              [
                116.595686041,
                3.751380785
              ],
              [
                116.59543445,
                3.751222325
              ],
              [
                116.595241696,
                3.751101552
              ],
              [
                116.594901013,
                3.751038929
              ],
              [
                116.594717223,
                3.751114971
              ],
              [
                116.594546882,
                3.751231271
              ],
              [
                116.594416885,
                3.751343097
              ],
              [
                116.594363093,
                3.751535439
              ],
              [
                116.594363093,
                3.751723308
              ],
              [
                116.594395432,
                3.751796662
              ],
              [
                116.594410072,
                3.75182987
              ],
              [
                116.594605157,
                3.752272376
              ],
              [
                116.594608519,
                3.752502738
              ],
              [
                116.594541077,
                3.752553622
              ],
              [
                116.594424729,
                3.752641403
              ],
              [
                116.594155769,
                3.752842691
              ],
              [
                116.593980945,
                3.752967936
              ],
              [
                116.593833713,
                3.753004374
              ],
              [
                116.593733866,
                3.753029085
              ],
              [
                116.59371796,
                3.753034375
              ],
              [
                116.593508615,
                3.753104007
              ],
              [
                116.59318303,
                3.753052924
              ],
              [
                116.592685454,
                3.752896367
              ],
              [
                116.592523,
                3.752811545
              ],
              [
                116.592010812,
                3.752544114
              ],
              [
                116.591773231,
                3.752503857
              ],
              [
                116.591580476,
                3.752530695
              ],
              [
                116.591468409,
                3.752629102
              ],
              [
                116.591364347,
                3.752799022
              ],
              [
                116.591360825,
                3.753294469
              ],
              [
                116.591383239,
                3.753652314
              ],
              [
                116.591338412,
                3.754001212
              ],
              [
                116.5912721,
                3.754160798
              ],
              [
                116.591262207,
                3.754184607
              ],
              [
                116.591243484,
                3.754207714
              ],
              [
                116.591110314,
                3.75437207
              ],
              [
                116.591091865,
                3.75439484
              ],
              [
                116.590965863,
                3.754474015
              ],
              [
                116.590880687,
                3.754527536
              ],
              [
                116.590858126,
                3.754550049
              ],
              [
                116.590805604,
                3.754602459
              ],
              [
                116.590592447,
                3.754691389
              ],
              [
                116.589913484,
                3.754974659
              ],
              [
                116.589806493,
                3.755057695
              ],
              [
                116.589782366,
                3.75507642
              ],
              [
                116.589718979,
                3.755106857
              ],
              [
                116.58933522,
                3.755291126
              ],
              [
                116.588981089,
                3.755572928
              ],
              [
                116.588851315,
                3.755751159
              ],
              [
                116.588564201,
                3.756145477
              ],
              [
                116.588310156,
                3.756386905
              ],
              [
                116.587968006,
                3.756637511
              ],
              [
                116.587739406,
                3.756759831
              ],
              [
                116.587658702,
                3.756803014
              ],
              [
                116.587445215,
                3.756900861
              ],
              [
                116.587245761,
                3.757180664
              ],
              [
                116.587066629,
                3.757431959
              ],
              [
                116.586986862,
                3.75754386
              ],
              [
                116.586117224,
                3.758571538
              ],
              [
                116.586011752,
                3.758665508
              ],
              [
                116.585866195,
                3.75879519
              ],
              [
                116.585774999,
                3.75884244
              ],
              [
                116.585774999,
                3.75887303
              ],
              [
                116.585447626,
                3.75935935
              ],
              [
                116.585568658,
                3.759542744
              ],
              [
                116.585748727,
                3.759633551
              ],
              [
                116.585985546,
                3.759752976
              ],
              [
                116.586317263,
                3.759864801
              ],
              [
                116.586577258,
                3.759927424
              ],
              [
                116.586796909,
                3.760003465
              ],
              [
                116.586864149,
                3.760127591
              ],
              [
                116.586684842,
                3.76037808
              ],
              [
                116.586492087,
                3.760534636
              ],
              [
                116.586299333,
                3.760641988
              ],
              [
                116.585667276,
                3.761049033
              ],
              [
                116.585094356,
                3.76140503
              ],
              [
                116.584949079,
                3.761495301
              ],
              [
                116.584573661,
                3.76186991
              ],
              [
                116.584352734,
                3.762023031
              ],
              [
                116.584236494,
                3.7624431
              ],
              [
                116.584186875,
                3.762622414
              ],
              [
                116.583908529,
                3.762874802
              ],
              [
                116.583684816,
                3.763073069
              ],
              [
                116.583549895,
                3.763098849
              ],
              [
                116.583474131,
                3.763113326
              ],
              [
                116.583334048,
                3.762965717
              ],
              [
                116.583127845,
                3.763095434
              ],
              [
                116.582872333,
                3.763310138
              ],
              [
                116.582696569,
                3.763443268
              ],
              [
                116.581938817,
                3.763576282
              ],
              [
                116.581620548,
                3.763643377
              ],
              [
                116.581369518,
                3.763705999
              ],
              [
                116.581194694,
                3.763768621
              ],
              [
                116.580939182,
                3.76391623
              ],
              [
                116.580925734,
                3.764162245
              ],
              [
                116.580916752,
                3.764183371
              ],
              [
                116.580862977,
                3.764309854
              ],
              [
                116.580744394,
                3.764492172
              ],
              [
                116.580519143,
                3.764642015
              ],
              [
                116.58009532,
                3.764675521
              ],
              [
                116.57998202,
                3.764540584
              ],
              [
                116.579817394,
                3.764344519
              ],
              [
                116.579673949,
                3.764214802
              ],
              [
                116.579654898,
                3.764143235
              ],
              [
                116.579493521,
                3.764080613
              ],
              [
                116.579291801,
                3.76424164
              ],
              [
                116.579112495,
                3.764411614
              ],
              [
                116.579055197,
                3.764477683
              ],
              [
                116.578910775,
                3.76464421
              ],
              [
                116.57871802,
                3.764849968
              ],
              [
                116.578413198,
                3.765069145
              ],
              [
                116.578338113,
                3.765145186
              ],
              [
                116.578174389,
                3.765137911
              ],
              [
                116.578153734,
                3.765391059
              ],
              [
                116.578143394,
                3.765608172
              ],
              [
                116.578084354,
                3.76602682
              ],
              [
                116.578202367,
                3.766486026
              ],
              [
                116.578261686,
                3.767002156
              ],
              [
                116.578758849,
                3.768066
              ],
              [
                116.579018943,
                3.768686936
              ],
              [
                116.579224356,
                3.76895609
              ],
              [
                116.57949467,
                3.769135111
              ],
              [
                116.57980785,
                3.769263019
              ],
              [
                116.58013791,
                3.769420045
              ],
              [
                116.580460369,
                3.76963942
              ],
              [
                116.580754334,
                3.769910806
              ],
              [
                116.581021796,
                3.770206311
              ],
              [
                116.581288858,
                3.770501469
              ],
              [
                116.581572734,
                3.770804639
              ],
              [
                116.581864271,
                3.771161384
              ],
              [
                116.582491835,
                3.772129293
              ],
              [
                116.582890394,
                3.772687966
              ],
              [
                116.583735114,
                3.773814679
              ],
              [
                116.584376334,
                3.774926493
              ],
              [
                116.58476931,
                3.775420618
              ],
              [
                116.585324028,
                3.775793667
              ],
              [
                116.586023685,
                3.775977535
              ],
              [
                116.586800907,
                3.775970574
              ],
              [
                116.587591243,
                3.775850652
              ],
              [
                116.588338429,
                3.775701256
              ],
              [
                116.588999214,
                3.775586269
              ],
              [
                116.589563398,
                3.775581141
              ],
              [
                116.590022303,
                3.77575167
              ],
              [
                116.590343909,
                3.776072387
              ],
              [
                116.590543211,
                3.776476895
              ],
              [
                116.590680444,
                3.776924071
              ],
              [
                116.590771091,
                3.777393331
              ],
              [
                116.590812006,
                3.777862766
              ],
              [
                116.590830564,
                3.778321392
              ],
              [
                116.59088133,
                3.778777462
              ],
              [
                116.591004875,
                3.779240426
              ],
              [
                116.591207235,
                3.779708383
              ],
              [
                116.591480319,
                3.780185755
              ],
              [
                116.591758339,
                3.780605302
              ],
              [
                116.592022031,
                3.781013396
              ],
              [
                116.592219393,
                3.781398801
              ],
              [
                116.592337507,
                3.781767527
              ],
              [
                116.592393965,
                3.782125181
              ],
              [
                116.592416594,
                3.782480833
              ],
              [
                116.592434463,
                3.783208705
              ],
              [
                116.592484848,
                3.783587523
              ],
              [
                116.592624453,
                3.783969609
              ],
              [
                116.592884556,
                3.784323549
              ],
              [
                116.593266393,
                3.784599295
              ],
              [
                116.593737691,
                3.784750149
              ],
              [
                116.594246109,
                3.784768138
              ],
              [
                116.594752719,
                3.784705581
              ],
              [
                116.595240573,
                3.784644663
              ],
              [
                116.595693023,
                3.784648331
              ],
              [
                116.596089578,
                3.784732752
              ],
              [
                116.596435959,
                3.78485168
              ],
              [
                116.596768358,
                3.784915774
              ],
              [
                116.597091104,
                3.784885466
              ],
              [
                116.597390283,
                3.784786577
              ],
              [
                116.597679898,
                3.784684695
              ],
              [
                116.597982812,
                3.784655394
              ],
              [
                116.598285307,
                3.784737042
              ],
              [
                116.598553281,
                3.784924932
              ],
              [
                116.598789214,
                3.785122884
              ],
              [
                116.598885612,
                3.785201036
              ],
              [
                116.599000084,
                3.785363352
              ],
              [
                116.599083333,
                3.785527778
              ],
              [
                116.599114857,
                3.785585232
              ],
              [
                116.599126606,
                3.785862324
              ],
              [
                116.599108531,
                3.786081751
              ],
              [
                116.599073657,
                3.786266127
              ],
              [
                116.598984209,
                3.786530334
              ],
              [
                116.598976147,
                3.786566157
              ],
              [
                116.598992187,
                3.786692232
              ],
              [
                116.599040354,
                3.786789292
              ],
              [
                116.599110455,
                3.786888656
              ],
              [
                116.5991869,
                3.787011566
              ],
              [
                116.599598169,
                3.787419386
              ],
              [
                116.599678621,
                3.787502214
              ],
              [
                116.599835016,
                3.787649691
              ],
              [
                116.599931917,
                3.787713458
              ],
              [
                116.60018278,
                3.787873155
              ],
              [
                116.600310143,
                3.788012232
              ],
              [
                116.600404581,
                3.788196809
              ],
              [
                116.600441211,
                3.788408229
              ],
              [
                116.600404309,
                3.788615983
              ],
              [
                116.60029847,
                3.788784193
              ],
              [
                116.600149517,
                3.78889519
              ],
              [
                116.599994712,
                3.788987291
              ],
              [
                116.599876097,
                3.789130236
              ],
              [
                116.599816912,
                3.789337332
              ],
              [
                116.599832286,
                3.789598106
              ],
              [
                116.599933495,
                3.789897088
              ],
              [
                116.600123782,
                3.790201832
              ],
              [
                116.600385418,
                3.790469675
              ],
              [
                116.6006852,
                3.790664488
              ],
              [
                116.600988686,
                3.790768531
              ],
              [
                116.601271531,
                3.790785607
              ],
              [
                116.601535473,
                3.790750107
              ],
              [
                116.60180919,
                3.790748563
              ],
              [
                116.602101071,
                3.790846818
              ],
              [
                116.602387147,
                3.791058886
              ],
              [
                116.602646057,
                3.791365401
              ],
              [
                116.60285856,
                3.791733345
              ],
              [
                116.602998073,
                3.792125618
              ],
              [
                116.603061364,
                3.792503777
              ],
              [
                116.603124922,
                3.793156552
              ],
              [
                116.603245291,
                3.793768496
              ],
              [
                116.603297153,
                3.794108918
              ],
              [
                116.603374724,
                3.794887074
              ],
              [
                116.603480445,
                3.795321056
              ],
              [
                116.603696196,
                3.795764532
              ],
              [
                116.604013658,
                3.796195871
              ],
              [
                116.604389531,
                3.796601908
              ],
              [
                116.604773168,
                3.796976169
              ],
              [
                116.605110032,
                3.79733576
              ],
              [
                116.605350899,
                3.797706517
              ],
              [
                116.605484452,
                3.798078823
              ],
              [
                116.605544228,
                3.798425963
              ],
              [
                116.605574613,
                3.798737407
              ],
              [
                116.605645315,
                3.799273715
              ],
              [
                116.605721038,
                3.79950976
              ],
              [
                116.605827226,
                3.799731843
              ],
              [
                116.605936252,
                3.799962059
              ],
              [
                116.606020766,
                3.800220377
              ],
              [
                116.606082128,
                3.800505983
              ],
              [
                116.606146317,
                3.800808783
              ],
              [
                116.606236001,
                3.801124221
              ],
              [
                116.606346519,
                3.801460695
              ],
              [
                116.606456298,
                3.801829096
              ],
              [
                116.606556567,
                3.802218968
              ],
              [
                116.606655867,
                3.802597106
              ],
              [
                116.606761831,
                3.802929694
              ],
              [
                116.606870613,
                3.803205101
              ],
              [
                116.606973328,
                3.803441325
              ],
              [
                116.607068874,
                3.803670726
              ],
              [
                116.607165863,
                3.80392036
              ],
              [
                116.607266882,
                3.804206768
              ],
              [
                116.607357655,
                3.804534883
              ],
              [
                116.607412581,
                3.804894486
              ],
              [
                116.60740881,
                3.805262926
              ],
              [
                116.607305683,
                3.805995068
              ],
              [
                116.607353084,
                3.806397493
              ],
              [
                116.60750092,
                3.806831805
              ],
              [
                116.607702431,
                3.807300732
              ],
              [
                116.607909622,
                3.807796098
              ],
              [
                116.608293931,
                3.80876489
              ],
              [
                116.60850193,
                3.809211006
              ],
              [
                116.608994703,
                3.810051632
              ],
              [
                116.609496831,
                3.810797392
              ],
              [
                116.6099306,
                3.811719064
              ],
              [
                116.610040258,
                3.812080263
              ],
              [
                116.610120637,
                3.812275105
              ],
              [
                116.610260001,
                3.812219596
              ],
              [
                116.610510383,
                3.81213456
              ],
              [
                116.610738603,
                3.812079218
              ],
              [
                116.610878871,
                3.8120448
              ],
              [
                116.611032407,
                3.811989291
              ],
              [
                116.6111824,
                3.811949135
              ],
              [
                116.611321205,
                3.811909092
              ],
              [
                116.611415165,
                3.81189159
              ],
              [
                116.611467018,
                3.811469204
              ],
              [
                116.611506932,
                3.811096879
              ],
              [
                116.611501121,
                3.810757496
              ],
              [
                116.611504249,
                3.810426577
              ],
              [
                116.611473508,
                3.810108905
              ],
              [
                116.611470651,
                3.80979923
              ],
              [
                116.611490845,
                3.809500956
              ],
              [
                116.611520348,
                3.809213796
              ],
              [
                116.611547522,
                3.808932628
              ],
              [
                116.611569327,
                3.808650889
              ],
              [
                116.611591382,
                3.808365612
              ],
              [
                116.611624659,
                3.808077545
              ],
              [
                116.611691955,
                3.807789518
              ],
              [
                116.61182067,
                3.807510146
              ],
              [
                116.612020259,
                3.80725156
              ],
              [
                116.612279425,
                3.807016813
              ],
              [
                116.612581285,
                3.806799382
              ],
              [
                116.61290856,
                3.806584273
              ],
              [
                116.613236245,
                3.806343233
              ],
              [
                116.613529758,
                3.806056135
              ],
              [
                116.613759765,
                3.805736169
              ],
              [
                116.613926155,
                3.805424398
              ],
              [
                116.614057641,
                3.805162553
              ],
              [
                116.61417669,
                3.804971344
              ],
              [
                116.614281609,
                3.804843455
              ],
              [
                116.614355823,
                3.804743345
              ],
              [
                116.614386033,
                3.804640475
              ],
              [
                116.614378472,
                3.804533415
              ],
              [
                116.61434536,
                3.804420194
              ],
              [
                116.614236673,
                3.804166066
              ],
              [
                116.614113438,
                3.803895667
              ],
              [
                116.614007864,
                3.803622017
              ],
              [
                116.613971656,
                3.803475122
              ],
              [
                116.613950748,
                3.803339668
              ],
              [
                116.61394892,
                3.803152293
              ],
              [
                116.61395107,
                3.802977685
              ],
              [
                116.61393425,
                3.802790773
              ],
              [
                116.613875347,
                3.802590765
              ],
              [
                116.613649409,
                3.80212899
              ],
              [
                116.613545963,
                3.801832571
              ],
              [
                116.613490249,
                3.80148766
              ],
              [
                116.613490479,
                3.801112773
              ],
              [
                116.613532888,
                3.800726402
              ],
              [
                116.613582049,
                3.800334616
              ],
              [
                116.613603592,
                3.799937361
              ],
              [
                116.613594067,
                3.799543448
              ],
              [
                116.613575629,
                3.799168867
              ],
              [
                116.613577094,
                3.798824659
              ],
              [
                116.613620969,
                3.798508347
              ],
              [
                116.613705273,
                3.798204794
              ],
              [
                116.613804154,
                3.797893554
              ],
              [
                116.613894162,
                3.797568382
              ],
              [
                116.613967876,
                3.797238895
              ],
              [
                116.614042892,
                3.796912256
              ],
              [
                116.614158686,
                3.796585749
              ],
              [
                116.614336522,
                3.79625166
              ],
              [
                116.614567663,
                3.795906254
              ],
              [
                116.614836751,
                3.795567354
              ],
              [
                116.615130811,
                3.795271036
              ],
              [
                116.615432411,
                3.795044978
              ],
              [
                116.615721155,
                3.794888449
              ],
              [
                116.615984844,
                3.794763924
              ],
              [
                116.6162148,
                3.794604285
              ],
              [
                116.616399162,
                3.794370805
              ],
              [
                116.61651983,
                3.794061321
              ],
              [
                116.616561155,
                3.793693067
              ],
              [
                116.616528936,
                3.793296368
              ],
              [
                116.616445963,
                3.792905478
              ],
              [
                116.616330816,
                3.792554039
              ],
              [
                116.616301383,
                3.792492328
              ],
              [
                116.616241128,
                3.79240425
              ],
              [
                116.616127305,
                3.792260753
              ],
              [
                116.616028258,
                3.792113575
              ],
              [
                116.61591611,
                3.791859793
              ],
              [
                116.6157375,
                3.791485635
              ],
              [
                116.615626057,
                3.791104141
              ],
              [
                116.615561146,
                3.790930134
              ],
              [
                116.61548773,
                3.790773182
              ]
            ]
          ]
        ]
      }
    }
  ]
}