{
  "type": "FeatureCollection",
  "features": [
    {
      "type": "Feature",
      "properties": {
        "idx": "2809",
        "nama_kewilayahan": "Karukunan Balai Adat Datung Makar"
      },
      "geometry": {
        "type": "MultiPolygon",
        "coordinates": [
          [
            [
              [
                115.38033223,
                -2.86930483
              ],
              [
                115.38053364,
                -2.86888389
              ],
              [
                115.38065066,
                -2.86850436
              ],
              [
                115.38057966,
                -2.86776943
              ],
              [
                115.38053038,
                -2.86735168
              ],
              [
                115.38074571,
                -2.86684357
              ],
              [
                115.38094595,
                -2.86649102
              ],
              [
                115.38219326,
                -2.86583162
              ],
              [
                115.38233869,
                -2.86557731
              ],
              [
                115.38259484,
                -2.86453854
              ],
              [
                115.38282576,
                -2.86389749
              ],
              [
                115.38289977,
                -2.86325611
              ],
              [
                115.38305853,
                -2.86283995
              ],
              [
                115.38369999,
                -2.86243552
              ],
              [
                115.38412487,
                -2.86200469
              ],
              [
                115.3842998,
                -2.86152123
              ],
              [
                115.38436283,
                -2.86043401
              ],
              [
                115.384493,
                -2.86043745
              ],
              [
                115.38513104,
                -2.86046661
              ],
              [
                115.38520999,
                -2.860433
              ],
              [
                115.38541367,
                -2.86027039
              ],
              [
                115.38584752,
                -2.85972381
              ],
              [
                115.38614885,
                -2.85960663
              ],
              [
                115.38642436,
                -2.85934671
              ],
              [
                115.38656308,
                -2.8589748
              ],
              [
                115.38683868,
                -2.85867825
              ],
              [
                115.3870665,
                -2.85859904
              ],
              [
                115.3871934,
                -2.85852
              ],
              [
                115.38795892,
                -2.85828439
              ],
              [
                115.38799949,
                -2.85809672
              ],
              [
                115.38821583,
                -2.85794802
              ],
              [
                115.38843007,
                -2.85787946
              ],
              [
                115.38863081,
                -2.85771978
              ],
              [
                115.38903533,
                -2.85759003
              ],
              [
                115.38914111,
                -2.85671697
              ],
              [
                115.38902057,
                -2.85524771
              ],
              [
                115.3884247,
                -2.85392898
              ],
              [
                115.38844541,
                -2.85333403
              ],
              [
                115.38759272,
                -2.85222746
              ],
              [
                115.38739348,
                -2.8516113
              ],
              [
                115.38818657,
                -2.85121132
              ],
              [
                115.38881681,
                -2.85080052
              ],
              [
                115.38999405,
                -2.85031445
              ],
              [
                115.39028984,
                -2.84894929
              ],
              [
                115.38995708,
                -2.84856138
              ],
              [
                115.39000629,
                -2.84833104
              ],
              [
                115.39034072,
                -2.84776703
              ],
              [
                115.3908661,
                -2.84740417
              ],
              [
                115.39132685,
                -2.84709086
              ],
              [
                115.39216471,
                -2.84657034
              ],
              [
                115.39222858,
                -2.84570826
              ],
              [
                115.39206094,
                -2.8452812
              ],
              [
                115.39200512,
                -2.84456011
              ],
              [
                115.39216395,
                -2.84401302
              ],
              [
                115.39241533,
                -2.84398746
              ],
              [
                115.3931329,
                -2.84365964
              ],
              [
                115.39357857,
                -2.84485616
              ],
              [
                115.39343189,
                -2.84577381
              ],
              [
                115.39443579,
                -2.84598637
              ],
              [
                115.39520558,
                -2.84561313
              ],
              [
                115.39606607,
                -2.84555429
              ],
              [
                115.39686989,
                -2.84549444
              ],
              [
                115.3971128,
                -2.84502069
              ],
              [
                115.3971325,
                -2.8447808
              ],
              [
                115.39739661,
                -2.8443307
              ],
              [
                115.39789424,
                -2.84369049
              ],
              [
                115.39796867,
                -2.84339435
              ],
              [
                115.39822122,
                -2.84320861
              ],
              [
                115.39838693,
                -2.84087777
              ],
              [
                115.39862992,
                -2.84077283
              ],
              [
                115.39979031,
                -2.84032708
              ],
              [
                115.40003305,
                -2.83999382
              ],
              [
                115.40010338,
                -2.83930005
              ],
              [
                115.40057494,
                -2.83813706
              ],
              [
                115.40101726,
                -2.83779315
              ],
              [
                115.40125078,
                -2.83754806
              ],
              [
                115.40131683,
                -2.83741982
              ],
              [
                115.40147231,
                -2.83730448
              ],
              [
                115.40159158,
                -2.8372039
              ],
              [
                115.40166711,
                -2.83681573
              ],
              [
                115.40171036,
                -2.83662521
              ],
              [
                115.40187766,
                -2.83644928
              ],
              [
                115.40183533,
                -2.83572156
              ],
              [
                115.40193767,
                -2.8355494
              ],
              [
                115.40195796,
                -2.83535938
              ],
              [
                115.40197682,
                -2.83510314
              ],
              [
                115.40206156,
                -2.83505771
              ],
              [
                115.40236632,
                -2.83450032
              ],
              [
                115.40259766,
                -2.83414291
              ],
              [
                115.4028482,
                -2.83377972
              ],
              [
                115.40292045,
                -2.83356615
              ],
              [
                115.403016,
                -2.83343188
              ],
              [
                115.40323016,
                -2.83327941
              ],
              [
                115.40360559,
                -2.83334152
              ],
              [
                115.40375043,
                -2.83331084
              ],
              [
                115.4039381,
                -2.83326281
              ],
              [
                115.40415041,
                -2.83326751
              ],
              [
                115.404309,
                -2.83328955
              ],
              [
                115.40450555,
                -2.83327614
              ],
              [
                115.40468903,
                -2.83331621
              ],
              [
                115.40508642,
                -2.83332886
              ],
              [
                115.40526185,
                -2.83343716
              ],
              [
                115.40554374,
                -2.83352684
              ],
              [
                115.4057656,
                -2.83360689
              ],
              [
                115.40576661,
                -2.83365349
              ],
              [
                115.40582101,
                -2.83369808
              ],
              [
                115.40596778,
                -2.83377863
              ],
              [
                115.40609552,
                -2.83383597
              ],
              [
                115.40625293,
                -2.83386019
              ],
              [
                115.40636223,
                -2.83374502
              ],
              [
                115.40644261,
                -2.83370504
              ],
              [
                115.40660648,
                -2.83372113
              ],
              [
                115.40683589,
                -2.83363237
              ],
              [
                115.40698282,
                -2.83367193
              ],
              [
                115.4070534,
                -2.83375198
              ],
              [
                115.40716245,
                -2.83376128
              ],
              [
                115.40720494,
                -2.83373714
              ],
              [
                115.40728474,
                -2.83379163
              ],
              [
                115.40747224,
                -2.83378987
              ],
              [
                115.40751264,
                -2.83382826
              ],
              [
                115.40764499,
                -2.833828
              ],
              [
                115.40780098,
                -2.83379121
              ],
              [
                115.40788472,
                -2.83382876
              ],
              [
                115.40798438,
                -2.83392926
              ],
              [
                115.40819887,
                -2.83412414
              ],
              [
                115.40838704,
                -2.83427736
              ],
              [
                115.40846198,
                -2.83442622
              ],
              [
                115.40852434,
                -2.83455865
              ],
              [
                115.40851772,
                -2.83469662
              ],
              [
                115.40858,
                -2.83481045
              ],
              [
                115.40863071,
                -2.83497054
              ],
              [
                115.40863716,
                -2.83520398
              ],
              [
                115.40877353,
                -2.83542668
              ],
              [
                115.40881888,
                -2.83574964
              ],
              [
                115.4089032,
                -2.83589825
              ],
              [
                115.40881947,
                -2.83597268
              ],
              [
                115.40922088,
                -2.83702503
              ],
              [
                115.40936781,
                -2.83717783
              ],
              [
                115.40952397,
                -2.83721396
              ],
              [
                115.40971507,
                -2.83719644
              ],
              [
                115.40985773,
                -2.8372847
              ],
              [
                115.41010022,
                -2.83719887
              ],
              [
                115.41024867,
                -2.83706149
              ],
              [
                115.41041907,
                -2.83706878
              ],
              [
                115.41055335,
                -2.83710332
              ],
              [
                115.41077404,
                -2.83707432
              ],
              [
                115.41091385,
                -2.8370454
              ],
              [
                115.41100077,
                -2.83692059
              ],
              [
                115.41111108,
                -2.83675044
              ],
              [
                115.41121476,
                -2.83652346
              ],
              [
                115.41174014,
                -2.83622799
              ],
              [
                115.4123853,
                -2.83645866
              ],
              [
                115.41259895,
                -2.83601099
              ],
              [
                115.41362288,
                -2.8344838
              ],
              [
                115.4139849,
                -2.83434383
              ],
              [
                115.41417827,
                -2.83422137
              ],
              [
                115.41465545,
                -2.83368643
              ],
              [
                115.41475167,
                -2.83328687
              ],
              [
                115.41493105,
                -2.83301739
              ],
              [
                115.41627157,
                -2.83223075
              ],
              [
                115.41811843,
                -2.83047885
              ],
              [
                115.41888462,
                -2.82851111
              ],
              [
                115.420303386,
                -2.827391115
              ],
              [
                115.422228196,
                -2.827157355
              ],
              [
                115.424237414,
                -2.827546118
              ],
              [
                115.427196009,
                -2.827596011
              ],
              [
                115.429117065,
                -2.827999266
              ],
              [
                115.430514942,
                -2.829627619
              ],
              [
                115.430984087,
                -2.83188001
              ],
              [
                115.43326058,
                -2.83294362
              ],
              [
                115.434461411,
                -2.834504057
              ],
              [
                115.435177079,
                -2.836684994
              ],
              [
                115.436436528,
                -2.838553456
              ],
              [
                115.437361089,
                -2.839065545
              ],
              [
                115.43776268,
                -2.84032616
              ],
              [
                115.44013442,
                -2.84150432
              ],
              [
                115.44367192,
                -2.84109084
              ],
              [
                115.44400971,
                -2.84066445
              ],
              [
                115.44471078,
                -2.84058424
              ],
              [
                115.44485821,
                -2.84070645
              ],
              [
                115.44512669,
                -2.84084299
              ],
              [
                115.44521939,
                -2.84058901
              ],
              [
                115.44565315,
                -2.84066596
              ],
              [
                115.44602657,
                -2.84094575
              ],
              [
                115.44668907,
                -2.84109528
              ],
              [
                115.44716349,
                -2.84127331
              ],
              [
                115.44728477,
                -2.84139351
              ],
              [
                115.44752005,
                -2.84150273
              ],
              [
                115.4475229,
                -2.84155126
              ],
              [
                115.44758929,
                -2.84176374
              ],
              [
                115.44796522,
                -2.84193339
              ],
              [
                115.44799455,
                -2.84246841
              ],
              [
                115.44813688,
                -2.84259053
              ],
              [
                115.44842765,
                -2.84286688
              ],
              [
                115.44897264,
                -2.84285146
              ],
              [
                115.44917347,
                -2.84281139
              ],
              [
                115.44930154,
                -2.84281282
              ],
              [
                115.4496224,
                -2.84284065
              ],
              [
                115.44972215,
                -2.84294684
              ],
              [
                115.45023252,
                -2.84344079
              ],
              [
                115.45014753,
                -2.84364631
              ],
              [
                115.45018726,
                -2.84379375
              ],
              [
                115.45035113,
                -2.84431511
              ],
              [
                115.45051357,
                -2.84490016
              ],
              [
                115.45055958,
                -2.84506747
              ],
              [
                115.45053762,
                -2.84527291
              ],
              [
                115.45049706,
                -2.84551774
              ],
              [
                115.45061038,
                -2.84579703
              ],
              [
                115.45071096,
                -2.84586945
              ],
              [
                115.45082923,
                -2.8460256
              ],
              [
                115.4508532,
                -2.84614823
              ],
              [
                115.45096451,
                -2.84629508
              ],
              [
                115.45122025,
                -2.84656246
              ],
              [
                115.45139803,
                -2.84677964
              ],
              [
                115.45237619,
                -2.8477278
              ],
              [
                115.452606899,
                -2.848223599
              ],
              [
                115.452665999,
                -2.848512801
              ],
              [
                115.452772199,
                -2.8486642
              ],
              [
                115.4527658,
                -2.848994601
              ],
              [
                115.4528552,
                -2.8492375
              ],
              [
                115.4531457,
                -2.8494666
              ],
              [
                115.453225799,
                -2.8495419
              ],
              [
                115.453210399,
                -2.850003601
              ],
              [
                115.453039999,
                -2.850144
              ],
              [
                115.452762399,
                -2.8503152
              ],
              [
                115.4526093,
                -2.850572
              ],
              [
                115.4524467,
                -2.8507287
              ],
              [
                115.4524415,
                -2.8507921
              ],
              [
                115.4523742,
                -2.8509376
              ],
              [
                115.4523526,
                -2.851458902
              ],
              [
                115.4522222,
                -2.8522596
              ],
              [
                115.4521126,
                -2.8524128
              ],
              [
                115.4519313,
                -2.852826
              ],
              [
                115.4521247,
                -2.8529679
              ],
              [
                115.4523476,
                -2.8531962
              ],
              [
                115.452482199,
                -2.853305
              ],
              [
                115.4526504,
                -2.853495
              ],
              [
                115.452839499,
                -2.8536389
              ],
              [
                115.4532047,
                -2.853999
              ],
              [
                115.453279699,
                -2.8540978
              ],
              [
                115.453516799,
                -2.8543796
              ],
              [
                115.4535706,
                -2.8545047
              ],
              [
                115.453738999,
                -2.8546777
              ],
              [
                115.4538046,
                -2.8547651
              ],
              [
                115.4539929,
                -2.8549522
              ],
              [
                115.4540097,
                -2.854989
              ],
              [
                115.453925199,
                -2.8550419
              ],
              [
                115.453965,
                -2.8551117
              ],
              [
                115.4541981,
                -2.855443301
              ],
              [
                115.4545496,
                -2.8557714
              ],
              [
                115.4553783,
                -2.856657
              ],
              [
                115.4555815,
                -2.856965699
              ],
              [
                115.4556508,
                -2.8574117
              ],
              [
                115.4558535,
                -2.8577275
              ],
              [
                115.456427899,
                -2.8580927
              ],
              [
                115.4567653,
                -2.858410001
              ],
              [
                115.457224399,
                -2.8586375
              ],
              [
                115.4581776,
                -2.8588508
              ],
              [
                115.4583705,
                -2.8598541
              ],
              [
                115.4583488,
                -2.8603104
              ],
              [
                115.4585756,
                -2.8609222
              ],
              [
                115.4588313,
                -2.8612041
              ],
              [
                115.4589025,
                -2.8615972
              ],
              [
                115.458779699,
                -2.862031801
              ],
              [
                115.4588576,
                -2.8622959
              ],
              [
                115.4586275,
                -2.8630756
              ],
              [
                115.4589525,
                -2.864568
              ],
              [
                115.4591828,
                -2.8652756
              ],
              [
                115.4589754,
                -2.866286299
              ],
              [
                115.4590509,
                -2.8675078
              ],
              [
                115.459220954,
                -2.868880008
              ],
              [
                115.45919,
                -2.8694946
              ],
              [
                115.458879,
                -2.869980399
              ],
              [
                115.458677,
                -2.8705351
              ],
              [
                115.4586763,
                -2.8717189
              ],
              [
                115.458775979,
                -2.872073005
              ],
              [
                115.458775829,
                -2.872184967
              ],
              [
                115.459016419,
                -2.87268912
              ],
              [
                115.459204883,
                -2.873173415
              ],
              [
                115.457997811,
                -2.873491049
              ],
              [
                115.454512914,
                -2.877615478
              ],
              [
                115.453182548,
                -2.879847059
              ],
              [
                115.452682795,
                -2.881483579
              ],
              [
                115.449878414,
                -2.885109259
              ],
              [
                115.448524507,
                -2.88632135
              ],
              [
                115.445747844,
                -2.888807171
              ],
              [
                115.443168775,
                -2.88924805
              ],
              [
                115.441034659,
                -2.887541466
              ],
              [
                115.439638868,
                -2.884650759
              ],
              [
                115.438217277,
                -2.883626029
              ],
              [
                115.432661349,
                -2.887217172
              ],
              [
                115.431142962,
                -2.887952805
              ],
              [
                115.424271235,
                -2.890073671
              ],
              [
                115.419409446,
                -2.889770597
              ],
              [
                115.418260561,
                -2.890138468
              ],
              [
                115.417566887,
                -2.890360582
              ],
              [
                115.416963102,
                -2.891414621
              ],
              [
                115.416743008,
                -2.8916471
              ],
              [
                115.416068294,
                -2.891879034
              ],
              [
                115.415803464,
                -2.892144564
              ],
              [
                115.414587216,
                -2.892395789
              ],
              [
                115.413666429,
                -2.892585984
              ],
              [
                115.410787837,
                -2.89347128
              ],
              [
                115.401987207,
                -2.894732778
              ],
              [
                115.398809,
                -2.8934
              ],
              [
                115.386301362,
                -2.885390733
              ],
              [
                115.38447255,
                -2.88329783
              ],
              [
                115.38420408,
                -2.88304947
              ],
              [
                115.38410224,
                -2.88295484
              ],
              [
                115.38397232,
                -2.88292207
              ],
              [
                115.38373453,
                -2.88280246
              ],
              [
                115.38307998,
                -2.88230625
              ],
              [
                115.38272786,
                -2.88190585
              ],
              [
                115.38242091,
                -2.88160318
              ],
              [
                115.38236216,
                -2.88151818
              ],
              [
                115.38241228,
                -2.88116581
              ],
              [
                115.38247716,
                -2.88079935
              ],
              [
                115.38261261,
                -2.88038797
              ],
              [
                115.38270799,
                -2.88026098
              ],
              [
                115.38273213,
                -2.88001522
              ],
              [
                115.38270053,
                -2.87916161
              ],
              [
                115.38266734,
                -2.87885911
              ],
              [
                115.38264505,
                -2.87868502
              ],
              [
                115.38246936,
                -2.87831554
              ],
              [
                115.38195823,
                -2.87740057
              ],
              [
                115.38188137,
                -2.87721701
              ],
              [
                115.38177702,
                -2.8770798
              ],
              [
                115.38170787,
                -2.87697905
              ],
              [
                115.38154199,
                -2.87668048
              ],
              [
                115.38157459,
                -2.87625611
              ],
              [
                115.38165615,
                -2.87592159
              ],
              [
                115.3816326,
                -2.87554356
              ],
              [
                115.38153361,
                -2.87500896
              ],
              [
                115.38150779,
                -2.87474971
              ],
              [
                115.38142255,
                -2.87450597
              ],
              [
                115.38139681,
                -2.87399702
              ],
              [
                115.38135557,
                -2.87384631
              ],
              [
                115.38128416,
                -2.8732657
              ],
              [
                115.38110764,
                -2.87282397
              ],
              [
                115.38097118,
                -2.87260545
              ],
              [
                115.38059098,
                -2.87220664
              ],
              [
                115.38037766,
                -2.8718748
              ],
              [
                115.38025931,
                -2.87163944
              ],
              [
                115.38011941,
                -2.87041929
              ],
              [
                115.38022595,
                -2.87017621
              ],
              [
                115.38023005,
                -2.86994596
              ],
              [
                115.3803443,
                -2.86970884
              ],
              [
                115.38033223,
                -2.86930483
              ]
            ]
          ]
        ]
      }
    }
  ]
}