{
  "type": "FeatureCollection",
  "features": [
    {
      "type": "Feature",
      "properties": {
        "idx": "2834",
        "nama_kewilayahan": "Panca Karya"
      },
      "geometry": {
        "type": "MultiPolygon",
        "coordinates": [
          [
            [
              [
                102.550987083,
                -2.538664106
              ],
              [
                102.550755656,
                -2.538725819
              ],
              [
                102.550817371,
                -2.538309252
              ],
              [
                102.550431659,
                -2.538062398
              ],
              [
                102.550261947,
                -2.537676686
              ],
              [
                102.549860808,
                -2.537568688
              ],
              [
                102.549706524,
                -2.537275547
              ],
              [
                102.549598525,
                -2.537090407
              ],
              [
                102.549829952,
                -2.536658411
              ],
              [
                102.549721952,
                -2.536426984
              ],
              [
                102.549844827,
                -2.53629592
              ],
              [
                102.549844854,
                -2.536295891
              ],
              [
                102.550139472,
                -2.535981631
              ],
              [
                102.550184805,
                -2.535933275
              ],
              [
                102.550493374,
                -2.535825276
              ],
              [
                102.550740229,
                -2.53568642
              ],
              [
                102.551203081,
                -2.535640135
              ],
              [
                102.551588791,
                -2.535501279
              ],
              [
                102.551658421,
                -2.535501279
              ],
              [
                102.551877228,
                -2.535501279
              ],
              [
                102.551877269,
                -2.535501279
              ],
              [
                102.551928217,
                -2.535501279
              ],
              [
                102.551946362,
                -2.535491454
              ],
              [
                102.55196732,
                -2.535534679
              ],
              [
                102.551973281,
                -2.535546975
              ],
              [
                102.5521905,
                -2.535994989
              ],
              [
                102.552715066,
                -2.536102988
              ],
              [
                102.553039064,
                -2.53628813
              ],
              [
                102.55306992,
                -2.536642982
              ],
              [
                102.553270489,
                -2.537229263
              ],
              [
                102.553409345,
                -2.537661259
              ],
              [
                102.552545353,
                -2.537692115
              ],
              [
                102.551943646,
                -2.538077825
              ],
              [
                102.551449936,
                -2.538478964
              ],
              [
                102.550987083,
                -2.538664106
              ]
            ]
          ],
          [
            [
              [
                102.543734645,
                -2.539546383
              ],
              [
                102.544120356,
                -2.539762382
              ],
              [
                102.544845492,
                -2.539530954
              ],
              [
                102.54515406,
                -2.53937667
              ],
              [
                102.545308344,
                -2.538898389
              ],
              [
                102.545292915,
                -2.538882961
              ],
              [
                102.54594091,
                -2.539129815
              ],
              [
                102.546095194,
                -2.539206958
              ],
              [
                102.546249477,
                -2.539330385
              ],
              [
                102.546270692,
                -2.539797095
              ],
              [
                102.546502119,
                -2.53992438
              ],
              [
                102.546502119,
                -2.540051664
              ],
              [
                102.547092256,
                -2.540283091
              ],
              [
                102.547011256,
                -2.54063023
              ],
              [
                102.547196398,
                -2.540884798
              ],
              [
                102.546999686,
                -2.541023655
              ],
              [
                102.547184826,
                -2.541498078
              ],
              [
                102.547080684,
                -2.541752647
              ],
              [
                102.54660626,
                -2.541937788
              ],
              [
                102.546594689,
                -2.542007216
              ],
              [
                102.546629403,
                -2.542365928
              ],
              [
                102.546594688,
                -2.542620496
              ],
              [
                102.546640974,
                -2.54282878
              ],
              [
                102.546629403,
                -2.542932922
              ],
              [
                102.546733545,
                -2.543048636
              ],
              [
                102.546879471,
                -2.544005197
              ],
              [
                102.546694331,
                -2.544293194
              ],
              [
                102.546591474,
                -2.544108053
              ],
              [
                102.545819411,
                -2.544460336
              ],
              [
                102.545067275,
                -2.544066911
              ],
              [
                102.544858992,
                -2.544205766
              ],
              [
                102.54467385,
                -2.544043769
              ],
              [
                102.543725003,
                -2.544020626
              ],
              [
                102.543759716,
                -2.543962769
              ],
              [
                102.543333506,
                -2.543835484
              ],
              [
                102.543179222,
                -2.543804628
              ],
              [
                102.542886081,
                -2.543341775
              ],
              [
                102.543626646,
                -2.542678352
              ],
              [
                102.542916939,
                -2.542369784
              ],
              [
                102.542577514,
                -2.542308071
              ],
              [
                102.542330659,
                -2.542292642
              ],
              [
                102.542438658,
                -2.541968646
              ],
              [
                102.542963223,
                -2.541289795
              ],
              [
                102.542963223,
                -2.540765229
              ],
              [
                102.54280894,
                -2.540364089
              ],
              [
                102.542423229,
                -2.540148092
              ],
              [
                102.541991233,
                -2.539592669
              ],
              [
                102.541981624,
                -2.539502977
              ],
              [
                102.541944948,
                -2.539160672
              ],
              [
                102.54222266,
                -2.539129815
              ],
              [
                102.542407801,
                -2.538944675
              ],
              [
                102.542782033,
                -2.538690195
              ],
              [
                102.542793511,
                -2.538682391
              ],
              [
                102.542799479,
                -2.53868285
              ],
              [
                102.543595789,
                -2.538744105
              ],
              [
                102.543598427,
                -2.538810067
              ],
              [
                102.543611218,
                -2.539129815
              ],
              [
                102.543734645,
                -2.539546383
              ]
            ]
          ],
          [
            [
              [
                102.53273387,
                -2.545227084
              ],
              [
                102.532676019,
                -2.545326259
              ],
              [
                102.532725606,
                -2.545508078
              ],
              [
                102.53289916,
                -2.545615517
              ],
              [
                102.532990071,
                -2.54556593
              ],
              [
                102.533089245,
                -2.545499813
              ],
              [
                102.533279328,
                -2.545598988
              ],
              [
                102.533279328,
                -2.545532872
              ],
              [
                102.533477676,
                -2.545598988
              ],
              [
                102.533518999,
                -2.545417168
              ],
              [
                102.53388474,
                -2.54537907
              ],
              [
                102.533915696,
                -2.545375846
              ],
              [
                102.533874374,
                -2.545483285
              ],
              [
                102.533882637,
                -2.545532872
              ],
              [
                102.534262805,
                -2.545896511
              ],
              [
                102.534303029,
                -2.54588042
              ],
              [
                102.534304128,
                -2.545879981
              ],
              [
                102.534444624,
                -2.545995684
              ],
              [
                102.534395038,
                -2.546020478
              ],
              [
                102.534403302,
                -2.546078329
              ],
              [
                102.534667766,
                -2.546169239
              ],
              [
                102.53469256,
                -2.546185768
              ],
              [
                102.534965289,
                -2.546475026
              ],
              [
                102.535039669,
                -2.546466761
              ],
              [
                102.53535372,
                -2.546888251
              ],
              [
                102.535355635,
                -2.546891433
              ],
              [
                102.536583272,
                -2.547466072
              ],
              [
                102.536426552,
                -2.547727271
              ],
              [
                102.536661632,
                -2.54824967
              ],
              [
                102.53728851,
                -2.548876549
              ],
              [
                102.537079551,
                -2.549007149
              ],
              [
                102.536792232,
                -2.549451187
              ],
              [
                102.536557153,
                -2.549320588
              ],
              [
                102.536008633,
                -2.549346708
              ],
              [
                102.535512355,
                -2.549581788
              ],
              [
                102.535146675,
                -2.549425067
              ],
              [
                102.534154118,
                -2.549712387
              ],
              [
                102.533710079,
                -2.549738507
              ],
              [
                102.532746761,
                -2.549417401
              ],
              [
                102.532456322,
                -2.549320588
              ],
              [
                102.532089168,
                -2.54932933
              ],
              [
                102.531359285,
                -2.549346707
              ],
              [
                102.530236127,
                -2.549660147
              ],
              [
                102.528904009,
                -2.550182546
              ],
              [
                102.529034609,
                -2.549790747
              ],
              [
                102.528512211,
                -2.549216108
              ],
              [
                102.527571893,
                -2.54822355
              ],
              [
                102.527624133,
                -2.547936231
              ],
              [
                102.527754732,
                -2.547701152
              ],
              [
                102.527705787,
                -2.547655818
              ],
              [
                102.527770869,
                -2.547665116
              ],
              [
                102.527784817,
                -2.547613979
              ],
              [
                102.527914982,
                -2.54757214
              ],
              [
                102.528114879,
                -2.547651169
              ],
              [
                102.528128826,
                -2.547693009
              ],
              [
                102.528175314,
                -2.547674413
              ],
              [
                102.528254344,
                -2.547744145
              ],
              [
                102.528375212,
                -2.547665116
              ],
              [
                102.528412402,
                -2.54764652
              ],
              [
                102.528593705,
                -2.547600033
              ],
              [
                102.52891912,
                -2.547283915
              ],
              [
                102.528891227,
                -2.547260672
              ],
              [
                102.529078777,
                -2.547062516
              ],
              [
                102.529461123,
                -2.546888251
              ],
              [
                102.529518975,
                -2.54692131
              ],
              [
                102.530072697,
                -2.546772548
              ],
              [
                102.53011402,
                -2.546648581
              ],
              [
                102.530287575,
                -2.5465742
              ],
              [
                102.530659478,
                -2.54675602
              ],
              [
                102.530940471,
                -2.54675602
              ],
              [
                102.531114026,
                -2.546772548
              ],
              [
                102.531361962,
                -2.54699569
              ],
              [
                102.531775187,
                -2.546284942
              ],
              [
                102.531651219,
                -2.546243619
              ],
              [
                102.53163469,
                -2.546078329
              ],
              [
                102.531841303,
                -2.545747749
              ],
              [
                102.531808245,
                -2.545673368
              ],
              [
                102.532047915,
                -2.545367582
              ],
              [
                102.532114032,
                -2.545392375
              ],
              [
                102.532221471,
                -2.545351052
              ],
              [
                102.532353703,
                -2.545309729
              ],
              [
                102.532361967,
                -2.545251878
              ],
              [
                102.532461142,
                -2.545227085
              ],
              [
                102.532485935,
                -2.545301465
              ],
              [
                102.532758664,
                -2.54514444
              ],
              [
                102.53273387,
                -2.545227084
              ]
            ]
          ],
          [
            [
              [
                102.541434953,
                -2.547701161
              ],
              [
                102.541805236,
                -2.547824589
              ],
              [
                102.542484086,
                -2.547804018
              ],
              [
                102.542874939,
                -2.547927445
              ],
              [
                102.543162936,
                -2.547351451
              ],
              [
                102.543615503,
                -2.546898883
              ],
              [
                102.543985786,
                -2.547084025
              ],
              [
                102.544660136,
                -2.547891445
              ],
              [
                102.544324568,
                -2.548481582
              ],
              [
                102.544671708,
                -2.54872458
              ],
              [
                102.545250273,
                -2.549175861
              ],
              [
                102.545470129,
                -2.549465145
              ],
              [
                102.545782554,
                -2.54951143
              ],
              [
                102.546048695,
                -2.549523001
              ],
              [
                102.546245406,
                -2.54943043
              ],
              [
                102.546349549,
                -2.549499858
              ],
              [
                102.546418976,
                -2.549349432
              ],
              [
                102.546650402,
                -2.54907172
              ],
              [
                102.546835544,
                -2.549430431
              ],
              [
                102.546476832,
                -2.549800712
              ],
              [
                102.546210692,
                -2.550344565
              ],
              [
                102.545944552,
                -2.550749561
              ],
              [
                102.546384048,
                -2.551507696
              ],
              [
                102.545917767,
                -2.552165976
              ],
              [
                102.543589789,
                -2.552687113
              ],
              [
                102.543075509,
                -2.553119109
              ],
              [
                102.542067518,
                -2.553324822
              ],
              [
                102.541676665,
                -2.553756817
              ],
              [
                102.541491524,
                -2.554785379
              ],
              [
                102.541203526,
                -2.555073376
              ],
              [
                102.540853815,
                -2.554703094
              ],
              [
                102.540648103,
                -2.553921388
              ],
              [
                102.540648103,
                -2.55278997
              ],
              [
                102.540216108,
                -2.552933968
              ],
              [
                102.539475544,
                -2.555196804
              ],
              [
                102.540030967,
                -2.555525943
              ],
              [
                102.541954376,
                -2.556115651
              ],
              [
                102.542612656,
                -2.557468782
              ],
              [
                102.543526933,
                -2.558236774
              ],
              [
                102.544151114,
                -2.558771786
              ],
              [
                102.544294925,
                -2.558895053
              ],
              [
                102.544294925,
                -2.55946057
              ],
              [
                102.544294926,
                -2.562479019
              ],
              [
                102.544294925,
                -2.562991014
              ],
              [
                102.544514352,
                -2.564819568
              ],
              [
                102.543819502,
                -2.566062985
              ],
              [
                102.5424298,
                -2.568476675
              ],
              [
                102.542137231,
                -2.568878957
              ],
              [
                102.541954376,
                -2.568732672
              ],
              [
                102.541219526,
                -2.566462981
              ],
              [
                102.542556656,
                -2.56461157
              ],
              [
                102.542577227,
                -2.563665293
              ],
              [
                102.542577227,
                -2.563541866
              ],
              [
                102.541569237,
                -2.562575018
              ],
              [
                102.540458391,
                -2.562965871
              ],
              [
                102.538442411,
                -2.563130441
              ],
              [
                102.536961282,
                -2.562780731
              ],
              [
                102.535109871,
                -2.56177274
              ],
              [
                102.536858426,
                -2.560188755
              ],
              [
                102.536570429,
                -2.559098481
              ],
              [
                102.536529286,
                -2.558707627
              ],
              [
                102.536508714,
                -2.558316773
              ],
              [
                102.536220717,
                -2.557391068
              ],
              [
                102.535315583,
                -2.556115652
              ],
              [
                102.534636732,
                -2.555848226
              ],
              [
                102.534698447,
                -2.555395658
              ],
              [
                102.534389878,
                -2.555066519
              ],
              [
                102.534698447,
                -2.555169375
              ],
              [
                102.535451868,
                -2.554809378
              ],
              [
                102.535019871,
                -2.554377383
              ],
              [
                102.534989015,
                -2.554145957
              ],
              [
                102.535806722,
                -2.553220251
              ],
              [
                102.536346717,
                -2.55235626
              ],
              [
                102.536562714,
                -2.552171118
              ],
              [
                102.536501001,
                -2.551985978
              ],
              [
                102.536377573,
                -2.552078547
              ],
              [
                102.536033862,
                -2.551656837
              ],
              [
                102.535951577,
                -2.551519696
              ],
              [
                102.536829283,
                -2.55064199
              ],
              [
                102.537130994,
                -2.550449991
              ],
              [
                102.53737785,
                -2.549791713
              ],
              [
                102.537542419,
                -2.549819141
              ],
              [
                102.537761845,
                -2.548859151
              ],
              [
                102.538584695,
                -2.54885915
              ],
              [
                102.538804122,
                -2.548283156
              ],
              [
                102.539380116,
                -2.548584867
              ],
              [
                102.539434973,
                -2.54789916
              ],
              [
                102.539736683,
                -2.547679733
              ],
              [
                102.541354953,
                -2.546637458
              ],
              [
                102.54137324,
                -2.546631457
              ],
              [
                102.541434953,
                -2.547701161
              ]
            ]
          ]
        ]
      }
    }
  ]
}