{
  "type": "FeatureCollection",
  "features": [
    {
      "type": "Feature",
      "properties": {
        "idx": "2835",
        "nama_kewilayahan": "Dayak Gambu Dalam Desa Kartamulia"
      },
      "geometry": {
        "type": "MultiPolygon",
        "coordinates": [
          [
            [
              [
                111.24220566,
                -2.679961943
              ],
              [
                111.24235618,
                -2.680387034
              ],
              [
                111.242537185,
                -2.680900207
              ],
              [
                111.242542898,
                -2.680900206
              ],
              [
                111.242459118,
                -2.680938522
              ],
              [
                111.242266788,
                -2.680936645
              ],
              [
                111.241922129,
                -2.680992247
              ],
              [
                111.241569852,
                -2.681038276
              ],
              [
                111.241436543,
                -2.680980854
              ],
              [
                111.241120457,
                -2.681082409
              ],
              [
                111.240863298,
                -2.680649679
              ],
              [
                111.241223136,
                -2.680312575
              ],
              [
                111.241474498,
                -2.68031827
              ],
              [
                111.241680125,
                -2.680151628
              ],
              [
                111.241889557,
                -2.67997158
              ],
              [
                111.242150405,
                -2.679797267
              ],
              [
                111.24220566,
                -2.679961943
              ]
            ]
          ]
        ]
      }
    }
  ]
}