{
  "type": "FeatureCollection",
  "features": [
    {
      "type": "Feature",
      "properties": {
        "idx": "2844",
        "nama_kewilayahan": "Bukit Mujo"
      },
      "geometry": {
        "type": "MultiPolygon",
        "coordinates": [
          [
            [
              [
                102.05051,
                -2.28198
              ],
              [
                102.05159,
                -2.28221
              ],
              [
                102.05261,
                -2.2821
              ],
              [
                102.05367,
                -2.28194
              ],
              [
                102.05558,
                -2.28208
              ],
              [
                102.056116629,
                -2.28206643
              ],
              [
                102.0573315,
                -2.28244546
              ],
              [
                102.05840036,
                -2.28234387
              ],
              [
                102.05862408,
                -2.28224555
              ],
              [
                102.05941533,
                -2.28237916
              ],
              [
                102.05974256,
                -2.28257789
              ],
              [
                102.0596548,
                -2.28311123
              ],
              [
                102.059654551,
                -2.28349345
              ],
              [
                102.05963762,
                -2.28434052
              ],
              [
                102.0595486,
                -2.28449995
              ],
              [
                102.05999586,
                -2.28480991
              ],
              [
                102.06009066,
                -2.28509841
              ],
              [
                102.05999686,
                -2.28560359
              ],
              [
                102.05956788,
                -2.28593107
              ],
              [
                102.05919321,
                -2.28560627
              ],
              [
                102.058788281,
                -2.28442401
              ],
              [
                102.05858585,
                -2.2846152
              ],
              [
                102.05836658,
                -2.28450791
              ],
              [
                102.05807556,
                -2.28428076
              ],
              [
                102.05754767,
                -2.28460573
              ],
              [
                102.05728331,
                -2.28490714
              ],
              [
                102.05708206,
                -2.28481988
              ],
              [
                102.05681132,
                -2.28494561
              ],
              [
                102.056378981,
                -2.28534996
              ],
              [
                102.055830141,
                -2.285454559
              ],
              [
                102.05583961,
                -2.28506983
              ],
              [
                102.05557516,
                -2.28510562
              ],
              [
                102.05587029,
                -2.28439668
              ],
              [
                102.05576291,
                -2.28391573
              ],
              [
                102.05554616,
                -2.28377533
              ],
              [
                102.05501919,
                -2.28338666
              ],
              [
                102.05439457,
                -2.28357517
              ],
              [
                102.053523601,
                -2.28371901
              ],
              [
                102.05338304,
                -2.28345808
              ],
              [
                102.05303729,
                -2.283147439
              ],
              [
                102.0522405,
                -2.28302456
              ],
              [
                102.05196633,
                -2.283009141
              ],
              [
                102.05205895,
                -2.28343586
              ],
              [
                102.05189056,
                -2.28365958
              ],
              [
                102.05168,
                -2.28377
              ],
              [
                102.05154,
                -2.284019999
              ],
              [
                102.051550001,
                -2.28429
              ],
              [
                102.05134,
                -2.28437
              ],
              [
                102.05093,
                -2.28445
              ],
              [
                102.050675413,
                -2.284563071
              ],
              [
                102.05038,
                -2.284630001
              ],
              [
                102.05022,
                -2.284759999
              ],
              [
                102.05021,
                -2.28488
              ],
              [
                102.04988,
                -2.28511
              ],
              [
                102.04997,
                -2.28524
              ],
              [
                102.050110001,
                -2.2853
              ],
              [
                102.05012,
                -2.28546
              ],
              [
                102.05033,
                -2.28567
              ],
              [
                102.05055,
                -2.28583
              ],
              [
                102.0506,
                -2.286
              ],
              [
                102.0507,
                -2.286230001
              ],
              [
                102.05014,
                -2.28645
              ],
              [
                102.05,
                -2.2868
              ],
              [
                102.04971,
                -2.286640001
              ],
              [
                102.049,
                -2.28701
              ],
              [
                102.049059999,
                -2.287440001
              ],
              [
                102.04886,
                -2.28764
              ],
              [
                102.04883,
                -2.28748
              ],
              [
                102.04858,
                -2.287380001
              ],
              [
                102.04865,
                -2.28715
              ],
              [
                102.048370001,
                -2.28703
              ],
              [
                102.04857,
                -2.28672
              ],
              [
                102.048299999,
                -2.28644
              ],
              [
                102.0481,
                -2.28581
              ],
              [
                102.04777,
                -2.28558
              ],
              [
                102.047541007,
                -2.285128728
              ],
              [
                102.04711,
                -2.2849
              ],
              [
                102.04681,
                -2.284859999
              ],
              [
                102.046400001,
                -2.28455
              ],
              [
                102.04599,
                -2.28442
              ],
              [
                102.04655,
                -2.284019999
              ],
              [
                102.04725,
                -2.28361
              ],
              [
                102.04785,
                -2.283520001
              ],
              [
                102.04856,
                -2.28333
              ],
              [
                102.048849999,
                -2.28266
              ],
              [
                102.04941,
                -2.281650001
              ],
              [
                102.05051,
                -2.28198
              ]
            ]
          ]
        ]
      }
    }
  ]
}