{
  "type": "FeatureCollection",
  "features": [
    {
      "type": "Feature",
      "properties": {
        "idx": "2845",
        "nama_kewilayahan": "Uma Saerejen"
      },
      "geometry": {
        "type": "MultiPolygon",
        "coordinates": [
          [
            [
              [
                98.894205559,
                -1.117767803
              ],
              [
                98.894296884,
                -1.117719547
              ],
              [
                98.894324252,
                -1.117696316
              ],
              [
                98.894376621,
                -1.117651864
              ],
              [
                98.894551466,
                -1.117517769
              ],
              [
                98.894832,
                -1.117473
              ],
              [
                98.894233,
                -1.118427
              ],
              [
                98.893910471,
                -1.120463322
              ],
              [
                98.892832,
                -1.122559
              ],
              [
                98.892931295,
                -1.124642392
              ],
              [
                98.892667381,
                -1.126326498
              ],
              [
                98.892596,
                -1.126782
              ],
              [
                98.8931198,
                -1.127251329
              ],
              [
                98.893769942,
                -1.127966438
              ],
              [
                98.8956148,
                -1.128975603
              ],
              [
                98.896259,
                -1.129394
              ],
              [
                98.896212048,
                -1.130602973
              ],
              [
                98.896056,
                -1.132271
              ],
              [
                98.897082,
                -1.133418
              ],
              [
                98.89761,
                -1.134424
              ],
              [
                98.898114451,
                -1.135211029
              ],
              [
                98.898233344,
                -1.135689785
              ],
              [
                98.898188,
                -1.136342
              ],
              [
                98.898518,
                -1.137023
              ],
              [
                98.896954968,
                -1.138203188
              ],
              [
                98.894632,
                -1.138627
              ],
              [
                98.89282646,
                -1.138568608
              ],
              [
                98.891509,
                -1.138526
              ],
              [
                98.888801464,
                -1.139223935
              ],
              [
                98.886023918,
                -1.139939916
              ],
              [
                98.884140192,
                -1.140425493
              ],
              [
                98.884116213,
                -1.140431674
              ],
              [
                98.883925701,
                -1.140480784
              ],
              [
                98.881642967,
                -1.141069215
              ],
              [
                98.880932,
                -1.140379
              ],
              [
                98.880481236,
                -1.140987407
              ],
              [
                98.880086616,
                -1.141082207
              ],
              [
                98.879402693,
                -1.141547028
              ],
              [
                98.87813,
                -1.142412
              ],
              [
                98.877932438,
                -1.142267088
              ],
              [
                98.877852084,
                -1.142208148
              ],
              [
                98.87773795,
                -1.142137746
              ],
              [
                98.877577325,
                -1.142038666
              ],
              [
                98.877362497,
                -1.141801626
              ],
              [
                98.87723987,
                -1.14162351
              ],
              [
                98.877206055,
                -1.141547188
              ],
              [
                98.877099976,
                -1.141307764
              ],
              [
                98.87698376,
                -1.141030314
              ],
              [
                98.876889003,
                -1.140804095
              ],
              [
                98.876777674,
                -1.140618603
              ],
              [
                98.87666529,
                -1.140431352
              ],
              [
                98.876609361,
                -1.14004384
              ],
              [
                98.875676645,
                -1.133581325
              ],
              [
                98.874615,
                -1.126213
              ],
              [
                98.874932426,
                -1.125818265
              ],
              [
                98.875070614,
                -1.12550267
              ],
              [
                98.875179783,
                -1.125253348
              ],
              [
                98.875405329,
                -1.124665969
              ],
              [
                98.875452493,
                -1.124543142
              ],
              [
                98.875514,
                -1.124504
              ],
              [
                98.875498873,
                -1.124428244
              ],
              [
                98.875464813,
                -1.124388527
              ],
              [
                98.875439717,
                -1.124359264
              ],
              [
                98.875408756,
                -1.124334331
              ],
              [
                98.875371461,
                -1.124304298
              ],
              [
                98.875256309,
                -1.124224877
              ],
              [
                98.875200075,
                -1.124183673
              ],
              [
                98.875166703,
                -1.124125661
              ],
              [
                98.875189457,
                -1.124026422
              ],
              [
                98.875253169,
                -1.123983677
              ],
              [
                98.875350034,
                -1.123974035
              ],
              [
                98.875371032,
                -1.123972893
              ],
              [
                98.87548979,
                -1.123986745
              ],
              [
                98.875567278,
                -1.123993316
              ],
              [
                98.875633883,
                -1.123998965
              ],
              [
                98.875776467,
                -1.123998971
              ],
              [
                98.875855342,
                -1.123965382
              ],
              [
                98.875899325,
                -1.123905844
              ],
              [
                98.875906913,
                -1.123864625
              ],
              [
                98.875859896,
                -1.123809661
              ],
              [
                98.875818452,
                -1.123787703
              ],
              [
                98.875789227,
                -1.123772219
              ],
              [
                98.875744622,
                -1.123748587
              ],
              [
                98.87562781,
                -1.123696324
              ],
              [
                98.875530354,
                -1.123652496
              ],
              [
                98.87547919,
                -1.123629486
              ],
              [
                98.875382117,
                -1.123576049
              ],
              [
                98.875362399,
                -1.123507343
              ],
              [
                98.875373018,
                -1.12341574
              ],
              [
                98.875413024,
                -1.123364556
              ],
              [
                98.875441963,
                -1.123327532
              ],
              [
                98.875511526,
                -1.123254474
              ],
              [
                98.875551089,
                -1.123216724
              ],
              [
                98.875645404,
                -1.123131463
              ],
              [
                98.875655528,
                -1.123120981
              ],
              [
                98.87567791,
                -1.123102773
              ],
              [
                98.875770442,
                -1.123002017
              ],
              [
                98.87580961,
                -1.122923169
              ],
              [
                98.875822013,
                -1.122898202
              ],
              [
                98.875858421,
                -1.122786751
              ],
              [
                98.875918599,
                -1.122684129
              ],
              [
                98.875932406,
                -1.122660961
              ],
              [
                98.875952473,
                -1.122627975
              ],
              [
                98.875968468,
                -1.122578781
              ],
              [
                98.875979775,
                -1.122544009
              ],
              [
                98.875978258,
                -1.122487518
              ],
              [
                98.87595248,
                -1.122466147
              ],
              [
                98.875889281,
                -1.122467556
              ],
              [
                98.875870726,
                -1.122467969
              ],
              [
                98.875815964,
                -1.12246919
              ],
              [
                98.875741741,
                -1.122462587
              ],
              [
                98.875710774,
                -1.122459832
              ],
              [
                98.875674946,
                -1.122456644
              ],
              [
                98.875606965,
                -1.122450596
              ],
              [
                98.875602362,
                -1.122450187
              ],
              [
                98.875523989,
                -1.122443214
              ],
              [
                98.875502369,
                -1.122441291
              ],
              [
                98.875474599,
                -1.12243882
              ],
              [
                98.875386713,
                -1.122431001
              ],
              [
                98.875248689,
                -1.122379091
              ],
              [
                98.875184982,
                -1.122302748
              ],
              [
                98.875200158,
                -1.122232524
              ],
              [
                98.875240769,
                -1.122188455
              ],
              [
                98.875275662,
                -1.122150593
              ],
              [
                98.875317525,
                -1.122109944
              ],
              [
                98.875374766,
                -1.122061307
              ],
              [
                98.875438962,
                -1.122006113
              ],
              [
                98.875530828,
                -1.121925664
              ],
              [
                98.875572008,
                -1.121875777
              ],
              [
                98.875612744,
                -1.121826428
              ],
              [
                98.875650694,
                -1.121747241
              ],
              [
                98.875674932,
                -1.121696666
              ],
              [
                98.87570094,
                -1.121624373
              ],
              [
                98.875719,
                -1.121565
              ],
              [
                98.875879717,
                -1.121446292
              ],
              [
                98.875944397,
                -1.121436362
              ],
              [
                98.876058696,
                -1.121418814
              ],
              [
                98.876162822,
                -1.121418118
              ],
              [
                98.87628622,
                -1.121417294
              ],
              [
                98.876443966,
                -1.121441729
              ],
              [
                98.876598672,
                -1.121521125
              ],
              [
                98.876653625,
                -1.121566795
              ],
              [
                98.876771095,
                -1.121667256
              ],
              [
                98.876879741,
                -1.121764883
              ],
              [
                98.876945486,
                -1.12182396
              ],
              [
                98.876997573,
                -1.121870764
              ],
              [
                98.877137114,
                -1.121974587
              ],
              [
                98.877231123,
                -1.122007282
              ],
              [
                98.877303964,
                -1.122032614
              ],
              [
                98.877388626,
                -1.122028269
              ],
              [
                98.877452606,
                -1.122024985
              ],
              [
                98.877520554,
                -1.121991215
              ],
              [
                98.877575472,
                -1.121963921
              ],
              [
                98.877627116,
                -1.121910985
              ],
              [
                98.877667401,
                -1.121846509
              ],
              [
                98.877690756,
                -1.121768505
              ],
              [
                98.877685624,
                -1.121708686
              ],
              [
                98.877680623,
                -1.121650389
              ],
              [
                98.877794668,
                -1.12163133
              ],
              [
                98.877948895,
                -1.121639293
              ],
              [
                98.878004048,
                -1.12166821
              ],
              [
                98.878120808,
                -1.121747
              ],
              [
                98.878172189,
                -1.121780109
              ],
              [
                98.878300516,
                -1.121816319
              ],
              [
                98.878428088,
                -1.121878848
              ],
              [
                98.87848123,
                -1.121926541
              ],
              [
                98.878524,
                -1.121922
              ],
              [
                98.87856991,
                -1.121906089
              ],
              [
                98.878677869,
                -1.121814223
              ],
              [
                98.878889847,
                -1.12167039
              ],
              [
                98.879021241,
                -1.121589092
              ],
              [
                98.879349511,
                -1.121407449
              ],
              [
                98.87967431,
                -1.121285493
              ],
              [
                98.879985698,
                -1.121164123
              ],
              [
                98.880117309,
                -1.121128251
              ],
              [
                98.880202064,
                -1.121106859
              ],
              [
                98.88037378,
                -1.121071
              ],
              [
                98.880467004,
                -1.121139236
              ],
              [
                98.880467951,
                -1.121096482
              ],
              [
                98.880539238,
                -1.121057672
              ],
              [
                98.880612832,
                -1.121037304
              ],
              [
                98.880703524,
                -1.121014338
              ],
              [
                98.880780195,
                -1.120989529
              ],
              [
                98.880812967,
                -1.120990533
              ],
              [
                98.880861198,
                -1.120992011
              ],
              [
                98.880897305,
                -1.121012912
              ],
              [
                98.880926078,
                -1.121076472
              ],
              [
                98.880951905,
                -1.121133523
              ],
              [
                98.88095365,
                -1.121180998
              ],
              [
                98.880955626,
                -1.121234784
              ],
              [
                98.880957965,
                -1.121298409
              ],
              [
                98.88095599,
                -1.121328473
              ],
              [
                98.880953054,
                -1.121373161
              ],
              [
                98.880947334,
                -1.121460237
              ],
              [
                98.880957226,
                -1.121554373
              ],
              [
                98.880964019,
                -1.121619017
              ],
              [
                98.880984216,
                -1.121677365
              ],
              [
                98.880998899,
                -1.121719787
              ],
              [
                98.881009304,
                -1.121732213
              ],
              [
                98.881045033,
                -1.121774884
              ],
              [
                98.881088384,
                -1.121826657
              ],
              [
                98.881140485,
                -1.121850928
              ],
              [
                98.881190005,
                -1.121873996
              ],
              [
                98.881299215,
                -1.121860258
              ],
              [
                98.881355341,
                -1.121817512
              ],
              [
                98.881358381,
                -1.121779342
              ],
              [
                98.88132501,
                -1.121690795
              ],
              [
                98.881299343,
                -1.121642722
              ],
              [
                98.881259795,
                -1.121568654
              ],
              [
                98.881239723,
                -1.121517794
              ],
              [
                98.881220264,
                -1.121468485
              ],
              [
                98.88119516,
                -1.121404874
              ],
              [
                98.881171825,
                -1.121345744
              ],
              [
                98.881202165,
                -1.121248035
              ],
              [
                98.881253743,
                -1.121191546
              ],
              [
                98.881312603,
                -1.121186614
              ],
              [
                98.881362953,
                -1.121182395
              ],
              [
                98.881444275,
                -1.121206723
              ],
              [
                98.881475864,
                -1.121216173
              ],
              [
                98.881530993,
                -1.121254867
              ],
              [
                98.881562469,
                -1.121276958
              ],
              [
                98.881597905,
                -1.12130183
              ],
              [
                98.881625903,
                -1.121321482
              ],
              [
                98.881690781,
                -1.121367017
              ],
              [
                98.88173154,
                -1.121395302
              ],
              [
                98.88180467,
                -1.121446051
              ],
              [
                98.881867807,
                -1.121489865
              ],
              [
                98.881951061,
                -1.121547639
              ],
              [
                98.881993457,
                -1.121574886
              ],
              [
                98.882055863,
                -1.121614994
              ],
              [
                98.882092459,
                -1.121638514
              ],
              [
                98.882146886,
                -1.121673493
              ],
              [
                98.882207395,
                -1.121712381
              ],
              [
                98.882252882,
                -1.121731886
              ],
              [
                98.882313871,
                -1.121758038
              ],
              [
                98.882373024,
                -1.121734219
              ],
              [
                98.88239253,
                -1.121717148
              ],
              [
                98.88242332,
                -1.1216902
              ],
              [
                98.88246373,
                -1.121654833
              ],
              [
                98.882478621,
                -1.121624859
              ],
              [
                98.882511058,
                -1.121559567
              ],
              [
                98.882535829,
                -1.121485869
              ],
              [
                98.882556419,
                -1.121424611
              ],
              [
                98.882580303,
                -1.121369905
              ],
              [
                98.882613609,
                -1.121293618
              ],
              [
                98.88267671,
                -1.121230109
              ],
              [
                98.882737841,
                -1.121216224
              ],
              [
                98.882804901,
                -1.121231718
              ],
              [
                98.882858114,
                -1.121244013
              ],
              [
                98.88290705,
                -1.121273892
              ],
              [
                98.882933498,
                -1.121290041
              ],
              [
                98.882978394,
                -1.121317454
              ],
              [
                98.883026838,
                -1.121386807
              ],
              [
                98.8831083,
                -1.121522197
              ],
              [
                98.883130217,
                -1.121563564
              ],
              [
                98.88314677,
                -1.1216491
              ],
              [
                98.883159792,
                -1.121716392
              ],
              [
                98.883156997,
                -1.121783124
              ],
              [
                98.883154577,
                -1.121840875
              ],
              [
                98.88314853,
                -1.121959945
              ],
              [
                98.883144005,
                -1.12203395
              ],
              [
                98.883154715,
                -1.122080023
              ],
              [
                98.88316569,
                -1.122127237
              ],
              [
                98.883224842,
                -1.12214907
              ],
              [
                98.883287941,
                -1.122153045
              ],
              [
                98.88335302,
                -1.122099451
              ],
              [
                98.88340823,
                -1.122014111
              ],
              [
                98.883451659,
                -1.121920791
              ],
              [
                98.883481195,
                -1.121857325
              ],
              [
                98.883486745,
                -1.121754003
              ],
              [
                98.883489084,
                -1.121710452
              ],
              [
                98.883491066,
                -1.12158541
              ],
              [
                98.883514727,
                -1.121513964
              ],
              [
                98.883556138,
                -1.121470304
              ],
              [
                98.883633044,
                -1.121452439
              ],
              [
                98.883679373,
                -1.121464101
              ],
              [
                98.883727691,
                -1.121476264
              ],
              [
                98.883787777,
                -1.121541688
              ],
              [
                98.883867667,
                -1.121653875
              ],
              [
                98.883911064,
                -1.121726347
              ],
              [
                98.883936137,
                -1.121843263
              ],
              [
                98.883960342,
                -1.12208956
              ],
              [
                98.883974143,
                -1.122220547
              ],
              [
                98.884005687,
                -1.122363449
              ],
              [
                98.884027338,
                -1.122473388
              ],
              [
                98.884040487,
                -1.122540152
              ],
              [
                98.884051142,
                -1.122594258
              ],
              [
                98.884064291,
                -1.122661022
              ],
              [
                98.884074272,
                -1.122711703
              ],
              [
                98.884107423,
                -1.122886437
              ],
              [
                98.884121483,
                -1.122965976
              ],
              [
                98.884137772,
                -1.123058121
              ],
              [
                98.884143679,
                -1.123226817
              ],
              [
                98.884138898,
                -1.123294167
              ],
              [
                98.884131844,
                -1.123393539
              ],
              [
                98.884115036,
                -1.123499518
              ],
              [
                98.884102256,
                -1.123580102
              ],
              [
                98.88410707,
                -1.123640211
              ],
              [
                98.884112111,
                -1.123703154
              ],
              [
                98.884145625,
                -1.123800413
              ],
              [
                98.884212667,
                -1.123871862
              ],
              [
                98.884269851,
                -1.123893695
              ],
              [
                98.884380274,
                -1.123885765
              ],
              [
                98.88444929,
                -1.123832181
              ],
              [
                98.884514611,
                -1.123758706
              ],
              [
                98.884543942,
                -1.123730964
              ],
              [
                98.884733247,
                -1.12350669
              ],
              [
                98.884855505,
                -1.123365784
              ],
              [
                98.884900282,
                -1.123309214
              ],
              [
                98.884948189,
                -1.123248689
              ],
              [
                98.884987625,
                -1.123163339
              ],
              [
                98.884999467,
                -1.123044259
              ],
              [
                98.884967921,
                -1.122958915
              ],
              [
                98.884916653,
                -1.122919213
              ],
              [
                98.884881592,
                -1.122871084
              ],
              [
                98.884851589,
                -1.122829896
              ],
              [
                98.884845669,
                -1.122742572
              ],
              [
                98.884871307,
                -1.122663183
              ],
              [
                98.884908027,
                -1.122640836
              ],
              [
                98.884956097,
                -1.122611581
              ],
              [
                98.885051378,
                -1.122594373
              ],
              [
                98.885109908,
                -1.122583803
              ],
              [
                98.885202992,
                -1.122592776
              ],
              [
                98.885295258,
                -1.12260167
              ],
              [
                98.885327349,
                -1.122610086
              ],
              [
                98.885388928,
                -1.122626236
              ],
              [
                98.885411501,
                -1.122632156
              ],
              [
                98.885463294,
                -1.122645739
              ],
              [
                98.885529908,
                -1.122663209
              ],
              [
                98.885564962,
                -1.122679773
              ],
              [
                98.885614469,
                -1.122703165
              ],
              [
                98.885660716,
                -1.122725018
              ],
              [
                98.885723138,
                -1.122754513
              ],
              [
                98.885780214,
                -1.122788337
              ],
              [
                98.885838145,
                -1.122822669
              ],
              [
                98.885896076,
                -1.122857
              ],
              [
                98.885919359,
                -1.122870798
              ],
              [
                98.885967645,
                -1.122899414
              ],
              [
                98.886030632,
                -1.122932726
              ],
              [
                98.88608398,
                -1.12296094
              ],
              [
                98.886125828,
                -1.122974985
              ],
              [
                98.886202285,
                -1.123000644
              ],
              [
                98.886291019,
                -1.122998657
              ],
              [
                98.886391584,
                -1.122943093
              ],
              [
                98.886419964,
                -1.122908978
              ],
              [
                98.886462578,
                -1.122857753
              ],
              [
                98.886496098,
                -1.122780346
              ],
              [
                98.886484976,
                -1.122730465
              ],
              [
                98.886474413,
                -1.122683096
              ],
              [
                98.886453838,
                -1.12265984
              ],
              [
                98.886414155,
                -1.122614987
              ],
              [
                98.886362026,
                -1.122556068
              ],
              [
                98.886333775,
                -1.122526633
              ],
              [
                98.886293465,
                -1.122484635
              ],
              [
                98.886249631,
                -1.122438965
              ],
              [
                98.886224524,
                -1.122379057
              ],
              [
                98.886196397,
                -1.122311939
              ],
              [
                98.886198377,
                -1.122230559
              ],
              [
                98.886245704,
                -1.122178956
              ],
              [
                98.886324578,
                -1.122159118
              ],
              [
                98.88641347,
                -1.122180641
              ],
              [
                98.886480346,
                -1.122196833
              ],
              [
                98.886546627,
                -1.122230624
              ],
              [
                98.886632176,
                -1.122274238
              ],
              [
                98.88669965,
                -1.122344555
              ],
              [
                98.886748079,
                -1.122395026
              ],
              [
                98.886799777,
                -1.122448902
              ],
              [
                98.886815362,
                -1.122460433
              ],
              [
                98.88688345,
                -1.122510806
              ],
              [
                98.886963434,
                -1.122569979
              ],
              [
                98.886998141,
                -1.122593272
              ],
              [
                98.887093574,
                -1.122657317
              ],
              [
                98.887168502,
                -1.122643424
              ],
              [
                98.887233581,
                -1.122575943
              ],
              [
                98.887280908,
                -1.122502517
              ],
              [
                98.887296686,
                -1.122423128
              ],
              [
                98.887285454,
                -1.122361908
              ],
              [
                98.887270286,
                -1.12227924
              ],
              [
                98.887266844,
                -1.122260482
              ],
              [
                98.887239513,
                -1.12211152
              ],
              [
                98.887225278,
                -1.122075861
              ],
              [
                98.887191415,
                -1.121991037
              ],
              [
                98.887154734,
                -1.12189915
              ],
              [
                98.887133074,
                -1.121809415
              ],
              [
                98.887103472,
                -1.121686773
              ],
              [
                98.887111262,
                -1.121604896
              ],
              [
                98.887121222,
                -1.12150021
              ],
              [
                98.887148569,
                -1.121448785
              ],
              [
                98.887196155,
                -1.121359302
              ],
              [
                98.887283471,
                -1.121280672
              ],
              [
                98.887346024,
                -1.121224341
              ],
              [
                98.887447121,
                -1.121166869
              ],
              [
                98.887558983,
                -1.121103278
              ],
              [
                98.887663687,
                -1.121065346
              ],
              [
                98.887756174,
                -1.12103184
              ],
              [
                98.887908006,
                -1.121045733
              ],
              [
                98.888022372,
                -1.121127118
              ],
              [
                98.888097295,
                -1.121264069
              ],
              [
                98.888126861,
                -1.121403
              ],
              [
                98.888191933,
                -1.12151812
              ],
              [
                98.888310237,
                -1.121581636
              ],
              [
                98.888471931,
                -1.121557821
              ],
              [
                98.888551989,
                -1.121501689
              ],
              [
                98.888647426,
                -1.121434776
              ],
              [
                98.888809125,
                -1.121268059
              ],
              [
                98.888857916,
                -1.121183766
              ],
              [
                98.888927448,
                -1.121063641
              ],
              [
                98.888972636,
                -1.120966745
              ],
              [
                98.889018157,
                -1.120869137
              ],
              [
                98.889124641,
                -1.120698455
              ],
              [
                98.889242957,
                -1.120644873
              ],
              [
                98.889335626,
                -1.120694492
              ],
              [
                98.889365724,
                -1.1207295
              ],
              [
                98.889424356,
                -1.120797697
              ],
              [
                98.889495366,
                -1.120952574
              ],
              [
                98.88955213,
                -1.121098811
              ],
              [
                98.889586035,
                -1.121192671
              ],
              [
                98.889625461,
                -1.121351451
              ],
              [
                98.889670811,
                -1.121494355
              ],
              [
                98.889735874,
                -1.121623362
              ],
              [
                98.889822636,
                -1.121696802
              ],
              [
                98.889915315,
                -1.121718637
              ],
              [
                98.890029678,
                -1.121649176
              ],
              [
                98.890082024,
                -1.121578259
              ],
              [
                98.890132223,
                -1.12151025
              ],
              [
                98.890175417,
                -1.121448528
              ],
              [
                98.890267659,
                -1.121316719
              ],
              [
                98.890335917,
                -1.121225689
              ],
              [
                98.890443787,
                -1.12108751
              ],
              [
                98.890725772,
                -1.120853324
              ],
              [
                98.890903235,
                -1.120750119
              ],
              [
                98.891151703,
                -1.120482194
              ],
              [
                98.891202975,
                -1.120196393
              ],
              [
                98.891266081,
                -1.120011813
              ],
              [
                98.891624964,
                -1.119966174
              ],
              [
                98.89195425,
                -1.120093209
              ],
              [
                98.892261868,
                -1.119930479
              ],
              [
                98.892447106,
                -1.119719468
              ],
              [
                98.892516242,
                -1.119640713
              ],
              [
                98.892628654,
                -1.119333083
              ],
              [
                98.892595137,
                -1.119059185
              ],
              [
                98.892609761,
                -1.118823803
              ],
              [
                98.892626704,
                -1.118551092
              ],
              [
                98.892719391,
                -1.118362542
              ],
              [
                98.892894973,
                -1.118232025
              ],
              [
                98.893021087,
                -1.11813828
              ],
              [
                98.893133523,
                -1.118067467
              ],
              [
                98.893342503,
                -1.11793585
              ],
              [
                98.893480547,
                -1.117691733
              ],
              [
                98.893465119,
                -1.117583047
              ],
              [
                98.893452112,
                -1.117491413
              ],
              [
                98.893439354,
                -1.117432908
              ],
              [
                98.893415484,
                -1.117322566
              ],
              [
                98.893498309,
                -1.117165771
              ],
              [
                98.893577182,
                -1.117161802
              ],
              [
                98.893660001,
                -1.117193561
              ],
              [
                98.893727034,
                -1.117263037
              ],
              [
                98.893790129,
                -1.117378148
              ],
              [
                98.893849284,
                -1.117550826
              ],
              [
                98.893912378,
                -1.117679833
              ],
              [
                98.894024766,
                -1.117792974
              ],
              [
                98.894139134,
                -1.117802903
              ],
              [
                98.894205559,
                -1.117767803
              ]
            ]
          ],
          [
            [
              [
                98.795269,
                -1.12794
              ],
              [
                98.795624135,
                -1.128476202
              ],
              [
                98.795675,
                -1.128553
              ],
              [
                98.796153,
                -1.129329
              ],
              [
                98.796148226,
                -1.129443767
              ],
              [
                98.797182127,
                -1.131080486
              ],
              [
                98.797871727,
                -1.132181659
              ],
              [
                98.797324682,
                -1.13304337
              ],
              [
                98.797059571,
                -1.133845932
              ],
              [
                98.79703011,
                -1.133935118
              ],
              [
                98.797007874,
                -1.134002432
              ],
              [
                98.797167306,
                -1.134103051
              ],
              [
                98.79737854,
                -1.134236363
              ],
              [
                98.798370962,
                -1.134862693
              ],
              [
                98.799108142,
                -1.135748431
              ],
              [
                98.799670338,
                -1.136971603
              ],
              [
                98.799800206,
                -1.137254159
              ],
              [
                98.799458299,
                -1.137666846
              ],
              [
                98.79930848,
                -1.137768841
              ],
              [
                98.799089719,
                -1.137917772
              ],
              [
                98.798973123,
                -1.137997149
              ],
              [
                98.79880606,
                -1.138081213
              ],
              [
                98.798516493,
                -1.138226917
              ],
              [
                98.798288171,
                -1.138442339
              ],
              [
                98.798164109,
                -1.13848978
              ],
              [
                98.798046588,
                -1.138534721
              ],
              [
                98.797901885,
                -1.138590056
              ],
              [
                98.797755436,
                -1.138646058
              ],
              [
                98.797639536,
                -1.138690379
              ],
              [
                98.797574692,
                -1.138715176
              ],
              [
                98.797450012,
                -1.13875328
              ],
              [
                98.797185744,
                -1.138834044
              ],
              [
                98.796876503,
                -1.138928553
              ],
              [
                98.796581899,
                -1.139018589
              ],
              [
                98.796240855,
                -1.139122818
              ],
              [
                98.796082763,
                -1.139267357
              ],
              [
                98.796020349,
                -1.139258237
              ],
              [
                98.795917556,
                -1.139243217
              ],
              [
                98.795842526,
                -1.139237496
              ],
              [
                98.795672272,
                -1.139224516
              ],
              [
                98.795386578,
                -1.139202733
              ],
              [
                98.794975948,
                -1.139171425
              ],
              [
                98.794283923,
                -1.139118662
              ],
              [
                98.794186274,
                -1.139117321
              ],
              [
                98.794071083,
                -1.139099948
              ],
              [
                98.793365748,
                -1.138993572
              ],
              [
                98.792817425,
                -1.138910875
              ],
              [
                98.792631431,
                -1.13882714
              ],
              [
                98.790489132,
                -1.137503293
              ],
              [
                98.78906602,
                -1.136623872
              ],
              [
                98.788684,
                -1.13642
              ],
              [
                98.788059989,
                -1.136604959
              ],
              [
                98.787576808,
                -1.136748176
              ],
              [
                98.786986753,
                -1.136662894
              ],
              [
                98.78649001,
                -1.136591099
              ],
              [
                98.786280071,
                -1.136657744
              ],
              [
                98.785979776,
                -1.136753073
              ],
              [
                98.785626339,
                -1.136865271
              ],
              [
                98.785513351,
                -1.13687248
              ],
              [
                98.78540561,
                -1.136844415
              ],
              [
                98.785129018,
                -1.136772366
              ],
              [
                98.784976484,
                -1.136732633
              ],
              [
                98.784644231,
                -1.136646085
              ],
              [
                98.784421482,
                -1.136518495
              ],
              [
                98.784193821,
                -1.136388092
              ],
              [
                98.783985394,
                -1.136268706
              ],
              [
                98.783733944,
                -1.136124676
              ],
              [
                98.783451644,
                -1.135962976
              ],
              [
                98.78306793,
                -1.135743186
              ],
              [
                98.781568324,
                -1.13555585
              ],
              [
                98.781095585,
                -1.135469433
              ],
              [
                98.78095678,
                -1.135340435
              ],
              [
                98.780695,
                -1.134916
              ],
              [
                98.779013269,
                -1.13318109
              ],
              [
                98.777834,
                -1.130525
              ],
              [
                98.777381564,
                -1.13110221
              ],
              [
                98.777272515,
                -1.131154429
              ],
              [
                98.777082078,
                -1.131198686
              ],
              [
                98.777028015,
                -1.131199188
              ],
              [
                98.776639,
                -1.131036
              ],
              [
                98.776271464,
                -1.130060675
              ],
              [
                98.775134878,
                -1.127065988
              ],
              [
                98.775069,
                -1.126721
              ],
              [
                98.774637999,
                -1.126460983
              ],
              [
                98.773895698,
                -1.125946334
              ],
              [
                98.773719594,
                -1.125783725
              ],
              [
                98.773377696,
                -1.125280475
              ],
              [
                98.77335012,
                -1.125053661
              ],
              [
                98.77354525,
                -1.124467095
              ],
              [
                98.773218524,
                -1.121584726
              ],
              [
                98.776186,
                -1.120366
              ],
              [
                98.778089,
                -1.120598
              ],
              [
                98.779442,
                -1.121942
              ],
              [
                98.77983042,
                -1.122135921
              ],
              [
                98.780337861,
                -1.122749979
              ],
              [
                98.780564,
                -1.123309
              ],
              [
                98.781943,
                -1.123365
              ],
              [
                98.782805074,
                -1.12401397
              ],
              [
                98.78289191,
                -1.124457372
              ],
              [
                98.783013364,
                -1.124657448
              ],
              [
                98.783136494,
                -1.124662226
              ],
              [
                98.78333657,
                -1.124639511
              ],
              [
                98.783896087,
                -1.124735449
              ],
              [
                98.784099172,
                -1.124675059
              ],
              [
                98.784334473,
                -1.12461993
              ],
              [
                98.784656655,
                -1.124556404
              ],
              [
                98.784855302,
                -1.124524074
              ],
              [
                98.785011,
                -1.124552
              ],
              [
                98.785464903,
                -1.124323597
              ],
              [
                98.785772594,
                -1.12416248
              ],
              [
                98.78611031,
                -1.124074906
              ],
              [
                98.786249366,
                -1.124010533
              ],
              [
                98.786414573,
                -1.12383334
              ],
              [
                98.786548097,
                -1.123779863
              ],
              [
                98.786643734,
                -1.124010114
              ],
              [
                98.786881026,
                -1.124177752
              ],
              [
                98.787123757,
                -1.124182293
              ],
              [
                98.787348569,
                -1.12419238
              ],
              [
                98.787519475,
                -1.124200048
              ],
              [
                98.787667593,
                -1.124193935
              ],
              [
                98.787762101,
                -1.124190034
              ],
              [
                98.787881055,
                -1.124185125
              ],
              [
                98.787981,
                -1.124181
              ],
              [
                98.788193854,
                -1.124195584
              ],
              [
                98.788301989,
                -1.124202994
              ],
              [
                98.788421961,
                -1.124211214
              ],
              [
                98.788521,
                -1.124218
              ],
              [
                98.788715892,
                -1.124241014
              ],
              [
                98.788882876,
                -1.124260733
              ],
              [
                98.789088903,
                -1.124509089
              ],
              [
                98.789494,
                -1.124843
              ],
              [
                98.789637814,
                -1.124980762
              ],
              [
                98.789991483,
                -1.125319546
              ],
              [
                98.790462132,
                -1.125770389
              ],
              [
                98.790492,
                -1.125799
              ],
              [
                98.791790223,
                -1.126400046
              ],
              [
                98.793088,
                -1.126186
              ],
              [
                98.795269,
                -1.12794
              ]
            ]
          ],
          [
            [
              [
                98.822249171,
                -1.163941677
              ],
              [
                98.821305163,
                -1.163374481
              ],
              [
                98.820958661,
                -1.162769096
              ],
              [
                98.820713472,
                -1.162340717
              ],
              [
                98.820850673,
                -1.161904694
              ],
              [
                98.820704232,
                -1.161608805
              ],
              [
                98.820410283,
                -1.161435413
              ],
              [
                98.820087056,
                -1.161393635
              ],
              [
                98.819910038,
                -1.161374132
              ],
              [
                98.819751204,
                -1.161336747
              ],
              [
                98.819646236,
                -1.161313457
              ],
              [
                98.819518098,
                -1.161283788
              ],
              [
                98.819409796,
                -1.161276507
              ],
              [
                98.819245798,
                -1.16131387
              ],
              [
                98.819213099,
                -1.161113194
              ],
              [
                98.819174537,
                -1.160876533
              ],
              [
                98.819152708,
                -1.160677528
              ],
              [
                98.819114514,
                -1.160566018
              ],
              [
                98.819055304,
                -1.160456425
              ],
              [
                98.818963629,
                -1.160338181
              ],
              [
                98.818880331,
                -1.160276861
              ],
              [
                98.818746853,
                -1.160178601
              ],
              [
                98.818603271,
                -1.160124249
              ],
              [
                98.818508097,
                -1.160088222
              ],
              [
                98.818414405,
                -1.160071486
              ],
              [
                98.818322871,
                -1.160055135
              ],
              [
                98.818166798,
                -1.160026855
              ],
              [
                98.818040141,
                -1.1600036
              ],
              [
                98.817759988,
                -1.159910623
              ],
              [
                98.817728803,
                -1.159899762
              ],
              [
                98.817648351,
                -1.15987187
              ],
              [
                98.817507157,
                -1.15981009
              ],
              [
                98.817451744,
                -1.159785844
              ],
              [
                98.817418495,
                -1.159767932
              ],
              [
                98.817365415,
                -1.159737529
              ],
              [
                98.817320579,
                -1.159711848
              ],
              [
                98.817267839,
                -1.15968164
              ],
              [
                98.817240795,
                -1.159666149
              ],
              [
                98.817158217,
                -1.159598694
              ],
              [
                98.817102764,
                -1.15955345
              ],
              [
                98.817053012,
                -1.159513623
              ],
              [
                98.817018286,
                -1.159485416
              ],
              [
                98.816974465,
                -1.159429346
              ],
              [
                98.816934176,
                -1.159376635
              ],
              [
                98.816894132,
                -1.159326557
              ],
              [
                98.8168329,
                -1.159247274
              ],
              [
                98.816808725,
                -1.159215972
              ],
              [
                98.81678259,
                -1.159182133
              ],
              [
                98.816673674,
                -1.15904006
              ],
              [
                98.816587867,
                -1.158918351
              ],
              [
                98.816526102,
                -1.158828166
              ],
              [
                98.816425658,
                -1.158681506
              ],
              [
                98.816408346,
                -1.158656229
              ],
              [
                98.816297469,
                -1.158494335
              ],
              [
                98.816264117,
                -1.158445636
              ],
              [
                98.816218395,
                -1.158378877
              ],
              [
                98.81605,
                -1.158133
              ],
              [
                98.815932253,
                -1.157857705
              ],
              [
                98.815837,
                -1.157635
              ],
              [
                98.815547023,
                -1.157427563
              ],
              [
                98.815278079,
                -1.157235172
              ],
              [
                98.814917637,
                -1.156977329
              ],
              [
                98.814502,
                -1.15668
              ],
              [
                98.814219684,
                -1.156346409
              ],
              [
                98.8139867,
                -1.15607111
              ],
              [
                98.813875034,
                -1.155939162
              ],
              [
                98.813566,
                -1.155574
              ],
              [
                98.813094269,
                -1.155212681
              ],
              [
                98.813002647,
                -1.155142503
              ],
              [
                98.812672521,
                -1.154889645
              ],
              [
                98.812490662,
                -1.154750352
              ],
              [
                98.812489343,
                -1.154749367
              ],
              [
                98.812361307,
                -1.154653754
              ],
              [
                98.811632418,
                -1.154109446
              ],
              [
                98.811021938,
                -1.153669342
              ],
              [
                98.810868475,
                -1.153558708
              ],
              [
                98.810425,
                -1.153239
              ],
              [
                98.810090607,
                -1.153153458
              ],
              [
                98.809866,
                -1.153096
              ],
              [
                98.809443862,
                -1.153042514
              ],
              [
                98.809224759,
                -1.153014754
              ],
              [
                98.808911,
                -1.152975
              ],
              [
                98.808415051,
                -1.152874505
              ],
              [
                98.807011,
                -1.15259
              ],
              [
                98.806691045,
                -1.15166144
              ],
              [
                98.807228245,
                -1.151080643
              ],
              [
                98.807555296,
                -1.150392462
              ],
              [
                98.807640371,
                -1.149893483
              ],
              [
                98.807742622,
                -1.149293762
              ],
              [
                98.807568101,
                -1.148602673
              ],
              [
                98.8075,
                -1.148333
              ],
              [
                98.807477598,
                -1.147913968
              ],
              [
                98.807458101,
                -1.147549287
              ],
              [
                98.807437833,
                -1.147170174
              ],
              [
                98.807372598,
                -1.146972007
              ],
              [
                98.807168655,
                -1.146352491
              ],
              [
                98.80706012,
                -1.146022792
              ],
              [
                98.807147464,
                -1.145881199
              ],
              [
                98.807220088,
                -1.145763468
              ],
              [
                98.807322363,
                -1.145597669
              ],
              [
                98.807369494,
                -1.145504621
              ],
              [
                98.807550799,
                -1.145146675
              ],
              [
                98.807991939,
                -1.144949365
              ],
              [
                98.808073467,
                -1.1448113
              ],
              [
                98.808202492,
                -1.144592799
              ],
              [
                98.80823368,
                -1.144509357
              ],
              [
                98.808282288,
                -1.144379312
              ],
              [
                98.808497466,
                -1.144181472
              ],
              [
                98.808672,
                -1.144021
              ],
              [
                98.808698701,
                -1.143804146
              ],
              [
                98.808882097,
                -1.143543459
              ],
              [
                98.808934219,
                -1.143472084
              ],
              [
                98.809131458,
                -1.14320199
              ],
              [
                98.80922469,
                -1.143106866
              ],
              [
                98.809394945,
                -1.142933156
              ],
              [
                98.809534357,
                -1.142790914
              ],
              [
                98.810199,
                -1.142301
              ],
              [
                98.810589808,
                -1.141714041
              ],
              [
                98.810956496,
                -1.141339909
              ],
              [
                98.81105048,
                -1.141244016
              ],
              [
                98.811303702,
                -1.140985655
              ],
              [
                98.811535326,
                -1.14074933
              ],
              [
                98.811849555,
                -1.140428723
              ],
              [
                98.81217082,
                -1.140100937
              ],
              [
                98.812242071,
                -1.140012925
              ],
              [
                98.812477263,
                -1.139722411
              ],
              [
                98.812797272,
                -1.139507161
              ],
              [
                98.812901907,
                -1.13943678
              ],
              [
                98.813002375,
                -1.139369201
              ],
              [
                98.813015465,
                -1.139360396
              ],
              [
                98.813067743,
                -1.139316955
              ],
              [
                98.813094255,
                -1.139329299
              ],
              [
                98.813206321,
                -1.139365174
              ],
              [
                98.813312709,
                -1.139374155
              ],
              [
                98.813398418,
                -1.13938139
              ],
              [
                98.813535,
                -1.139307
              ],
              [
                98.813616699,
                -1.139377998
              ],
              [
                98.813810404,
                -1.13938177
              ],
              [
                98.813979216,
                -1.139461147
              ],
              [
                98.814067039,
                -1.139515868
              ],
              [
                98.814174328,
                -1.139577025
              ],
              [
                98.814279652,
                -1.139618863
              ],
              [
                98.814432321,
                -1.139681163
              ],
              [
                98.814560166,
                -1.139734313
              ],
              [
                98.814620444,
                -1.139786072
              ],
              [
                98.814732749,
                -1.139882505
              ],
              [
                98.814827111,
                -1.139948182
              ],
              [
                98.814891586,
                -1.13996557
              ],
              [
                98.815049501,
                -1.140054166
              ],
              [
                98.815140327,
                -1.140142729
              ],
              [
                98.815269888,
                -1.140284586
              ],
              [
                98.815349386,
                -1.140394226
              ],
              [
                98.815433057,
                -1.140531432
              ],
              [
                98.815546901,
                -1.140638897
              ],
              [
                98.815627428,
                -1.140728534
              ],
              [
                98.815726303,
                -1.140857658
              ],
              [
                98.815787049,
                -1.140967794
              ],
              [
                98.815854559,
                -1.141047837
              ],
              [
                98.815968745,
                -1.141146064
              ],
              [
                98.816086175,
                -1.141229309
              ],
              [
                98.816154658,
                -1.141260561
              ],
              [
                98.816290948,
                -1.141323108
              ],
              [
                98.816477515,
                -1.141405545
              ],
              [
                98.816571237,
                -1.141442517
              ],
              [
                98.816644676,
                -1.141467311
              ],
              [
                98.816727977,
                -1.141495435
              ],
              [
                98.816830734,
                -1.14154696
              ],
              [
                98.816919726,
                -1.141577218
              ],
              [
                98.8170656,
                -1.141660642
              ],
              [
                98.817147816,
                -1.141715212
              ],
              [
                98.817227622,
                -1.141768182
              ],
              [
                98.817289732,
                -1.141832272
              ],
              [
                98.817361336,
                -1.141917184
              ],
              [
                98.817427117,
                -1.141991331
              ],
              [
                98.817522947,
                -1.142088757
              ],
              [
                98.817644525,
                -1.142197829
              ],
              [
                98.817732716,
                -1.142272856
              ],
              [
                98.81783968,
                -1.142378902
              ],
              [
                98.817977417,
                -1.142500603
              ],
              [
                98.818053687,
                -1.142568146
              ],
              [
                98.81817854,
                -1.142709628
              ],
              [
                98.818223183,
                -1.142785875
              ],
              [
                98.818286558,
                -1.142873608
              ],
              [
                98.818410812,
                -1.14293268
              ],
              [
                98.818432102,
                -1.143064778
              ],
              [
                98.818552468,
                -1.143273826
              ],
              [
                98.818992013,
                -1.144044371
              ],
              [
                98.819058237,
                -1.144079595
              ],
              [
                98.819139129,
                -1.14412262
              ],
              [
                98.819207838,
                -1.144171239
              ],
              [
                98.819265179,
                -1.144216703
              ],
              [
                98.819306994,
                -1.144274387
              ],
              [
                98.819387864,
                -1.144422876
              ],
              [
                98.819438702,
                -1.144535832
              ],
              [
                98.819496514,
                -1.144711895
              ],
              [
                98.819551532,
                -1.144849835
              ],
              [
                98.819664471,
                -1.14498669
              ],
              [
                98.819702838,
                -1.145033181
              ],
              [
                98.81974609,
                -1.1451
              ],
              [
                98.819773254,
                -1.145162193
              ],
              [
                98.819788881,
                -1.145197973
              ],
              [
                98.819876654,
                -1.145240274
              ],
              [
                98.819920742,
                -1.14527158
              ],
              [
                98.820023993,
                -1.145366868
              ],
              [
                98.820075323,
                -1.145458912
              ],
              [
                98.820134801,
                -1.145565568
              ],
              [
                98.820179226,
                -1.145645231
              ],
              [
                98.820255796,
                -1.145746472
              ],
              [
                98.820372261,
                -1.14590046
              ],
              [
                98.820464501,
                -1.146071461
              ],
              [
                98.820539929,
                -1.146211296
              ],
              [
                98.820602151,
                -1.146326648
              ],
              [
                98.820657916,
                -1.146430029
              ],
              [
                98.820690293,
                -1.146423366
              ],
              [
                98.820750369,
                -1.146411002
              ],
              [
                98.820817256,
                -1.146413181
              ],
              [
                98.82093652,
                -1.146432053
              ],
              [
                98.820964214,
                -1.146437859
              ],
              [
                98.821023619,
                -1.146450313
              ],
              [
                98.821112752,
                -1.146488306
              ],
              [
                98.821232884,
                -1.146541952
              ],
              [
                98.821351677,
                -1.146596546
              ],
              [
                98.821463601,
                -1.146644441
              ],
              [
                98.821604736,
                -1.146702273
              ],
              [
                98.821647465,
                -1.146733706
              ],
              [
                98.82167965,
                -1.146757382
              ],
              [
                98.821830167,
                -1.146857496
              ],
              [
                98.821963901,
                -1.146919951
              ],
              [
                98.822015089,
                -1.146956764
              ],
              [
                98.822146878,
                -1.147054145
              ],
              [
                98.822220546,
                -1.147135815
              ],
              [
                98.82229169,
                -1.147230275
              ],
              [
                98.822353659,
                -1.147323204
              ],
              [
                98.822400407,
                -1.147370867
              ],
              [
                98.822925977,
                -1.147906721
              ],
              [
                98.823497228,
                -1.148489151
              ],
              [
                98.823653236,
                -1.148707087
              ],
              [
                98.824213079,
                -1.149489164
              ],
              [
                98.824368419,
                -1.149706166
              ],
              [
                98.824720876,
                -1.150198532
              ],
              [
                98.824817121,
                -1.150217452
              ],
              [
                98.824897399,
                -1.150233233
              ],
              [
                98.825147543,
                -1.150306684
              ],
              [
                98.825318991,
                -1.150357027
              ],
              [
                98.825428883,
                -1.150389295
              ],
              [
                98.825549092,
                -1.150424592
              ],
              [
                98.8256953,
                -1.150476546
              ],
              [
                98.825938189,
                -1.150562855
              ],
              [
                98.826256977,
                -1.150676134
              ],
              [
                98.82648748,
                -1.150758042
              ],
              [
                98.826616695,
                -1.150803957
              ],
              [
                98.82664117,
                -1.150869252
              ],
              [
                98.826688528,
                -1.150880316
              ],
              [
                98.826743597,
                -1.150915017
              ],
              [
                98.826787351,
                -1.150954329
              ],
              [
                98.826799205,
                -1.150946012
              ],
              [
                98.826817196,
                -1.150933389
              ],
              [
                98.826838458,
                -1.150913782
              ],
              [
                98.826847952,
                -1.150901187
              ],
              [
                98.826853,
                -1.150875
              ],
              [
                98.826868487,
                -1.15083782
              ],
              [
                98.826887,
                -1.150812
              ],
              [
                98.826931573,
                -1.150868625
              ],
              [
                98.82693157,
                -1.150911712
              ],
              [
                98.826917354,
                -1.150968661
              ],
              [
                98.827187214,
                -1.151290199
              ],
              [
                98.82751557,
                -1.151585067
              ],
              [
                98.827727465,
                -1.152308844
              ],
              [
                98.827803525,
                -1.152668697
              ],
              [
                98.828005713,
                -1.153625286
              ],
              [
                98.828125019,
                -1.154189743
              ],
              [
                98.828592645,
                -1.154581346
              ],
              [
                98.828820633,
                -1.155000608
              ],
              [
                98.828836,
                -1.155262
              ],
              [
                98.828792889,
                -1.155276373
              ],
              [
                98.829097678,
                -1.155671173
              ],
              [
                98.829192679,
                -1.15577079
              ],
              [
                98.829383046,
                -1.155970409
              ],
              [
                98.829480131,
                -1.156047197
              ],
              [
                98.829696227,
                -1.156218117
              ],
              [
                98.83036996,
                -1.156772376
              ],
              [
                98.830632335,
                -1.156946982
              ],
              [
                98.830224604,
                -1.157441343
              ],
              [
                98.829870459,
                -1.158017097
              ],
              [
                98.829596953,
                -1.158196612
              ],
              [
                98.829403853,
                -1.158981269
              ],
              [
                98.82922433,
                -1.159666328
              ],
              [
                98.828899911,
                -1.160571896
              ],
              [
                98.828391545,
                -1.161177406
              ],
              [
                98.828194536,
                -1.16115767
              ],
              [
                98.827874797,
                -1.16114104
              ],
              [
                98.827695623,
                -1.161145609
              ],
              [
                98.827352884,
                -1.161165924
              ],
              [
                98.82672029,
                -1.161166806
              ],
              [
                98.825941888,
                -1.161058908
              ],
              [
                98.824910465,
                -1.160861587
              ],
              [
                98.824321136,
                -1.161059855
              ],
              [
                98.82385838,
                -1.16121554
              ],
              [
                98.823604629,
                -1.161590305
              ],
              [
                98.823286909,
                -1.162192424
              ],
              [
                98.822840189,
                -1.162509148
              ],
              [
                98.822534398,
                -1.162955
              ],
              [
                98.822249171,
                -1.163941677
              ]
            ]
          ]
        ]
      }
    }
  ]
}