{
  "type": "FeatureCollection",
  "features": [
    {
      "type": "Feature",
      "properties": {
        "idx": "2846",
        "nama_kewilayahan": "Uma Sakulok Keturunan Latco"
      },
      "geometry": {
        "type": "MultiPolygon",
        "coordinates": [
          [
            [
              [
                99.14372,
                -1.63164
              ],
              [
                99.14337,
                -1.63198
              ],
              [
                99.14321,
                -1.63233
              ],
              [
                99.14303,
                -1.63319
              ],
              [
                99.14252,
                -1.63336
              ],
              [
                99.141988404,
                -1.633887203
              ],
              [
                99.14131,
                -1.63456
              ],
              [
                99.1408,
                -1.63439
              ],
              [
                99.14097,
                -1.63353
              ],
              [
                99.14063,
                -1.63319
              ],
              [
                99.13977,
                -1.63301
              ],
              [
                99.13874,
                -1.6337
              ],
              [
                99.13857,
                -1.63542
              ],
              [
                99.13857,
                -1.63593
              ],
              [
                99.13909,
                -1.63628
              ],
              [
                99.13891,
                -1.63799
              ],
              [
                99.1384,
                -1.63799
              ],
              [
                99.13805,
                -1.63765
              ],
              [
                99.13754,
                -1.63782
              ],
              [
                99.13736,
                -1.63834
              ],
              [
                99.13668,
                -1.63799
              ],
              [
                99.13582,
                -1.63868
              ],
              [
                99.13548,
                -1.63971
              ],
              [
                99.13479,
                -1.64022
              ],
              [
                99.13479,
                -1.64125
              ],
              [
                99.1341,
                -1.6416
              ],
              [
                99.13324,
                -1.64211
              ],
              [
                99.13239,
                -1.64297
              ],
              [
                99.131405807,
                -1.643462097
              ],
              [
                99.13101,
                -1.64366
              ],
              [
                99.13033,
                -1.64434
              ],
              [
                99.12912,
                -1.64434
              ],
              [
                99.12792,
                -1.6452
              ],
              [
                99.12655,
                -1.64555
              ],
              [
                99.125720779,
                -1.646101739
              ],
              [
                99.125060356,
                -1.646541165
              ],
              [
                99.12398,
                -1.64726
              ],
              [
                99.123047778,
                -1.647055513
              ],
              [
                99.12243,
                -1.64692
              ],
              [
                99.121876265,
                -1.647405024
              ],
              [
                99.121515056,
                -1.647721411
              ],
              [
                99.12106,
                -1.64812
              ],
              [
                99.12055,
                -1.64812
              ],
              [
                99.120336588,
                -1.647782271
              ],
              [
                99.119983768,
                -1.647223926
              ],
              [
                99.11949664,
                -1.646453035
              ],
              [
                99.119171242,
                -1.645938083
              ],
              [
                99.118859141,
                -1.645444175
              ],
              [
                99.11849,
                -1.64486
              ],
              [
                99.118064305,
                -1.644263631
              ],
              [
                99.117924937,
                -1.643789331
              ],
              [
                99.118334056,
                -1.643454182
              ],
              [
                99.118714588,
                -1.642391335
              ],
              [
                99.118933368,
                -1.641357222
              ],
              [
                99.11968498,
                -1.640323078
              ],
              [
                99.120893352,
                -1.640093205
              ],
              [
                99.121226417,
                -1.640859184
              ],
              [
                99.121588042,
                -1.641864536
              ],
              [
                99.121835464,
                -1.642458171
              ],
              [
                99.122786941,
                -1.642314487
              ],
              [
                99.12373841,
                -1.642055904
              ],
              [
                99.124071381,
                -1.641261158
              ],
              [
                99.124670774,
                -1.640571722
              ],
              [
                99.125508049,
                -1.640073769
              ],
              [
                99.126221631,
                -1.639575825
              ],
              [
                99.126297714,
                -1.63900132
              ],
              [
                99.126697273,
                -1.637976771
              ],
              [
                99.126839942,
                -1.637124588
              ],
              [
                99.127553534,
                -1.636808568
              ],
              [
                99.128552553,
                -1.636224429
              ],
              [
                99.129323317,
                -1.637201028
              ],
              [
                99.130055999,
                -1.63783293
              ],
              [
                99.130760077,
                -1.637536059
              ],
              [
                99.131264306,
                -1.636655127
              ],
              [
                99.131549709,
                -1.636013584
              ],
              [
                99.131616268,
                -1.635333755
              ],
              [
                99.131540099,
                -1.634558186
              ],
              [
                99.131777936,
                -1.634041121
              ],
              [
                99.13180644,
                -1.63342832
              ],
              [
                99.132091845,
                -1.632825077
              ],
              [
                99.132615148,
                -1.632652692
              ],
              [
                99.133566648,
                -1.632949453
              ],
              [
                99.134413467,
                -1.632968547
              ],
              [
                99.135231717,
                -1.632623792
              ],
              [
                99.136116584,
                -1.632470532
              ],
              [
                99.137115645,
                -1.632575789
              ],
              [
                99.137933895,
                -1.632231033
              ],
              [
                99.13894244,
                -1.631886263
              ],
              [
                99.139617938,
                -1.631120217
              ],
              [
                99.139522677,
                -1.630783902
              ],
              [
                99.139065973,
                -1.630879683
              ],
              [
                99.138419002,
                -1.631387203
              ],
              [
                99.137705391,
                -1.631368102
              ],
              [
                99.136843,
                -1.631645
              ],
              [
                99.137305706,
                -1.630439356
              ],
              [
                99.137847991,
                -1.629577569
              ],
              [
                99.138894596,
                -1.629261523
              ],
              [
                99.139789031,
                -1.629922134
              ],
              [
                99.140464689,
                -1.630172234
              ],
              [
                99.141787228,
                -1.629942342
              ],
              [
                99.142341,
                -1.629211
              ],
              [
                99.14204402,
                -1.628400751
              ],
              [
                99.142015422,
                -1.627634754
              ],
              [
                99.142700431,
                -1.626859131
              ],
              [
                99.143832644,
                -1.626217526
              ],
              [
                99.145088615,
                -1.626514261
              ],
              [
                99.145488279,
                -1.627127031
              ],
              [
                99.145754781,
                -1.628362184
              ],
              [
                99.145726333,
                -1.629693109
              ],
              [
                99.144784,
                -1.631126
              ],
              [
                99.14372,
                -1.63164
              ]
            ]
          ]
        ]
      }
    }
  ]
}