{
  "type": "FeatureCollection",
  "features": [
    {
      "type": "Feature",
      "properties": {
        "idx": "2879",
        "nama_kewilayahan": "Selidung"
      },
      "geometry": {
        "type": "MultiPolygon",
        "coordinates": [
          [
            [
              [
                116.423981385,
                3.883068882
              ],
              [
                116.425525198,
                3.881402195
              ],
              [
                116.425688277,
                3.88144002
              ],
              [
                116.429214948,
                3.882258007
              ],
              [
                116.432282198,
                3.88556882
              ],
              [
                116.43481476,
                3.886370445
              ],
              [
                116.439113261,
                3.887877195
              ],
              [
                116.444381761,
                3.888086007
              ],
              [
                116.450635073,
                3.887838195
              ],
              [
                116.454814761,
                3.890537132
              ],
              [
                116.455904386,
                3.892846507
              ],
              [
                116.462329386,
                3.897267945
              ],
              [
                116.464767511,
                3.89717132
              ],
              [
                116.467420511,
                3.89899707
              ],
              [
                116.471048448,
                3.89885332
              ],
              [
                116.472298448,
                3.89890282
              ],
              [
                116.475919818,
                3.898794929
              ],
              [
                116.478143198,
                3.89890332
              ],
              [
                116.481448823,
                3.898037132
              ],
              [
                116.484814761,
                3.897235507
              ],
              [
                116.488207448,
                3.895540445
              ],
              [
                116.490876761,
                3.889884945
              ],
              [
                116.494825323,
                3.888635007
              ],
              [
                116.498115511,
                3.886370445
              ],
              [
                116.502409948,
                3.884698257
              ],
              [
                116.507135698,
                3.879597632
              ],
              [
                116.513629011,
                3.879854945
              ],
              [
                116.516564386,
                3.878469632
              ],
              [
                116.516320261,
                3.872322945
              ],
              [
                116.518096011,
                3.870677632
              ],
              [
                116.519623511,
                3.867441257
              ],
              [
                116.520615511,
                3.866370445
              ],
              [
                116.524262136,
                3.865216007
              ],
              [
                116.523148073,
                3.860537132
              ],
              [
                116.520791261,
                3.853813507
              ],
              [
                116.523007261,
                3.851421757
              ],
              [
                116.524814761,
                3.850568882
              ],
              [
                116.526937948,
                3.849445007
              ],
              [
                116.529801698,
                3.85141557
              ],
              [
                116.531640073,
                3.849432132
              ],
              [
                116.533981386,
                3.850537132
              ],
              [
                116.536104636,
                3.851660945
              ],
              [
                116.538948823,
                3.849703757
              ],
              [
                116.541481386,
                3.848068882
              ],
              [
                116.543948823,
                3.846370445
              ],
              [
                116.546481386,
                3.84556882
              ],
              [
                116.549663386,
                3.843378757
              ],
              [
                116.556827261,
                3.845646757
              ],
              [
                116.561417136,
                3.850600632
              ],
              [
                116.563148073,
                3.852203757
              ],
              [
                116.564782198,
                3.854735508
              ],
              [
                116.568981386,
                3.855537132
              ],
              [
                116.573292136,
                3.858843132
              ],
              [
                116.577912886,
                3.859026257
              ],
              [
                116.580821386,
                3.857487257
              ],
              [
                116.583008073,
                3.85951282
              ],
              [
                116.584305261,
                3.869008695
              ],
              [
                116.590495073,
                3.867713695
              ],
              [
                116.592218698,
                3.871366632
              ],
              [
                116.595617136,
                3.87150132
              ],
              [
                116.598041448,
                3.868884632
              ],
              [
                116.602314761,
                3.86806882
              ],
              [
                116.603516698,
                3.866771195
              ],
              [
                116.604814761,
                3.86556882
              ],
              [
                116.605615511,
                3.863870445
              ],
              [
                116.606788198,
                3.861655007
              ],
              [
                116.604814761,
                3.859826132
              ],
              [
                116.607282198,
                3.858870445
              ],
              [
                116.613148073,
                3.857235507
              ],
              [
                116.613967573,
                3.853791882
              ],
              [
                116.615648886,
                3.852234382
              ],
              [
                116.615446306,
                3.847808462
              ],
              [
                116.617282198,
                3.843870445
              ],
              [
                116.619013136,
                3.84226732
              ],
              [
                116.620883261,
                3.83830432
              ],
              [
                116.624630011,
                3.836536132
              ],
              [
                116.625615511,
                3.831370445
              ],
              [
                116.627315573,
                3.828900445
              ],
              [
                116.627153573,
                3.82481332
              ],
              [
                116.631780073,
                3.81809007
              ],
              [
                116.633845511,
                3.811567257
              ],
              [
                116.634821261,
                3.80972282
              ],
              [
                116.635233281,
                3.808779968
              ],
              [
                116.635201893,
                3.807979574
              ],
              [
                116.635233281,
                3.807179181
              ],
              [
                116.635013565,
                3.806865301
              ],
              [
                116.634898659,
                3.806757461
              ],
              [
                116.634849782,
                3.806761806
              ],
              [
                116.634687814,
                3.807327695
              ],
              [
                116.634353196,
                3.807921188
              ],
              [
                116.633914303,
                3.808349552
              ],
              [
                116.633332187,
                3.808667215
              ],
              [
                116.63292825,
                3.808987036
              ],
              [
                116.6325292,
                3.809337818
              ],
              [
                116.632142383,
                3.809747285
              ],
              [
                116.631654969,
                3.810074693
              ],
              [
                116.631081249,
                3.810279631
              ],
              [
                116.630465427,
                3.810342065
              ],
              [
                116.629867161,
                3.810283487
              ],
              [
                116.629341736,
                3.810149285
              ],
              [
                116.628613319,
                3.809878349
              ],
              [
                116.628396253,
                3.809751219
              ],
              [
                116.62825596,
                3.809583982
              ],
              [
                116.628061287,
                3.809145406
              ],
              [
                116.627883072,
                3.808739365
              ],
              [
                116.627946022,
                3.808894767
              ],
              [
                116.627731571,
                3.80838673
              ],
              [
                116.627680464,
                3.808129359
              ],
              [
                116.627675599,
                3.807873958
              ],
              [
                116.62770027,
                3.807627256
              ],
              [
                116.627673757,
                3.807422986
              ],
              [
                116.627574549,
                3.807199768
              ],
              [
                116.627461168,
                3.806997809
              ],
              [
                116.627319442,
                3.806820651
              ],
              [
                116.627145828,
                3.806689555
              ],
              [
                116.626943868,
                3.806569088
              ],
              [
                116.626600183,
                3.806319296
              ],
              [
                116.626387594,
                3.806058875
              ],
              [
                116.626217523,
                3.805810855
              ],
              [
                116.626004934,
                3.805548662
              ],
              [
                116.625760457,
                3.805151829
              ],
              [
                116.625427401,
                3.804478631
              ],
              [
                116.625264417,
                3.804140261
              ],
              [
                116.625113833,
                3.803917042
              ],
              [
                116.624946152,
                3.80370655
              ],
              [
                116.624766998,
                3.80354632
              ],
              [
                116.624554886,
                3.803462638
              ],
              [
                116.624388089,
                3.803414982
              ],
              [
                116.624116032,
                3.803359176
              ],
              [
                116.623863964,
                3.803287316
              ],
              [
                116.623648711,
                3.803170064
              ],
              [
                116.623556736,
                3.803122266
              ],
              [
                116.623228453,
                3.802866935
              ],
              [
                116.622848486,
                3.80256678
              ],
              [
                116.622698639,
                3.802374568
              ],
              [
                116.622503138,
                3.802205972
              ],
              [
                116.622378847,
                3.802128986
              ],
              [
                116.622323802,
                3.802120254
              ],
              [
                116.622166032,
                3.802133799
              ],
              [
                116.622089214,
                3.802171317
              ],
              [
                116.621672739,
                3.802613959
              ],
              [
                116.621242125,
                3.80316862
              ],
              [
                116.620976363,
                3.803562514
              ],
              [
                116.620639733,
                3.803936813
              ],
              [
                116.620483896,
                3.804199222
              ],
              [
                116.620368945,
                3.804514173
              ],
              [
                116.620291043,
                3.804853653
              ],
              [
                116.620221367,
                3.805190832
              ],
              [
                116.620125037,
                3.805514142
              ],
              [
                116.619983526,
                3.8058281
              ],
              [
                116.619802032,
                3.806146593
              ],
              [
                116.619204982,
                3.807024083
              ],
              [
                116.619053545,
                3.807194669
              ],
              [
                116.618857209,
                3.807371592
              ],
              [
                116.618471244,
                3.808002585
              ],
              [
                116.618292165,
                3.808363798
              ],
              [
                116.618261396,
                3.808537816
              ],
              [
                116.618292606,
                3.808870963
              ],
              [
                116.618258763,
                3.809251223
              ],
              [
                116.618106674,
                3.809635995
              ],
              [
                116.617956645,
                3.809784129
              ],
              [
                116.617755829,
                3.809872796
              ],
              [
                116.617521759,
                3.809911457
              ],
              [
                116.617003246,
                3.809978997
              ],
              [
                116.616509492,
                3.810158681
              ],
              [
                116.616312641,
                3.810313636
              ],
              [
                116.615911696,
                3.810891495
              ],
              [
                116.615273767,
                3.811291674
              ],
              [
                116.613897906,
                3.811805734
              ],
              [
                116.612193082,
                3.811921409
              ],
              [
                116.611518981,
                3.811920004
              ],
              [
                116.611415165,
                3.81189159
              ],
              [
                116.611321205,
                3.811909092
              ],
              [
                116.6111824,
                3.811949135
              ],
              [
                116.611032407,
                3.811989291
              ],
              [
                116.610878871,
                3.8120448
              ],
              [
                116.610510383,
                3.81213456
              ],
              [
                116.610260001,
                3.812219596
              ],
              [
                116.610120637,
                3.812275105
              ],
              [
                116.608478979,
                3.813503396
              ],
              [
                116.60689224,
                3.814890833
              ],
              [
                116.606737931,
                3.814925257
              ],
              [
                116.606663263,
                3.814925801
              ],
              [
                116.606539803,
                3.814896422
              ],
              [
                116.60613814,
                3.814503154
              ],
              [
                116.605732551,
                3.814025452
              ],
              [
                116.60508069,
                3.813275018
              ],
              [
                116.604296721,
                3.812102778
              ],
              [
                116.603846708,
                3.811041453
              ],
              [
                116.603650467,
                3.810735931
              ],
              [
                116.60336657,
                3.810507618
              ],
              [
                116.602996688,
                3.81042236
              ],
              [
                116.602601262,
                3.810515885
              ],
              [
                116.601328494,
                3.811271699
              ],
              [
                116.60085258,
                3.811444713
              ],
              [
                116.600391249,
                3.811499028
              ],
              [
                116.599974222,
                3.811419558
              ],
              [
                116.599588646,
                3.811237606
              ],
              [
                116.599140309,
                3.811066251
              ],
              [
                116.598582642,
                3.810974337
              ],
              [
                116.597956796,
                3.810976088
              ],
              [
                116.597338677,
                3.81108194
              ],
              [
                116.596803624,
                3.811309586
              ],
              [
                116.596405916,
                3.811650927
              ],
              [
                116.596129299,
                3.812054651
              ],
              [
                116.59583884,
                3.812434622
              ],
              [
                116.595421102,
                3.81270644
              ],
              [
                116.59487825,
                3.812811588
              ],
              [
                116.594246783,
                3.812729429
              ],
              [
                116.593541483,
                3.812468365
              ],
              [
                116.592779799,
                3.812033811
              ],
              [
                116.591999417,
                3.811452446
              ],
              [
                116.591242339,
                3.810798234
              ],
              [
                116.590533512,
                3.810176417
              ],
              [
                116.589868641,
                3.809689638
              ],
              [
                116.589235688,
                3.809403478
              ],
              [
                116.588651092,
                3.809321107
              ],
              [
                116.588138637,
                3.809384745
              ],
              [
                116.587688877,
                3.809510474
              ],
              [
                116.586883339,
                3.809777265
              ],
              [
                116.586090859,
                3.810086665
              ],
              [
                116.585637169,
                3.81023252
              ],
              [
                116.585128677,
                3.810345798
              ],
              [
                116.584582605,
                3.810421636
              ],
              [
                116.584029836,
                3.810463557
              ],
              [
                116.583499204,
                3.810474928
              ],
              [
                116.583006109,
                3.810454314
              ],
              [
                116.582549329,
                3.810401057
              ],
              [
                116.581684748,
                3.810244937
              ],
              [
                116.581229226,
                3.810141657
              ],
              [
                116.580717112,
                3.809964566
              ],
              [
                116.58011224,
                3.809669725
              ],
              [
                116.579374329,
                3.809271356
              ],
              [
                116.57846341,
                3.808877793
              ],
              [
                116.577378339,
                3.808689445
              ],
              [
                116.576232505,
                3.808860709
              ],
              [
                116.575190549,
                3.809351627
              ],
              [
                116.574328762,
                3.809969083
              ],
              [
                116.573052543,
                3.811031587
              ],
              [
                116.572741149,
                3.811250216
              ],
              [
                116.572058475,
                3.811659966
              ],
              [
                116.571798788,
                3.811958442
              ],
              [
                116.571467712,
                3.812256017
              ],
              [
                116.571132448,
                3.812636666
              ],
              [
                116.570751786,
                3.812863015
              ],
              [
                116.570289538,
                3.812944206
              ],
              [
                116.569944444,
                3.812944444
              ],
              [
                116.569793497,
                3.812912318
              ],
              [
                116.569350604,
                3.812767049
              ],
              [
                116.569095497,
                3.81262178
              ],
              [
                116.568893538,
                3.812423363
              ],
              [
                116.568371795,
                3.811764751
              ],
              [
                116.568015157,
                3.811104114
              ],
              [
                116.567655649,
                3.810335499
              ],
              [
                116.567106015,
                3.809511995
              ],
              [
                116.56627494,
                3.808686665
              ],
              [
                116.565162632,
                3.807967213
              ],
              [
                116.563895076,
                3.807429596
              ],
              [
                116.562664685,
                3.807041323
              ],
              [
                116.562104868,
                3.80690314
              ],
              [
                116.561555556,
                3.806833333
              ],
              [
                116.560232387,
                3.806979353
              ],
              [
                116.559687113,
                3.807116615
              ],
              [
                116.559278765,
                3.80721228
              ],
              [
                116.559128624,
                3.807236196
              ],
              [
                116.558974498,
                3.807253469
              ],
              [
                116.558936409,
                3.807257012
              ],
              [
                116.55886156,
                3.807256126
              ],
              [
                116.558833333,
                3.80725
              ],
              [
                116.558777853,
                3.807214273
              ],
              [
                116.558630812,
                3.8070194
              ],
              [
                116.558434171,
                3.806600836
              ],
              [
                116.558308499,
                3.806357263
              ],
              [
                116.558257754,
                3.805824465
              ],
              [
                116.558451081,
                3.80457928
              ],
              [
                116.558384162,
                3.803885971
              ],
              [
                116.558098837,
                3.803221791
              ],
              [
                116.557641694,
                3.802603401
              ],
              [
                116.557187239,
                3.802153334
              ],
              [
                116.556710859,
                3.801740582
              ],
              [
                116.556214462,
                3.801426492
              ],
              [
                116.555655941,
                3.801249749
              ],
              [
                116.555022901,
                3.801207197
              ],
              [
                116.553540697,
                3.801268318
              ],
              [
                116.552739585,
                3.801273605
              ],
              [
                116.551921888,
                3.80120539
              ],
              [
                116.551083699,
                3.80101956
              ],
              [
                116.550232439,
                3.800700088
              ],
              [
                116.5494083,
                3.800264155
              ],
              [
                116.548684052,
                3.799757993
              ],
              [
                116.548119349,
                3.799249707
              ],
              [
                116.547679769,
                3.798826548
              ],
              [
                116.547253107,
                3.798580249
              ],
              [
                116.546813874,
                3.798513788
              ],
              [
                116.546376365,
                3.798486637
              ],
              [
                116.545954892,
                3.798360063
              ],
              [
                116.545598755,
                3.798116409
              ],
              [
                116.545351424,
                3.797793933
              ],
              [
                116.545232916,
                3.797443646
              ],
              [
                116.545108815,
                3.79715911
              ],
              [
                116.544996905,
                3.796952846
              ],
              [
                116.544972222,
                3.796722222
              ],
              [
                116.544958398,
                3.796667358
              ],
              [
                116.545317098,
                3.796560683
              ],
              [
                116.545621919,
                3.796453335
              ],
              [
                116.546047773,
                3.796357169
              ],
              [
                116.5464288,
                3.796258767
              ],
              [
                116.546661898,
                3.796187201
              ],
              [
                116.546948789,
                3.79598816
              ],
              [
                116.547002581,
                3.795791356
              ],
              [
                116.547011547,
                3.795594551
              ],
              [
                116.546966392,
                3.795253417
              ],
              [
                116.546948789,
                3.79512043
              ],
              [
                116.546939824,
                3.794905734
              ],
              [
                116.547002581,
                3.794699983
              ],
              [
                116.547137061,
                3.794556852
              ],
              [
                116.547361195,
                3.794386884
              ],
              [
                116.548239798,
                3.795111484
              ],
              [
                116.548535654,
                3.795281452
              ],
              [
                116.548840475,
                3.79551404
              ],
              [
                116.549037713,
                3.796068671
              ],
              [
                116.549165928,
                3.796431228
              ],
              [
                116.549512876,
                3.796981129
              ],
              [
                116.549826662,
                3.797177933
              ],
              [
                116.550185276,
                3.797240553
              ],
              [
                116.550418375,
                3.797115314
              ],
              [
                116.550525959,
                3.796873781
              ],
              [
                116.550490097,
                3.796596465
              ],
              [
                116.550265964,
                3.796095508
              ],
              [
                116.550113553,
                3.795898704
              ],
              [
                116.549885014,
                3.795659018
              ],
              [
                116.549763905,
                3.795478257
              ],
              [
                116.549674252,
                3.795075702
              ],
              [
                116.549737009,
                3.794565798
              ],
              [
                116.550239068,
                3.794181134
              ],
              [
                116.550785953,
                3.793832252
              ],
              [
                116.551198359,
                3.793769632
              ],
              [
                116.551987308,
                3.793948546
              ],
              [
                116.552381783,
                3.793950782
              ],
              [
                116.553113611,
                3.793561284
              ],
              [
                116.553489029,
                3.793186689
              ],
              [
                116.553878994,
                3.792510525
              ],
              [
                116.553726584,
                3.792072185
              ],
              [
                116.553950717,
                3.791794868
              ],
              [
                116.554398984,
                3.791410203
              ],
              [
                116.554739667,
                3.791213397
              ],
              [
                116.555085954,
                3.790995344
              ],
              [
                116.555197774,
                3.790883769
              ],
              [
                116.55534931,
                3.790920425
              ],
              [
                116.555372794,
                3.790899512
              ],
              [
                116.555412316,
                3.790618599
              ],
              [
                116.555399284,
                3.79046702
              ],
              [
                116.555383232,
                3.790398071
              ],
              [
                116.555380899,
                3.79032767
              ],
              [
                116.555384973,
                3.790256802
              ],
              [
                116.555395738,
                3.79003784
              ],
              [
                116.555410693,
                3.789888397
              ],
              [
                116.555452996,
                3.789672243
              ],
              [
                116.555522553,
                3.789565233
              ],
              [
                116.555606479,
                3.789321085
              ],
              [
                116.55557596,
                3.789046418
              ],
              [
                116.555438626,
                3.788756491
              ],
              [
                116.55529348,
                3.788593571
              ],
              [
                116.555163959,
                3.788420787
              ],
              [
                116.555049515,
                3.788207157
              ],
              [
                116.554973218,
                3.788046934
              ],
              [
                116.554918642,
                3.787985536
              ],
              [
                116.554790107,
                3.787840934
              ],
              [
                116.554706181,
                3.78771886
              ],
              [
                116.554591736,
                3.787566267
              ],
              [
                116.554530699,
                3.787428933
              ],
              [
                116.554462032,
                3.787192414
              ],
              [
                116.554332328,
                3.786933007
              ],
              [
                116.553664734,
                3.786509561
              ],
              [
                116.553584623,
                3.786467598
              ],
              [
                116.553564113,
                3.786369017
              ],
              [
                116.553564765,
                3.785844406
              ],
              [
                116.553567485,
                3.785693983
              ],
              [
                116.553567784,
                3.785542222
              ],
              [
                116.553562537,
                3.785465593
              ],
              [
                116.553550726,
                3.785388853
              ],
              [
                116.553531121,
                3.785312767
              ],
              [
                116.553503931,
                3.785238076
              ],
              [
                116.553470681,
                3.785165012
              ],
              [
                116.553433656,
                3.785093166
              ],
              [
                116.553395339,
                3.785021739
              ],
              [
                116.553358064,
                3.784949901
              ],
              [
                116.553323895,
                3.784877031
              ],
              [
                116.553294566,
                3.784802832
              ],
              [
                116.553271402,
                3.784727366
              ],
              [
                116.55325518,
                3.784651006
              ],
              [
                116.553245957,
                3.784574313
              ],
              [
                116.553242955,
                3.784497813
              ],
              [
                116.55324468,
                3.784421785
              ],
              [
                116.55324945,
                3.784346211
              ],
              [
                116.553256139,
                3.784270914
              ],
              [
                116.553264547,
                3.784195728
              ],
              [
                116.553286213,
                3.784044816
              ],
              [
                116.553295607,
                3.783967839
              ],
              [
                116.553297879,
                3.783888825
              ],
              [
                116.553287692,
                3.783808474
              ],
              [
                116.553261959,
                3.783729342
              ],
              [
                116.553221039,
                3.783654379
              ],
              [
                116.553168324,
                3.78358482
              ],
              [
                116.553108967,
                3.783519179
              ],
              [
                116.553048691,
                3.783453997
              ],
              [
                116.552992988,
                3.783385773
              ],
              [
                116.55294633,
                3.783312815
              ],
              [
                116.552911135,
                3.783235799
              ],
              [
                116.552886884,
                3.783156762
              ],
              [
                116.552856313,
                3.782999007
              ],
              [
                116.552841008,
                3.782921361
              ],
              [
                116.552821877,
                3.78284468
              ],
              [
                116.55277119,
                3.782693993
              ],
              [
                116.55267986,
                3.782468139
              ],
              [
                116.552646025,
                3.782391858
              ],
              [
                116.552597999,
                3.782321648
              ],
              [
                116.552554091,
                3.782247308
              ],
              [
                116.552503277,
                3.782173276
              ],
              [
                116.552437858,
                3.782098581
              ],
              [
                116.552439226,
                3.781873204
              ],
              [
                116.552442568,
                3.781720687
              ],
              [
                116.552437551,
                3.781643331
              ],
              [
                116.552424609,
                3.781565732
              ],
              [
                116.552402816,
                3.781488717
              ],
              [
                116.552371807,
                3.781413308
              ],
              [
                116.552330442,
                3.781334946
              ],
              [
                116.552290178,
                3.781267199
              ],
              [
                116.552244899,
                3.781194555
              ],
              [
                116.552153508,
                3.781046516
              ],
              [
                116.552107016,
                3.780971808
              ],
              [
                116.552058601,
                3.780897876
              ],
              [
                116.552007664,
                3.780825572
              ],
              [
                116.551954862,
                3.780755054
              ],
              [
                116.551902401,
                3.780685339
              ],
              [
                116.551853967,
                3.780614394
              ],
              [
                116.55181412,
                3.780540261
              ],
              [
                116.551787037,
                3.780462629
              ],
              [
                116.551774622,
                3.780383347
              ],
              [
                116.551774461,
                3.780304854
              ],
              [
                116.551782063,
                3.780227994
              ],
              [
                116.55179078,
                3.78015196
              ],
              [
                116.551783242,
                3.780076224
              ],
              [
                116.551780401,
                3.780001007
              ],
              [
                116.55177206,
                3.779925941
              ],
              [
                116.551762105,
                3.779850974
              ],
              [
                116.551687022,
                3.779776054
              ],
              [
                116.551611938,
                3.779701133
              ],
              [
                116.551536854,
                3.779626213
              ],
              [
                116.551432574,
                3.779521922
              ],
              [
                116.551359009,
                3.779448357
              ],
              [
                116.550863859,
                3.778952531
              ],
              [
                116.550792039,
                3.778877591
              ],
              [
                116.55065275,
                3.778731033
              ],
              [
                116.550611893,
                3.778691562
              ],
              [
                116.550517576,
                3.778644494
              ],
              [
                116.550469813,
                3.778603151
              ],
              [
                116.550317431,
                3.77851543
              ],
              [
                116.550182632,
                3.778462797
              ],
              [
                116.549829516,
                3.778249341
              ],
              [
                116.549353321,
                3.777997872
              ],
              [
                116.549118887,
                3.77791015
              ],
              [
                116.54899874,
                3.777837049
              ],
              [
                116.548790248,
                3.777603361
              ],
              [
                116.548683671,
                3.777596625
              ],
              [
                116.548534187,
                3.777566212
              ],
              [
                116.548385593,
                3.777531073
              ],
              [
                116.548158786,
                3.777510354
              ],
              [
                116.547857261,
                3.777531655
              ],
              [
                116.547442377,
                3.777575377
              ],
              [
                116.547298188,
                3.777575377
              ],
              [
                116.547106157,
                3.777604122
              ],
              [
                116.546950213,
                3.777678282
              ],
              [
                116.546660261,
                3.777684998
              ],
              [
                116.546460992,
                3.777673301
              ],
              [
                116.546431166,
                3.777678282
              ],
              [
                116.546280999,
                3.777678282
              ],
              [
                116.546052417,
                3.777663244
              ],
              [
                116.54597318,
                3.777661136
              ],
              [
                116.545756145,
                3.777567348
              ],
              [
                116.54561605,
                3.777502838
              ],
              [
                116.545480013,
                3.777438327
              ],
              [
                116.545313634,
                3.777276835
              ],
              [
                116.545209869,
                3.777141068
              ],
              [
                116.545016235,
                3.77694937
              ],
              [
                116.544823357,
                3.776767439
              ],
              [
                116.544779326,
                3.776704315
              ],
              [
                116.543848196,
                3.776020692
              ],
              [
                116.543431274,
                3.775300759
              ],
              [
                116.542803515,
                3.774233568
              ],
              [
                116.542426859,
                3.773699972
              ],
              [
                116.542050203,
                3.77326054
              ],
              [
                116.541830487,
                3.773009437
              ],
              [
                116.54070052,
                3.772193349
              ],
              [
                116.539696104,
                3.771910857
              ],
              [
                116.538880017,
                3.771848081
              ],
              [
                116.538126705,
                3.771848081
              ],
              [
                116.537436169,
                3.771879469
              ],
              [
                116.536086486,
                3.771628365
              ],
              [
                116.534768191,
                3.771377261
              ],
              [
                116.533889327,
                3.771628365
              ],
              [
                116.533638223,
                3.772099185
              ],
              [
                116.533041852,
                3.773072213
              ],
              [
                116.532633808,
                3.773386092
              ],
              [
                116.532068824,
                3.773386092
              ],
              [
                116.531535228,
                3.773386092
              ],
              [
                116.530248321,
                3.773543032
              ],
              [
                116.529714725,
                3.773637196
              ],
              [
                116.528773086,
                3.773637196
              ],
              [
                116.52792561,
                3.773480256
              ],
              [
                116.527266463,
                3.772821109
              ],
              [
                116.526701479,
                3.771816693
              ],
              [
                116.526450375,
                3.771000606
              ],
              [
                116.526105107,
                3.770215906
              ],
              [
                116.525320408,
                3.76968231
              ],
              [
                116.524755424,
                3.76952537
              ],
              [
                116.523970724,
                3.769337042
              ],
              [
                116.523186025,
                3.769054551
              ],
              [
                116.522369937,
                3.768552343
              ],
              [
                116.521616625,
                3.767861807
              ],
              [
                116.52108303,
                3.767077108
              ],
              [
                116.520831926,
                3.76594714
              ],
              [
                116.520643598,
                3.765256605
              ],
              [
                116.519686264,
                3.76331055
              ],
              [
                116.519560713,
                3.762400298
              ],
              [
                116.519497937,
                3.761646986
              ],
              [
                116.519435161,
                3.760862287
              ],
              [
                116.519403773,
                3.760014811
              ],
              [
                116.519372385,
                3.759449827
              ],
              [
                116.519340997,
                3.758696516
              ],
              [
                116.519466549,
                3.7576921
              ],
              [
                116.519309609,
                3.755667575
              ],
              [
                116.519717652,
                3.754600384
              ],
              [
                116.52006292,
                3.75387846
              ],
              [
                116.520188472,
                3.753376253
              ],
              [
                116.52021986,
                3.752936821
              ],
              [
                116.520125696,
                3.752340449
              ],
              [
                116.520000144,
                3.751838241
              ],
              [
                116.520000144,
                3.751116318
              ],
              [
                116.520251248,
                3.75045717
              ],
              [
                116.520565128,
                3.748668055
              ],
              [
                116.520565128,
                3.748197235
              ],
              [
                116.520439576,
                3.747726415
              ],
              [
                116.52006292,
                3.747098656
              ],
              [
                116.519560713,
                3.746596448
              ],
              [
                116.518791707,
                3.746109934
              ],
              [
                116.518060841,
                3.74506236
              ],
              [
                116.517746442,
                3.74472438
              ],
              [
                116.517201702,
                3.744535817
              ],
              [
                116.516775491,
                3.744626888
              ],
              [
                116.516217892,
                3.744948579
              ],
              [
                116.515213477,
                3.745450787
              ],
              [
                116.514303225,
                3.745764666
              ],
              [
                116.513581302,
                3.746109934
              ],
              [
                116.512482722,
                3.746737694
              ],
              [
                116.510568055,
                3.747365454
              ],
              [
                116.509312536,
                3.74727129
              ],
              [
                116.508590612,
                3.74695741
              ],
              [
                116.50815118,
                3.746847552
              ],
              [
                116.507209541,
                3.74664353
              ],
              [
                116.505979756,
                3.746119733
              ],
              [
                116.50512992,
                3.746156682
              ],
              [
                116.504949606,
                3.746266874
              ],
              [
                116.503976578,
                3.74680047
              ],
              [
                116.503066327,
                3.747020186
              ],
              [
                116.502501343,
                3.746706306
              ],
              [
                116.502156075,
                3.746204098
              ],
              [
                116.501904972,
                3.745639115
              ],
              [
                116.501748032,
                3.744979967
              ],
              [
                116.501057496,
                3.744006939
              ],
              [
                116.500084468,
                3.743504732
              ],
              [
                116.498923113,
                3.74337918
              ],
              [
                116.498389517,
                3.743410568
              ],
              [
                116.497133998,
                3.743693059
              ],
              [
                116.49616097,
                3.743912775
              ],
              [
                116.494622959,
                3.744414983
              ],
              [
                116.494152139,
                3.744571923
              ],
              [
                116.493430216,
                3.744760251
              ],
              [
                116.492676904,
                3.744885803
              ],
              [
                116.491954981,
                3.745105519
              ],
              [
                116.491766653,
                3.745168295
              ],
              [
                116.490887789,
                3.745450787
              ],
              [
                116.490511133,
                3.745576339
              ],
              [
                116.48963227,
                3.745544951
              ],
              [
                116.488596466,
                3.745262459
              ],
              [
                116.488506487,
                3.745262459
              ],
              [
                116.488470914,
                3.745246765
              ],
              [
                116.488251198,
                3.745909836
              ],
              [
                116.488251198,
                3.747196743
              ],
              [
                116.487874543,
                3.748169771
              ],
              [
                116.487592051,
                3.748985858
              ],
              [
                116.487372335,
                3.749676394
              ],
              [
                116.487184007,
                3.750335542
              ],
              [
                116.487027067,
                3.750994689
              ],
              [
                116.486870127,
                3.751528285
              ],
              [
                116.485567526,
                3.753646974
              ],
              [
                116.485222258,
                3.754651389
              ],
              [
                116.48503393,
                3.755279149
              ],
              [
                116.48456311,
                3.756283565
              ],
              [
                116.484060903,
                3.756597444
              ],
              [
                116.483747023,
                3.75666022
              ],
              [
                116.483150651,
                3.756409117
              ],
              [
                116.482303175,
                3.756095237
              ],
              [
                116.4814557,
                3.755781357
              ],
              [
                116.480545448,
                3.755687193
              ],
              [
                116.480043241,
                3.756001073
              ],
              [
                116.479760749,
                3.756534668
              ],
              [
                116.479321317,
                3.757256592
              ],
              [
                116.479038825,
                3.757821576
              ],
              [
                116.478819109,
                3.758323784
              ],
              [
                116.478693557,
                3.758920155
              ],
              [
                116.478662169,
                3.759296811
              ],
              [
                116.478426759,
                3.76013644
              ],
              [
                116.478395371,
                3.760481707
              ],
              [
                116.478238432,
                3.761140855
              ],
              [
                116.477767612,
                3.761862779
              ],
              [
                116.47748512,
                3.762396374
              ],
              [
                116.47717124,
                3.76292997
              ],
              [
                116.47685736,
                3.763306626
              ],
              [
                116.476449316,
                3.76371467
              ],
              [
                116.476104049,
                3.764091326
              ],
              [
                116.475978497,
                3.764311042
              ],
              [
                116.475821557,
                3.764656309
              ],
              [
                116.475758781,
                3.765001577
              ],
              [
                116.475758781,
                3.765064353
              ],
              [
                116.475696005,
                3.766312026
              ],
              [
                116.475758781,
                3.767410605
              ],
              [
                116.475664617,
                3.768195305
              ],
              [
                116.475758781,
                3.769388048
              ],
              [
                116.476072661,
                3.770361075
              ],
              [
                116.476323765,
                3.771208551
              ],
              [
                116.477594978,
                3.772895655
              ],
              [
                116.478128574,
                3.773868683
              ],
              [
                116.478599393,
                3.775030038
              ],
              [
                116.478819109,
                3.77578335
              ],
              [
                116.479007437,
                3.776787765
              ],
              [
                116.479007437,
                3.778168836
              ],
              [
                116.478913273,
                3.7798324
              ],
              [
                116.478505229,
                3.780962367
              ],
              [
                116.477312486,
                3.781935395
              ],
              [
                116.476496398,
                3.782688706
              ],
              [
                116.475994191,
                3.783740204
              ],
              [
                116.475711699,
                3.785372379
              ],
              [
                116.475554759,
                3.786659286
              ],
              [
                116.475272267,
                3.788322849
              ],
              [
                116.474801447,
                3.789264489
              ],
              [
                116.474267852,
                3.790394456
              ],
              [
                116.473561622,
                3.79150873
              ],
              [
                116.472902474,
                3.792356205
              ],
              [
                116.472368879,
                3.793768665
              ],
              [
                116.471709731,
                3.795495004
              ],
              [
                116.471207523,
                3.796311091
              ],
              [
                116.470234496,
                3.796781911
              ],
              [
                116.469638124,
                3.796844687
              ],
              [
                116.468869118,
                3.796781911
              ],
              [
                116.468217818,
                3.796703441
              ],
              [
                116.467919632,
                3.796828993
              ],
              [
                116.467864703,
                3.796978086
              ],
              [
                116.467739151,
                3.797284119
              ],
              [
                116.467417424,
                3.798751507
              ],
              [
                116.4674802,
                3.800352294
              ],
              [
                116.4674802,
                3.800980054
              ],
              [
                116.467386036,
                3.801450874
              ],
              [
                116.466789664,
                3.801796141
              ],
              [
                116.466381621,
                3.802392513
              ],
              [
                116.466193293,
                3.803365541
              ],
              [
                116.466350233,
                3.804181628
              ],
              [
                116.466475785,
                3.805217432
              ],
              [
                116.466726888,
                3.806504339
              ],
              [
                116.46700938,
                3.80772847
              ],
              [
                116.466758276,
                3.808575946
              ],
              [
                116.466114823,
                3.809282176
              ],
              [
                116.465110407,
                3.809941323
              ],
              [
                116.464325708,
                3.810788799
              ],
              [
                116.463572396,
                3.812044318
              ],
              [
                116.462599368,
                3.813362614
              ],
              [
                116.461908833,
                3.813896209
              ],
              [
                116.460496374,
                3.814178701
              ],
              [
                116.459366406,
                3.814461193
              ],
              [
                116.458205051,
                3.814712297
              ],
              [
                116.457451739,
                3.815434221
              ],
              [
                116.456698427,
                3.81606198
              ],
              [
                116.455835258,
                3.817019314
              ],
              [
                116.454956394,
                3.818306221
              ],
              [
                116.454736678,
                3.819969784
              ],
              [
                116.454203083,
                3.821350856
              ],
              [
                116.454328635,
                3.822606375
              ],
              [
                116.454250165,
                3.823477391
              ],
              [
                116.452963257,
                3.824827075
              ],
              [
                116.452366886,
                3.825768714
              ],
              [
                116.451958842,
                3.827055622
              ],
              [
                116.45167635,
                3.828436693
              ],
              [
                116.45120553,
                3.829849152
              ],
              [
                116.45089165,
                3.830445524
              ],
              [
                116.450106951,
                3.831387163
              ],
              [
                116.449118229,
                3.832132628
              ],
              [
                116.44801965,
                3.833733415
              ],
              [
                116.447203562,
                3.835083099
              ],
              [
                116.446261923,
                3.836338618
              ],
              [
                116.445649857,
                3.837523514
              ],
              [
                116.44451989,
                3.83837099
              ],
              [
                116.443232982,
                3.839500957
              ],
              [
                116.442448283,
                3.840819253
              ],
              [
                116.441977463,
                3.841855056
              ],
              [
                116.440690556,
                3.842985024
              ],
              [
                116.439623364,
                3.843926663
              ],
              [
                116.438210905,
                3.844679975
              ],
              [
                116.437206489,
                3.844993855
              ],
              [
                116.436327626,
                3.845935494
              ],
              [
                116.435888194,
                3.847159625
              ],
              [
                116.435856806,
                3.848132653
              ],
              [
                116.436233462,
                3.848838883
              ],
              [
                116.436170686,
                3.850408282
              ],
              [
                116.435605702,
                3.852260173
              ],
              [
                116.434224631,
                3.853641244
              ],
              [
                116.433031888,
                3.854614272
              ],
              [
                116.431964696,
                3.855085091
              ],
              [
                116.431619428,
                3.855932567
              ],
              [
                116.431996084,
                3.857243015
              ],
              [
                116.432027472,
                3.858937966
              ],
              [
                116.431776368,
                3.860821245
              ],
              [
                116.431525264,
                3.861825661
              ],
              [
                116.431148608,
                3.863112568
              ],
              [
                116.431054445,
                3.86417976
              ],
              [
                116.429987253,
                3.867616744
              ],
              [
                116.429547821,
                3.869625575
              ],
              [
                116.429390881,
                3.87125775
              ],
              [
                116.428731734,
                3.872293554
              ],
              [
                116.428041198,
                3.873141029
              ],
              [
                116.42738205,
                3.874647652
              ],
              [
                116.425419945,
                3.875866377
              ],
              [
                116.423588002,
                3.877646225
              ],
              [
                116.422000353,
                3.878852573
              ],
              [
                116.421425925,
                3.87985985
              ],
              [
                116.421289844,
                3.880828777
              ],
              [
                116.421957846,
                3.882573951
              ],
              [
                116.422304407,
                3.883169375
              ],
              [
                116.423981385,
                3.883068882
              ]
            ]
          ]
        ]
      }
    }
  ]
}