{
  "type": "FeatureCollection",
  "features": [
    {
      "type": "Feature",
      "properties": {
        "idx": "2897",
        "nama_kewilayahan": "Dayak Simpakng Banua Sajatn Desa Semandang Kiri"
      },
      "geometry": {
        "type": "Polygon",
        "coordinates": [
          [
            [
              110.449235555,
              -0.591431366
            ],
            [
              110.445685867,
              -0.590435854
            ],
            [
              110.441965087,
              -0.592905275
            ],
            [
              110.439035313,
              -0.593683008
            ],
            [
              110.430362847,
              -0.595808126
            ],
            [
              110.425123622,
              -0.595156205
            ],
            [
              110.421465717,
              -0.597924153
            ],
            [
              110.417610527,
              -0.596648139
            ],
            [
              110.410789226,
              -0.599940452
            ],
            [
              110.39190621,
              -0.616638747
            ],
            [
              110.353913732,
              -0.661469804
            ],
            [
              110.317081791,
              -0.692250603
            ],
            [
              110.305083233,
              -0.700806961
            ],
            [
              110.332107415,
              -0.694080187
            ],
            [
              110.387029888,
              -0.663002938
            ],
            [
              110.391298688,
              -0.662551129
            ],
            [
              110.414330848,
              -0.67222498
            ],
            [
              110.422158627,
              -0.670588441
            ],
            [
              110.434830682,
              -0.666093642
            ],
            [
              110.442694747,
              -0.661516827
            ],
            [
              110.452895387,
              -0.657084995
            ],
            [
              110.458593797,
              -0.650562809
            ],
            [
              110.460993365,
              -0.650002159
            ],
            [
              110.463295596,
              -0.634866938
            ],
            [
              110.472631322,
              -0.651134261
            ],
            [
              110.472622136,
              -0.653052206
            ],
            [
              110.470599752,
              -0.656118896
            ],
            [
              110.483586377,
              -0.651488233
            ],
            [
              110.490264503,
              -0.643337623
            ],
            [
              110.495827701,
              -0.640560766
            ],
            [
              110.485537922,
              -0.637782327
            ],
            [
              110.483884877,
              -0.632227343
            ],
            [
              110.48385015,
              -0.619742572
            ],
            [
              110.476104232,
              -0.611671952
            ],
            [
              110.474702603,
              -0.6083335
            ],
            [
              110.463316522,
              -0.605564019
            ],
            [
              110.460117286,
              -0.604740432
            ],
            [
              110.457349887,
              -0.599194407
            ],
            [
              110.452272721,
              -0.595240409
            ],
            [
              110.449235555,
              -0.591431366
            ]
          ]
        ]
      }
    }
  ]
}