{
  "type": "FeatureCollection",
  "features": [
    {
      "type": "Feature",
      "properties": {
        "idx": "2914",
        "nama_kewilayahan": "Kampung Senimburu"
      },
      "geometry": {
        "type": "MultiPolygon",
        "coordinates": [
          [
            [
              [
                139.976967512,
                -5.320849029
              ],
              [
                139.97693183,
                -5.32087238
              ],
              [
                139.976772408,
                -5.320859009
              ],
              [
                139.97665423,
                -5.320857871
              ],
              [
                139.976595144,
                -5.320857303
              ],
              [
                139.976565599,
                -5.320857019
              ],
              [
                139.976376579,
                -5.320849279
              ],
              [
                139.976205279,
                -5.320841714
              ],
              [
                139.976039947,
                -5.320828277
              ],
              [
                139.975850927,
                -5.320820538
              ],
              [
                139.975721048,
                -5.32080745
              ],
              [
                139.97562656,
                -5.320800618
              ],
              [
                139.975449699,
                -5.320757459
              ],
              [
                139.975267037,
                -5.320702397
              ],
              [
                139.975149484,
                -5.320636109
              ],
              [
                139.974978973,
                -5.320545628
              ],
              [
                139.974755119,
                -5.320472397
              ],
              [
                139.974384737,
                -5.320273376
              ],
              [
                139.974297012,
                -5.320177768
              ],
              [
                139.974156107,
                -5.320081638
              ],
              [
                139.974091677,
                -5.320021789
              ],
              [
                139.974003787,
                -5.319943945
              ],
              [
                139.973833284,
                -5.319853463
              ],
              [
                139.973709592,
                -5.319810808
              ],
              [
                139.973568121,
                -5.319773913
              ],
              [
                139.973083214,
                -5.319810714
              ],
              [
                139.972858337,
                -5.319844097
              ],
              [
                139.972751754,
                -5.319866767
              ],
              [
                139.972638298,
                -5.319990062
              ],
              [
                139.972567295,
                -5.320198857
              ],
              [
                139.972453491,
                -5.320330817
              ],
              [
                139.972281404,
                -5.320450785
              ],
              [
                139.972398596,
                -5.320517108
              ],
              [
                139.972462984,
                -5.320559195
              ],
              [
                139.972462465,
                -5.320606472
              ],
              [
                139.972450012,
                -5.320665443
              ],
              [
                139.972426105,
                -5.320694727
              ],
              [
                139.97237258,
                -5.320735495
              ],
              [
                139.972325157,
                -5.320758608
              ],
              [
                139.972200884,
                -5.320798597
              ],
              [
                139.972135637,
                -5.32083333
              ],
              [
                139.972047003,
                -5.320850068
              ],
              [
                139.971975536,
                -5.320914288
              ],
              [
                139.971974349,
                -5.321020656
              ],
              [
                139.97197972,
                -5.321067998
              ],
              [
                139.971979126,
                -5.32112119
              ],
              [
                139.971989605,
                -5.32123951
              ],
              [
                139.97198915,
                -5.321280881
              ],
              [
                139.971988428,
                -5.321345877
              ],
              [
                139.972004936,
                -5.321452448
              ],
              [
                139.972004342,
                -5.321505641
              ],
              [
                139.972009321,
                -5.321588439
              ],
              [
                139.972032051,
                -5.321665523
              ],
              [
                139.972090482,
                -5.321713459
              ],
              [
                139.97213765,
                -5.321713981
              ],
              [
                139.972184808,
                -5.321714513
              ],
              [
                139.972220191,
                -5.321714905
              ],
              [
                139.972249662,
                -5.321715235
              ],
              [
                139.972308752,
                -5.321704073
              ],
              [
                139.972409243,
                -5.321681556
              ],
              [
                139.972457069,
                -5.321622987
              ],
              [
                139.9725286,
                -5.321552862
              ],
              [
                139.972611671,
                -5.321506509
              ],
              [
                139.97271812,
                -5.32147814
              ],
              [
                139.972747599,
                -5.321478469
              ],
              [
                139.972830076,
                -5.3214853
              ],
              [
                139.972882808,
                -5.321515445
              ],
              [
                139.972900166,
                -5.321545186
              ],
              [
                139.972923224,
                -5.32159273
              ],
              [
                139.972928597,
                -5.321640072
              ],
              [
                139.972928139,
                -5.321681434
              ],
              [
                139.972968228,
                -5.321788269
              ],
              [
                139.972967304,
                -5.321871004
              ],
              [
                139.972966849,
                -5.321912365
              ],
              [
                139.972935659,
                -5.322065692
              ],
              [
                139.972923217,
                -5.322124654
              ],
              [
                139.972911095,
                -5.322154067
              ],
              [
                139.972869362,
                -5.322194972
              ],
              [
                139.972857505,
                -5.32220075
              ],
              [
                139.972821867,
                -5.322223999
              ],
              [
                139.972662094,
                -5.322275408
              ],
              [
                139.97262672,
                -5.322275013
              ],
              [
                139.972603131,
                -5.322274748
              ],
              [
                139.972467339,
                -5.322290966
              ],
              [
                139.972426129,
                -5.322284593
              ],
              [
                139.972314372,
                -5.322259705
              ],
              [
                139.972279529,
                -5.322212033
              ],
              [
                139.972221289,
                -5.322146367
              ],
              [
                139.972162592,
                -5.322122074
              ],
              [
                139.972097875,
                -5.32210953
              ],
              [
                139.972039242,
                -5.32207933
              ],
              [
                139.972015727,
                -5.322073149
              ],
              [
                139.97200374,
                -5.322090749
              ],
              [
                139.97197341,
                -5.322167246
              ],
              [
                139.971966723,
                -5.322238095
              ],
              [
                139.971965736,
                -5.322326734
              ],
              [
                139.971965015,
                -5.322391741
              ],
              [
                139.971964229,
                -5.322462653
              ],
              [
                139.971963308,
                -5.322545387
              ],
              [
                139.971962522,
                -5.322616308
              ],
              [
                139.971961271,
                -5.322728591
              ],
              [
                139.971959827,
                -5.322858595
              ],
              [
                139.971952226,
                -5.323012177
              ],
              [
                139.971950391,
                -5.323177644
              ],
              [
                139.971908531,
                -5.32323037
              ],
              [
                139.971837318,
                -5.323270955
              ],
              [
                139.97174292,
                -5.323275807
              ],
              [
                139.971666537,
                -5.323251313
              ],
              [
                139.971578496,
                -5.323214868
              ],
              [
                139.971472695,
                -5.323184137
              ],
              [
                139.971384527,
                -5.323159513
              ],
              [
                139.971325831,
                -5.323135212
              ],
              [
                139.97123176,
                -5.323110523
              ],
              [
                139.971096032,
                -5.323120826
              ],
              [
                139.971013025,
                -5.323161273
              ],
              [
                139.970905718,
                -5.323266459
              ],
              [
                139.970869294,
                -5.323360622
              ],
              [
                139.970844664,
                -5.323454911
              ],
              [
                139.97082579,
                -5.323561088
              ],
              [
                139.970806796,
                -5.323679075
              ],
              [
                139.97080614,
                -5.323738175
              ],
              [
                139.970787794,
                -5.323797074
              ],
              [
                139.970679893,
                -5.323955445
              ],
              [
                139.970565771,
                -5.324143301
              ],
              [
                139.970481457,
                -5.324301938
              ],
              [
                139.970374158,
                -5.324407124
              ],
              [
                139.970308647,
                -5.324465492
              ],
              [
                139.970213589,
                -5.324529444
              ],
              [
                139.970059836,
                -5.324569102
              ],
              [
                139.969977167,
                -5.32458
              ],
              [
                139.969900455,
                -5.324585054
              ],
              [
                139.969682578,
                -5.324558984
              ],
              [
                139.969582479,
                -5.324546045
              ],
              [
                139.969436004,
                -5.324461664
              ],
              [
                139.969301191,
                -5.324389231
              ],
              [
                139.969231294,
                -5.324311624
              ],
              [
                139.969143583,
                -5.32424563
              ],
              [
                139.968973723,
                -5.324143254
              ],
              [
                139.968885546,
                -5.32411863
              ],
              [
                139.968826584,
                -5.324117971
              ],
              [
                139.968684889,
                -5.324134123
              ],
              [
                139.96855499,
                -5.324150404
              ],
              [
                139.968519414,
                -5.324167738
              ],
              [
                139.968395545,
                -5.324172261
              ],
              [
                139.968117848,
                -5.324222349
              ],
              [
                139.968028882,
                -5.324268645
              ],
              [
                139.967998818,
                -5.3243215
              ],
              [
                139.967950992,
                -5.324380069
              ],
              [
                139.967874088,
                -5.324402851
              ],
              [
                139.967809098,
                -5.324413949
              ],
              [
                139.967714507,
                -5.324436529
              ],
              [
                139.96761277,
                -5.324571329
              ],
              [
                139.967612241,
                -5.324618607
              ],
              [
                139.967599002,
                -5.324748481
              ],
              [
                139.967592516,
                -5.324801602
              ],
              [
                139.967562056,
                -5.324889921
              ],
              [
                139.967513637,
                -5.325001673
              ],
              [
                139.967417465,
                -5.325166087
              ],
              [
                139.965617071,
                -5.324871673
              ],
              [
                139.958014517,
                -5.323651511
              ],
              [
                139.954823321,
                -5.322994501
              ],
              [
                139.952664571,
                -5.32158662
              ],
              [
                139.948910223,
                -5.320835751
              ],
              [
                139.94478044,
                -5.320178741
              ],
              [
                139.942809408,
                -5.320741893
              ],
              [
                139.937705841,
                -5.318770861
              ],
              [
                139.93453811,
                -5.31740991
              ],
              [
                139.931910066,
                -5.315743918
              ],
              [
                139.929693586,
                -5.31447316
              ],
              [
                139.929361163,
                -5.314730565
              ],
              [
                139.928356363,
                -5.314976965
              ],
              [
                139.928025552,
                -5.314853429
              ],
              [
                139.927669763,
                -5.314720565
              ],
              [
                139.927369263,
                -5.313887365
              ],
              [
                139.927172035,
                -5.313571108
              ],
              [
                139.925906014,
                -5.31154102
              ],
              [
                139.925289963,
                -5.310553165
              ],
              [
                139.925115186,
                -5.310441903
              ],
              [
                139.923517654,
                -5.309424916
              ],
              [
                139.923228401,
                -5.309354516
              ],
              [
                139.920877063,
                -5.309470065
              ],
              [
                139.918499976,
                -5.310829312
              ],
              [
                139.917738263,
                -5.311264866
              ],
              [
                139.917226907,
                -5.311926783
              ],
              [
                139.917045195,
                -5.31208343
              ],
              [
                139.917022331,
                -5.312191592
              ],
              [
                139.916805963,
                -5.312471666
              ],
              [
                139.916661963,
                -5.313118166
              ],
              [
                139.916744395,
                -5.313506448
              ],
              [
                139.916899163,
                -5.314235466
              ],
              [
                139.917006584,
                -5.3145597
              ],
              [
                139.917498763,
                -5.316045266
              ],
              [
                139.918328763,
                -5.317236965
              ],
              [
                139.918872063,
                -5.317498065
              ],
              [
                139.919944763,
                -5.317639165
              ],
              [
                139.920822601,
                -5.317538424
              ],
              [
                139.922476963,
                -5.317348565
              ],
              [
                139.922906063,
                -5.317882665
              ],
              [
                139.9228716,
                -5.31847884
              ],
              [
                139.922865051,
                -5.318592126
              ],
              [
                139.922813919,
                -5.319476623
              ],
              [
                139.922803864,
                -5.319650565
              ],
              [
                139.922176564,
                -5.320147365
              ],
              [
                139.920286564,
                -5.320981065
              ],
              [
                139.91792447,
                -5.320942185
              ],
              [
                139.913947858,
                -5.318012172
              ],
              [
                139.912133256,
                -5.313882389
              ],
              [
                139.907596752,
                -5.307468712
              ],
              [
                139.904593273,
                -5.303964654
              ],
              [
                139.902090375,
                -5.300836031
              ],
              [
                139.899837766,
                -5.297832553
              ],
              [
                139.897334867,
                -5.295830235
              ],
              [
                139.894206243,
                -5.291074728
              ],
              [
                139.891734131,
                -5.288170249
              ],
              [
                139.891060244,
                -5.287378495
              ],
              [
                139.884929874,
                -5.27742611
              ],
              [
                139.885462055,
                -5.270330436
              ],
              [
                139.885680743,
                -5.267414515
              ],
              [
                139.889935669,
                -5.258904659
              ],
              [
                139.894856779,
                -5.254696098
              ],
              [
                139.918250653,
                -5.244687037
              ],
              [
                139.920882742,
                -5.242014086
              ],
              [
                139.923474509,
                -5.239382047
              ],
              [
                139.928730596,
                -5.247641612
              ],
              [
                139.930936276,
                -5.252866413
              ],
              [
                139.938381263,
                -5.26123782
              ],
              [
                139.946291708,
                -5.268040747
              ],
              [
                139.949707582,
                -5.276096749
              ],
              [
                139.95078628,
                -5.281825398
              ],
              [
                139.94968816,
                -5.293236863
              ],
              [
                139.95044146,
                -5.293626663
              ],
              [
                139.95079036,
                -5.294145363
              ],
              [
                139.950790449,
                -5.294148757
              ],
              [
                139.95080436,
                -5.294678763
              ],
              [
                139.95096636,
                -5.296504463
              ],
              [
                139.95132676,
                -5.297093863
              ],
              [
                139.95210966,
                -5.297649463
              ],
              [
                139.95303266,
                -5.297681463
              ],
              [
                139.95432316,
                -5.297215163
              ],
              [
                139.954424362,
                -5.297154964
              ],
              [
                139.965914613,
                -5.301634144
              ],
              [
                139.971154733,
                -5.303659607
              ],
              [
                139.976504678,
                -5.306569227
              ],
              [
                139.9778187,
                -5.308070966
              ],
              [
                139.978194135,
                -5.308258683
              ],
              [
                139.97856957,
                -5.310980585
              ],
              [
                139.978006418,
                -5.313702487
              ],
              [
                139.978663429,
                -5.316612107
              ],
              [
                139.977349408,
                -5.319427868
              ],
              [
                139.976967512,
                -5.320849029
              ]
            ]
          ]
        ]
      }
    }
  ]
}