{
  "type": "FeatureCollection",
  "features": [
    {
      "type": "Feature",
      "properties": {
        "idx": "2959",
        "nama_kewilayahan": "Paring Sumpit"
      },
      "geometry": {
        "type": "MultiPolygon",
        "coordinates": [
          [
            [
              [
                115.881469353,
                -2.235714487
              ],
              [
                115.88195121,
                -2.233862351
              ],
              [
                115.88210179,
                -2.233169683
              ],
              [
                115.88195121,
                -2.232100563
              ],
              [
                115.881544643,
                -2.231678939
              ],
              [
                115.881273599,
                -2.231257315
              ],
              [
                115.881032671,
                -2.231046502
              ],
              [
                115.880641162,
                -2.230895922
              ],
              [
                115.880294828,
                -2.230820632
              ],
              [
                115.879948494,
                -2.230745342
              ],
              [
                115.879218533,
                -2.230636877
              ],
              [
                115.87795366,
                -2.231088618
              ],
              [
                115.877411571,
                -2.23114885
              ],
              [
                115.876538206,
                -2.231510242
              ],
              [
                115.875905769,
                -2.232383607
              ],
              [
                115.875393797,
                -2.23319674
              ],
              [
                115.87453549,
                -2.234039989
              ],
              [
                115.873782589,
                -2.234762773
              ],
              [
                115.873059805,
                -2.235304862
              ],
              [
                115.871855163,
                -2.235846951
              ],
              [
                115.871162495,
                -2.235997531
              ],
              [
                115.869987969,
                -2.235274746
              ],
              [
                115.86884356,
                -2.235214514
              ],
              [
                115.868060543,
                -2.234823006
              ],
              [
                115.867397991,
                -2.234311033
              ],
              [
                115.867066714,
                -2.233678596
              ],
              [
                115.866584858,
                -2.232925696
              ],
              [
                115.865530797,
                -2.232293259
              ],
              [
                115.863844299,
                -2.231781286
              ],
              [
                115.861781351,
                -2.231931867
              ],
              [
                115.860094853,
                -2.232293259
              ],
              [
                115.859010676,
                -2.232233027
              ],
              [
                115.857836151,
                -2.232142679
              ],
              [
                115.856420697,
                -2.231841518
              ],
              [
                115.855095592,
                -2.23160059
              ],
              [
                115.854131879,
                -2.231660822
              ],
              [
                115.852565845,
                -2.232323375
              ],
              [
                115.851572016,
                -2.232775115
              ],
              [
                115.850367375,
                -2.23334732
              ],
              [
                115.849253082,
                -2.233467784
              ],
              [
                115.847958093,
                -2.233588248
              ],
              [
                115.846422175,
                -2.234039989
              ],
              [
                115.845277766,
                -2.234341149
              ],
              [
                115.844344169,
                -2.23479289
              ],
              [
                115.842868483,
                -2.23524463
              ],
              [
                115.841242218,
                -2.235786719
              ],
              [
                115.839977344,
                -2.235937299
              ],
              [
                115.839134096,
                -2.235937299
              ],
              [
                115.837417482,
                -2.234913354
              ],
              [
                115.836212841,
                -2.234973586
              ],
              [
                115.835339476,
                -2.23539521
              ],
              [
                115.834405879,
                -2.235967415
              ],
              [
                115.833291586,
                -2.236328807
              ],
              [
                115.832207408,
                -2.236419155
              ],
              [
                115.831032883,
                -2.236660083
              ],
              [
                115.830008938,
                -2.236901012
              ],
              [
                115.82817186,
                -2.237744261
              ],
              [
                115.826906987,
                -2.237533448
              ],
              [
                115.826033622,
                -2.23714194
              ],
              [
                115.824828981,
                -2.236629967
              ],
              [
                115.823805036,
                -2.236328807
              ],
              [
                115.823082251,
                -2.236569735
              ],
              [
                115.82217877,
                -2.236810664
              ],
              [
                115.820311576,
                -2.236901012
              ],
              [
                115.819106935,
                -2.237202172
              ],
              [
                115.818203454,
                -2.237262404
              ],
              [
                115.816667536,
                -2.238135769
              ],
              [
                115.815365239,
                -2.238490941
              ],
              [
                115.815011155,
                -2.238587509
              ],
              [
                115.813595701,
                -2.23918983
              ],
              [
                115.812601872,
                -2.239521106
              ],
              [
                115.812077033,
                -2.239683893
              ],
              [
                115.810842486,
                -2.240066808
              ],
              [
                115.810550272,
                -2.240943451
              ],
              [
                115.810256795,
                -2.241713828
              ],
              [
                115.81022011,
                -2.242630944
              ],
              [
                115.810256795,
                -2.243841536
              ],
              [
                115.810513587,
                -2.244391805
              ],
              [
                115.81117391,
                -2.245308921
              ],
              [
                115.81172418,
                -2.246592883
              ],
              [
                115.812347818,
                -2.247509999
              ],
              [
                115.813338303,
                -2.248353745
              ],
              [
                115.813886821,
                -2.248752667
              ],
              [
                115.814145365,
                -2.248940699
              ],
              [
                115.81465895,
                -2.249564338
              ],
              [
                115.813558411,
                -2.250848299
              ],
              [
                115.813539759,
                -2.250861355
              ],
              [
                115.812457872,
                -2.251618677
              ],
              [
                115.811540757,
                -2.252022207
              ],
              [
                115.810476903,
                -2.254956977
              ],
              [
                115.810403533,
                -2.255947462
              ],
              [
                115.810073372,
                -2.256974632
              ],
              [
                115.809449733,
                -2.25807517
              ],
              [
                115.808569302,
                -2.259028971
              ],
              [
                115.808648456,
                -2.25992605
              ],
              [
                115.808679356,
                -2.260276248
              ],
              [
                115.808642671,
                -2.263596206
              ],
              [
                115.808198335,
                -2.265530377
              ],
              [
                115.808019033,
                -2.266310869
              ],
              [
                115.808275825,
                -2.268915477
              ],
              [
                115.808899852,
                -2.270532275
              ],
              [
                115.809082887,
                -2.271006501
              ],
              [
                115.811357333,
                -2.272547255
              ],
              [
                115.812237764,
                -2.273170893
              ],
              [
                115.813741834,
                -2.273794532
              ],
              [
                115.814218734,
                -2.274124694
              ],
              [
                115.815686119,
                -2.274271432
              ],
              [
                115.816273073,
                -2.274308117
              ],
              [
                115.816239309,
                -2.274482135
              ],
              [
                115.828713588,
                -2.273060996
              ],
              [
                115.830054233,
                -2.272996635
              ],
              [
                115.837024252,
                -2.272662022
              ],
              [
                115.847150458,
                -2.273407843
              ],
              [
                115.854679017,
                -2.272593919
              ],
              [
                115.865272081,
                -2.271765515
              ],
              [
                115.873635579,
                -2.270090343
              ],
              [
                115.88375653,
                -2.265957808
              ],
              [
                115.885545259,
                -2.265227443
              ],
              [
                115.88958635,
                -2.261740153
              ],
              [
                115.896619037,
                -2.256956746
              ],
              [
                115.898301827,
                -2.252114185
              ],
              [
                115.899188437,
                -2.246012793
              ],
              [
                115.899181344,
                -2.2460057
              ],
              [
                115.898932887,
                -2.24569701
              ],
              [
                115.898722075,
                -2.245388321
              ],
              [
                115.898488675,
                -2.245026929
              ],
              [
                115.898345624,
                -2.244744591
              ],
              [
                115.898217631,
                -2.244503663
              ],
              [
                115.898082109,
                -2.244243912
              ],
              [
                115.897863768,
                -2.243965339
              ],
              [
                115.897611546,
                -2.243739468
              ],
              [
                115.897423321,
                -2.243637827
              ],
              [
                115.897227567,
                -2.243562537
              ],
              [
                115.896948993,
                -2.243528656
              ],
              [
                115.896738181,
                -2.243528656
              ],
              [
                115.896644068,
                -2.243541832
              ],
              [
                115.89653678,
                -2.243593594
              ],
              [
                115.896113273,
                -2.24364065
              ],
              [
                115.895957988,
                -2.243834522
              ],
              [
                115.89575941,
                -2.243996396
              ],
              [
                115.895367902,
                -2.244094273
              ],
              [
                115.894893574,
                -2.24411686
              ],
              [
                115.894599943,
                -2.243996396
              ],
              [
                115.894419247,
                -2.243921106
              ],
              [
                115.894072912,
                -2.243845816
              ],
              [
                115.893734107,
                -2.243800641
              ],
              [
                115.893192018,
                -2.243604887
              ],
              [
                115.893101866,
                -2.243604887
              ],
              [
                115.892717691,
                -2.243604887
              ],
              [
                115.892431589,
                -2.243454307
              ],
              [
                115.892220776,
                -2.243198321
              ],
              [
                115.891784094,
                -2.242972451
              ],
              [
                115.891362469,
                -2.242867045
              ],
              [
                115.890850497,
                -2.242656232
              ],
              [
                115.890413815,
                -2.242475536
              ],
              [
                115.889344695,
                -2.242385188
              ],
              [
                115.888817665,
                -2.242204492
              ],
              [
                115.888456272,
                -2.242084028
              ],
              [
                115.88786901,
                -2.241782867
              ],
              [
                115.887552792,
                -2.241481707
              ],
              [
                115.887055877,
                -2.241285953
              ],
              [
                115.886543905,
                -2.241180547
              ],
              [
                115.886167454,
                -2.240984793
              ],
              [
                115.885715714,
                -2.240894444
              ],
              [
                115.885399495,
                -2.240819154
              ],
              [
                115.884887523,
                -2.240277066
              ],
              [
                115.884330376,
                -2.239900615
              ],
              [
                115.884059332,
                -2.239719919
              ],
              [
                115.883788288,
                -2.239433817
              ],
              [
                115.882839633,
                -2.239072425
              ],
              [
                115.88210179,
                -2.238786322
              ],
              [
                115.881619933,
                -2.238665858
              ],
              [
                115.881288657,
                -2.238364698
              ],
              [
                115.881228425,
                -2.237310637
              ],
              [
                115.881469353,
                -2.235714487
              ]
            ]
          ],
          [
            [
              [
                115.912029114,
                -2.309617068
              ],
              [
                115.912395961,
                -2.308223052
              ],
              [
                115.913386446,
                -2.306792352
              ],
              [
                115.914266877,
                -2.304958121
              ],
              [
                115.914413615,
                -2.303160574
              ],
              [
                115.914817146,
                -2.301766558
              ],
              [
                115.915183992,
                -2.300335858
              ],
              [
                115.9149272,
                -2.298905158
              ],
              [
                115.914560354,
                -2.297914673
              ],
              [
                115.9139734,
                -2.296887503
              ],
              [
                115.913679923,
                -2.296117126
              ],
              [
                115.913092969,
                -2.294099472
              ],
              [
                115.912726122,
                -2.292998933
              ],
              [
                115.913276392,
                -2.291494863
              ],
              [
                115.915073938,
                -2.289990794
              ],
              [
                115.915954369,
                -2.289293786
              ],
              [
                115.917091593,
                -2.288560093
              ],
              [
                115.917751916,
                -2.287789716
              ],
              [
                115.918302185,
                -2.286138908
              ],
              [
                115.918962509,
                -2.285148423
              ],
              [
                115.919659516,
                -2.283974515
              ],
              [
                115.920760055,
                -2.282947346
              ],
              [
                115.922044017,
                -2.281516646
              ],
              [
                115.922264874,
                -2.28067739
              ],
              [
                115.917088226,
                -2.275591703
              ],
              [
                115.915687629,
                -2.274282391
              ],
              [
                115.914248101,
                -2.273193861
              ],
              [
                115.912247909,
                -2.27162706
              ],
              [
                115.90985175,
                -2.271014848
              ],
              [
                115.906524913,
                -2.270731765
              ],
              [
                115.903185102,
                -2.275922985
              ],
              [
                115.895877539,
                -2.279636542
              ],
              [
                115.89238559,
                -2.285823641
              ],
              [
                115.887279159,
                -2.290508188
              ],
              [
                115.886672326,
                -2.295886402
              ],
              [
                115.888399606,
                -2.301099916
              ],
              [
                115.890706029,
                -2.309157855
              ],
              [
                115.888080245,
                -2.316198946
              ],
              [
                115.881380849,
                -2.319898962
              ],
              [
                115.876397006,
                -2.321419966
              ],
              [
                115.87758244,
                -2.32703803
              ],
              [
                115.877083169,
                -2.333042935
              ],
              [
                115.877743837,
                -2.339874098
              ],
              [
                115.876340241,
                -2.346776485
              ],
              [
                115.871662493,
                -2.345534934
              ],
              [
                115.859591343,
                -2.342331054
              ],
              [
                115.859746889,
                -2.338628109
              ],
              [
                115.858969268,
                -2.332460226
              ],
              [
                115.859387124,
                -2.327622249
              ],
              [
                115.857942433,
                -2.319595903
              ],
              [
                115.861445389,
                -2.309955046
              ],
              [
                115.865516524,
                -2.305201685
              ],
              [
                115.866668783,
                -2.298003958
              ],
              [
                115.868720429,
                -2.293444366
              ],
              [
                115.86715445,
                -2.292890982
              ],
              [
                115.86275285,
                -2.289550213
              ],
              [
                115.855441597,
                -2.291310894
              ],
              [
                115.853500926,
                -2.292765218
              ],
              [
                115.851847515,
                -2.294004272
              ],
              [
                115.845541065,
                -2.29871472
              ],
              [
                115.841845036,
                -2.304349273
              ],
              [
                115.841180399,
                -2.305362503
              ],
              [
                115.840582952,
                -2.307130203
              ],
              [
                115.841741924,
                -2.309668077
              ],
              [
                115.833894757,
                -2.319192708
              ],
              [
                115.83186892,
                -2.319281674
              ],
              [
                115.828808594,
                -2.31941607
              ],
              [
                115.823869346,
                -2.314236724
              ],
              [
                115.823064635,
                -2.311810265
              ],
              [
                115.823031392,
                -2.311710026
              ],
              [
                115.821847509,
                -2.306797966
              ],
              [
                115.820831138,
                -2.307581071
              ],
              [
                115.820447079,
                -2.308118754
              ],
              [
                115.820005734,
                -2.308736637
              ],
              [
                115.819134474,
                -2.310038941
              ],
              [
                115.818565862,
                -2.31066258
              ],
              [
                115.818596757,
                -2.311759348
              ],
              [
                115.818602385,
                -2.311959142
              ],
              [
                115.818602547,
                -2.311964884
              ],
              [
                115.818400781,
                -2.313102107
              ],
              [
                115.818125647,
                -2.313909169
              ],
              [
                115.81783217,
                -2.314679546
              ],
              [
                115.817711497,
                -2.314812561
              ],
              [
                115.817025108,
                -2.315569148
              ],
              [
                115.816603235,
                -2.315880968
              ],
              [
                115.816254731,
                -2.316504606
              ],
              [
                115.816144677,
                -2.317036533
              ],
              [
                115.816071308,
                -2.317825253
              ],
              [
                115.816291415,
                -2.320017159
              ],
              [
                115.816419812,
                -2.320778365
              ],
              [
                115.816634363,
                -2.321019735
              ],
              [
                115.817153504,
                -2.321603769
              ],
              [
                115.817608266,
                -2.321901717
              ],
              [
                115.817685431,
                -2.321952273
              ],
              [
                115.818400781,
                -2.322374146
              ],
              [
                115.819281212,
                -2.322667623
              ],
              [
                115.82052849,
                -2.322979442
              ],
              [
                115.821629028,
                -2.323327946
              ],
              [
                115.822548604,
                -2.323677153
              ],
              [
                115.823078071,
                -2.323878216
              ],
              [
                115.823448705,
                -2.324236444
              ],
              [
                115.825269977,
                -2.325996753
              ],
              [
                115.826095381,
                -2.326968895
              ],
              [
                115.826553939,
                -2.327849326
              ],
              [
                115.82695747,
                -2.328913181
              ],
              [
                115.827250947,
                -2.329536819
              ],
              [
                115.828406513,
                -2.330600673
              ],
              [
                115.829507052,
                -2.3311326
              ],
              [
                115.830277429,
                -2.3316095
              ],
              [
                115.830977925,
                -2.33199965
              ],
              [
                115.831726471,
                -2.332416562
              ],
              [
                115.832056633,
                -2.333517101
              ],
              [
                115.832478506,
                -2.334232451
              ],
              [
                115.832551875,
                -2.335186251
              ],
              [
                115.832698614,
                -2.336213421
              ],
              [
                115.832753641,
                -2.337167221
              ],
              [
                115.832570218,
                -2.338212733
              ],
              [
                115.832038291,
                -2.339515037
              ],
              [
                115.831689787,
                -2.340083649
              ],
              [
                115.831377967,
                -2.341110818
              ],
              [
                115.831377967,
                -2.34167943
              ],
              [
                115.830625933,
                -2.343183499
              ],
              [
                115.830094005,
                -2.344320723
              ],
              [
                115.82976982,
                -2.345069209
              ],
              [
                115.829604205,
                -2.345451586
              ],
              [
                115.828846728,
                -2.347200466
              ],
              [
                115.828626621,
                -2.348062555
              ],
              [
                115.828498224,
                -2.349584966
              ],
              [
                115.82846154,
                -2.350419542
              ],
              [
                115.828082235,
                -2.351485206
              ],
              [
                115.828076351,
                -2.351501738
              ],
              [
                115.827992031,
                -2.351623158
              ],
              [
                115.827617793,
                -2.352162061
              ],
              [
                115.8271178,
                -2.353162046
              ],
              [
                115.827085866,
                -2.353225915
              ],
              [
                115.826737362,
                -2.354234743
              ],
              [
                115.82869999,
                -2.355316939
              ],
              [
                115.829250259,
                -2.35572047
              ],
              [
                115.829342491,
                -2.355847288
              ],
              [
                115.829398641,
                -2.355924495
              ],
              [
                115.829690475,
                -2.356325766
              ],
              [
                115.829928925,
                -2.356986089
              ],
              [
                115.830208644,
                -2.358076278
              ],
              [
                115.8302866,
                -2.358380105
              ],
              [
                115.830818527,
                -2.359517329
              ],
              [
                115.831735642,
                -2.361406587
              ],
              [
                115.832304254,
                -2.362525468
              ],
              [
                115.833679928,
                -2.364909968
              ],
              [
                115.833924252,
                -2.365162437
              ],
              [
                115.834230197,
                -2.36547858
              ],
              [
                115.834762124,
                -2.366542434
              ],
              [
                115.835147313,
                -2.367477892
              ],
              [
                115.835624213,
                -2.368156558
              ],
              [
                115.835881005,
                -2.368908592
              ],
              [
                115.835954374,
                -2.369990789
              ],
              [
                115.835979908,
                -2.37043217
              ],
              [
                115.83608277,
                -2.372210209
              ],
              [
                115.836064428,
                -2.374136151
              ],
              [
                115.835770951,
                -2.375328402
              ],
              [
                115.835550843,
                -2.376704075
              ],
              [
                115.835642555,
                -2.37817146
              ],
              [
                115.835954374,
                -2.379400395
              ],
              [
                115.83608277,
                -2.380482592
              ],
              [
                115.83618361,
                -2.381211739
              ],
              [
                115.836321221,
                -2.382206769
              ],
              [
                115.836234496,
                -2.383247466
              ],
              [
                115.836192824,
                -2.383747523
              ],
              [
                115.835936032,
                -2.384426189
              ],
              [
                115.835678388,
                -2.385333096
              ],
              [
                115.835512825,
                -2.385915877
              ],
              [
                115.835477474,
                -2.386040312
              ],
              [
                115.835541129,
                -2.386031218
              ],
              [
                115.836156149,
                -2.385943359
              ],
              [
                115.836738871,
                -2.385860113
              ],
              [
                115.837018228,
                -2.385820204
              ],
              [
                115.838485613,
                -2.385416674
              ],
              [
                115.839476098,
                -2.384939773
              ],
              [
                115.840173106,
                -2.38475635
              ],
              [
                115.845226413,
                -2.384765521
              ],
              [
                115.845629944,
                -2.384875575
              ],
              [
                115.846418663,
                -2.385205737
              ],
              [
                115.84678551,
                -2.385664295
              ],
              [
                115.847730139,
                -2.387021626
              ],
              [
                115.84861057,
                -2.387810345
              ],
              [
                115.849014101,
                -2.388122165
              ],
              [
                115.849108836,
                -2.388195847
              ],
              [
                115.849509343,
                -2.388507353
              ],
              [
                115.849876045,
                -2.388715151
              ],
              [
                115.850059612,
                -2.388819172
              ],
              [
                115.850738278,
                -2.388984253
              ],
              [
                115.850839399,
                -2.388959739
              ],
              [
                115.851343574,
                -2.388837515
              ],
              [
                115.851985555,
                -2.388433984
              ],
              [
                115.852425771,
                -2.388195534
              ],
              [
                115.853031067,
                -2.387957084
              ],
              [
                115.853836725,
                -2.387762166
              ],
              [
                115.85416829,
                -2.387681949
              ],
              [
                115.854883641,
                -2.387406814
              ],
              [
                115.855488937,
                -2.387241734
              ],
              [
                115.856075452,
                -2.387136161
              ],
              [
                115.856406052,
                -2.387076653
              ],
              [
                115.857066376,
                -2.38689323
              ],
              [
                115.857488249,
                -2.386489699
              ],
              [
                115.857836753,
                -2.386067826
              ],
              [
                115.858203599,
                -2.385462529
              ],
              [
                115.858383692,
                -2.385226157
              ],
              [
                115.858497076,
                -2.385077341
              ],
              [
                115.858863922,
                -2.384637125
              ],
              [
                115.859213217,
                -2.384113184
              ],
              [
                115.859304138,
                -2.383976802
              ],
              [
                115.85979938,
                -2.383298136
              ],
              [
                115.860569757,
                -2.38150059
              ],
              [
                115.860899919,
                -2.381133744
              ],
              [
                115.861321792,
                -2.380766897
              ],
              [
                115.861853719,
                -2.380510105
              ],
              [
                115.862550727,
                -2.380491763
              ],
              [
                115.863119339,
                -2.380693528
              ],
              [
                115.863669608,
                -2.380803582
              ],
              [
                115.864274904,
                -2.38078524
              ],
              [
                115.86495357,
                -2.380620159
              ],
              [
                115.86543047,
                -2.380253313
              ],
              [
                115.865650578,
                -2.379923151
              ],
              [
                115.866011156,
                -2.379421477
              ],
              [
                115.866072451,
                -2.379336197
              ],
              [
                115.866270403,
                -2.379026897
              ],
              [
                115.866316768,
                -2.378954451
              ],
              [
                115.866365928,
                -2.378877639
              ],
              [
                115.866635455,
                -2.378338586
              ],
              [
                115.866641063,
                -2.37832737
              ],
              [
                115.86686117,
                -2.3777771
              ],
              [
                115.866912867,
                -2.37766509
              ],
              [
                115.867067149,
                -2.377330813
              ],
              [
                115.867191332,
                -2.37706175
              ],
              [
                115.867521494,
                -2.376474796
              ],
              [
                115.867898529,
                -2.375909242
              ],
              [
                115.867961709,
                -2.375814473
              ],
              [
                115.868456952,
                -2.375245861
              ],
              [
                115.868805456,
                -2.3749157
              ],
              [
                115.869264013,
                -2.374548853
              ],
              [
                115.870309525,
                -2.373595053
              ],
              [
                115.871336695,
                -2.372787992
              ],
              [
                115.871886964,
                -2.372292749
              ],
              [
                115.872455576,
                -2.37198093
              ],
              [
                115.873464403,
                -2.371632426
              ],
              [
                115.874509915,
                -2.37095376
              ],
              [
                115.874978984,
                -2.370869174
              ],
              [
                115.875452292,
                -2.370783824
              ],
              [
                115.875628796,
                -2.370751995
              ],
              [
                115.876234092,
                -2.370788679
              ],
              [
                115.877187892,
                -2.370898733
              ],
              [
                115.877939927,
                -2.371247237
              ],
              [
                115.878397787,
                -2.37165059
              ],
              [
                115.878462915,
                -2.371707965
              ],
              [
                115.878710304,
                -2.371925903
              ],
              [
                115.879278916,
                -2.372586226
              ],
              [
                115.879900744,
                -2.373367496
              ],
              [
                115.879994266,
                -2.373484999
              ],
              [
                115.880204917,
                -2.37355369
              ],
              [
                115.880838012,
                -2.373760134
              ],
              [
                115.881479993,
                -2.373906873
              ],
              [
                115.88208529,
                -2.373980242
              ],
              [
                115.882558789,
                -2.37425645
              ],
              [
                115.882965721,
                -2.374493827
              ],
              [
                115.883185828,
                -2.37484233
              ],
              [
                115.88325787,
                -2.374954895
              ],
              [
                115.883479305,
                -2.375300888
              ],
              [
                115.883590049,
                -2.37550108
              ],
              [
                115.883929827,
                -2.376115292
              ],
              [
                115.883956206,
                -2.376162977
              ],
              [
                115.884744925,
                -2.377410254
              ],
              [
                115.885240167,
                -2.376859985
              ],
              [
                115.885643698,
                -2.37658485
              ],
              [
                115.886047229,
                -2.376383085
              ],
              [
                115.886315549,
                -2.376310845
              ],
              [
                115.886524129,
                -2.376254689
              ],
              [
                115.887184452,
                -2.37610795
              ],
              [
                115.887527103,
                -2.375902359
              ],
              [
                115.887734722,
                -2.375777788
              ],
              [
                115.887803384,
                -2.375674796
              ],
              [
                115.888028199,
                -2.375337573
              ],
              [
                115.888101568,
                -2.37484233
              ],
              [
                115.888099689,
                -2.374833563
              ],
              [
                115.887991514,
                -2.374328746
              ],
              [
                115.887826433,
                -2.373136495
              ],
              [
                115.887698037,
                -2.372421145
              ],
              [
                115.887496272,
                -2.371724137
              ],
              [
                115.887093077,
                -2.371209716
              ],
              [
                115.886964345,
                -2.371045472
              ],
              [
                115.886670868,
                -2.370568572
              ],
              [
                115.886267337,
                -2.369889906
              ],
              [
                115.886193968,
                -2.369302952
              ],
              [
                115.886138941,
                -2.368587602
              ],
              [
                115.886248995,
                -2.368074017
              ],
              [
                115.886280742,
                -2.367971449
              ],
              [
                115.886301156,
                -2.367905497
              ],
              [
                115.886487445,
                -2.36730364
              ],
              [
                115.886670868,
                -2.366478236
              ],
              [
                115.886799264,
                -2.365304328
              ],
              [
                115.886744237,
                -2.364203789
              ],
              [
                115.886726658,
                -2.363236934
              ],
              [
                115.886725895,
                -2.363194962
              ],
              [
                115.886609,
                -2.362756606
              ],
              [
                115.886432418,
                -2.362094423
              ],
              [
                115.886395733,
                -2.361599181
              ],
              [
                115.886609,
                -2.361418724
              ],
              [
                115.886872633,
                -2.36119565
              ],
              [
                115.886927919,
                -2.361145893
              ],
              [
                115.887311388,
                -2.360800771
              ],
              [
                115.887422903,
                -2.360700408
              ],
              [
                115.887918145,
                -2.360095111
              ],
              [
                115.88843173,
                -2.359379761
              ],
              [
                115.888486757,
                -2.35873778
              ],
              [
                115.888651837,
                -2.357894034
              ],
              [
                115.889018684,
                -2.357141999
              ],
              [
                115.88911982,
                -2.356724811
              ],
              [
                115.889165422,
                -2.356536703
              ],
              [
                115.889257134,
                -2.355766326
              ],
              [
                115.889320184,
                -2.355525591
              ],
              [
                115.889458899,
                -2.354995949
              ],
              [
                115.889495584,
                -2.354482364
              ],
              [
                115.889605638,
                -2.353932094
              ],
              [
                115.889758257,
                -2.353648659
              ],
              [
                115.88986243,
                -2.353455194
              ],
              [
                115.890192592,
                -2.35286824
              ],
              [
                115.890742861,
                -2.35239134
              ],
              [
                115.890768109,
                -2.352366994
              ],
              [
                115.891256446,
                -2.351896098
              ],
              [
                115.891880084,
                -2.351034009
              ],
              [
                115.892203648,
                -2.350284703
              ],
              [
                115.892228588,
                -2.350226947
              ],
              [
                115.892430354,
                -2.349438228
              ],
              [
                115.892403548,
                -2.349379254
              ],
              [
                115.892155219,
                -2.348832932
              ],
              [
                115.891935111,
                -2.348154266
              ],
              [
                115.891696661,
                -2.347750735
              ],
              [
                115.891670488,
                -2.347724562
              ],
              [
                115.89146598,
                -2.347520054
              ],
              [
                115.891384842,
                -2.347438916
              ],
              [
                115.891146392,
                -2.347017043
              ],
              [
                115.89103466,
                -2.346442421
              ],
              [
                115.891017996,
                -2.34635672
              ],
              [
                115.890999653,
                -2.345623027
              ],
              [
                115.890981311,
                -2.3450911
              ],
              [
                115.890969259,
                -2.344669277
              ],
              [
                115.890962969,
                -2.344449119
              ],
              [
                115.890804583,
                -2.343973964
              ],
              [
                115.890761203,
                -2.343843823
              ],
              [
                115.890526428,
                -2.343687306
              ],
              [
                115.890277851,
                -2.343521588
              ],
              [
                115.890155907,
                -2.343440292
              ],
              [
                115.890069104,
                -2.343396891
              ],
              [
                115.889715692,
                -2.343220184
              ],
              [
                115.889403872,
                -2.342688257
              ],
              [
                115.889202107,
                -2.342009591
              ],
              [
                115.889238791,
                -2.34112916
              ],
              [
                115.889430967,
                -2.340520605
              ],
              [
                115.889458899,
                -2.340432153
              ],
              [
                115.889396,
                -2.339979277
              ],
              [
                115.889367188,
                -2.339771829
              ],
              [
                115.889367188,
                -2.339610559
              ],
              [
                115.889367188,
                -2.339352286
              ],
              [
                115.889367188,
                -2.339111506
              ],
              [
                115.889384828,
                -2.339069366
              ],
              [
                115.889697349,
                -2.338322787
              ],
              [
                115.889972484,
                -2.337680806
              ],
              [
                115.890706176,
                -2.337075509
              ],
              [
                115.890788801,
                -2.337010749
              ],
              [
                115.891384842,
                -2.336543582
              ],
              [
                115.892375327,
                -2.335699836
              ],
              [
                115.892855353,
                -2.335163337
              ],
              [
                115.893310785,
                -2.334654324
              ],
              [
                115.893815198,
                -2.334562613
              ],
              [
                115.894163295,
                -2.334475589
              ],
              [
                115.894695629,
                -2.334342505
              ],
              [
                115.894715848,
                -2.33433612
              ],
              [
                115.895392637,
                -2.334122397
              ],
              [
                115.896713284,
                -2.33382892
              ],
              [
                115.897850507,
                -2.333572128
              ],
              [
                115.898107299,
                -2.333241966
              ],
              [
                115.898319561,
                -2.332817443
              ],
              [
                115.898364092,
                -2.332728381
              ],
              [
                115.89851083,
                -2.332141427
              ],
              [
                115.898657569,
                -2.331297681
              ],
              [
                115.898804307,
                -2.330674042
              ],
              [
                115.898951046,
                -2.330050404
              ],
              [
                115.899024415,
                -2.329169973
              ],
              [
                115.898951046,
                -2.32843628
              ],
              [
                115.898767623,
                -2.327849326
              ],
              [
                115.898052273,
                -2.326602049
              ],
              [
                115.897538688,
                -2.325318087
              ],
              [
                115.897355265,
                -2.324290918
              ],
              [
                115.897025103,
                -2.322750164
              ],
              [
                115.896988418,
                -2.321429517
              ],
              [
                115.897025103,
                -2.319852078
              ],
              [
                115.897025103,
                -2.318788224
              ],
              [
                115.896878365,
                -2.317651001
              ],
              [
                115.896694941,
                -2.31677057
              ],
              [
                115.896438149,
                -2.316073562
              ],
              [
                115.896107987,
                -2.315523293
              ],
              [
                115.89588788,
                -2.314532808
              ],
              [
                115.895631087,
                -2.313689061
              ],
              [
                115.895961249,
                -2.312992053
              ],
              [
                115.897135157,
                -2.31233173
              ],
              [
                115.897905534,
                -2.311781461
              ],
              [
                115.89874928,
                -2.311487984
              ],
              [
                115.900179981,
                -2.311084453
              ],
              [
                115.901537312,
                -2.310534184
              ],
              [
                115.902601166,
                -2.310167337
              ],
              [
                115.904215289,
                -2.309800491
              ],
              [
                115.90564599,
                -2.309800491
              ],
              [
                115.906783213,
                -2.310607553
              ],
              [
                115.907847067,
                -2.311231191
              ],
              [
                115.908947606,
                -2.311744776
              ],
              [
                115.91001146,
                -2.311414615
              ],
              [
                115.911222053,
                -2.311121138
              ],
              [
                115.91151553,
                -2.310717607
              ],
              [
                115.912029114,
                -2.309617068
              ]
            ],
            [
              [
                115.870704794,
                -2.363211317
              ],
              [
                115.86830188,
                -2.361972289
              ],
              [
                115.867104302,
                -2.360783881
              ],
              [
                115.867915471,
                -2.358128269
              ],
              [
                115.868629313,
                -2.356676807
              ],
              [
                115.869971325,
                -2.355271984
              ],
              [
                115.872242682,
                -2.355427231
              ],
              [
                115.873236702,
                -2.356148175
              ],
              [
                115.874898387,
                -2.357353365
              ],
              [
                115.876016546,
                -2.35930594
              ],
              [
                115.875957809,
                -2.360781108
              ],
              [
                115.875619512,
                -2.362153493
              ],
              [
                115.874266624,
                -2.362890039
              ],
              [
                115.873632485,
                -2.36323528
              ],
              [
                115.870704794,
                -2.363211317
              ]
            ]
          ]
        ]
      }
    }
  ]
}