{
  "type": "FeatureCollection",
  "features": [
    {
      "type": "Feature",
      "properties": {
        "idx": "2986",
        "nama_kewilayahan": "Tanjung Mas"
      },
      "geometry": {
        "type": "Polygon",
        "coordinates": [
          [
            [
              116.492658278,
              -8.719124008
            ],
            [
              116.492467421,
              -8.719087573
            ],
            [
              116.492267351,
              -8.719141575
            ],
            [
              116.49248404,
              -8.720245341
            ],
            [
              116.492619767,
              -8.720715856
            ],
            [
              116.492564429,
              -8.7213037
            ],
            [
              116.492418463,
              -8.72168339
            ],
            [
              116.492318696,
              -8.721511404
            ],
            [
              116.492246006,
              -8.721484172
            ],
            [
              116.492209618,
              -8.721502213
            ],
            [
              116.492018931,
              -8.72133915
            ],
            [
              116.491936442,
              -8.721836508
            ],
            [
              116.491700056,
              -8.721854282
            ],
            [
              116.491500131,
              -8.721799745
            ],
            [
              116.491254593,
              -8.72186273
            ],
            [
              116.491236191,
              -8.722025513
            ],
            [
              116.491345159,
              -8.722116108
            ],
            [
              116.491372272,
              -8.722233728
            ],
            [
              116.491563069,
              -8.722315387
            ],
            [
              116.491826618,
              -8.722379054
            ],
            [
              116.491844445,
              -8.72264138
            ],
            [
              116.491926055,
              -8.722795252
            ],
            [
              116.492144113,
              -8.722885993
            ],
            [
              116.491961807,
              -8.723247544
            ],
            [
              116.491952569,
              -8.72335607
            ],
            [
              116.492006992,
              -8.723446592
            ],
            [
              116.491934192,
              -8.723500764
            ],
            [
              116.491870312,
              -8.723681576
            ],
            [
              116.491824649,
              -8.723835278
            ],
            [
              116.491688042,
              -8.724015993
            ],
            [
              116.491769774,
              -8.724079416
            ],
            [
              116.491577984,
              -8.724730391
            ],
            [
              116.491759766,
              -8.724757769
            ],
            [
              116.491639981,
              -8.725942488
            ],
            [
              116.491594465,
              -8.725987651
            ],
            [
              116.491757771,
              -8.726232082
            ],
            [
              116.491839015,
              -8.7266573
            ],
            [
              116.491675353,
              -8.726675171
            ],
            [
              116.491484236,
              -8.726828678
            ],
            [
              116.491474973,
              -8.726955293
            ],
            [
              116.491347639,
              -8.727000347
            ],
            [
              116.491529262,
              -8.727145308
            ],
            [
              116.491946615,
              -8.727760918
            ],
            [
              116.492136633,
              -8.728421449
            ],
            [
              116.492527044,
              -8.728792811
            ],
            [
              116.493026451,
              -8.729236678
            ],
            [
              116.4935349,
              -8.729716736
            ],
            [
              116.493606812,
              -8.730322839
            ],
            [
              116.49483303,
              -8.731120423
            ],
            [
              116.495513571,
              -8.732080087
            ],
            [
              116.495694227,
              -8.732948636
            ],
            [
              116.496201289,
              -8.73446885
            ],
            [
              116.496645772,
              -8.735202076
            ],
            [
              116.497144489,
              -8.73617054
            ],
            [
              116.497226407,
              -8.736098289
            ],
            [
              116.497262662,
              -8.736179741
            ],
            [
              116.497553205,
              -8.736460518
            ],
            [
              116.497725586,
              -8.736723048
            ],
            [
              116.498207686,
              -8.736524699
            ],
            [
              116.498243845,
              -8.73667851
            ],
            [
              116.498343727,
              -8.736769091
            ],
            [
              116.498461876,
              -8.736796382
            ],
            [
              116.498434446,
              -8.736913929
            ],
            [
              116.498915724,
              -8.73733063
            ],
            [
              116.499506037,
              -8.737792699
            ],
            [
              116.499460364,
              -8.737955447
            ],
            [
              116.499914117,
              -8.738562053
            ],
            [
              116.500213658,
              -8.738915199
            ],
            [
              116.500812766,
              -8.7396034
            ],
            [
              116.501239358,
              -8.740128565
            ],
            [
              116.502102826,
              -8.740283463
            ],
            [
              116.502512018,
              -8.740220686
            ],
            [
              116.502757267,
              -8.740383816
            ],
            [
              116.5031744,
              -8.741189358
            ],
            [
              116.503291892,
              -8.741714116
            ],
            [
              116.503128188,
              -8.741759126
            ],
            [
              116.503191217,
              -8.742220498
            ],
            [
              116.502963813,
              -8.742310648
            ],
            [
              116.502972605,
              -8.742536782
            ],
            [
              116.503054391,
              -8.742564024
            ],
            [
              116.503044856,
              -8.742898672
            ],
            [
              116.502917517,
              -8.74294373
            ],
            [
              116.502935592,
              -8.743025157
            ],
            [
              116.502535573,
              -8.743024632
            ],
            [
              116.502235366,
              -8.743168956
            ],
            [
              116.502307881,
              -8.74333186
            ],
            [
              116.502507951,
              -8.743286898
            ],
            [
              116.502589533,
              -8.743467903
            ],
            [
              116.502689406,
              -8.743567528
            ],
            [
              116.502525449,
              -8.743802479
            ],
            [
              116.503042687,
              -8.744535794
            ],
            [
              116.503032576,
              -8.745304596
            ],
            [
              116.504323293,
              -8.745505275
            ],
            [
              116.504559586,
              -8.745568899
            ],
            [
              116.504668146,
              -8.745976061
            ],
            [
              116.504822222,
              -8.746338058
            ],
            [
              116.505104045,
              -8.746347471
            ],
            [
              116.504977732,
              -8.74561467
            ],
            [
              116.506032801,
              -8.745263296
            ],
            [
              116.506469523,
              -8.745010609
            ],
            [
              116.506979188,
              -8.744595207
            ],
            [
              116.507097103,
              -8.744803393
            ],
            [
              116.507997294,
              -8.744696025
            ],
            [
              116.508742979,
              -8.744552275
            ],
            [
              116.509097733,
              -8.744408016
            ],
            [
              116.509625188,
              -8.744291116
            ],
            [
              116.510252671,
              -8.744156254
            ],
            [
              116.510543489,
              -8.744238034
            ],
            [
              116.510797246,
              -8.744853415
            ],
            [
              116.511033021,
              -8.745315009
            ],
            [
              116.511360395,
              -8.745252117
            ],
            [
              116.511224931,
              -8.744555485
            ],
            [
              116.511206961,
              -8.744392654
            ],
            [
              116.511171126,
              -8.743985587
            ],
            [
              116.510586457,
              -8.743626208
            ],
            [
              116.510489838,
              -8.743550552
            ],
            [
              116.510389928,
              -8.743478064
            ],
            [
              116.510117269,
              -8.743414397
            ],
            [
              116.510090385,
              -8.743115881
            ],
            [
              116.509763096,
              -8.743115458
            ],
            [
              116.509745847,
              -8.742400888
            ],
            [
              116.509855653,
              -8.741858337
            ],
            [
              116.509492059,
              -8.741812642
            ],
            [
              116.509137473,
              -8.741830272
            ],
            [
              116.50900134,
              -8.741649198
            ],
            [
              116.508919885,
              -8.741368701
            ],
            [
              116.508820105,
              -8.741196718
            ],
            [
              116.508720468,
              -8.740916197
            ],
            [
              116.508666003,
              -8.740852812
            ],
            [
              116.50860266,
              -8.740626608
            ],
            [
              116.508557275,
              -8.74057228
            ],
            [
              116.508502905,
              -8.740436536
            ],
            [
              116.508493908,
              -8.740364165
            ],
            [
              116.508466919,
              -8.740147052
            ],
            [
              116.508467085,
              -8.740020424
            ],
            [
              116.508276417,
              -8.739830234
            ],
            [
              116.508422162,
              -8.739613345
            ],
            [
              116.508232122,
              -8.738943777
            ],
            [
              116.508059744,
              -8.738672206
            ],
            [
              116.507723712,
              -8.738409468
            ],
            [
              116.507124165,
              -8.738046893
            ],
            [
              116.506869919,
              -8.737811395
            ],
            [
              116.506252263,
              -8.737394526
            ],
            [
              116.506443666,
              -8.737023934
            ],
            [
              116.506334726,
              -8.736906209
            ],
            [
              116.506444071,
              -8.736716408
            ],
            [
              116.506253429,
              -8.736508127
            ],
            [
              116.506335428,
              -8.736372561
            ],
            [
              116.506918144,
              -8.735703997
            ],
            [
              116.507246092,
              -8.735197909
            ],
            [
              116.507001188,
              -8.734772481
            ],
            [
              116.506892414,
              -8.734528128
            ],
            [
              116.506865307,
              -8.734401464
            ],
            [
              116.506801812,
              -8.734292843
            ],
            [
              116.506865699,
              -8.734102983
            ],
            [
              116.506974995,
              -8.733949362
            ],
            [
              116.507056946,
              -8.733849974
            ],
            [
              116.507111588,
              -8.733777686
            ],
            [
              116.507293339,
              -8.733832192
            ],
            [
              116.507457063,
              -8.73376909
            ],
            [
              116.507893722,
              -8.733552579
            ],
            [
              116.508030527,
              -8.733218096
            ],
            [
              116.507985344,
              -8.733010004
            ],
            [
              116.507976787,
              -8.732602973
            ],
            [
              116.507304163,
              -8.732511651
            ],
            [
              116.507277104,
              -8.732348807
            ],
            [
              116.507286492,
              -8.732122697
            ],
            [
              116.507232004,
              -8.732077402
            ],
            [
              116.507177885,
              -8.731751715
            ],
            [
              116.507068923,
              -8.73165208
            ],
            [
              116.507778893,
              -8.730992724
            ],
            [
              116.507797478,
              -8.730685221
            ],
            [
              116.507797596,
              -8.730594773
            ],
            [
              116.507398349,
              -8.730015381
            ],
            [
              116.506498407,
              -8.729959942
            ],
            [
              116.50557099,
              -8.730058228
            ],
            [
              116.505243689,
              -8.730075892
            ],
            [
              116.505116533,
              -8.729985277
            ],
            [
              116.50510743,
              -8.72999431
            ],
            [
              116.505052872,
              -8.730003284
            ],
            [
              116.50309233,
              -8.727640003
            ],
            [
              116.502438415,
              -8.727159767
            ],
            [
              116.501857144,
              -8.72674294
            ],
            [
              116.501166136,
              -8.726814391
            ],
            [
              116.500202482,
              -8.726822168
            ],
            [
              116.499875713,
              -8.726441852
            ],
            [
              116.498550415,
              -8.724956742
            ],
            [
              116.498224494,
              -8.723943284
            ],
            [
              116.497198096,
              -8.723290694
            ],
            [
              116.496844581,
              -8.72252141
            ],
            [
              116.496291203,
              -8.721652367
            ],
            [
              116.496127992,
              -8.721335579
            ],
            [
              116.495365007,
              -8.720855187
            ],
            [
              116.495011632,
              -8.719986408
            ],
            [
              116.494311836,
              -8.719840759
            ],
            [
              116.493876063,
              -8.719406024
            ],
            [
              116.493794295,
              -8.719369735
            ],
            [
              116.493685145,
              -8.719414814
            ],
            [
              116.493585024,
              -8.71950513
            ],
            [
              116.493584963,
              -8.719550354
            ],
            [
              116.493139662,
              -8.719441221
            ],
            [
              116.492767136,
              -8.719296006
            ],
            [
              116.492658278,
              -8.719124008
            ]
          ]
        ]
      }
    }
  ]
}