{
  "type": "FeatureCollection",
  "features": [
    {
      "type": "Feature",
      "properties": {
        "idx": "3016",
        "nama_kewilayahan": "Dayak Siang (Siank) Lowu Cangkang"
      },
      "geometry": {
        "type": "MultiPolygon",
        "coordinates": [
          [
            [
              [
                114.62382728,
                -0.456537075
              ],
              [
                114.623970921,
                -0.456021928
              ],
              [
                114.624119398,
                -0.455347698
              ],
              [
                114.624119036,
                -0.454623606
              ],
              [
                114.6241188,
                -0.454149201
              ],
              [
                114.624267402,
                -0.453724659
              ],
              [
                114.624961357,
                -0.452700593
              ],
              [
                114.625506524,
                -0.451726541
              ],
              [
                114.626225232,
                -0.450602591
              ],
              [
                114.626621513,
                -0.449478804
              ],
              [
                114.627067522,
                -0.448604679
              ],
              [
                114.627364988,
                -0.448279939
              ],
              [
                114.628282313,
                -0.447555392
              ],
              [
                114.629868964,
                -0.446156363
              ],
              [
                114.631257051,
                -0.444457815
              ],
              [
                114.631975909,
                -0.443633499
              ],
              [
                114.632298238,
                -0.443433592
              ],
              [
                114.632670281,
                -0.443458377
              ],
              [
                114.632967967,
                -0.443583072
              ],
              [
                114.633116938,
                -0.443907588
              ],
              [
                114.633389882,
                -0.444157137
              ],
              [
                114.633588286,
                -0.44413207
              ],
              [
                114.633687458,
                -0.444057116
              ],
              [
                114.633712162,
                -0.443857356
              ],
              [
                114.633488761,
                -0.44348294
              ],
              [
                114.633463849,
                -0.443258237
              ],
              [
                114.633612527,
                -0.44298351
              ],
              [
                114.634058878,
                -0.442808511
              ],
              [
                114.634629397,
                -0.442958039
              ],
              [
                114.635199965,
                -0.443207441
              ],
              [
                114.635671324,
                -0.443456892
              ],
              [
                114.635944158,
                -0.443481725
              ],
              [
                114.636589009,
                -0.443481405
              ],
              [
                114.637109898,
                -0.443581021
              ],
              [
                114.637482196,
                -0.444130139
              ],
              [
                114.637557226,
                -0.445403486
              ],
              [
                114.637780505,
                -0.445528217
              ],
              [
                114.637855156,
                -0.446027546
              ],
              [
                114.638152865,
                -0.446202175
              ],
              [
                114.638029618,
                -0.447750272
              ],
              [
                114.63785656,
                -0.448873932
              ],
              [
                114.637757636,
                -0.449448253
              ],
              [
                114.63753458,
                -0.449772953
              ],
              [
                114.637212638,
                -0.450746879
              ],
              [
                114.637089013,
                -0.45152096
              ],
              [
                114.637015129,
                -0.452569667
              ],
              [
                114.636891356,
                -0.453044128
              ],
              [
                114.636594082,
                -0.453743392
              ],
              [
                114.636147983,
                -0.454417763
              ],
              [
                114.636048888,
                -0.454642529
              ],
              [
                114.636024324,
                -0.45511694
              ],
              [
                114.636148873,
                -0.456190516
              ],
              [
                114.636322876,
                -0.456964446
              ],
              [
                114.636303826,
                -0.456964229
              ],
              [
                114.63640222,
                -0.457418767
              ],
              [
                114.636402517,
                -0.458007008
              ],
              [
                114.636208073,
                -0.45866071
              ],
              [
                114.63594877,
                -0.459445165
              ],
              [
                114.63542967,
                -0.460033673
              ],
              [
                114.634715911,
                -0.460851044
              ],
              [
                114.634261702,
                -0.46137416
              ],
              [
                114.634099622,
                -0.461831766
              ],
              [
                114.633970172,
                -0.462616157
              ],
              [
                114.634068326,
                -0.464119394
              ],
              [
                114.634036165,
                -0.464707654
              ],
              [
                114.633874137,
                -0.465263301
              ],
              [
                114.633420081,
                -0.466080542
              ],
              [
                114.632933411,
                -0.466603679
              ],
              [
                114.632414296,
                -0.467159513
              ],
              [
                114.63218731,
                -0.467649835
              ],
              [
                114.632219908,
                -0.46791126
              ],
              [
                114.632414801,
                -0.46813992
              ],
              [
                114.632642241,
                -0.468531964
              ],
              [
                114.632739881,
                -0.469022116
              ],
              [
                114.63264273,
                -0.46947969
              ],
              [
                114.632513066,
                -0.46983924
              ],
              [
                114.632545663,
                -0.470100665
              ],
              [
                114.632740591,
                -0.470394685
              ],
              [
                114.63277324,
                -0.47075415
              ],
              [
                114.63283847,
                -0.47134236
              ],
              [
                114.632741371,
                -0.471897975
              ],
              [
                114.632384469,
                -0.472257645
              ],
              [
                114.63095671,
                -0.473402207
              ],
              [
                114.630943355,
                -0.47340234
              ],
              [
                114.630451402,
                -0.473876556
              ],
              [
                114.630286417,
                -0.474109342
              ],
              [
                114.630286573,
                -0.474408527
              ],
              [
                114.630616943,
                -0.474707536
              ],
              [
                114.631046254,
                -0.474773795
              ],
              [
                114.631574786,
                -0.475139184
              ],
              [
                114.632070436,
                -0.475770532
              ],
              [
                114.632434193,
                -0.476767619
              ],
              [
                114.632831024,
                -0.477864415
              ],
              [
                114.633227577,
                -0.478429328
              ],
              [
                114.63332678,
                -0.478695216
              ],
              [
                114.633062856,
                -0.479160754
              ],
              [
                114.632237675,
                -0.479826048
              ],
              [
                114.631346697,
                -0.480956777
              ],
              [
                114.630125577,
                -0.482220656
              ],
              [
                114.628244062,
                -0.483551379
              ],
              [
                114.626560798,
                -0.485114701
              ],
              [
                114.624746069,
                -0.487841602
              ],
              [
                114.623954317,
                -0.489271479
              ],
              [
                114.623591472,
                -0.490003023
              ],
              [
                114.623294904,
                -0.491166689
              ],
              [
                114.623283511,
                -0.491163941
              ],
              [
                114.623151285,
                -0.492099359
              ],
              [
                114.623090053,
                -0.493503545
              ],
              [
                114.623617809,
                -0.495032221
              ],
              [
                114.62420749,
                -0.496436047
              ],
              [
                114.625262177,
                -0.497964427
              ],
              [
                114.626533936,
                -0.499679902
              ],
              [
                114.627774514,
                -0.501052154
              ],
              [
                114.628177679,
                -0.50145757
              ],
              [
                114.626290166,
                -0.507262435
              ],
              [
                114.62610428,
                -0.507418557
              ],
              [
                114.625825267,
                -0.507325104
              ],
              [
                114.625391154,
                -0.507013316
              ],
              [
                114.624585093,
                -0.506701738
              ],
              [
                114.624058132,
                -0.506639628
              ],
              [
                114.623252295,
                -0.506733693
              ],
              [
                114.621857556,
                -0.506859293
              ],
              [
                114.621206558,
                -0.506703642
              ],
              [
                114.620059367,
                -0.506080219
              ],
              [
                114.619377406,
                -0.505986992
              ],
              [
                114.618540622,
                -0.506174684
              ],
              [
                114.61789002,
                -0.506736714
              ],
              [
                114.617146551,
                -0.507517222
              ],
              [
                114.616713025,
                -0.508266353
              ],
              [
                114.616662587,
                -0.50820806
              ],
              [
                114.616143305,
                -0.508960428
              ],
              [
                114.615503864,
                -0.510341863
              ],
              [
                114.614955549,
                -0.511124782
              ],
              [
                114.614681353,
                -0.511447189
              ],
              [
                114.614086921,
                -0.511539598
              ],
              [
                114.610474334,
                -0.51163372
              ],
              [
                114.605307019,
                -0.511912866
              ],
              [
                114.602700459,
                -0.512006416
              ],
              [
                114.601968777,
                -0.51200683
              ],
              [
                114.601557257,
                -0.512099136
              ],
              [
                114.600825858,
                -0.512605952
              ],
              [
                114.600597464,
                -0.513066447
              ],
              [
                114.600095103,
                -0.514263683
              ],
              [
                114.599226926,
                -0.515507165
              ],
              [
                114.597672587,
                -0.516382748
              ],
              [
                114.595569428,
                -0.517166573
              ],
              [
                114.594289207,
                -0.517581635
              ],
              [
                114.593466264,
                -0.517950401
              ],
              [
                114.59195762,
                -0.518779928
              ],
              [
                114.591043266,
                -0.519240822
              ],
              [
                114.590357279,
                -0.519195177
              ],
              [
                114.588802198,
                -0.518781733
              ],
              [
                114.58701833,
                -0.518138231
              ],
              [
                114.586057877,
                -0.51795463
              ],
              [
                114.585189377,
                -0.518645686
              ],
              [
                114.58442521,
                -0.519390172
              ],
              [
                114.584425031,
                -0.519393031
              ],
              [
                114.582399146,
                -0.52147484
              ],
              [
                114.580968957,
                -0.522676038
              ],
              [
                114.580412712,
                -0.523036472
              ],
              [
                114.5801346,
                -0.523236695
              ],
              [
                114.579896076,
                -0.523156807
              ],
              [
                114.579418824,
                -0.522636916
              ],
              [
                114.578981499,
                -0.522437104
              ],
              [
                114.57874302,
                -0.522437241
              ],
              [
                114.578425207,
                -0.522717512
              ],
              [
                114.578067715,
                -0.523117845
              ],
              [
                114.577511627,
                -0.523758369
              ],
              [
                114.577114207,
                -0.523838623
              ],
              [
                114.576915428,
                -0.523758712
              ],
              [
                114.576676903,
                -0.523678823
              ],
              [
                114.576319229,
                -0.523759054
              ],
              [
                114.576001506,
                -0.524199378
              ],
              [
                114.575683897,
                -0.524839766
              ],
              [
                114.575366197,
                -0.525320103
              ],
              [
                114.574889328,
                -0.52548043
              ],
              [
                114.574372644,
                -0.525520741
              ],
              [
                114.573617183,
                -0.525041021
              ],
              [
                114.573338388,
                -0.524040859
              ],
              [
                114.572979942,
                -0.522760651
              ],
              [
                114.572502551,
                -0.522000678
              ],
              [
                114.571468164,
                -0.520280711
              ],
              [
                114.570354488,
                -0.518920902
              ],
              [
                114.568683887,
                -0.51672113
              ],
              [
                114.56756997,
                -0.514921167
              ],
              [
                114.56772829,
                -0.513720683
              ],
              [
                114.567807029,
                -0.51236019
              ],
              [
                114.567528248,
                -0.511360017
              ],
              [
                114.567130646,
                -0.511120161
              ],
              [
                114.566176454,
                -0.510640536
              ],
              [
                114.56538136,
                -0.510360888
              ],
              [
                114.565261854,
                -0.509880795
              ],
              [
                114.565539467,
                -0.508760268
              ],
              [
                114.565499412,
                -0.508200105
              ],
              [
                114.565141426,
                -0.507720145
              ],
              [
                114.564226696,
                -0.50672032
              ],
              [
                114.56410704,
                -0.505960133
              ],
              [
                114.564584921,
                -0.504725354
              ],
              [
                114.564544176,
                -0.50472545
              ],
              [
                114.564860503,
                -0.503874843
              ],
              [
                114.564648847,
                -0.503024528
              ],
              [
                114.563961778,
                -0.501749257
              ],
              [
                114.563433248,
                -0.500739657
              ],
              [
                114.563221424,
                -0.499570427
              ],
              [
                114.563378617,
                -0.497337954
              ],
              [
                114.563852975,
                -0.495796286
              ],
              [
                114.5644859,
                -0.494573446
              ],
              [
                114.564643869,
                -0.49377608
              ],
              [
                114.564485248,
                -0.49335095
              ],
              [
                114.564010007,
                -0.493244902
              ],
              [
                114.563534993,
                -0.493564071
              ],
              [
                114.562426287,
                -0.493670974
              ],
              [
                114.561739682,
                -0.493246128
              ],
              [
                114.56136967,
                -0.492449044
              ],
              [
                114.561633097,
                -0.491385859
              ],
              [
                114.564217769,
                -0.486760242
              ],
              [
                114.565062539,
                -0.486759792
              ],
              [
                114.56611822,
                -0.48622771
              ],
              [
                114.567701406,
                -0.484791767
              ],
              [
                114.570339438,
                -0.481229203
              ],
              [
                114.571816916,
                -0.479580724
              ],
              [
                114.572765706,
                -0.476550587
              ],
              [
                114.573081752,
                -0.47511533
              ],
              [
                114.573045707,
                -0.474361529
              ],
              [
                114.573008396,
                -0.474360498
              ],
              [
                114.572897658,
                -0.472427094
              ],
              [
                114.572841994,
                -0.470880353
              ],
              [
                114.572621656,
                -0.469223213
              ],
              [
                114.572455329,
                -0.46585355
              ],
              [
                114.572290786,
                -0.464096238
              ],
              [
                114.572290096,
                -0.464096649
              ],
              [
                114.572285829,
                -0.464043295
              ],
              [
                114.57212431,
                -0.462318243
              ],
              [
                114.572151211,
                -0.46230457
              ],
              [
                114.572015424,
                -0.460161825
              ],
              [
                114.571954035,
                -0.45857567
              ],
              [
                114.57207504,
                -0.458179062
              ],
              [
                114.572347697,
                -0.458087414
              ],
              [
                114.572711347,
                -0.458178742
              ],
              [
                114.572953704,
                -0.45808711
              ],
              [
                114.572983717,
                -0.457507527
              ],
              [
                114.572861581,
                -0.455616367
              ],
              [
                114.572891311,
                -0.454457217
              ],
              [
                114.573133398,
                -0.453816522
              ],
              [
                114.574041644,
                -0.45226039
              ],
              [
                114.574314063,
                -0.451680688
              ],
              [
                114.574525881,
                -0.451101016
              ],
              [
                114.575040717,
                -0.450551698
              ],
              [
                114.575949262,
                -0.449605642
              ],
              [
                114.576282253,
                -0.448964905
              ],
              [
                114.576312301,
                -0.448446331
              ],
              [
                114.576403053,
                -0.448141252
              ],
              [
                114.576887782,
                -0.447988497
              ],
              [
                114.577372599,
                -0.448018761
              ],
              [
                114.578099891,
                -0.448201424
              ],
              [
                114.578948309,
                -0.448231509
              ],
              [
                114.581614713,
                -0.448230195
              ],
              [
                114.583584181,
                -0.448168218
              ],
              [
                114.584159924,
                -0.448259443
              ],
              [
                114.587191088,
                -0.450667691
              ],
              [
                114.588373364,
                -0.451856723
              ],
              [
                114.588949225,
                -0.452191969
              ],
              [
                114.589737109,
                -0.452374594
              ],
              [
                114.591161196,
                -0.452373884
              ],
              [
                114.591979287,
                -0.452373476
              ],
              [
                114.591940501,
                -0.45239657
              ],
              [
                114.5921914,
                -0.452403873
              ],
              [
                114.592948937,
                -0.452495004
              ],
              [
                114.593585349,
                -0.452738709
              ],
              [
                114.594615912,
                -0.453500765
              ],
              [
                114.595282865,
                -0.454232498
              ],
              [
                114.596070985,
                -0.454903164
              ],
              [
                114.596404386,
                -0.455116516
              ],
              [
                114.596980032,
                -0.455024719
              ],
              [
                114.597373865,
                -0.45490251
              ],
              [
                114.597707235,
                -0.455054856
              ],
              [
                114.598798516,
                -0.456060896
              ],
              [
                114.599829062,
                -0.45679244
              ],
              [
                114.600495862,
                -0.457219141
              ],
              [
                114.600920054,
                -0.457218926
              ],
              [
                114.601404692,
                -0.456913655
              ],
              [
                114.601859106,
                -0.456760913
              ],
              [
                114.602737909,
                -0.457004489
              ],
              [
                114.603465214,
                -0.457248141
              ],
              [
                114.603768329,
                -0.457492008
              ],
              [
                114.603677492,
                -0.457614064
              ],
              [
                114.603526118,
                -0.457858161
              ],
              [
                114.603556631,
                -0.458285181
              ],
              [
                114.603981065,
                -0.458773006
              ],
              [
                114.604587418,
                -0.459504758
              ],
              [
                114.605163702,
                -0.460694062
              ],
              [
                114.605861308,
                -0.462127321
              ],
              [
                114.606256062,
                -0.463835256
              ],
              [
                114.606681336,
                -0.465970207
              ],
              [
                114.60683347,
                -0.467220728
              ],
              [
                114.606713178,
                -0.468989931
              ],
              [
                114.606659586,
                -0.468932674
              ],
              [
                114.606501615,
                -0.470027123
              ],
              [
                114.606441613,
                -0.471186247
              ],
              [
                114.606653959,
                -0.471674175
              ],
              [
                114.607441913,
                -0.47200929
              ],
              [
                114.60877544,
                -0.472710147
              ],
              [
                114.60977555,
                -0.473167158
              ],
              [
                114.610230101,
                -0.473288928
              ],
              [
                114.610502761,
                -0.473227781
              ],
              [
                114.610563186,
                -0.472892224
              ],
              [
                114.610653626,
                -0.47200761
              ],
              [
                114.610713894,
                -0.47136703
              ],
              [
                114.610835043,
                -0.47127546
              ],
              [
                114.611350333,
                -0.47167172
              ],
              [
                114.612047432,
                -0.472098387
              ],
              [
                114.61256258,
                -0.472220126
              ],
              [
                114.613531708,
                -0.471365557
              ],
              [
                114.613536639,
                -0.471379811
              ],
              [
                114.614431577,
                -0.470502311
              ],
              [
                114.615177759,
                -0.469586857
              ],
              [
                114.615729213,
                -0.468769548
              ],
              [
                114.61605371,
                -0.468507933
              ],
              [
                114.61657302,
                -0.468311578
              ],
              [
                114.617384413,
                -0.467951667
              ],
              [
                114.617643867,
                -0.467461321
              ],
              [
                114.618195254,
                -0.466513293
              ],
              [
                114.618292025,
                -0.465304055
              ],
              [
                114.618453874,
                -0.46438891
              ],
              [
                114.619134949,
                -0.463114011
              ],
              [
                114.619783861,
                -0.462427382
              ],
              [
                114.61988072,
                -0.46138155
              ],
              [
                114.620075184,
                -0.460760517
              ],
              [
                114.621600249,
                -0.45938715
              ],
              [
                114.622768353,
                -0.458275413
              ],
              [
                114.623546919,
                -0.457196557
              ],
              [
                114.62382728,
                -0.456537075
              ]
            ]
          ]
        ]
      }
    }
  ]
}