{
  "type": "FeatureCollection",
  "features": [
    {
      "type": "Feature",
      "properties": {
        "idx": "3040",
        "nama_kewilayahan": "Lemauk"
      },
      "geometry": {
        "type": "Polygon",
        "coordinates": [
          [
            [
              132.181418734,
              -1.3090458
            ],
            [
              132.181507184,
              -1.308340068
            ],
            [
              132.180938887,
              -1.306713648
            ],
            [
              132.180561052,
              -1.30470491
            ],
            [
              132.180182469,
              -1.303365609
            ],
            [
              132.179993922,
              -1.302026523
            ],
            [
              132.179994879,
              -1.30116582
            ],
            [
              132.179710674,
              -1.30040043
            ],
            [
              132.17904629,
              -1.299730246
            ],
            [
              132.177620911,
              -1.299824275
            ],
            [
              132.17609956,
              -1.300778898
            ],
            [
              132.174958812,
              -1.301255779
            ],
            [
              132.173533225,
              -1.30154107
            ],
            [
              132.172488029,
              -1.30153989
            ],
            [
              132.171441875,
              -1.302399407
            ],
            [
              132.17011024,
              -1.30364113
            ],
            [
              132.169788336,
              -1.303640766
            ],
            [
              132.168970029,
              -1.303639839
            ],
            [
              132.166213347,
              -1.304688676
            ],
            [
              132.165262746,
              -1.305070128
            ],
            [
              132.163170759,
              -1.306502238
            ],
            [
              132.16184052,
              -1.306500725
            ],
            [
              132.160130967,
              -1.305829355
            ],
            [
              132.160037131,
              -1.304777294
            ],
            [
              132.159978213,
              -1.302935863
            ],
            [
              132.159849136,
              -1.30296007
            ],
            [
              132.156905337,
              -1.301426615
            ],
            [
              132.155195257,
              -1.30123341
            ],
            [
              132.152819101,
              -1.301900131
            ],
            [
              132.151571861,
              -1.302436445
            ],
            [
              132.151570724,
              -1.303447843
            ],
            [
              132.149430307,
              -1.305716647
            ],
            [
              132.148595679,
              -1.30858463
            ],
            [
              132.150728131,
              -1.313368639
            ],
            [
              132.152269708,
              -1.315522118
            ],
            [
              132.153335931,
              -1.317914133
            ],
            [
              132.154283653,
              -1.320066936
            ],
            [
              132.154636971,
              -1.322697215
            ],
            [
              132.154753834,
              -1.324370905
            ],
            [
              132.154157928,
              -1.32616331
            ],
            [
              132.152663458,
              -1.326161579
            ],
            [
              132.153527724,
              -1.32985326
            ],
            [
              132.153523332,
              -1.333678519
            ],
            [
              132.152379158,
              -1.33711992
            ],
            [
              132.152375625,
              -1.340180124
            ],
            [
              132.152370975,
              -1.344196641
            ],
            [
              132.15274705,
              -1.347639818
            ],
            [
              132.152934416,
              -1.349935196
            ],
            [
              132.150266097,
              -1.35662624
            ],
            [
              132.153494251,
              -1.358733962
            ],
            [
              132.154251258,
              -1.361412546
            ],
            [
              132.156529685,
              -1.363136626
            ],
            [
              132.157667665,
              -1.365050618
            ],
            [
              132.157812532,
              -1.36563677
            ],
            [
              132.160157651,
              -1.365312584
            ],
            [
              132.162533132,
              -1.365315409
            ],
            [
              132.165002628,
              -1.366179036
            ],
            [
              132.168518133,
              -1.366374476
            ],
            [
              132.171083673,
              -1.36637752
            ],
            [
              132.172794036,
              -1.366379548
            ],
            [
              132.174791474,
              -1.364660514
            ],
            [
              132.17602897,
              -1.362749308
            ],
            [
              132.17622057,
              -1.361410666
            ],
            [
              132.176032755,
              -1.359497775
            ],
            [
              132.17603631,
              -1.356437509
            ],
            [
              132.176801123,
              -1.3524218
            ],
            [
              132.176518494,
              -1.350317532
            ],
            [
              132.175856776,
              -1.347352121
            ],
            [
              132.176526975,
              -1.342953762
            ],
            [
              132.176433711,
              -1.341423517
            ],
            [
              132.175961902,
              -1.338553965
            ],
            [
              132.176148755,
              -1.333717992
            ],
            [
              132.176157733,
              -1.333485617
            ],
            [
              132.177585092,
              -1.331670228
            ],
            [
              132.177681743,
              -1.330235835
            ],
            [
              132.179678995,
              -1.328612361
            ],
            [
              132.181296385,
              -1.326797175
            ],
            [
              132.182248743,
              -1.324885588
            ],
            [
              132.181679924,
              -1.323737329
            ],
            [
              132.182251768,
              -1.32220784
            ],
            [
              132.181492909,
              -1.321059365
            ],
            [
              132.181323869,
              -1.320957022
            ],
            [
              132.180068592,
              -1.320197033
            ],
            [
              132.180070101,
              -1.318858161
            ],
            [
              132.180261216,
              -1.317902041
            ],
            [
              132.179977343,
              -1.316849745
            ],
            [
              132.179409165,
              -1.31512769
            ],
            [
              132.179126042,
              -1.313405961
            ],
            [
              132.179318009,
              -1.311684771
            ],
            [
              132.180174998,
              -1.310059969
            ],
            [
              132.18141131,
              -1.309105031
            ],
            [
              132.181418734,
              -1.3090458
            ]
          ]
        ]
      }
    }
  ]
}