{
  "type": "FeatureCollection",
  "features": [
    {
      "type": "Feature",
      "properties": {
        "idx": "3045",
        "nama_kewilayahan": "Bleskadit"
      },
      "geometry": {
        "type": "Polygon",
        "coordinates": [
          [
            [
              132.11727577,
              -1.204970369
            ],
            [
              132.116565546,
              -1.204304555
            ],
            [
              132.11575418,
              -1.202770881
            ],
            [
              132.11498693,
              -1.202364599
            ],
            [
              132.113914735,
              -1.202830124
            ],
            [
              132.112660001,
              -1.203410207
            ],
            [
              132.111345639,
              -1.202873288
            ],
            [
              132.11006226,
              -1.201785585
            ],
            [
              132.109349072,
              -1.200568437
            ],
            [
              132.109125186,
              -1.200105206
            ],
            [
              132.108319842,
              -1.19979069
            ],
            [
              132.107027338,
              -1.200156524
            ],
            [
              132.106381666,
              -1.199788625
            ],
            [
              132.105858586,
              -1.198487532
            ],
            [
              132.105023805,
              -1.19725496
            ],
            [
              132.104218456,
              -1.196948095
            ],
            [
              132.103313761,
              -1.197153688
            ],
            [
              132.102439541,
              -1.197290461
            ],
            [
              132.102151287,
              -1.196746991
            ],
            [
              132.101425262,
              -1.195696231
            ],
            [
              132.100525791,
              -1.195483448
            ],
            [
              132.099532429,
              -1.197070368
            ],
            [
              132.100099154,
              -1.200226669
            ],
            [
              132.096487643,
              -1.201370331
            ],
            [
              132.093826417,
              -1.202323748
            ],
            [
              132.091165499,
              -1.202990279
            ],
            [
              132.089549462,
              -1.203849179
            ],
            [
              132.088029042,
              -1.204134423
            ],
            [
              132.088028026,
              -1.205090683
            ],
            [
              132.088122118,
              -1.20595142
            ],
            [
              132.088121304,
              -1.206716428
            ],
            [
              132.08802477,
              -1.208150716
            ],
            [
              132.087738116,
              -1.209680425
            ],
            [
              132.087642905,
              -1.209871574
            ],
            [
              132.085646936,
              -1.210634423
            ],
            [
              132.08346208,
              -1.210345179
            ],
            [
              132.081656949,
              -1.210343223
            ],
            [
              132.079661808,
              -1.21034106
            ],
            [
              132.076716606,
              -1.210337864
            ],
            [
              132.076564426,
              -1.210371197
            ],
            [
              132.073675687,
              -1.211003935
            ],
            [
              132.072155179,
              -1.211384781
            ],
            [
              132.069969117,
              -1.212243022
            ],
            [
              132.067403137,
              -1.213005219
            ],
            [
              132.064931857,
              -1.214054386
            ],
            [
              132.063695236,
              -1.215487394
            ],
            [
              132.063123859,
              -1.216729881
            ],
            [
              132.059608352,
              -1.217012895
            ],
            [
              132.056663714,
              -1.216531542
            ],
            [
              132.054480782,
              -1.214521055
            ],
            [
              132.05248724,
              -1.213084519
            ],
            [
              132.049827638,
              -1.212603486
            ],
            [
              132.048115489,
              -1.21451406
            ],
            [
              132.047163578,
              -1.216234219
            ],
            [
              132.045927381,
              -1.217284705
            ],
            [
              132.043171225,
              -1.218237885
            ],
            [
              132.043074969,
              -1.219385245
            ],
            [
              132.044877954,
              -1.221299688
            ],
            [
              132.045446201,
              -1.222925899
            ],
            [
              132.046583004,
              -1.225891459
            ],
            [
              132.045629915,
              -1.228663452
            ],
            [
              132.045817399,
              -1.230958601
            ],
            [
              132.045815501,
              -1.232679804
            ],
            [
              132.045908501,
              -1.234496735
            ],
            [
              132.044386419,
              -1.236311857
            ],
            [
              132.042198772,
              -1.238604335
            ],
            [
              132.040295922,
              -1.241088368
            ],
            [
              132.039058203,
              -1.24347752
            ],
            [
              132.037821332,
              -1.245101693
            ],
            [
              132.03582464,
              -1.246533757
            ],
            [
              132.033542613,
              -1.248252354
            ],
            [
              132.031450486,
              -1.25006678
            ],
            [
              132.030116987,
              -1.253125137
            ],
            [
              132.028974566,
              -1.255227495
            ],
            [
              132.028685119,
              -1.259147624
            ],
            [
              132.030202365,
              -1.261635515
            ],
            [
              132.031626561,
              -1.262402122
            ],
            [
              132.035707958,
              -1.265753568
            ],
            [
              132.036750946,
              -1.267571581
            ],
            [
              132.037888612,
              -1.269676571
            ],
            [
              132.040450268,
              -1.27273943
            ],
            [
              132.042063726,
              -1.274175627
            ],
            [
              132.043296398,
              -1.276280742
            ],
            [
              132.044529617,
              -1.27790775
            ],
            [
              132.046905645,
              -1.277145521
            ],
            [
              132.049093081,
              -1.275139974
            ],
            [
              132.051183549,
              -1.274855518
            ],
            [
              132.054698795,
              -1.274859571
            ],
            [
              132.056408593,
              -1.27514841
            ],
            [
              132.058876168,
              -1.277446217
            ],
            [
              132.059348917,
              -1.279454859
            ],
            [
              132.060010369,
              -1.282611204
            ],
            [
              132.061144663,
              -1.287680578
            ],
            [
              132.062471702,
              -1.290359588
            ],
            [
              132.06427488,
              -1.292082917
            ],
            [
              132.06731471,
              -1.292468951
            ],
            [
              132.069594149,
              -1.293140972
            ],
            [
              132.071392942,
              -1.298689294
            ],
            [
              132.073005784,
              -1.300699297
            ],
            [
              132.076615153,
              -1.301564137
            ],
            [
              132.080226297,
              -1.300898972
            ],
            [
              132.082699085,
              -1.298702463
            ],
            [
              132.085171541,
              -1.296792819
            ],
            [
              132.089634405,
              -1.299093021
            ],
            [
              132.092862693,
              -1.300913667
            ],
            [
              132.0942849,
              -1.303497236
            ],
            [
              132.096941377,
              -1.306847262
            ],
            [
              132.100455604,
              -1.307903249
            ],
            [
              132.1023475,
              -1.308191121
            ],
            [
              132.102355515,
              -1.308192341
            ],
            [
              132.108248253,
              -1.306477887
            ],
            [
              132.111482723,
              -1.302943395
            ],
            [
              132.11433637,
              -1.300077839
            ],
            [
              132.117567787,
              -1.299220899
            ],
            [
              132.120611781,
              -1.296068643
            ],
            [
              132.122894366,
              -1.294063045
            ],
            [
              132.124415981,
              -1.292821604
            ],
            [
              132.124893092,
              -1.291005193
            ],
            [
              132.126130199,
              -1.289285273
            ],
            [
              132.125467465,
              -1.287180676
            ],
            [
              132.124559198,
              -1.286294996
            ],
            [
              132.122620178,
              -1.2844042
            ],
            [
              132.120628012,
              -1.281628703
            ],
            [
              132.11853998,
              -1.279618135
            ],
            [
              132.116833067,
              -1.276651718
            ],
            [
              132.117596358,
              -1.273783722
            ],
            [
              132.119978659,
              -1.267474902
            ],
            [
              132.119984252,
              -1.262406581
            ],
            [
              132.118751624,
              -1.260110116
            ],
            [
              132.116285211,
              -1.256569112
            ],
            [
              132.114006305,
              -1.255323409
            ],
            [
              132.109638216,
              -1.253119107
            ],
            [
              132.105365262,
              -1.250819292
            ],
            [
              132.101472785,
              -1.248137402
            ],
            [
              132.09929018,
              -1.245744301
            ],
            [
              132.099104133,
              -1.242110266
            ],
            [
              132.099107364,
              -1.23914583
            ],
            [
              132.100156624,
              -1.235321901
            ],
            [
              132.100919393,
              -1.232836432
            ],
            [
              132.103768742,
              -1.233700202
            ],
            [
              132.106617997,
              -1.234659602
            ],
            [
              132.112700393,
              -1.233040582
            ],
            [
              132.116123545,
              -1.230462349
            ],
            [
              132.116887733,
              -1.226638038
            ],
            [
              132.11508612,
              -1.223289087
            ],
            [
              132.112241334,
              -1.218122083
            ],
            [
              132.11167372,
              -1.215826394
            ],
            [
              132.112531853,
              -1.212958472
            ],
            [
              132.114149851,
              -1.210282616
            ],
            [
              132.117098986,
              -1.206651888
            ],
            [
              132.11727577,
              -1.204970369
            ]
          ]
        ]
      }
    }
  ]
}