{
  "type": "FeatureCollection",
  "features": [
    {
      "type": "Feature",
      "properties": {
        "idx": "3056",
        "nama_kewilayahan": "Batu Rentek"
      },
      "geometry": {
        "type": "Polygon",
        "coordinates": [
          [
            [
              116.529932076,
              -8.56756755
            ],
            [
              116.530130488,
              -8.567483508
            ],
            [
              116.530128087,
              -8.567481112
            ],
            [
              116.530337474,
              -8.567309059
            ],
            [
              116.530539666,
              -8.567122638
            ],
            [
              116.530933369,
              -8.566308803
            ],
            [
              116.531405763,
              -8.565371256
            ],
            [
              116.530752108,
              -8.565112001
            ],
            [
              116.530454561,
              -8.564633007
            ],
            [
              116.529996729,
              -8.564806155
            ],
            [
              116.529942709,
              -8.564743268
            ],
            [
              116.529429355,
              -8.56428196
            ],
            [
              116.529323863,
              -8.564040122
            ],
            [
              116.529184346,
              -8.564094995
            ],
            [
              116.528723206,
              -8.563699561
            ],
            [
              116.528662034,
              -8.563588205
            ],
            [
              116.528615508,
              -8.563297379
            ],
            [
              116.528444108,
              -8.562885546
            ],
            [
              116.528781503,
              -8.562239803
            ],
            [
              116.526349212,
              -8.560579566
            ],
            [
              116.525832833,
              -8.560142182
            ],
            [
              116.523669292,
              -8.559894224
            ],
            [
              116.523410677,
              -8.560019546
            ],
            [
              116.523019715,
              -8.560234448
            ],
            [
              116.52193093,
              -8.560915155
            ],
            [
              116.522410965,
              -8.561573867
            ],
            [
              116.522331422,
              -8.561735307
            ],
            [
              116.521497834,
              -8.563100771
            ],
            [
              116.521370338,
              -8.563155656
            ],
            [
              116.519473463,
              -8.561547592
            ],
            [
              116.519368317,
              -8.561514556
            ],
            [
              116.518987063,
              -8.561176048
            ],
            [
              116.518911576,
              -8.56145715
            ],
            [
              116.518640687,
              -8.561781325
            ],
            [
              116.518605017,
              -8.561811435
            ],
            [
              116.518417118,
              -8.562101969
            ],
            [
              116.518117292,
              -8.562492877
            ],
            [
              116.517764558,
              -8.562894787
            ],
            [
              116.517142163,
              -8.563788094
            ],
            [
              116.516660688,
              -8.564275697
            ],
            [
              116.516814418,
              -8.564390761
            ],
            [
              116.517429592,
              -8.56464999
            ],
            [
              116.517496032,
              -8.565348876
            ],
            [
              116.51780365,
              -8.565454559
            ],
            [
              116.51791884,
              -8.56562701
            ],
            [
              116.518100736,
              -8.566287748
            ],
            [
              116.518725447,
              -8.566613996
            ],
            [
              116.519032898,
              -8.566853695
            ],
            [
              116.519263484,
              -8.567035862
            ],
            [
              116.520079907,
              -8.567869696
            ],
            [
              116.521712799,
              -8.569508642
            ],
            [
              116.522907274,
              -8.570375246
            ],
            [
              116.523603992,
              -8.570809866
            ],
            [
              116.523994224,
              -8.571190262
            ],
            [
              116.524081359,
              -8.571208318
            ],
            [
              116.524105354,
              -8.571247236
            ],
            [
              116.52448675,
              -8.571484031
            ],
            [
              116.525141065,
              -8.572184835
            ],
            [
              116.525413678,
              -8.572411324
            ],
            [
              116.525650505,
              -8.572412811
            ],
            [
              116.525842042,
              -8.572097149
            ],
            [
              116.525921396,
              -8.572088871
            ],
            [
              116.52616656,
              -8.572153787
            ],
            [
              116.526395003,
              -8.572130136
            ],
            [
              116.526731878,
              -8.571915164
            ],
            [
              116.527284597,
              -8.572143191
            ],
            [
              116.527921056,
              -8.572706363
            ],
            [
              116.528091909,
              -8.572589307
            ],
            [
              116.528730981,
              -8.572008549
            ],
            [
              116.529454887,
              -8.572631175
            ],
            [
              116.529649369,
              -8.572851583
            ],
            [
              116.529848395,
              -8.57328738
            ],
            [
              116.529911194,
              -8.57305532
            ],
            [
              116.529980979,
              -8.573007542
            ],
            [
              116.530182927,
              -8.573022147
            ],
            [
              116.53042095,
              -8.573029616
            ],
            [
              116.53121407,
              -8.573289041
            ],
            [
              116.531855472,
              -8.573749306
            ],
            [
              116.532617542,
              -8.574592347
            ],
            [
              116.532599273,
              -8.574786171
            ],
            [
              116.532858659,
              -8.575019819
            ],
            [
              116.533039298,
              -8.574765165
            ],
            [
              116.533317283,
              -8.574535758
            ],
            [
              116.533432824,
              -8.574428205
            ],
            [
              116.534081526,
              -8.574820271
            ],
            [
              116.534351567,
              -8.57519034
            ],
            [
              116.534571528,
              -8.575222913
            ],
            [
              116.534715589,
              -8.575388215
            ],
            [
              116.535011331,
              -8.575384982
            ],
            [
              116.535433591,
              -8.575144977
            ],
            [
              116.535874026,
              -8.574786532
            ],
            [
              116.536603033,
              -8.574388946
            ],
            [
              116.537018251,
              -8.574005342
            ],
            [
              116.537047295,
              -8.573847428
            ],
            [
              116.537238598,
              -8.573718426
            ],
            [
              116.537653174,
              -8.572870546
            ],
            [
              116.537711156,
              -8.572640872
            ],
            [
              116.529932076,
              -8.56756755
            ]
          ]
        ]
      }
    }
  ]
}