{
  "type": "FeatureCollection",
  "features": [
    {
      "type": "Feature",
      "properties": {
        "idx": "3057",
        "nama_kewilayahan": "Ngguwu Ponda"
      },
      "geometry": {
        "type": "MultiPolygon",
        "coordinates": [
          [
            [
              [
                117.882772694,
                -8.099106129
              ],
              [
                117.882620279,
                -8.099059232
              ],
              [
                117.882610761,
                -8.099073509
              ],
              [
                117.882757949,
                -8.099167954
              ],
              [
                117.88279858,
                -8.099124198
              ],
              [
                117.882772694,
                -8.099106129
              ]
            ]
          ],
          [
            [
              [
                117.882277481,
                -8.098966615
              ],
              [
                117.882381738,
                -8.098972382
              ],
              [
                117.882708914,
                -8.099061612
              ],
              [
                117.882772694,
                -8.099106129
              ],
              [
                117.882805877,
                -8.099116339
              ],
              [
                117.88279858,
                -8.099124198
              ],
              [
                117.884038438,
                -8.099989602
              ],
              [
                117.882757949,
                -8.099167954
              ],
              [
                117.882620279,
                -8.099316214
              ],
              [
                117.882620279,
                -8.099587473
              ],
              [
                117.882834431,
                -8.099987222
              ],
              [
                117.883119966,
                -8.100229927
              ],
              [
                117.883348394,
                -8.100558293
              ],
              [
                117.883376948,
                -8.101015149
              ],
              [
                117.884281143,
                -8.101110328
              ],
              [
                117.885423284,
                -8.101110328
              ],
              [
                117.88627989,
                -8.101015149
              ],
              [
                117.88627989,
                -8.101871755
              ],
              [
                117.88627989,
                -8.102966307
              ],
              [
                117.886517836,
                -8.104822287
              ],
              [
                117.885756409,
                -8.105298179
              ],
              [
                117.885613641,
                -8.106202374
              ],
              [
                117.885946766,
                -8.10705898
              ],
              [
                117.885708819,
                -8.108439068
              ],
              [
                117.885232927,
                -8.110342636
              ],
              [
                117.885185338,
                -8.112864865
              ],
              [
                117.885232927,
                -8.114816023
              ],
              [
                117.886137122,
                -8.116100932
              ],
              [
                117.887755156,
                -8.116529235
              ],
              [
                117.889135243,
                -8.117100306
              ],
              [
                117.889801492,
                -8.117956912
              ],
              [
                117.890110822,
                -8.119170437
              ],
              [
                117.891824034,
                -8.120669497
              ],
              [
                117.895678761,
                -8.126023284
              ],
              [
                117.899533488,
                -8.128878638
              ],
              [
                117.902868261,
                -8.134531904
              ],
              [
                117.904815891,
                -8.13637394
              ],
              [
                117.908170931,
                -8.140585586
              ],
              [
                117.911026285,
                -8.14458308
              ],
              [
                117.911026285,
                -8.144511696
              ],
              [
                117.914343063,
                -8.149788389
              ],
              [
                117.917509078,
                -8.15325593
              ],
              [
                117.919619756,
                -8.156421946
              ],
              [
                117.923087296,
                -8.159286436
              ],
              [
                117.924594923,
                -8.161849401
              ],
              [
                117.92896704,
                -8.163055502
              ],
              [
                117.93121991,
                -8.163062457
              ],
              [
                117.934230855,
                -8.168306912
              ],
              [
                117.938621206,
                -8.174735149
              ],
              [
                117.941567599,
                -8.179590915
              ],
              [
                117.943661145,
                -8.18295207
              ],
              [
                117.946523688,
                -8.188840534
              ],
              [
                117.947141934,
                -8.192928779
              ],
              [
                117.949140681,
                -8.196069667
              ],
              [
                117.95042559,
                -8.20170899
              ],
              [
                117.952428863,
                -8.207762284
              ],
              [
                117.952270095,
                -8.212549698
              ],
              [
                117.951961376,
                -8.215204804
              ],
              [
                117.95285264,
                -8.216485443
              ],
              [
                117.954423085,
                -8.217984503
              ],
              [
                117.957064286,
                -8.218769725
              ],
              [
                117.958920266,
                -8.218555574
              ],
              [
                117.959134418,
                -8.218198655
              ],
              [
                117.958420579,
                -8.217127897
              ],
              [
                117.958920266,
                -8.215486069
              ],
              [
                117.959634104,
                -8.213059019
              ],
              [
                117.95956272,
                -8.210489201
              ],
              [
                117.958420579,
                -8.207562464
              ],
              [
                117.958491963,
                -8.2056351
              ],
              [
                117.959063034,
                -8.20320805
              ],
              [
                117.960276559,
                -8.201352071
              ],
              [
                117.960704862,
                -8.198282566
              ],
              [
                117.961204549,
                -8.196355202
              ],
              [
                117.961918387,
                -8.196069667
              ],
              [
                117.963917134,
                -8.198425334
              ],
              [
                117.965487578,
                -8.201137919
              ],
              [
                117.96662972,
                -8.200495465
              ],
              [
                117.966344184,
                -8.198782253
              ],
              [
                117.965416195,
                -8.195427213
              ],
              [
                117.965130659,
                -8.192857395
              ],
              [
                117.964702356,
                -8.191144183
              ],
              [
                117.965416195,
                -8.189930658
              ],
              [
                117.967629093,
                -8.189859274
              ],
              [
                117.970056144,
                -8.191572486
              ],
              [
                117.971816945,
                -8.193047752
              ],
              [
                117.972673551,
                -8.193999536
              ],
              [
                117.97329221,
                -8.19556998
              ],
              [
                117.974719887,
                -8.196902479
              ],
              [
                117.975576493,
                -8.19804462
              ],
              [
                117.975814439,
                -8.199472296
              ],
              [
                117.977051759,
                -8.200138545
              ],
              [
                117.977432473,
                -8.199377118
              ],
              [
                117.976813813,
                -8.197663906
              ],
              [
                117.977337294,
                -8.196997657
              ],
              [
                117.977051759,
                -8.195474802
              ],
              [
                117.975195779,
                -8.193951947
              ],
              [
                117.973434978,
                -8.19252427
              ],
              [
                117.972578372,
                -8.191524897
              ],
              [
                117.971674177,
                -8.189954452
              ],
              [
                117.970912749,
                -8.188003294
              ],
              [
                117.969949068,
                -8.187848629
              ],
              [
                117.968164472,
                -8.184279438
              ],
              [
                117.965933727,
                -8.181305112
              ],
              [
                117.963554266,
                -8.180412814
              ],
              [
                117.961769671,
                -8.178330785
              ],
              [
                117.959687642,
                -8.176397473
              ],
              [
                117.959687642,
                -8.173274431
              ],
              [
                117.960431224,
                -8.171043686
              ],
              [
                117.957992276,
                -8.168039617
              ],
              [
                117.956862032,
                -8.166373994
              ],
              [
                117.955910248,
                -8.164827344
              ],
              [
                117.95501795,
                -8.162983262
              ],
              [
                117.953828219,
                -8.160901233
              ],
              [
                117.951805678,
                -8.158819205
              ],
              [
                117.950259028,
                -8.158283826
              ],
              [
                117.948868233,
                -8.154815762
              ],
              [
                117.948895221,
                -8.157092881
              ],
              [
                117.948493932,
                -8.156220957
              ],
              [
                117.94847751,
                -8.155434993
              ],
              [
                117.948363959,
                -8.155052793
              ],
              [
                117.947805606,
                -8.154267337
              ],
              [
                117.947740368,
                -8.153844942
              ],
              [
                117.946845613,
                -8.152997238
              ],
              [
                117.945811067,
                -8.152103716
              ],
              [
                117.944883943,
                -8.151135044
              ],
              [
                117.944272413,
                -8.150403989
              ],
              [
                117.944498469,
                -8.149363802
              ],
              [
                117.945170551,
                -8.148119959
              ],
              [
                117.944842185,
                -8.147077755
              ],
              [
                117.944608105,
                -8.14567491
              ],
              [
                117.944133268,
                -8.144831422
              ],
              [
                117.944025468,
                -8.144305212
              ],
              [
                117.944324647,
                -8.143115625
              ],
              [
                117.943984858,
                -8.141397934
              ],
              [
                117.943657213,
                -8.139768051
              ],
              [
                117.943300081,
                -8.1385619
              ],
              [
                117.943857088,
                -8.138054839
              ],
              [
                117.943814258,
                -8.137440938
              ],
              [
                117.94371432,
                -8.136470118
              ],
              [
                117.943642937,
                -8.135427914
              ],
              [
                117.942971929,
                -8.134571308
              ],
              [
                117.941984691,
                -8.133794841
              ],
              [
                117.941180754,
                -8.132740118
              ],
              [
                117.940150772,
                -8.131971934
              ],
              [
                117.939888147,
                -8.131306687
              ],
              [
                117.939412255,
                -8.130335867
              ],
              [
                117.938945881,
                -8.12952685
              ],
              [
                117.938489024,
                -8.129193726
              ],
              [
                117.937870364,
                -8.128870119
              ],
              [
                117.937280258,
                -8.128318084
              ],
              [
                117.937194597,
                -8.127965924
              ],
              [
                117.936823401,
                -8.127214014
              ],
              [
                117.936316442,
                -8.126361354
              ],
              [
                117.936124418,
                -8.125734671
              ],
              [
                117.935921086,
                -8.12549579
              ],
              [
                117.935747885,
                -8.125053464
              ],
              [
                117.93521374,
                -8.124719839
              ],
              [
                117.934674678,
                -8.124352657
              ],
              [
                117.934597306,
                -8.123466716
              ],
              [
                117.934529601,
                -8.123235555
              ],
              [
                117.934291655,
                -8.123159413
              ],
              [
                117.934167923,
                -8.122302807
              ],
              [
                117.933939495,
                -8.121903057
              ],
              [
                117.932868509,
                -8.121230581
              ],
              [
                117.932949639,
                -8.119780578
              ],
              [
                117.933044817,
                -8.118609883
              ],
              [
                117.932683139,
                -8.117648581
              ],
              [
                117.93242351,
                -8.116801633
              ],
              [
                117.932340497,
                -8.115764048
              ],
              [
                117.932154252,
                -8.115125506
              ],
              [
                117.932330979,
                -8.114536246
              ],
              [
                117.931978819,
                -8.113584462
              ],
              [
                117.931607623,
                -8.112499427
              ],
              [
                117.930888216,
                -8.112030564
              ],
              [
                117.930027661,
                -8.111147894
              ],
              [
                117.929513697,
                -8.110748144
              ],
              [
                117.92923768,
                -8.109501307
              ],
              [
                117.929009251,
                -8.108701808
              ],
              [
                117.929009607,
                -8.108015142
              ],
              [
                117.929401793,
                -8.107390522
              ],
              [
                117.929803443,
                -8.106645834
              ],
              [
                117.929709998,
                -8.105805302
              ],
              [
                117.929545326,
                -8.104828844
              ],
              [
                117.929906728,
                -8.103851743
              ],
              [
                117.929878268,
                -8.103358031
              ],
              [
                117.930275125,
                -8.103152905
              ],
              [
                117.930194016,
                -8.102689069
              ],
              [
                117.930236991,
                -8.102058322
              ],
              [
                117.930973952,
                -8.101519257
              ],
              [
                117.931849414,
                -8.101005238
              ],
              [
                117.932245318,
                -8.100516462
              ],
              [
                117.932488952,
                -8.100771536
              ],
              [
                117.93359099,
                -8.100769311
              ],
              [
                117.934252041,
                -8.100168323
              ],
              [
                117.934917638,
                -8.099621537
              ],
              [
                117.935662224,
                -8.099193481
              ],
              [
                117.936446893,
                -8.098710852
              ],
              [
                117.936708671,
                -8.097809571
              ],
              [
                117.936994723,
                -8.097071002
              ],
              [
                117.937201071,
                -8.096512656
              ],
              [
                117.938336739,
                -8.095433933
              ],
              [
                117.939279005,
                -8.094977077
              ],
              [
                117.939998775,
                -8.094544354
              ],
              [
                117.940385031,
                -8.093674165
              ],
              [
                117.94058651,
                -8.093023651
              ],
              [
                117.940612888,
                -8.092218291
              ],
              [
                117.940386322,
                -8.091298927
              ],
              [
                117.939659326,
                -8.090587369
              ],
              [
                117.940010303,
                -8.089051276
              ],
              [
                117.941084252,
                -8.087641216
              ],
              [
                117.941714203,
                -8.086790339
              ],
              [
                117.942331192,
                -8.08575874
              ],
              [
                117.94283059,
                -8.085094032
              ],
              [
                117.943249514,
                -8.084439984
              ],
              [
                117.943297335,
                -8.083703151
              ],
              [
                117.943184025,
                -8.083662366
              ],
              [
                117.942315105,
                -8.083550223
              ],
              [
                117.941763162,
                -8.083803128
              ],
              [
                117.940948378,
                -8.083707777
              ],
              [
                117.940259343,
                -8.083707949
              ],
              [
                117.939326594,
                -8.083517592
              ],
              [
                117.938422399,
                -8.083498557
              ],
              [
                117.937613382,
                -8.083498557
              ],
              [
                117.937023024,
                -8.083373021
              ],
              [
                117.936158284,
                -8.083295969
              ],
              [
                117.935082868,
                -8.082983639
              ],
              [
                117.934297687,
                -8.082863616
              ],
              [
                117.93373962,
                -8.082927486
              ],
              [
                117.933330353,
                -8.082889415
              ],
              [
                117.932816389,
                -8.08282279
              ],
              [
                117.931449003,
                -8.082468033
              ],
              [
                117.929722237,
                -8.081932353
              ],
              [
                117.928588632,
                -8.081528959
              ],
              [
                117.926935121,
                -8.080861002
              ],
              [
                117.925839809,
                -8.080319597
              ],
              [
                117.925317134,
                -8.080283326
              ],
              [
                117.924697668,
                -8.0804814
              ],
              [
                117.924269365,
                -8.08039574
              ],
              [
                117.92358408,
                -8.080548025
              ],
              [
                117.923117706,
                -8.080862114
              ],
              [
                117.922803617,
                -8.081166685
              ],
              [
                117.92239435,
                -8.081195238
              ],
              [
                117.921737619,
                -8.081395113
              ],
              [
                117.920842941,
                -8.081842452
              ],
              [
                117.919396229,
                -8.082508701
              ],
              [
                117.918025659,
                -8.082984593
              ],
              [
                117.916707617,
                -8.083507387
              ],
              [
                117.915650513,
                -8.083965791
              ],
              [
                117.914462182,
                -8.084548989
              ],
              [
                117.913604305,
                -8.085088915
              ],
              [
                117.912637647,
                -8.085645384
              ],
              [
                117.911632992,
                -8.086335985
              ],
              [
                117.910483629,
                -8.08709388
              ],
              [
                117.909849831,
                -8.087467498
              ],
              [
                117.909028996,
                -8.088032023
              ],
              [
                117.908411541,
                -8.088483421
              ],
              [
                117.907376975,
                -8.089240981
              ],
              [
                117.906426267,
                -8.089986792
              ],
              [
                117.905800014,
                -8.090522016
              ],
              [
                117.90510301,
                -8.090992961
              ],
              [
                117.904805503,
                -8.091310418
              ],
              [
                117.903977413,
                -8.092065221
              ],
              [
                117.902959868,
                -8.092901093
              ],
              [
                117.90208539,
                -8.093507154
              ],
              [
                117.90130503,
                -8.09403099
              ],
              [
                117.900242434,
                -8.09442883
              ],
              [
                117.899528051,
                -8.094512886
              ],
              [
                117.899093923,
                -8.094459637
              ],
              [
                117.89778076,
                -8.094365613
              ],
              [
                117.896536438,
                -8.094223023
              ],
              [
                117.895256045,
                -8.094056119
              ],
              [
                117.894455023,
                -8.093871983
              ],
              [
                117.893397502,
                -8.093551473
              ],
              [
                117.892871003,
                -8.093266973
              ],
              [
                117.892152088,
                -8.093205212
              ],
              [
                117.891557875,
                -8.093439315
              ],
              [
                117.890975947,
                -8.093568436
              ],
              [
                117.890430973,
                -8.093900039
              ],
              [
                117.890213525,
                -8.093973837
              ],
              [
                117.889300868,
                -8.094497562
              ],
              [
                117.888267984,
                -8.095117999
              ],
              [
                117.887731329,
                -8.095615924
              ],
              [
                117.886541976,
                -8.096520012
              ],
              [
                117.885458997,
                -8.097156974
              ],
              [
                117.884941634,
                -8.097499305
              ],
              [
                117.884313456,
                -8.097880019
              ],
              [
                117.883627462,
                -8.098190771
              ],
              [
                117.883143001,
                -8.098542983
              ],
              [
                117.882277481,
                -8.098966615
              ]
            ]
          ]
        ]
      }
    }
  ]
}