{
  "type": "FeatureCollection",
  "features": [
    {
      "type": "Feature",
      "properties": {
        "idx": "3061",
        "nama_kewilayahan": "Melayu Desa Mulia"
      },
      "geometry": {
        "type": "Polygon",
        "coordinates": [
          [
            [
              109.207364263,
              1.578062178
            ],
            [
              109.207089778,
              1.58078639
            ],
            [
              109.206852128,
              1.580675035
            ],
            [
              109.206852128,
              1.580533984
            ],
            [
              109.202940993,
              1.577919292
            ],
            [
              109.202989759,
              1.577492836
            ],
            [
              109.201333508,
              1.576676055
            ],
            [
              109.201394821,
              1.576311545
            ],
            [
              109.201475495,
              1.575653492
            ],
            [
              109.201323827,
              1.575608332
            ],
            [
              109.201552942,
              1.573330951
            ],
            [
              109.201304466,
              1.573269662
            ],
            [
              109.200549355,
              1.573114826
            ],
            [
              109.200310761,
              1.573061197
            ],
            [
              109.200330929,
              1.57290999
            ],
            [
              109.200171799,
              1.572872894
            ],
            [
              109.200078217,
              1.57287612
            ],
            [
              109.19993623,
              1.57285354
            ],
            [
              109.199377965,
              1.572795476
            ],
            [
              109.199261794,
              1.572779347
            ],
            [
              109.199090764,
              1.572763218
            ],
            [
              109.198926189,
              1.572730961
            ],
            [
              109.19872289,
              1.572682575
            ],
            [
              109.198564768,
              1.572634188
            ],
            [
              109.198316291,
              1.572530964
            ],
            [
              109.198083949,
              1.572466449
            ],
            [
              109.197582962,
              1.572315242
            ],
            [
              109.197144296,
              1.572249719
            ],
            [
              109.196967821,
              1.572199316
            ],
            [
              109.197149338,
              1.57124671
            ],
            [
              109.196443439,
              1.570777967
            ],
            [
              109.196317385,
              1.570692283
            ],
            [
              109.196246795,
              1.57062676
            ],
            [
              109.196236711,
              1.570591478
            ],
            [
              109.196277048,
              1.570520915
            ],
            [
              109.196357722,
              1.570319305
            ],
            [
              109.196604319,
              1.569709588
            ],
            [
              109.194700608,
              1.568587196
            ],
            [
              109.1936476,
              1.570574681
            ],
            [
              109.193478414,
              1.570386767
            ],
            [
              109.194912277,
              1.567042324
            ],
            [
              109.194475108,
              1.566856611
            ],
            [
              109.193831449,
              1.566321431
            ],
            [
              109.192668252,
              1.565732949
            ],
            [
              109.191712238,
              1.565304381
            ],
            [
              109.191492946,
              1.56523049
            ],
            [
              109.191010012,
              1.565008817
            ],
            [
              109.190662595,
              1.564853646
            ],
            [
              109.190342281,
              1.564752662
            ],
            [
              109.189782964,
              1.564619658
            ],
            [
              109.189563672,
              1.564476802
            ],
            [
              109.189354236,
              1.564356113
            ],
            [
              109.189093057,
              1.564230499
            ],
            [
              109.188854054,
              1.564112273
            ],
            [
              109.188684041,
              1.564016215
            ],
            [
              109.188550988,
              1.563930009
            ],
            [
              109.188430254,
              1.563811783
            ],
            [
              109.188329232,
              1.563666464
            ],
            [
              109.188225746,
              1.563582721
            ],
            [
              109.18812226,
              1.56347681
            ],
            [
              109.188043413,
              1.56339553
            ],
            [
              109.187994134,
              1.563329028
            ],
            [
              109.187942391,
              1.563250211
            ],
            [
              109.187895576,
              1.563164005
            ],
            [
              109.187824122,
              1.563045779
            ],
            [
              109.187782234,
              1.562932479
            ],
            [
              109.187700924,
              1.56281918
            ],
            [
              109.18769538,
              1.56275419
            ],
            [
              109.187722706,
              1.562741441
            ],
            [
              109.187874709,
              1.56269916
            ],
            [
              109.188046539,
              1.562569675
            ],
            [
              109.188132454,
              1.562499648
            ],
            [
              109.188276526,
              1.562292208
            ],
            [
              109.188400773,
              1.562123084
            ],
            [
              109.188478757,
              1.561931499
            ],
            [
              109.188539475,
              1.561647755
            ],
            [
              109.188638608,
              1.561292662
            ],
            [
              109.188841004,
              1.560712539
            ],
            [
              109.18885133,
              1.560598992
            ],
            [
              109.18893394,
              1.560373962
            ],
            [
              109.18904753,
              1.559950741
            ],
            [
              109.189113618,
              1.559826871
            ],
            [
              109.189214816,
              1.559626615
            ],
            [
              109.18964439,
              1.558978363
            ],
            [
              109.189708413,
              1.558846235
            ],
            [
              109.189797219,
              1.558707914
            ],
            [
              109.189900482,
              1.558577851
            ],
            [
              109.189981028,
              1.558482884
            ],
            [
              109.190024398,
              1.558429207
            ],
            [
              109.190107008,
              1.558377595
            ],
            [
              109.190175162,
              1.558389982
            ],
            [
              109.190261903,
              1.558408562
            ],
            [
              109.190379623,
              1.558520045
            ],
            [
              109.190542778,
              1.558740946
            ],
            [
              109.190586149,
              1.558850364
            ],
            [
              109.19063778,
              1.558974234
            ],
            [
              109.190722456,
              1.559069201
            ],
            [
              109.190788545,
              1.559172426
            ],
            [
              109.190858763,
              1.559292166
            ],
            [
              109.1909517,
              1.559385069
            ],
            [
              109.191139639,
              1.559430488
            ],
            [
              109.191298664,
              1.559477971
            ],
            [
              109.191428775,
              1.559496552
            ],
            [
              109.191546495,
              1.559521326
            ],
            [
              109.19166215,
              1.559525455
            ],
            [
              109.191814979,
              1.559525455
            ],
            [
              109.191988461,
              1.559490358
            ],
            [
              109.192120638,
              1.559403649
            ],
            [
              109.192230097,
              1.559230232
            ],
            [
              109.192240423,
              1.559067136
            ],
            [
              109.192292054,
              1.558827655
            ],
            [
              109.192316838,
              1.558747139
            ],
            [
              109.192374665,
              1.558621205
            ],
            [
              109.192508907,
              1.558447787
            ],
            [
              109.192595648,
              1.558311531
            ],
            [
              109.192754673,
              1.558117468
            ],
            [
              109.192831088,
              1.557981211
            ],
            [
              109.192934351,
              1.557882115
            ],
            [
              109.193043809,
              1.557772697
            ],
            [
              109.193213161,
              1.557586892
            ],
            [
              109.193417622,
              1.557417603
            ],
            [
              109.193540031,
              1.557152358
            ],
            [
              109.193527499,
              1.556997849
            ],
            [
              109.193485724,
              1.556851693
            ],
            [
              109.193402176,
              1.556642898
            ],
            [
              109.193318627,
              1.556555205
            ],
            [
              109.19326432,
              1.556513446
            ],
            [
              109.193113932,
              1.556496742
            ],
            [
              109.192854931,
              1.556496742
            ],
            [
              109.192675302,
              1.556505094
            ],
            [
              109.192437188,
              1.556500918
            ],
            [
              109.192282623,
              1.556492566
            ],
            [
              109.192090461,
              1.556463335
            ],
            [
              109.191894121,
              1.5564174
            ],
            [
              109.191818927,
              1.556375641
            ],
            [
              109.19176462,
              1.556350586
            ],
            [
              109.191722846,
              1.556300475
            ],
            [
              109.191647652,
              1.556212781
            ],
            [
              109.191555749,
              1.556129263
            ],
            [
              109.19145549,
              1.556012338
            ],
            [
              109.191317635,
              1.555916293
            ],
            [
              109.191062811,
              1.555757609
            ],
            [
              109.190870649,
              1.555544638
            ],
            [
              109.190791278,
              1.55546112
            ],
            [
              109.190757858,
              1.555360898
            ],
            [
              109.190862294,
              1.555068586
            ],
            [
              109.191125473,
              1.55473869
            ],
            [
              109.191493087,
              1.554617589
            ],
            [
              109.191889944,
              1.554383738
            ],
            [
              109.192692011,
              1.553652956
            ],
            [
              109.192976077,
              1.553427457
            ],
            [
              109.193285207,
              1.553089209
            ],
            [
              109.193836629,
              1.552404361
            ],
            [
              109.194312857,
              1.551777976
            ],
            [
              109.194442357,
              1.55140632
            ],
            [
              109.194561088,
              1.550760963
            ],
            [
              109.194599639,
              1.550736189
            ],
            [
              109.19472998,
              1.550581122
            ],
            [
              109.194719883,
              1.55051414
            ],
            [
              109.19471713,
              1.550368248
            ],
            [
              109.194738241,
              1.550297597
            ],
            [
              109.194784136,
              1.550148035
            ],
            [
              109.194852978,
              1.550045268
            ],
            [
              109.19498699,
              1.549731463
            ],
            [
              109.195033803,
              1.549637872
            ],
            [
              109.195095302,
              1.549475465
            ],
            [
              109.195123757,
              1.549371781
            ],
            [
              109.195197188,
              1.549293788
            ],
            [
              109.196899651,
              1.54714412
            ],
            [
              109.196912559,
              1.546815089
            ],
            [
              109.196886744,
              1.546382833
            ],
            [
              109.196718941,
              1.54602477
            ],
            [
              109.196702806,
              1.545553803
            ],
            [
              109.1967738,
              1.545108643
            ],
            [
              109.19692224,
              1.544786064
            ],
            [
              109.197131993,
              1.544515097
            ],
            [
              109.197438555,
              1.544311872
            ],
            [
              109.197654762,
              1.54410542
            ],
            [
              109.19791292,
              1.544011872
            ],
            [
              109.1981259,
              1.543986066
            ],
            [
              109.198435689,
              1.544102195
            ],
            [
              109.198671258,
              1.544386065
            ],
            [
              109.198803564,
              1.544698967
            ],
            [
              109.198897146,
              1.54529574
            ],
            [
              109.198932643,
              1.545431223
            ],
            [
              109.199052041,
              1.545598965
            ],
            [
              109.199168211,
              1.545715093
            ],
            [
              109.199226297,
              1.545853802
            ],
            [
              109.199368284,
              1.546050576
            ],
            [
              109.199516724,
              1.546182834
            ],
            [
              109.199642576,
              1.546347349
            ],
            [
              109.199739385,
              1.54651509
            ],
            [
              109.199920095,
              1.546669929
            ],
            [
              109.200065309,
              1.546769928
            ],
            [
              109.200304105,
              1.546818315
            ],
            [
              109.200529993,
              1.546792509
            ],
            [
              109.200739746,
              1.546727993
            ],
            [
              109.20089464,
              1.546660251
            ],
            [
              109.201391594,
              1.546395736
            ],
            [
              109.201733653,
              1.546079608
            ],
            [
              109.202293424,
              1.545615294
            ],
            [
              109.202613898,
              1.545208643
            ],
            [
              109.204801067,
              1.548622609
            ],
            [
              109.206183128,
              1.550520911
            ],
            [
              109.207479189,
              1.549263882
            ],
            [
              109.20768483,
              1.549779614
            ],
            [
              109.207918539,
              1.550077499
            ],
            [
              109.207882206,
              1.550131978
            ],
            [
              109.208204548,
              1.551243804
            ],
            [
              109.207837265,
              1.551364339
            ],
            [
              109.20840935,
              1.553554924
            ],
            [
              109.208624137,
              1.554380725
            ],
            [
              109.209555526,
              1.556730474
            ],
            [
              109.211917084,
              1.558464236
            ],
            [
              109.211686764,
              1.559086493
            ],
            [
              109.211767687,
              1.559366508
            ],
            [
              109.211829936,
              1.559746084
            ],
            [
              109.212035356,
              1.560318559
            ],
            [
              109.212016682,
              1.560884812
            ],
            [
              109.213740969,
              1.56041812
            ],
            [
              109.213753419,
              1.5606608
            ],
            [
              109.212035356,
              1.561208385
            ],
            [
              109.21209138,
              1.561407507
            ],
            [
              109.211350531,
              1.561628911
            ],
            [
              109.211844512,
              1.561893035
            ],
            [
              109.212764552,
              1.561396346
            ],
            [
              109.214131116,
              1.561036436
            ],
            [
              109.214542614,
              1.562598238
            ],
            [
              109.21423505,
              1.563746083
            ],
            [
              109.214092234,
              1.56411852
            ],
            [
              109.213491728,
              1.564183768
            ],
            [
              109.212754149,
              1.564229441
            ],
            [
              109.212395151,
              1.564588306
            ],
            [
              109.211820753,
              1.56497327
            ],
            [
              109.210776394,
              1.563700932
            ],
            [
              109.210606686,
              1.563720506
            ],
            [
              109.210175888,
              1.564079371
            ],
            [
              109.209718981,
              1.564496959
            ],
            [
              109.208987929,
              1.564190293
            ],
            [
              109.209040147,
              1.563785754
            ],
            [
              109.208883493,
              1.563681357
            ],
            [
              109.208553737,
              1.56529951
            ],
            [
              109.208511963,
              1.56572545
            ],
            [
              109.208453479,
              1.566539745
            ],
            [
              109.208562092,
              1.56651469
            ],
            [
              109.208691592,
              1.566506338
            ],
            [
              109.208867045,
              1.566489635
            ],
            [
              109.209055029,
              1.566497987
            ],
            [
              109.209134401,
              1.566560625
            ],
            [
              109.209109336,
              1.566769419
            ],
            [
              109.209142756,
              1.566857112
            ],
            [
              109.20931403,
              1.566890519
            ],
            [
              109.209531257,
              1.566890519
            ],
            [
              109.209756839,
              1.566903047
            ],
            [
              109.209811145,
              1.567003268
            ],
            [
              109.209765194,
              1.567107664
            ],
            [
              109.211093618,
              1.567086785
            ],
            [
              109.211068554,
              1.567675583
            ],
            [
              109.208414334,
              1.567583929
            ],
            [
              109.208466687,
              1.568066351
            ],
            [
              109.2089495,
              1.568089705
            ],
            [
              109.209245418,
              1.568066351
            ],
            [
              109.209307716,
              1.568245392
            ],
            [
              109.209307716,
              1.568455571
            ],
            [
              109.209541335,
              1.568432218
            ],
            [
              109.210295771,
              1.568410473
            ],
            [
              109.210954853,
              1.568427366
            ],
            [
              109.210988652,
              1.568630084
            ],
            [
              109.210946403,
              1.569153774
            ],
            [
              109.211030901,
              1.56955921
            ],
            [
              109.210988652,
              1.569736589
            ],
            [
              109.210836556,
              1.569787268
            ],
            [
              109.210608413,
              1.569804162
            ],
            [
              109.210177475,
              1.569778822
            ],
            [
              109.209695838,
              1.569787268
            ],
            [
              109.20961134,
              1.5699562
            ],
            [
              109.20925645,
              1.570015326
            ],
            [
              109.209155053,
              1.570184258
            ],
            [
              109.208411473,
              1.570218045
            ],
            [
              109.208411473,
              1.57077552
            ],
            [
              109.208510626,
              1.573539335
            ],
            [
              109.208058794,
              1.573427088
            ],
            [
              109.207724599,
              1.573357602
            ],
            [
              109.207708558,
              1.573427088
            ],
            [
              109.207708558,
              1.573798573
            ],
            [
              109.207652413,
              1.574627063
            ],
            [
              109.207681823,
              1.575124158
            ],
            [
              109.207754009,
              1.575124158
            ],
            [
              109.208641985,
              1.575171522
            ],
            [
              109.208794288,
              1.575698579
            ],
            [
              109.20888712,
              1.576029168
            ],
            [
              109.20897415,
              1.576336557
            ],
            [
              109.208971249,
              1.576423554
            ],
            [
              109.208950942,
              1.57653375
            ],
            [
              109.208884219,
              1.576643947
            ],
            [
              109.208803904,
              1.576717671
            ],
            [
              109.208973635,
              1.576764089
            ],
            [
              109.20889155,
              1.577215472
            ],
            [
              109.208660483,
              1.577115912
            ],
            [
              109.208070864,
              1.576960598
            ],
            [
              109.207795974,
              1.577334944
            ],
            [
              109.207648569,
              1.577546011
            ],
            [
              109.207501165,
              1.57790841
            ],
            [
              109.207493197,
              1.5780916
            ],
            [
              109.207364263,
              1.578062178
            ]
          ]
        ]
      }
    }
  ]
}