{
  "type": "FeatureCollection",
  "features": [
    {
      "type": "Feature",
      "properties": {
        "idx": "3063",
        "nama_kewilayahan": "Dayak Bakati Binua Sara"
      },
      "geometry": {
        "type": "Polygon",
        "coordinates": [
          [
            [
              109.795431,
              1.083044
            ],
            [
              109.794881799,
              1.081878658
            ],
            [
              109.794713,
              1.080348
            ],
            [
              109.795057,
              1.078671
            ],
            [
              109.794822,
              1.076723
            ],
            [
              109.794235,
              1.075858
            ],
            [
              109.793266,
              1.074833
            ],
            [
              109.789211,
              1.070522
            ],
            [
              109.78871,
              1.069365
            ],
            [
              109.787556,
              1.067407
            ],
            [
              109.78616,
              1.066574
            ],
            [
              109.785949,
              1.066358
            ],
            [
              109.784882,
              1.065292
            ],
            [
              109.784233,
              1.064816
            ],
            [
              109.78304,
              1.065035
            ],
            [
              109.782024,
              1.064459
            ],
            [
              109.781218,
              1.063564
            ],
            [
              109.780371,
              1.062611
            ],
            [
              109.779068,
              1.061324
            ],
            [
              109.778693,
              1.060894
            ],
            [
              109.77794,
              1.059892
            ],
            [
              109.774181,
              1.057655
            ],
            [
              109.773025,
              1.054839
            ],
            [
              109.773660695,
              1.054647353
            ],
            [
              109.774498265,
              1.055009031
            ],
            [
              109.775925942,
              1.055960815
            ],
            [
              109.776535084,
              1.055998887
            ],
            [
              109.777220369,
              1.055694316
            ],
            [
              109.778038903,
              1.05567528
            ],
            [
              109.779142973,
              1.05594178
            ],
            [
              109.779912,
              1.056306
            ],
            [
              109.781160756,
              1.056398636
            ],
            [
              109.782012,
              1.055957
            ],
            [
              109.782455183,
              1.055484923
            ],
            [
              109.78321661,
              1.055599137
            ],
            [
              109.784016109,
              1.055389745
            ],
            [
              109.78445393,
              1.05527553
            ],
            [
              109.784758501,
              1.055484923
            ],
            [
              109.785405714,
              1.055256495
            ],
            [
              109.785653178,
              1.054495067
            ],
            [
              109.785421,
              1.053603
            ],
            [
              109.785653178,
              1.053067391
            ],
            [
              109.785417,
              1.052514
            ],
            [
              109.784211,
              1.051287
            ],
            [
              109.784115,
              1.050037
            ],
            [
              109.785175,
              1.049093
            ],
            [
              109.786029,
              1.048137
            ],
            [
              109.787102,
              1.046826
            ],
            [
              109.787118,
              1.045452
            ],
            [
              109.788435562,
              1.044950256
            ],
            [
              109.789515,
              1.044922
            ],
            [
              109.791276,
              1.045645
            ],
            [
              109.792242699,
              1.046354138
            ],
            [
              109.793283,
              1.046963
            ],
            [
              109.794731,
              1.046614
            ],
            [
              109.795394782,
              1.046418619
            ],
            [
              109.796061031,
              1.045895137
            ],
            [
              109.796281131,
              1.045520372
            ],
            [
              109.796774869,
              1.045252683
            ],
            [
              109.79721507,
              1.045294323
            ],
            [
              109.797618099,
              1.045077511
            ],
            [
              109.797946754,
              1.044860072
            ],
            [
              109.797963,
              1.044325
            ],
            [
              109.79761006,
              1.043922564
            ],
            [
              109.797353079,
              1.043572783
            ],
            [
              109.797467293,
              1.04332294
            ],
            [
              109.797767105,
              1.043151619
            ],
            [
              109.797814504,
              1.042808741
            ],
            [
              109.797681,
              1.04183
            ],
            [
              109.797642778,
              1.04113562
            ],
            [
              109.798052045,
              1.040169559
            ],
            [
              109.798618,
              1.03869
            ],
            [
              109.799158459,
              1.037967995
            ],
            [
              109.7995939,
              1.038085778
            ],
            [
              109.800029342,
              1.038282084
            ],
            [
              109.800368415,
              1.038199993
            ],
            [
              109.800389,
              1.03777
            ],
            [
              109.800639673,
              1.037696737
            ],
            [
              109.801358,
              1.037832
            ],
            [
              109.801882,
              1.036658
            ],
            [
              109.80351,
              1.036301
            ],
            [
              109.804538,
              1.035233
            ],
            [
              109.805275,
              1.034477
            ],
            [
              109.806322,
              1.032913
            ],
            [
              109.807142326,
              1.031877375
            ],
            [
              109.807675326,
              1.030801858
            ],
            [
              109.807808576,
              1.030107056
            ],
            [
              109.808436753,
              1.0293837
            ],
            [
              109.809318,
              1.028598
            ],
            [
              109.80961,
              1.027174
            ],
            [
              109.8112,
              1.021604
            ],
            [
              109.820440033,
              1.008773152
            ],
            [
              109.833060694,
              0.997408846
            ],
            [
              109.836783,
              0.995477
            ],
            [
              109.835129,
              0.99197
            ],
            [
              109.832462,
              0.992022
            ],
            [
              109.831095,
              0.991804
            ],
            [
              109.829614,
              0.989942
            ],
            [
              109.829344,
              0.987785
            ],
            [
              109.829253,
              0.986023
            ],
            [
              109.829535,
              0.983569
            ],
            [
              109.83047,
              0.982054
            ],
            [
              109.831919,
              0.980632
            ],
            [
              109.833288441,
              0.980495002
            ],
            [
              109.836539941,
              0.984718184
            ],
            [
              109.841055683,
              0.986101648
            ],
            [
              109.845139627,
              0.984672696
            ],
            [
              109.850988124,
              0.980714512
            ],
            [
              109.854590572,
              0.979310136
            ],
            [
              109.859945221,
              0.977295371
            ],
            [
              109.863791846,
              0.976141142
            ],
            [
              109.866891802,
              0.975364716
            ],
            [
              109.871899,
              0.974981
            ],
            [
              109.875148606,
              0.97532203
            ],
            [
              109.882165506,
              0.976863382
            ],
            [
              109.882343439,
              0.979966616
            ],
            [
              109.880318145,
              0.984933684
            ],
            [
              109.878469977,
              0.987419296
            ],
            [
              109.880063174,
              0.989211249
            ],
            [
              109.882898349,
              0.990812672
            ],
            [
              109.88777207,
              0.988245533
            ],
            [
              109.889436299,
              0.98851738
            ],
            [
              109.890201071,
              0.992947357
            ],
            [
              109.890829248,
              0.997801457
            ],
            [
              109.89771065,
              1.001870336
            ],
            [
              109.91981506,
              0.99776644
            ],
            [
              109.92218018,
              1.00125778
            ],
            [
              109.92526245,
              1.0026958
            ],
            [
              109.92658234,
              1.00359118
            ],
            [
              109.92895508,
              1.00467658
            ],
            [
              109.92993927,
              1.00797784
            ],
            [
              109.92988586,
              1.010221
            ],
            [
              109.929144968,
              1.012608443
            ],
            [
              109.92842865,
              1.01398361
            ],
            [
              109.92687988,
              1.01593733
            ],
            [
              109.924179739,
              1.018329971
            ],
            [
              109.922147017,
              1.019892105
            ],
            [
              109.919778075,
              1.021774522
            ],
            [
              109.91756439,
              1.02357137
            ],
            [
              109.91488647,
              1.02597725
            ],
            [
              109.912679642,
              1.027856484
            ],
            [
              109.91166687,
              1.02899826
            ],
            [
              109.911030177,
              1.031599095
            ],
            [
              109.91098785,
              1.0332675
            ],
            [
              109.90957896,
              1.03690092
            ],
            [
              109.907984721,
              1.040864706
            ],
            [
              109.908032311,
              1.041626133
            ],
            [
              109.908484408,
              1.042090128
            ],
            [
              109.908567689,
              1.04256602
            ],
            [
              109.907913338,
              1.043208475
            ],
            [
              109.907851472,
              1.043828324
            ],
            [
              109.906747402,
              1.044903841
            ],
            [
              109.906538009,
              1.045998393
            ],
            [
              109.906404759,
              1.047273784
            ],
            [
              109.906071635,
              1.047920997
            ],
            [
              109.905496586,
              1.04815196
            ],
            [
              109.904479366,
              1.048487068
            ],
            [
              109.903289636,
              1.04896296
            ],
            [
              109.902171289,
              1.049748182
            ],
            [
              109.901171915,
              1.050366842
            ],
            [
              109.900101158,
              1.05081894
            ],
            [
              109.899411114,
              1.05169934
            ],
            [
              109.898816249,
              1.052817687
            ],
            [
              109.897626519,
              1.053745677
            ],
            [
              109.896460583,
              1.05448331
            ],
            [
              109.89386697,
              1.05505438
            ],
            [
              109.892772418,
              1.054935407
            ],
            [
              109.891796839,
              1.055149559
            ],
            [
              109.890012243,
              1.055792013
            ],
            [
              109.889127084,
              1.056662896
            ],
            [
              109.888213371,
              1.056877047
            ],
            [
              109.886999846,
              1.056919878
            ],
            [
              109.885986195,
              1.05730535
            ],
            [
              109.88517242,
              1.057933528
            ],
            [
              109.884344367,
              1.058704473
            ],
            [
              109.883730466,
              1.059618186
            ],
            [
              109.883681291,
              1.059986844
            ],
            [
              109.884042969,
              1.060434183
            ],
            [
              109.884138147,
              1.060891039
            ],
            [
              109.883671773,
              1.061385967
            ],
            [
              109.883443345,
              1.061757163
            ],
            [
              109.883433827,
              1.062071252
            ],
            [
              109.88302218,
              1.063276846
            ],
            [
              109.882346413,
              1.063533827
            ],
            [
              109.881575468,
              1.06360997
            ],
            [
              109.880899701,
              1.06387647
            ],
            [
              109.88059513,
              1.064209594
            ],
            [
              109.880204898,
              1.064533201
            ],
            [
              109.879729006,
              1.064571272
            ],
            [
              109.879157935,
              1.064380916
            ],
            [
              109.878767704,
              1.063981166
            ],
            [
              109.878406026,
              1.063924059
            ],
            [
              109.878025312,
              1.064295255
            ],
            [
              109.877441947,
              1.065298198
            ],
            [
              109.877541885,
              1.065969206
            ],
            [
              109.877684652,
              1.066411785
            ],
            [
              109.877713206,
              1.066882919
            ],
            [
              109.877527608,
              1.067197008
            ],
            [
              109.876927984,
              1.067225561
            ],
            [
              109.876441866,
              1.067337742
            ],
            [
              109.875917696,
              1.067645677
            ],
            [
              109.875633582,
              1.06796898
            ],
            [
              109.875365661,
              1.068273855
            ],
            [
              109.87497543,
              1.068454694
            ],
            [
              109.874461466,
              1.068454694
            ],
            [
              109.873890396,
              1.068626015
            ],
            [
              109.873081379,
              1.069149497
            ],
            [
              109.872272362,
              1.069644425
            ],
            [
              109.871506176,
              1.069568282
            ],
            [
              109.870563909,
              1.069646804
            ],
            [
              109.870435418,
              1.069568282
            ],
            [
              109.870456904,
              1.069139457
            ],
            [
              109.870656779,
              1.068753985
            ],
            [
              109.870742369,
              1.068404725
            ],
            [
              109.870728162,
              1.068054423
            ],
            [
              109.870699609,
              1.067654674
            ],
            [
              109.870856653,
              1.067369138
            ],
            [
              109.871342063,
              1.067454799
            ],
            [
              109.871870304,
              1.067411969
            ],
            [
              109.872312884,
              1.06718354
            ],
            [
              109.872335624,
              1.066536707
            ],
            [
              109.871586094,
              1.065608717
            ],
            [
              109.871145894,
              1.06546595
            ],
            [
              109.870075136,
              1.065632512
            ],
            [
              109.869349401,
              1.065715793
            ],
            [
              109.868397616,
              1.065632512
            ],
            [
              109.8680288,
              1.065085236
            ],
            [
              109.867314961,
              1.064466576
            ],
            [
              109.866684404,
              1.064311911
            ],
            [
              109.866279896,
              1.06409776
            ],
            [
              109.865851593,
              1.063645662
            ],
            [
              109.865613647,
              1.063027002
            ],
            [
              109.865197241,
              1.062836645
            ],
            [
              109.864887911,
              1.063181667
            ],
            [
              109.86467376,
              1.063705149
            ],
            [
              109.86480463,
              1.064133452
            ],
            [
              109.864602376,
              1.064526063
            ],
            [
              109.86418597,
              1.065109031
            ],
            [
              109.863437184,
              1.066234813
            ],
            [
              109.86331821,
              1.066948651
            ],
            [
              109.862753088,
              1.067424544
            ],
            [
              109.862098737,
              1.067781463
            ],
            [
              109.861831047,
              1.068376328
            ],
            [
              109.861563358,
              1.069387599
            ],
            [
              109.861355155,
              1.070458356
            ],
            [
              109.86067106,
              1.071201938
            ],
            [
              109.85948133,
              1.071410141
            ],
            [
              109.858678261,
              1.07185629
            ],
            [
              109.85802391,
              1.072599871
            ],
            [
              109.857220842,
              1.073075763
            ],
            [
              109.855793165,
              1.073462426
            ],
            [
              109.854990097,
              1.073373196
            ],
            [
              109.854365488,
              1.073759858
            ],
            [
              109.852640379,
              1.074116778
            ],
            [
              109.851480392,
              1.074443954
            ],
            [
              109.85091527,
              1.075009076
            ],
            [
              109.849198092,
              1.07578587
            ],
            [
              109.848032156,
              1.075809665
            ],
            [
              109.846580685,
              1.07552413
            ],
            [
              109.845747874,
              1.076166584
            ],
            [
              109.844700911,
              1.076975601
            ],
            [
              109.84417743,
              1.077237342
            ],
            [
              109.843368413,
              1.077213547
            ],
            [
              109.842749753,
              1.077380109
            ],
            [
              109.842440423,
              1.077094574
            ],
            [
              109.842178682,
              1.07671386
            ],
            [
              109.841821763,
              1.076642476
            ],
            [
              109.84082239,
              1.077380109
            ],
            [
              109.840084757,
              1.077879796
            ],
            [
              109.839656454,
              1.077879796
            ],
            [
              109.839299534,
              1.077570466
            ],
            [
              109.838442929,
              1.077499082
            ],
            [
              109.837593937,
              1.077693881
            ],
            [
              109.837079973,
              1.078198327
            ],
            [
              109.837032384,
              1.079045415
            ],
            [
              109.836956241,
              1.079292879
            ],
            [
              109.836623117,
              1.079797324
            ],
            [
              109.836213849,
              1.080530198
            ],
            [
              109.835291888,
              1.081719929
            ],
            [
              109.834792201,
              1.08233383
            ],
            [
              109.834356759,
              1.082662195
            ],
            [
              109.83377855,
              1.082747856
            ],
            [
              109.83280773,
              1.082547981
            ],
            [
              109.832065339,
              1.082512289
            ],
            [
              109.830600066,
              1.082657437
            ],
            [
              109.829814844,
              1.082800204
            ],
            [
              109.829400818,
              1.082878726
            ],
            [
              109.829236635,
              1.083135708
            ],
            [
              109.829108144,
              1.083542596
            ],
            [
              109.828872578,
              1.083649672
            ],
            [
              109.828558489,
              1.083685364
            ],
            [
              109.828158739,
              1.083742471
            ],
            [
              109.827887481,
              1.083592565
            ],
            [
              109.827901758,
              1.083228507
            ],
            [
              109.828116861,
              1.082523235
            ],
            [
              109.828066892,
              1.082187731
            ],
            [
              109.827909848,
              1.081859365
            ],
            [
              109.827588621,
              1.081630937
            ],
            [
              109.8273245,
              1.081473893
            ],
            [
              109.827031827,
              1.081288295
            ],
            [
              109.826767707,
              1.081052728
            ],
            [
              109.8266178,
              1.080767193
            ],
            [
              109.826460756,
              1.080624425
            ],
            [
              109.826225189,
              1.080681532
            ],
            [
              109.825946792,
              1.080667255
            ],
            [
              109.825718364,
              1.080417412
            ],
            [
              109.825689811,
              1.0801176
            ],
            [
              109.825732641,
              1.079739266
            ],
            [
              109.825922403,
              1.079354983
            ],
            [
              109.826000925,
              1.078833881
            ],
            [
              109.826043756,
              1.078227118
            ],
            [
              109.825993787,
              1.077798815
            ],
            [
              109.825765359,
              1.077391927
            ],
            [
              109.825394163,
              1.0770707
            ],
            [
              109.825037244,
              1.076842272
            ],
            [
              109.824266298,
              1.076713781
            ],
            [
              109.82346561,
              1.076852979
            ],
            [
              109.823215766,
              1.077209898
            ],
            [
              109.82306705,
              1.07764415
            ],
            [
              109.822942128,
              1.078036761
            ],
            [
              109.822906436,
              1.078405578
            ],
            [
              109.82266849,
              1.078607832
            ],
            [
              109.822365109,
              1.078625678
            ],
            [
              109.822109317,
              1.07835204
            ],
            [
              109.821966549,
              1.078012967
            ],
            [
              109.821603681,
              1.077798815
            ],
            [
              109.821217019,
              1.077798815
            ],
            [
              109.820580513,
              1.077941583
            ],
            [
              109.819909505,
              1.077941583
            ],
            [
              109.819700112,
              1.077751226
            ],
            [
              109.819524032,
              1.077518039
            ],
            [
              109.819466925,
              1.077199191
            ],
            [
              109.819271809,
              1.076999316
            ],
            [
              109.818481828,
              1.077118289
            ],
            [
              109.817710883,
              1.077508521
            ],
            [
              109.817277821,
              1.078150975
            ],
            [
              109.816897107,
              1.07866018
            ],
            [
              109.816204684,
              1.079174144
            ],
            [
              109.815229105,
              1.079245527
            ],
            [
              109.81401558,
              1.078769635
            ],
            [
              109.813468304,
              1.078162873
            ],
            [
              109.813147077,
              1.078020105
            ],
            [
              109.812576006,
              1.078008208
            ],
            [
              109.81220719,
              1.077770262
            ],
            [
              109.811540941,
              1.077008834
            ],
            [
              109.810946075,
              1.076996937
            ],
            [
              109.810517772,
              1.077472829
            ],
            [
              109.809708756,
              1.07768698
            ],
            [
              109.809435118,
              1.0780439
            ],
            [
              109.809565988,
              1.078567381
            ],
            [
              109.809684961,
              1.079138452
            ],
            [
              109.809720653,
              1.079590549
            ],
            [
              109.809458912,
              1.08016162
            ],
            [
              109.808768869,
              1.080744588
            ],
            [
              109.807763001,
              1.081349318
            ],
            [
              109.807030127,
              1.081644371
            ],
            [
              109.806449539,
              1.08169196
            ],
            [
              109.805907021,
              1.081901353
            ],
            [
              109.805669075,
              1.082377245
            ],
            [
              109.802698,
              1.083214
            ],
            [
              109.802168,
              1.082582
            ],
            [
              109.801483,
              1.081678
            ],
            [
              109.800396,
              1.081104
            ],
            [
              109.798949,
              1.080875
            ],
            [
              109.798344,
              1.080868
            ],
            [
              109.797873,
              1.081375
            ],
            [
              109.797423,
              1.081825
            ],
            [
              109.797057,
              1.082676
            ],
            [
              109.7969,
              1.083239
            ],
            [
              109.796297,
              1.083785
            ],
            [
              109.79572,
              1.084316
            ],
            [
              109.795391,
              1.083978
            ],
            [
              109.795431,
              1.083044
            ]
          ]
        ]
      }
    }
  ]
}