{
  "type": "FeatureCollection",
  "features": [
    {
      "type": "Feature",
      "properties": {
        "idx": "3065",
        "nama_kewilayahan": "Banua Tuda Semandang Kanan"
      },
      "geometry": {
        "type": "MultiPolygon",
        "coordinates": [
          [
            [
              [
                110.311389209,
                -0.830346742
              ],
              [
                110.305432369,
                -0.82137144
              ],
              [
                110.249682729,
                -0.792050587
              ],
              [
                110.251471571,
                -0.789463608
              ],
              [
                110.25126041,
                -0.763762408
              ],
              [
                110.295935426,
                -0.695902329
              ],
              [
                110.333643831,
                -0.696152103
              ],
              [
                110.338100731,
                -0.70010614
              ],
              [
                110.351688611,
                -0.701528386
              ],
              [
                110.357466987,
                -0.702732403
              ],
              [
                110.361520007,
                -0.703103878
              ],
              [
                110.365500408,
                -0.708849105
              ],
              [
                110.378953697,
                -0.709466121
              ],
              [
                110.391939784,
                -0.709467857
              ],
              [
                110.397752765,
                -0.721437535
              ],
              [
                110.398012067,
                -0.731416186
              ],
              [
                110.402010555,
                -0.736817665
              ],
              [
                110.416027925,
                -0.75470511
              ],
              [
                110.386911171,
                -0.808285129
              ],
              [
                110.37465112,
                -0.818913182
              ],
              [
                110.373050009,
                -0.827896353
              ],
              [
                110.362269939,
                -0.868272538
              ],
              [
                110.362111537,
                -0.868219738
              ],
              [
                110.361966335,
                -0.868153737
              ],
              [
                110.361873933,
                -0.868114136
              ],
              [
                110.361741932,
                -0.868100936
              ],
              [
                110.36159673,
                -0.867995335
              ],
              [
                110.361398727,
                -0.867889733
              ],
              [
                110.361240325,
                -0.867784132
              ],
              [
                110.361015922,
                -0.867757732
              ],
              [
                110.36085752,
                -0.867757732
              ],
              [
                110.360672717,
                -0.867704931
              ],
              [
                110.360474715,
                -0.86765213
              ],
              [
                110.360276712,
                -0.86761253
              ],
              [
                110.36011831,
                -0.867572929
              ],
              [
                110.359880707,
                -0.867572929
              ],
              [
                110.359352067,
                -0.86761485
              ],
              [
                110.359173345,
                -0.867566141
              ],
              [
                110.358791326,
                -0.867462023
              ],
              [
                110.358416029,
                -0.867359739
              ],
              [
                110.357885452,
                -0.867215133
              ],
              [
                110.357401985,
                -0.867083367
              ],
              [
                110.357181091,
                -0.867079995
              ],
              [
                110.35711836,
                -0.867111319
              ],
              [
                110.356988897,
                -0.867124366
              ],
              [
                110.356691976,
                -0.867192915
              ],
              [
                110.356369991,
                -0.86726725
              ],
              [
                110.3560553,
                -0.867339901
              ],
              [
                110.355787904,
                -0.867467105
              ],
              [
                110.355437553,
                -0.867633771
              ],
              [
                110.355203048,
                -0.86777292
              ],
              [
                110.354799491,
                -0.868124155
              ],
              [
                110.354451139,
                -0.86768726
              ],
              [
                110.354283831,
                -0.867440927
              ],
              [
                110.354072629,
                -0.867176924
              ],
              [
                110.353795425,
                -0.866939321
              ],
              [
                110.353650223,
                -0.866714918
              ],
              [
                110.353597422,
                -0.866490515
              ],
              [
                110.353557822,
                -0.866252911
              ],
              [
                110.353518221,
                -0.866015308
              ],
              [
                110.353518221,
                -0.865711704
              ],
              [
                110.35343902,
                -0.865342099
              ],
              [
                110.35343902,
                -0.865196897
              ],
              [
                110.353386219,
                -0.864932894
              ],
              [
                110.353333419,
                -0.86466889
              ],
              [
                110.353307018,
                -0.864470887
              ],
              [
                110.353227817,
                -0.864206884
              ],
              [
                110.352894916,
                -0.863935199
              ],
              [
                110.352946923,
                -0.863677571
              ],
              [
                110.353016614,
                -0.863533675
              ],
              [
                110.352950613,
                -0.863282871
              ],
              [
                110.352871412,
                -0.863111269
              ],
              [
                110.352779011,
                -0.862860466
              ],
              [
                110.35269981,
                -0.862649263
              ],
              [
                110.352581009,
                -0.86245126
              ],
              [
                110.352462207,
                -0.862213657
              ],
              [
                110.352369806,
                -0.862002454
              ],
              [
                110.352105262,
                -0.861781803
              ],
              [
                110.351933706,
                -0.861456235
              ],
              [
                110.351972559,
                -0.861355809
              ],
              [
                110.351888991,
                -0.861147184
              ],
              [
                110.351711798,
                -0.861000835
              ],
              [
                110.351483474,
                -0.860836047
              ],
              [
                110.351089388,
                -0.860524034
              ],
              [
                110.350772584,
                -0.86020723
              ],
              [
                110.350447974,
                -0.860023003
              ],
              [
                110.350223507,
                -0.859818652
              ],
              [
                110.350024269,
                -0.859635759
              ],
              [
                110.349639623,
                -0.859385475
              ],
              [
                110.349443844,
                -0.859161806
              ],
              [
                110.349246977,
                -0.858877463
              ],
              [
                110.348665761,
                -0.858804887
              ],
              [
                110.34833105,
                -0.858777998
              ],
              [
                110.348182945,
                -0.858597926
              ],
              [
                110.347998284,
                -0.858373407
              ],
              [
                110.34783535,
                -0.858175305
              ],
              [
                110.347644213,
                -0.857942912
              ],
              [
                110.347424144,
                -0.857675343
              ],
              [
                110.347251285,
                -0.857465174
              ],
              [
                110.347064325,
                -0.857237859
              ],
              [
                110.34692754,
                -0.85707155
              ],
              [
                110.346863793,
                -0.856803055
              ],
              [
                110.346828542,
                -0.85660906
              ],
              [
                110.346771658,
                -0.856296007
              ],
              [
                110.346597221,
                -0.856054051
              ],
              [
                110.346326672,
                -0.855792037
              ],
              [
                110.346204633,
                -0.855513966
              ],
              [
                110.345984862,
                -0.855166025
              ],
              [
                110.345760235,
                -0.854910913
              ],
              [
                110.34563425,
                -0.854786042
              ],
              [
                110.345464096,
                -0.854670098
              ],
              [
                110.345660563,
                -0.854274546
              ],
              [
                110.345730639,
                -0.853948637
              ],
              [
                110.345696609,
                -0.853726014
              ],
              [
                110.345618824,
                -0.853440443
              ],
              [
                110.345609992,
                -0.853201895
              ],
              [
                110.345569874,
                -0.852870054
              ],
              [
                110.345546321,
                -0.852720772
              ],
              [
                110.345520589,
                -0.852606443
              ],
              [
                110.345471728,
                -0.852366648
              ],
              [
                110.345631508,
                -0.852185422
              ],
              [
                110.345718532,
                -0.852086718
              ],
              [
                110.345841396,
                -0.851947363
              ],
              [
                110.346225255,
                -0.851511983
              ],
              [
                110.346397719,
                -0.851311477
              ],
              [
                110.346574928,
                -0.851085908
              ],
              [
                110.346654129,
                -0.850927505
              ],
              [
                110.346693729,
                -0.850795504
              ],
              [
                110.346615316,
                -0.850757843
              ],
              [
                110.34659628,
                -0.850662664
              ],
              [
                110.346562968,
                -0.850586522
              ],
              [
                110.346444415,
                -0.850400223
              ],
              [
                110.346864605,
                -0.850184264
              ],
              [
                110.346975537,
                -0.850112923
              ],
              [
                110.346945946,
                -0.849929837
              ],
              [
                110.346855964,
                -0.849690271
              ],
              [
                110.346816934,
                -0.84958636
              ],
              [
                110.34669055,
                -0.849374314
              ],
              [
                110.346580983,
                -0.849190482
              ],
              [
                110.346295335,
                -0.849205902
              ],
              [
                110.34607765,
                -0.849222166
              ],
              [
                110.345944937,
                -0.849239376
              ],
              [
                110.345676911,
                -0.849274134
              ],
              [
                110.34548756,
                -0.849141813
              ],
              [
                110.345416984,
                -0.84909194
              ],
              [
                110.345108115,
                -0.848971631
              ],
              [
                110.344907543,
                -0.8488572
              ],
              [
                110.344692099,
                -0.848656725
              ],
              [
                110.34451791,
                -0.848441548
              ],
              [
                110.344373365,
                -0.848193827
              ],
              [
                110.344180322,
                -0.847904196
              ],
              [
                110.343882323,
                -0.847900269
              ],
              [
                110.343671331,
                -0.84789749
              ],
              [
                110.343473711,
                -0.847894886
              ],
              [
                110.343236323,
                -0.847891758
              ],
              [
                110.343038006,
                -0.847889146
              ],
              [
                110.342888839,
                -0.84788718
              ],
              [
                110.342604776,
                -0.847914002
              ],
              [
                110.34239833,
                -0.847929928
              ],
              [
                110.342048888,
                -0.847960354
              ],
              [
                110.341968673,
                -0.847978208
              ],
              [
                110.341711957,
                -0.848033633
              ],
              [
                110.341501195,
                -0.848071957
              ],
              [
                110.341340533,
                -0.848051382
              ],
              [
                110.341033337,
                -0.847924899
              ],
              [
                110.340921941,
                -0.847894221
              ],
              [
                110.340735947,
                -0.847826328
              ],
              [
                110.340605273,
                -0.847711244
              ],
              [
                110.340371743,
                -0.847595265
              ],
              [
                110.340282653,
                -0.847537152
              ],
              [
                110.340291643,
                -0.847350257
              ],
              [
                110.340225642,
                -0.847231456
              ],
              [
                110.340140326,
                -0.847187462
              ],
              [
                110.339947245,
                -0.847278002
              ],
              [
                110.339677643,
                -0.847205583
              ],
              [
                110.339605234,
                -0.846848651
              ],
              [
                110.339446832,
                -0.846756249
              ],
              [
                110.33931483,
                -0.846677048
              ],
              [
                110.339116828,
                -0.846558247
              ],
              [
                110.338905625,
                -0.846439445
              ],
              [
                110.338773623,
                -0.846320643
              ],
              [
                110.338628421,
                -0.846228242
              ],
              [
                110.338470019,
                -0.84606984
              ],
              [
                110.338404018,
                -0.845885038
              ],
              [
                110.338258816,
                -0.845832237
              ],
              [
                110.338153215,
                -0.845792636
              ],
              [
                110.337994812,
                -0.845687035
              ],
              [
                110.337862811,
                -0.845594634
              ],
              [
                110.337717609,
                -0.845502232
              ],
              [
                110.337585607,
                -0.845423031
              ],
              [
                110.337440405,
                -0.845357031
              ],
              [
                110.337321603,
                -0.84529103
              ],
              [
                110.337216002,
                -0.845185428
              ],
              [
                110.337110401,
                -0.845093027
              ],
              [
                110.336965199,
                -0.844974225
              ],
              [
                110.336833197,
                -0.844881824
              ],
              [
                110.336701195,
                -0.844776223
              ],
              [
                110.336542793,
                -0.844683821
              ],
              [
                110.336476792,
                -0.84459142
              ],
              [
                110.336225989,
                -0.844525419
              ],
              [
                110.335748515,
                -0.844407826
              ],
              [
                110.33551553,
                -0.844244154
              ],
              [
                110.335359794,
                -0.844243651
              ],
              [
                110.335186624,
                -0.844151785
              ],
              [
                110.335018399,
                -0.844109121
              ],
              [
                110.334763003,
                -0.844067296
              ],
              [
                110.334455051,
                -0.843950536
              ],
              [
                110.334254473,
                -0.843610314
              ],
              [
                110.334188591,
                -0.843419794
              ],
              [
                110.334137126,
                -0.843243271
              ],
              [
                110.334055235,
                -0.843146627
              ],
              [
                110.333998624,
                -0.843096746
              ],
              [
                110.333941966,
                -0.843030007
              ],
              [
                110.333902757,
                -0.842782996
              ],
              [
                110.333783956,
                -0.842690595
              ],
              [
                110.333077971,
                -0.843066963
              ],
              [
                110.33259644,
                -0.843431897
              ],
              [
                110.332397937,
                -0.842109787
              ],
              [
                110.332199935,
                -0.842043786
              ],
              [
                110.331779234,
                -0.84200966
              ],
              [
                110.331596637,
                -0.841925665
              ],
              [
                110.33141527,
                -0.841842236
              ],
              [
                110.331269425,
                -0.841749029
              ],
              [
                110.331175297,
                -0.841625647
              ],
              [
                110.331093741,
                -0.841593377
              ],
              [
                110.330976645,
                -0.841570578
              ],
              [
                110.330758129,
                -0.841519365
              ],
              [
                110.33066618,
                -0.841521879
              ],
              [
                110.330486639,
                -0.841594969
              ],
              [
                110.330303321,
                -0.841629213
              ],
              [
                110.330098348,
                -0.841549758
              ],
              [
                110.330034687,
                -0.841155255
              ],
              [
                110.32973034,
                -0.840956017
              ],
              [
                110.329338738,
                -0.840820817
              ],
              [
                110.329059369,
                -0.840908911
              ],
              [
                110.328843451,
                -0.840995328
              ],
              [
                110.328663827,
                -0.841142933
              ],
              [
                110.328512869,
                -0.841215353
              ],
              [
                110.328266609,
                -0.841377878
              ],
              [
                110.328169798,
                -0.841503271
              ],
              [
                110.327952203,
                -0.841609135
              ],
              [
                110.327833578,
                -0.841685065
              ],
              [
                110.327674846,
                -0.841472677
              ],
              [
                110.327541406,
                -0.841434288
              ],
              [
                110.327389023,
                -0.841434624
              ],
              [
                110.327114097,
                -0.841359941
              ],
              [
                110.326955176,
                -0.841179898
              ],
              [
                110.326960037,
                -0.841120721
              ],
              [
                110.326914524,
                -0.840994825
              ],
              [
                110.326832297,
                -0.840765496
              ],
              [
                110.326746295,
                -0.84078021
              ],
              [
                110.326549659,
                -0.840529965
              ],
              [
                110.326409095,
                -0.840375822
              ],
              [
                110.326157386,
                -0.840076085
              ],
              [
                110.326027802,
                -0.839959157
              ],
              [
                110.325911042,
                -0.839805852
              ],
              [
                110.32588137,
                -0.839635113
              ],
              [
                110.325759665,
                -0.839488765
              ],
              [
                110.325695627,
                -0.839265555
              ],
              [
                110.325653466,
                -0.838994149
              ],
              [
                110.325629494,
                -0.838845286
              ],
              [
                110.325566462,
                -0.838680498
              ],
              [
                110.325389101,
                -0.83855829
              ],
              [
                110.325190199,
                -0.838474638
              ],
              [
                110.32498853,
                -0.838326865
              ],
              [
                110.324818713,
                -0.838159982
              ],
              [
                110.32447254,
                -0.838012544
              ],
              [
                110.324253772,
                -0.837964432
              ],
              [
                110.323781057,
                -0.837875716
              ],
              [
                110.32359814,
                -0.837786316
              ],
              [
                110.323526223,
                -0.837754298
              ],
              [
                110.323315837,
                -0.837658912
              ],
              [
                110.323058345,
                -0.837533183
              ],
              [
                110.323052212,
                -0.837186121
              ],
              [
                110.322986211,
                -0.837027719
              ],
              [
                110.322973011,
                -0.836829716
              ],
              [
                110.32294661,
                -0.836644913
              ],
              [
                110.32295981,
                -0.836473311
              ],
              [
                110.322934712,
                -0.836119659
              ],
              [
                110.322958936,
                -0.836086467
              ],
              [
                110.322935215,
                -0.835961325
              ],
              [
                110.322846743,
                -0.835885289
              ],
              [
                110.322740587,
                -0.835770385
              ],
              [
                110.322575632,
                -0.835658906
              ],
              [
                110.322406904,
                -0.835662677
              ],
              [
                110.322266842,
                -0.835604507
              ],
              [
                110.322007841,
                -0.835435193
              ],
              [
                110.321976493,
                -0.835394959
              ],
              [
                110.321898541,
                -0.835255652
              ],
              [
                110.321775998,
                -0.835088014
              ],
              [
                110.321652533,
                -0.835005955
              ],
              [
                110.321497048,
                -0.834886681
              ],
              [
                110.321328907,
                -0.834685431
              ],
              [
                110.3211694,
                -0.834515111
              ],
              [
                110.320957338,
                -0.834219314
              ],
              [
                110.320835465,
                -0.834121078
              ],
              [
                110.320638238,
                -0.83392469
              ],
              [
                110.320546205,
                -0.833798877
              ],
              [
                110.320437324,
                -0.833613637
              ],
              [
                110.320342525,
                -0.833395792
              ],
              [
                110.320327354,
                -0.833235446
              ],
              [
                110.320341519,
                -0.833066802
              ],
              [
                110.320339927,
                -0.833014583
              ],
              [
                110.320285922,
                -0.833017054
              ],
              [
                110.320274296,
                -0.83293353
              ],
              [
                110.320197267,
                -0.832941912
              ],
              [
                110.319896691,
                -0.832946522
              ],
              [
                110.319587315,
                -0.832857841
              ],
              [
                110.319422527,
                -0.832657933
              ],
              [
                110.31927224,
                -0.832615269
              ],
              [
                110.319158749,
                -0.832495827
              ],
              [
                110.318878626,
                -0.832303043
              ],
              [
                110.318719621,
                -0.832219978
              ],
              [
                110.318547037,
                -0.832046305
              ],
              [
                110.318440755,
                -0.831874895
              ],
              [
                110.318333886,
                -0.83170776
              ],
              [
                110.318097348,
                -0.831494189
              ],
              [
                110.317998861,
                -0.831335101
              ],
              [
                110.31785838,
                -0.831114908
              ],
              [
                110.317793421,
                -0.830882646
              ],
              [
                110.317890942,
                -0.830665233
              ],
              [
                110.317772141,
                -0.830203227
              ],
              [
                110.317772141,
                -0.830071225
              ],
              [
                110.31774574,
                -0.829912823
              ],
              [
                110.31770614,
                -0.829622419
              ],
              [
                110.317455599,
                -0.829533602
              ],
              [
                110.31738606,
                -0.829366192
              ],
              [
                110.316911058,
                -0.829395445
              ],
              [
                110.316518124,
                -0.829226414
              ],
              [
                110.316280521,
                -0.829094412
              ],
              [
                110.316108918,
                -0.829002011
              ],
              [
                110.315884515,
                -0.828909609
              ],
              [
                110.315712913,
                -0.828896409
              ],
              [
                110.315330108,
                -0.828988811
              ],
              [
                110.315118755,
                -0.829172905
              ],
              [
                110.3147493,
                -0.829081212
              ],
              [
                110.314538097,
                -0.829081212
              ],
              [
                110.313872282,
                -0.829226968
              ],
              [
                110.313672098,
                -0.829288684
              ],
              [
                110.313358136,
                -0.829525867
              ],
              [
                110.313017664,
                -0.829842787
              ],
              [
                110.312690072,
                -0.829978824
              ],
              [
                110.31249207,
                -0.830084425
              ],
              [
                110.312201666,
                -0.830203227
              ],
              [
                110.311805661,
                -0.830282428
              ],
              [
                110.311545078,
                -0.83027393
              ],
              [
                110.311389209,
                -0.830346742
              ]
            ]
          ]
        ]
      }
    }
  ]
}