{
  "type": "FeatureCollection",
  "features": [
    {
      "type": "Feature",
      "properties": {
        "idx": "3134",
        "nama_kewilayahan": "Gendang Jong"
      },
      "geometry": {
        "type": "Polygon",
        "coordinates": [
          [
            [
              120.454187414,
              -8.708779626
            ],
            [
              120.454077959,
              -8.708626151
            ],
            [
              120.454020852,
              -8.708519075
            ],
            [
              120.453978022,
              -8.708483383
            ],
            [
              120.453920915,
              -8.708354892
            ],
            [
              120.453856669,
              -8.708204986
            ],
            [
              120.453820977,
              -8.708140741
            ],
            [
              120.453749594,
              -8.708069357
            ],
            [
              120.453649656,
              -8.707940866
            ],
            [
              120.453592549,
              -8.707862344
            ],
            [
              120.453521165,
              -8.70774813
            ],
            [
              120.453471197,
              -8.707733853
            ],
            [
              120.453435505,
              -8.707755268
            ],
            [
              120.453356983,
              -8.707805237
            ],
            [
              120.45327846,
              -8.707876621
            ],
            [
              120.453000063,
              -8.708047942
            ],
            [
              120.453042894,
              -8.708183571
            ],
            [
              120.453185661,
              -8.70849766
            ],
            [
              120.453335567,
              -8.708668981
            ],
            [
              120.45349975,
              -8.708933101
            ],
            [
              120.453749594,
              -8.709311436
            ],
            [
              120.453885223,
              -8.709489895
            ],
            [
              120.454035129,
              -8.709682632
            ],
            [
              120.454741829,
              -8.711317321
            ],
            [
              120.454798936,
              -8.711445812
            ],
            [
              120.455013087,
              -8.712145374
            ],
            [
              120.455055918,
              -8.712345248
            ],
            [
              120.45513444,
              -8.712509431
            ],
            [
              120.455305761,
              -8.712916319
            ],
            [
              120.455469944,
              -8.713144747
            ],
            [
              120.455569881,
              -8.713180439
            ],
            [
              120.455719787,
              -8.713230408
            ],
            [
              120.455862555,
              -8.713273238
            ],
            [
              120.456083845,
              -8.713316069
            ],
            [
              120.456312273,
              -8.713373176
            ],
            [
              120.456526425,
              -8.713416006
            ],
            [
              120.456712023,
              -8.713465975
            ],
            [
              120.456797683,
              -8.713494528
            ],
            [
              120.457018973,
              -8.71357305
            ],
            [
              120.457183156,
              -8.713644434
            ],
            [
              120.457311647,
              -8.713701541
            ],
            [
              120.457383031,
              -8.713730095
            ],
            [
              120.457482968,
              -8.713772925
            ],
            [
              120.457697119,
              -8.713844309
            ],
            [
              120.457775642,
              -8.713887139
            ],
            [
              120.457932686,
              -8.713944246
            ],
            [
              120.458054039,
              -8.714008492
            ],
            [
              120.45826819,
              -8.714087014
            ],
            [
              120.458410958,
              -8.714165536
            ],
            [
              120.458568002,
              -8.714215505
            ],
            [
              120.458769661,
              -8.714303545
            ],
            [
              120.459081966,
              -8.714270827
            ],
            [
              120.459260425,
              -8.714255956
            ],
            [
              120.459447808,
              -8.714229187
            ],
            [
              120.459688728,
              -8.714202418
            ],
            [
              120.459914777,
              -8.71414888
            ],
            [
              120.460134888,
              -8.714099257
            ],
            [
              120.460200517,
              -8.714079236
            ],
            [
              120.460297082,
              -8.714039481
            ],
            [
              120.460389984,
              -8.713998081
            ],
            [
              120.460382805,
              -8.71389196
            ],
            [
              120.46037333,
              -8.71360853
            ],
            [
              120.460371075,
              -8.713541059
            ],
            [
              120.460350595,
              -8.713375857
            ],
            [
              120.460311149,
              -8.713228952
            ],
            [
              120.460211927,
              -8.713016484
            ],
            [
              120.460140871,
              -8.712837424
            ],
            [
              120.46006814,
              -8.712584417
            ],
            [
              120.459909469,
              -8.712276924
            ],
            [
              120.459785811,
              -8.712019607
            ],
            [
              120.459767856,
              -8.711965196
            ],
            [
              120.459747382,
              -8.711822957
            ],
            [
              120.459729782,
              -8.711700687
            ],
            [
              120.459728281,
              -8.71167362
            ],
            [
              120.459746111,
              -8.711414546
            ],
            [
              120.459778405,
              -8.710991198
            ],
            [
              120.459777974,
              -8.710964193
            ],
            [
              120.459705989,
              -8.710719167
            ],
            [
              120.459678583,
              -8.710669293
            ],
            [
              120.459648026,
              -8.710613679
            ],
            [
              120.459418528,
              -8.710378676
            ],
            [
              120.459410351,
              -8.710371486
            ],
            [
              120.459299836,
              -8.710274308
            ],
            [
              120.459195933,
              -8.710108964
            ],
            [
              120.45914284,
              -8.710026113
            ],
            [
              120.459088152,
              -8.709815711
            ],
            [
              120.459042305,
              -8.709659741
            ],
            [
              120.459051684,
              -8.709599747
            ],
            [
              120.459076017,
              -8.709124648
            ],
            [
              120.459068879,
              -8.708998537
            ],
            [
              120.459054602,
              -8.708948568
            ],
            [
              120.459023669,
              -8.708881943
            ],
            [
              120.458945147,
              -8.708791523
            ],
            [
              120.458897557,
              -8.708741555
            ],
            [
              120.458835692,
              -8.708670171
            ],
            [
              120.458780964,
              -8.708627341
            ],
            [
              120.458750031,
              -8.708594028
            ],
            [
              120.458726236,
              -8.70854406
            ],
            [
              120.458690544,
              -8.708508368
            ],
            [
              120.458645335,
              -8.708458399
            ],
            [
              120.458612022,
              -8.708417948
            ],
            [
              120.458562053,
              -8.708382256
            ],
            [
              120.458538259,
              -8.70836322
            ],
            [
              120.458478772,
              -8.708360841
            ],
            [
              120.458447839,
              -8.70836322
            ],
            [
              120.458390732,
              -8.708375118
            ],
            [
              120.458352661,
              -8.708387015
            ],
            [
              120.458324107,
              -8.708406051
            ],
            [
              120.458283657,
              -8.708425086
            ],
            [
              120.458247965,
              -8.708444122
            ],
            [
              120.458217032,
              -8.708470296
            ],
            [
              120.458128992,
              -8.708522644
            ],
            [
              120.458057608,
              -8.708558336
            ],
            [
              120.458007639,
              -8.708565475
            ],
            [
              120.457964809,
              -8.708563095
            ],
            [
              120.457933876,
              -8.708560716
            ],
            [
              120.457895804,
              -8.708546439
            ],
            [
              120.457852974,
              -8.708546439
            ],
            [
              120.457822041,
              -8.708553577
            ],
            [
              120.457788729,
              -8.708563095
            ],
            [
              120.457760175,
              -8.708572613
            ],
            [
              120.457729242,
              -8.70858451
            ],
            [
              120.45769355,
              -8.708594028
            ],
            [
              120.457655479,
              -8.708601167
            ],
            [
              120.457610269,
              -8.708610684
            ],
            [
              120.457543644,
              -8.70862972
            ],
            [
              120.457496055,
              -8.708658274
            ],
            [
              120.457443707,
              -8.708691586
            ],
            [
              120.457422292,
              -8.708705863
            ],
            [
              120.457369944,
              -8.708722519
            ],
            [
              120.457310457,
              -8.708746314
            ],
            [
              120.457265247,
              -8.708777247
            ],
            [
              120.457196243,
              -8.708789144
            ],
            [
              120.457153413,
              -8.708793903
            ],
            [
              120.457098685,
              -8.708793903
            ],
            [
              120.45707727,
              -8.708784385
            ],
            [
              120.457039198,
              -8.708765349
            ],
            [
              120.457015404,
              -8.708741555
            ],
            [
              120.456977332,
              -8.708722519
            ],
            [
              120.456932123,
              -8.708705863
            ],
            [
              120.456908328,
              -8.708698724
            ],
            [
              120.456870257,
              -8.708686827
            ],
            [
              120.456836944,
              -8.708660653
            ],
            [
              120.456806011,
              -8.708634479
            ],
            [
              120.456715592,
              -8.708572613
            ],
            [
              120.456675141,
              -8.70854406
            ],
            [
              120.456579962,
              -8.708508368
            ],
            [
              120.456460989,
              -8.708479814
            ],
            [
              120.456292048,
              -8.708451261
            ],
            [
              120.456223043,
              -8.708456019
            ],
            [
              120.456070758,
              -8.708463158
            ],
            [
              120.455908954,
              -8.708486952
            ],
            [
              120.455866124,
              -8.70849885
            ],
            [
              120.455761428,
              -8.708529783
            ],
            [
              120.455632937,
              -8.708577372
            ],
            [
              120.455559174,
              -8.708601167
            ],
            [
              120.455421165,
              -8.708653515
            ],
            [
              120.455335504,
              -8.708686827
            ],
            [
              120.455271259,
              -8.708713001
            ],
            [
              120.455228429,
              -8.708741555
            ],
            [
              120.455211772,
              -8.70876297
            ],
            [
              120.455197496,
              -8.708777247
            ],
            [
              120.455183219,
              -8.708801041
            ],
            [
              120.455140389,
              -8.708865287
            ],
            [
              120.455092799,
              -8.708903358
            ],
            [
              120.455064246,
              -8.708924773
            ],
            [
              120.455038072,
              -8.708946188
            ],
            [
              120.454980965,
              -8.708948568
            ],
            [
              120.454933375,
              -8.708946188
            ],
            [
              120.454904822,
              -8.70894143
            ],
            [
              120.454840576,
              -8.708917635
            ],
            [
              120.454804885,
              -8.708903358
            ],
            [
              120.454769193,
              -8.708879564
            ],
            [
              120.45473588,
              -8.708853389
            ],
            [
              120.454697809,
              -8.708824836
            ],
            [
              120.454674014,
              -8.708786765
            ],
            [
              120.454633563,
              -8.708748693
            ],
            [
              120.454609769,
              -8.70871776
            ],
            [
              120.454533626,
              -8.708679689
            ],
            [
              120.454507452,
              -8.708667791
            ],
            [
              120.454464622,
              -8.708670171
            ],
            [
              120.454436068,
              -8.70867493
            ],
            [
              120.454376582,
              -8.708679689
            ],
            [
              120.45434089,
              -8.708689207
            ],
            [
              120.454300439,
              -8.708698724
            ],
            [
              120.454267126,
              -8.70871776
            ],
            [
              120.454187414,
              -8.708779626
            ]
          ]
        ]
      }
    }
  ]
}