{
  "type": "FeatureCollection",
  "features": [
    {
      "type": "Feature",
      "properties": {
        "idx": "3178",
        "nama_kewilayahan": "Praing Tanggedu"
      },
      "geometry": {
        "type": "MultiPolygon",
        "coordinates": [
          [
            [
              [
                120.08574349,
                -9.580540377
              ],
              [
                120.085848936,
                -9.580171037
              ],
              [
                120.085761173,
                -9.57971036
              ],
              [
                120.085729989,
                -9.578849639
              ],
              [
                120.085970295,
                -9.577780865
              ],
              [
                120.086363895,
                -9.576808986
              ],
              [
                120.086853322,
                -9.575895275
              ],
              [
                120.087787445,
                -9.574794084
              ],
              [
                120.088450891,
                -9.573805345
              ],
              [
                120.089580083,
                -9.572418962
              ],
              [
                120.090087291,
                -9.571677484
              ],
              [
                120.091326843,
                -9.570903903
              ],
              [
                120.091983205,
                -9.570538391
              ],
              [
                120.091954692,
                -9.570410647
              ],
              [
                120.091895484,
                -9.570293629
              ],
              [
                120.091715904,
                -9.570172615
              ],
              [
                120.091242672,
                -9.569893777
              ],
              [
                120.091137603,
                -9.569860031
              ],
              [
                120.090617163,
                -9.569822802
              ],
              [
                120.090015352,
                -9.569796841
              ],
              [
                120.089720175,
                -9.569818266
              ],
              [
                120.089381917,
                -9.569949876
              ],
              [
                120.089224662,
                -9.5700352
              ],
              [
                120.089127142,
                -9.570141085
              ],
              [
                120.089008946,
                -9.570269419
              ],
              [
                120.088825881,
                -9.570557692
              ],
              [
                120.088616693,
                -9.570732211
              ],
              [
                120.088486705,
                -9.57079685
              ],
              [
                120.088363598,
                -9.570818933
              ],
              [
                120.088200302,
                -9.570848225
              ],
              [
                120.087875356,
                -9.570830558
              ],
              [
                120.087572013,
                -9.570750331
              ],
              [
                120.087452201,
                -9.570680608
              ],
              [
                120.08739598,
                -9.570566603
              ],
              [
                120.087382636,
                -9.570366314
              ],
              [
                120.087391584,
                -9.570022802
              ],
              [
                120.087485319,
                -9.569620248
              ],
              [
                120.087572678,
                -9.569259469
              ],
              [
                120.087605042,
                -9.568993834
              ],
              [
                120.08760026,
                -9.568848591
              ],
              [
                120.087556384,
                -9.568698837
              ],
              [
                120.087475854,
                -9.568611518
              ],
              [
                120.087280642,
                -9.568559088
              ],
              [
                120.086962294,
                -9.568544464
              ],
              [
                120.086179307,
                -9.568585693
              ],
              [
                120.08563033,
                -9.568718517
              ],
              [
                120.08520805,
                -9.568819539
              ],
              [
                120.084985086,
                -9.568844555
              ],
              [
                120.084837753,
                -9.568825391
              ],
              [
                120.084730008,
                -9.568752781
              ],
              [
                120.08446146,
                -9.568475656
              ],
              [
                120.084037977,
                -9.568011991
              ],
              [
                120.083800013,
                -9.567678356
              ],
              [
                120.083672294,
                -9.567477106
              ],
              [
                120.083442059,
                -9.566943361
              ],
              [
                120.083344873,
                -9.566691577
              ],
              [
                120.08332018,
                -9.566410525
              ],
              [
                120.083256026,
                -9.565462288
              ],
              [
                120.083317444,
                -9.564966845
              ],
              [
                120.083339609,
                -9.56483856
              ],
              [
                120.083426001,
                -9.564591307
              ],
              [
                120.083659409,
                -9.564047116
              ],
              [
                120.084000565,
                -9.563574938
              ],
              [
                120.084633519,
                -9.562770586
              ],
              [
                120.084843644,
                -9.562485531
              ],
              [
                120.085248462,
                -9.561960105
              ],
              [
                120.085439942,
                -9.56174361
              ],
              [
                120.085863867,
                -9.561448398
              ],
              [
                120.086063485,
                -9.561328484
              ],
              [
                120.086187601,
                -9.561253926
              ],
              [
                120.086510673,
                -9.561137129
              ],
              [
                120.086848337,
                -9.561074232
              ],
              [
                120.087216048,
                -9.561017563
              ],
              [
                120.087843599,
                -9.560846551
              ],
              [
                120.088305048,
                -9.560739876
              ],
              [
                120.088434727,
                -9.560701458
              ],
              [
                120.088579657,
                -9.560658522
              ],
              [
                120.088697448,
                -9.560611706
              ],
              [
                120.088797637,
                -9.560510964
              ],
              [
                120.088868135,
                -9.560362169
              ],
              [
                120.088896419,
                -9.560221984
              ],
              [
                120.088883301,
                -9.559994807
              ],
              [
                120.088842384,
                -9.559851054
              ],
              [
                120.088589836,
                -9.559108581
              ],
              [
                120.088439791,
                -9.558700994
              ],
              [
                120.088338982,
                -9.558520886
              ],
              [
                120.088321065,
                -9.558150259
              ],
              [
                120.088355241,
                -9.558025061
              ],
              [
                120.088435683,
                -9.557768792
              ],
              [
                120.088533705,
                -9.557568839
              ],
              [
                120.088983023,
                -9.557118472
              ],
              [
                120.089179418,
                -9.556924049
              ],
              [
                120.089279298,
                -9.556825171
              ],
              [
                120.089506152,
                -9.556695612
              ],
              [
                120.089681103,
                -9.556652262
              ],
              [
                120.090024401,
                -9.556634224
              ],
              [
                120.09028957,
                -9.556600593
              ],
              [
                120.090396795,
                -9.556573379
              ],
              [
                120.090494696,
                -9.556548532
              ],
              [
                120.090597741,
                -9.556465739
              ],
              [
                120.090863405,
                -9.556019805
              ],
              [
                120.091043472,
                -9.555728516
              ],
              [
                120.091118044,
                -9.55545427
              ],
              [
                120.091173044,
                -9.555003585
              ],
              [
                120.091163264,
                -9.554737596
              ],
              [
                120.090926948,
                -9.554209778
              ],
              [
                120.090577923,
                -9.553839366
              ],
              [
                120.090422429,
                -9.553718555
              ],
              [
                120.089817726,
                -9.553328076
              ],
              [
                120.089226206,
                -9.552803259
              ],
              [
                120.089088898,
                -9.552667661
              ],
              [
                120.088837245,
                -9.551820029
              ],
              [
                120.088784725,
                -9.55162479
              ],
              [
                120.088719602,
                -9.551495773
              ],
              [
                120.088593902,
                -9.551411064
              ],
              [
                120.08846165,
                -9.551389042
              ],
              [
                120.088130219,
                -9.551428094
              ],
              [
                120.087768716,
                -9.551463905
              ],
              [
                120.087464831,
                -9.551449408
              ],
              [
                120.087386704,
                -9.551433814
              ],
              [
                120.087231161,
                -9.551318978
              ],
              [
                120.087127522,
                -9.551117933
              ],
              [
                120.087107419,
                -9.551004231
              ],
              [
                120.087053031,
                -9.549967039
              ],
              [
                120.08704274,
                -9.549761398
              ],
              [
                120.086969224,
                -9.549557618
              ],
              [
                120.086867833,
                -9.549446223
              ],
              [
                120.086774861,
                -9.549406603
              ],
              [
                120.086473657,
                -9.549430968
              ],
              [
                120.086352911,
                -9.549471784
              ],
              [
                120.086253541,
                -9.549601856
              ],
              [
                120.086121577,
                -9.549774592
              ],
              [
                120.085965258,
                -9.550104917
              ],
              [
                120.085867421,
                -9.55028336
              ],
              [
                120.085762853,
                -9.550403784
              ],
              [
                120.085552614,
                -9.550512108
              ],
              [
                120.08535774,
                -9.550612515
              ],
              [
                120.08491105,
                -9.550755166
              ],
              [
                120.08449795,
                -9.550841333
              ],
              [
                120.084362765,
                -9.550810322
              ],
              [
                120.084209929,
                -9.550731359
              ],
              [
                120.084078695,
                -9.550589836
              ],
              [
                120.084001383,
                -9.550478643
              ],
              [
                120.083742731,
                -9.549747473
              ],
              [
                120.083639959,
                -9.549444853
              ],
              [
                120.083408979,
                -9.548998942
              ],
              [
                120.083326666,
                -9.548768198
              ],
              [
                120.083322147,
                -9.548591886
              ],
              [
                120.083353363,
                -9.548460689
              ],
              [
                120.083454389,
                -9.54826136
              ],
              [
                120.083506903,
                -9.548103452
              ],
              [
                120.083529013,
                -9.547981142
              ],
              [
                120.083556655,
                -9.547849741
              ],
              [
                120.083669623,
                -9.547728367
              ],
              [
                120.083823857,
                -9.547643017
              ],
              [
                120.084014781,
                -9.547510917
              ],
              [
                120.08410544,
                -9.54744819
              ],
              [
                120.084227126,
                -9.547296837
              ],
              [
                120.084288388,
                -9.547171867
              ],
              [
                120.084313763,
                -9.547019707
              ],
              [
                120.084294169,
                -9.546846256
              ],
              [
                120.084208387,
                -9.546669262
              ],
              [
                120.084137324,
                -9.546531232
              ],
              [
                120.083967295,
                -9.546350544
              ],
              [
                120.083642364,
                -9.545980331
              ],
              [
                120.083619659,
                -9.545818805
              ],
              [
                120.083609044,
                -9.545651404
              ],
              [
                120.0835858,
                -9.545553212
              ],
              [
                120.083223931,
                -9.544925748
              ],
              [
                120.083048799,
                -9.544637459
              ],
              [
                120.082726244,
                -9.544341959
              ],
              [
                120.082566136,
                -9.544056784
              ],
              [
                120.082498236,
                -9.543900854
              ],
              [
                120.082483976,
                -9.543808116
              ],
              [
                120.082692674,
                -9.542981675
              ],
              [
                120.082894813,
                -9.542218519
              ],
              [
                120.083022257,
                -9.541743945
              ],
              [
                120.083081744,
                -9.541120013
              ],
              [
                120.083075842,
                -9.540752476
              ],
              [
                120.083035119,
                -9.540232275
              ],
              [
                120.083021927,
                -9.540014062
              ],
              [
                120.082950803,
                -9.539883202
              ],
              [
                120.082831332,
                -9.539774643
              ],
              [
                120.082693345,
                -9.539719707
              ],
              [
                120.082414159,
                -9.539633711
              ],
              [
                120.082181347,
                -9.539545115
              ],
              [
                120.082052593,
                -9.539466355
              ],
              [
                120.081972578,
                -9.539319287
              ],
              [
                120.081886874,
                -9.539133331
              ],
              [
                120.081680887,
                -9.538934415
              ],
              [
                120.081530964,
                -9.538867429
              ],
              [
                120.081428687,
                -9.538818051
              ],
              [
                120.081361241,
                -9.538764424
              ],
              [
                120.081257056,
                -9.538670395
              ],
              [
                120.081196961,
                -9.538564741
              ],
              [
                120.081172601,
                -9.538521913
              ],
              [
                120.081165842,
                -9.538467361
              ],
              [
                120.081204918,
                -9.538289574
              ],
              [
                120.081317656,
                -9.538114126
              ],
              [
                120.081515711,
                -9.537929354
              ],
              [
                120.081907652,
                -9.537710356
              ],
              [
                120.082227841,
                -9.537604049
              ],
              [
                120.082391093,
                -9.537540734
              ],
              [
                120.082751222,
                -9.537310711
              ],
              [
                120.08306891,
                -9.537116185
              ],
              [
                120.083214745,
                -9.536956072
              ],
              [
                120.083385012,
                -9.536754334
              ],
              [
                120.083486734,
                -9.536568067
              ],
              [
                120.083564555,
                -9.536421007
              ],
              [
                120.083599835,
                -9.536349597
              ],
              [
                120.083650196,
                -9.536203741
              ],
              [
                120.083681752,
                -9.536060596
              ],
              [
                120.083752536,
                -9.535799728
              ],
              [
                120.083784667,
                -9.535608231
              ],
              [
                120.083797927,
                -9.535310675
              ],
              [
                120.083854353,
                -9.534791143
              ],
              [
                120.084061488,
                -9.534557686
              ],
              [
                120.084299361,
                -9.534323
              ],
              [
                120.084483052,
                -9.534082227
              ],
              [
                120.08465276,
                -9.53383268
              ],
              [
                120.084814903,
                -9.533623225
              ],
              [
                120.085043448,
                -9.533313998
              ],
              [
                120.085160478,
                -9.533142886
              ],
              [
                120.08522157,
                -9.532980866
              ],
              [
                120.085233971,
                -9.532881539
              ],
              [
                120.085193642,
                -9.532640272
              ],
              [
                120.085152784,
                -9.532424764
              ],
              [
                120.085031308,
                -9.532248838
              ],
              [
                120.084877338,
                -9.532046803
              ],
              [
                120.084847471,
                -9.532007613
              ],
              [
                120.084812567,
                -9.531869893
              ],
              [
                120.08481157,
                -9.531865957
              ],
              [
                120.08479575,
                -9.531803538
              ],
              [
                120.085821927,
                -9.531922552
              ],
              [
                120.087675087,
                -9.532140264
              ],
              [
                120.088418952,
                -9.533578198
              ],
              [
                120.088800487,
                -9.534300831
              ],
              [
                120.089425505,
                -9.534989647
              ],
              [
                120.089633858,
                -9.535690755
              ],
              [
                120.090384593,
                -9.536036436
              ],
              [
                120.090834912,
                -9.53631507
              ],
              [
                120.091187939,
                -9.536538634
              ],
              [
                120.093441782,
                -9.536532364
              ],
              [
                120.094026859,
                -9.536537249
              ],
              [
                120.094512045,
                -9.536566396
              ],
              [
                120.095374518,
                -9.536656056
              ],
              [
                120.096062998,
                -9.536392904
              ],
              [
                120.096215802,
                -9.53634757
              ],
              [
                120.097134788,
                -9.537014928
              ],
              [
                120.098007185,
                -9.537639589
              ],
              [
                120.099167887,
                -9.538767877
              ],
              [
                120.099511783,
                -9.539104175
              ],
              [
                120.101725941,
                -9.540378195
              ],
              [
                120.102771376,
                -9.54018971
              ],
              [
                120.105646633,
                -9.540597267
              ],
              [
                120.10829092,
                -9.539099077
              ],
              [
                120.108788439,
                -9.538780531
              ],
              [
                120.109674556,
                -9.538209938
              ],
              [
                120.111331294,
                -9.537915354
              ],
              [
                120.111512058,
                -9.537895342
              ],
              [
                120.11327714,
                -9.537859792
              ],
              [
                120.11403231,
                -9.537826616
              ],
              [
                120.114625288,
                -9.537752655
              ],
              [
                120.115202554,
                -9.537685733
              ],
              [
                120.116244646,
                -9.537464907
              ],
              [
                120.117514474,
                -9.537078647
              ],
              [
                120.118643207,
                -9.536289654
              ],
              [
                120.119497687,
                -9.536617017
              ],
              [
                120.12027853,
                -9.537111087
              ],
              [
                120.121275075,
                -9.537726451
              ],
              [
                120.122776061,
                -9.539063057
              ],
              [
                120.123534245,
                -9.539963276
              ],
              [
                120.123738831,
                -9.540261357
              ],
              [
                120.124374539,
                -9.54083549
              ],
              [
                120.125134831,
                -9.541485227
              ],
              [
                120.125402624,
                -9.541712123
              ],
              [
                120.126040945,
                -9.542090276
              ],
              [
                120.127335888,
                -9.542731997
              ],
              [
                120.128707528,
                -9.543417373
              ],
              [
                120.130127132,
                -9.544127043
              ],
              [
                120.130299698,
                -9.544224077
              ],
              [
                120.130530117,
                -9.545464131
              ],
              [
                120.130998818,
                -9.548155605
              ],
              [
                120.131421765,
                -9.550559871
              ],
              [
                120.131610317,
                -9.551623658
              ],
              [
                120.133066923,
                -9.554245842
              ],
              [
                120.133735995,
                -9.555441713
              ],
              [
                120.135700461,
                -9.557809936
              ],
              [
                120.137862373,
                -9.559032453
              ],
              [
                120.140487577,
                -9.560492068
              ],
              [
                120.141475094,
                -9.56104805
              ],
              [
                120.142772973,
                -9.563080909
              ],
              [
                120.143038553,
                -9.563460759
              ],
              [
                120.142823596,
                -9.56440076
              ],
              [
                120.142555598,
                -9.564771438
              ],
              [
                120.142461177,
                -9.565119641
              ],
              [
                120.142207194,
                -9.565542064
              ],
              [
                120.141789855,
                -9.565916291
              ],
              [
                120.141614958,
                -9.566096512
              ],
              [
                120.14135579,
                -9.566562871
              ],
              [
                120.141116244,
                -9.566986367
              ],
              [
                120.141026557,
                -9.56734417
              ],
              [
                120.141015405,
                -9.567525739
              ],
              [
                120.141126354,
                -9.568081197
              ],
              [
                120.141137324,
                -9.568497196
              ],
              [
                120.141110717,
                -9.568799107
              ],
              [
                120.141011636,
                -9.569128149
              ],
              [
                120.140946228,
                -9.569462249
              ],
              [
                120.140925564,
                -9.569629398
              ],
              [
                120.140750464,
                -9.569833518
              ],
              [
                120.140626541,
                -9.570253185
              ],
              [
                120.140295605,
                -9.570661585
              ],
              [
                120.14006243,
                -9.57089869
              ],
              [
                120.139984132,
                -9.571046241
              ],
              [
                120.139886049,
                -9.571255777
              ],
              [
                120.13986996,
                -9.571451647
              ],
              [
                120.139832446,
                -9.571905489
              ],
              [
                120.139230642,
                -9.572450289
              ],
              [
                120.139162455,
                -9.572540557
              ],
              [
                120.139166431,
                -9.572640981
              ],
              [
                120.139228,
                -9.572765783
              ],
              [
                120.139566425,
                -9.573189262
              ],
              [
                120.139738167,
                -9.573386681
              ],
              [
                120.139823577,
                -9.573540363
              ],
              [
                120.139898915,
                -9.573746548
              ],
              [
                120.140035302,
                -9.574139678
              ],
              [
                120.140072751,
                -9.574269061
              ],
              [
                120.1401094,
                -9.574494049
              ],
              [
                120.139677357,
                -9.574896832
              ],
              [
                120.13900713,
                -9.576134244
              ],
              [
                120.138830302,
                -9.576543911
              ],
              [
                120.138775162,
                -9.576801606
              ],
              [
                120.138749118,
                -9.577035637
              ],
              [
                120.13867517,
                -9.578100849
              ],
              [
                120.138498841,
                -9.578450763
              ],
              [
                120.138185219,
                -9.578803129
              ],
              [
                120.137919186,
                -9.579080593
              ],
              [
                120.137816483,
                -9.579266186
              ],
              [
                120.13765183,
                -9.579515805
              ],
              [
                120.137330051,
                -9.579979249
              ],
              [
                120.137055378,
                -9.580425156
              ],
              [
                120.136937834,
                -9.580657236
              ],
              [
                120.136797206,
                -9.581487887
              ],
              [
                120.136718614,
                -9.581813508
              ],
              [
                120.136581082,
                -9.582274888
              ],
              [
                120.136269156,
                -9.583285544
              ],
              [
                120.136220603,
                -9.583475169
              ],
              [
                120.136183459,
                -9.584027013
              ],
              [
                120.136164195,
                -9.58417027
              ],
              [
                120.13593482,
                -9.584813745
              ],
              [
                120.136066188,
                -9.5858044
              ],
              [
                120.136078471,
                -9.586062651
              ],
              [
                120.13614293,
                -9.586416943
              ],
              [
                120.136236368,
                -9.586761913
              ],
              [
                120.136297415,
                -9.586948859
              ],
              [
                120.136290874,
                -9.587154367
              ],
              [
                120.136292721,
                -9.587508142
              ],
              [
                120.13624308,
                -9.587683655
              ],
              [
                120.135918057,
                -9.588531901
              ],
              [
                120.135643282,
                -9.589131975
              ],
              [
                120.135461704,
                -9.589532037
              ],
              [
                120.135082132,
                -9.589992607
              ],
              [
                120.134636133,
                -9.590333114
              ],
              [
                120.134379338,
                -9.590512648
              ],
              [
                120.134103862,
                -9.590678245
              ],
              [
                120.132514016,
                -9.590661654
              ],
              [
                120.132037709,
                -9.591169223
              ],
              [
                120.131817514,
                -9.591578523
              ],
              [
                120.131751937,
                -9.591645311
              ],
              [
                120.131370545,
                -9.592033748
              ],
              [
                120.131093235,
                -9.592361305
              ],
              [
                120.130894235,
                -9.592541315
              ],
              [
                120.130424268,
                -9.592867274
              ],
              [
                120.13017666,
                -9.593099466
              ],
              [
                120.13014214,
                -9.593194789
              ],
              [
                120.130130978,
                -9.593376356
              ],
              [
                120.130172072,
                -9.593644405
              ],
              [
                120.130169658,
                -9.593931215
              ],
              [
                120.130054936,
                -9.594398753
              ],
              [
                120.129881894,
                -9.594927954
              ],
              [
                120.129468296,
                -9.595995356
              ],
              [
                120.129404451,
                -9.596141109
              ],
              [
                120.129317594,
                -9.596159511
              ],
              [
                120.129162783,
                -9.596239495
              ],
              [
                120.128654318,
                -9.596560349
              ],
              [
                120.128232319,
                -9.596909269
              ],
              [
                120.127984707,
                -9.597114
              ],
              [
                120.127732707,
                -9.59732236
              ],
              [
                120.126995165,
                -9.597961602
              ],
              [
                120.126452577,
                -9.598329974
              ],
              [
                120.126151699,
                -9.598595181
              ],
              [
                120.12556961,
                -9.599077955
              ],
              [
                120.125103316,
                -9.599537786
              ],
              [
                120.124913497,
                -9.599770452
              ],
              [
                120.124594319,
                -9.599920774
              ],
              [
                120.124279621,
                -9.600013455
              ],
              [
                120.123773419,
                -9.600162534
              ],
              [
                120.123752014,
                -9.600415721
              ],
              [
                120.123762413,
                -9.600511456
              ],
              [
                120.123796708,
                -9.600827214
              ],
              [
                120.123880499,
                -9.601172105
              ],
              [
                120.123965816,
                -9.601336307
              ],
              [
                120.123968655,
                -9.601570574
              ],
              [
                120.123898842,
                -9.601852041
              ],
              [
                120.123747876,
                -9.602046785
              ],
              [
                120.123330427,
                -9.602425751
              ],
              [
                120.123105839,
                -9.602782418
              ],
              [
                120.122943946,
                -9.603130046
              ],
              [
                120.122761374,
                -9.603644818
              ],
              [
                120.122821727,
                -9.603913026
              ],
              [
                120.122863016,
                -9.604157174
              ],
              [
                120.12285706,
                -9.604291934
              ],
              [
                120.122772958,
                -9.60455416
              ],
              [
                120.122483652,
                -9.605158872
              ],
              [
                120.122242106,
                -9.605811786
              ],
              [
                120.121946897,
                -9.606430789
              ],
              [
                120.121574897,
                -9.60713042
              ],
              [
                120.12139855,
                -9.607477925
              ],
              [
                120.121227221,
                -9.60780157
              ],
              [
                120.120910748,
                -9.608200493
              ],
              [
                120.120876506,
                -9.608262353
              ],
              [
                120.120888772,
                -9.608520601
              ],
              [
                120.120935119,
                -9.608736108
              ],
              [
                120.121159922,
                -9.608924419
              ],
              [
                120.121446847,
                -9.609171569
              ],
              [
                120.121460367,
                -9.609281632
              ],
              [
                120.121461262,
                -9.609745345
              ],
              [
                120.121301995,
                -9.610351137
              ],
              [
                120.121107596,
                -9.611123952
              ],
              [
                120.120983743,
                -9.61152926
              ],
              [
                120.120758619,
                -9.611948064
              ],
              [
                120.120641604,
                -9.612114405
              ],
              [
                120.120398506,
                -9.612380085
              ],
              [
                120.120204182,
                -9.612574464
              ],
              [
                120.119280899,
                -9.612967486
              ],
              [
                120.119135779,
                -9.61302926
              ],
              [
                120.118388472,
                -9.613109075
              ],
              [
                120.117862527,
                -9.613214637
              ],
              [
                120.116809827,
                -9.613521361
              ],
              [
                120.116195602,
                -9.613812621
              ],
              [
                120.115624726,
                -9.614104242
              ],
              [
                120.115319777,
                -9.614278571
              ],
              [
                120.114897773,
                -9.614569537
              ],
              [
                120.113440868,
                -9.615561239
              ],
              [
                120.113198372,
                -9.61575521
              ],
              [
                120.112678496,
                -9.616166761
              ],
              [
                120.11215938,
                -9.616602219
              ],
              [
                120.111655808,
                -9.616908735
              ],
              [
                120.111045701,
                -9.617281284
              ],
              [
                120.110351905,
                -9.617633517
              ],
              [
                120.109589498,
                -9.618020579
              ],
              [
                120.108723108,
                -9.617941618
              ],
              [
                120.108492639,
                -9.617853641
              ],
              [
                120.106250297,
                -9.617007844
              ],
              [
                120.106126814,
                -9.616801252
              ],
              [
                120.106060845,
                -9.616628604
              ],
              [
                120.1057748,
                -9.61571315
              ],
              [
                120.105809737,
                -9.615570031
              ],
              [
                120.105829898,
                -9.615465031
              ],
              [
                120.105806669,
                -9.615364448
              ],
              [
                120.105836301,
                -9.615278649
              ],
              [
                120.105904262,
                -9.615217073
              ],
              [
                120.105976268,
                -9.615246359
              ],
              [
                120.106115136,
                -9.615343131
              ],
              [
                120.10622163,
                -9.615281878
              ],
              [
                120.106328328,
                -9.615196725
              ],
              [
                120.106305221,
                -9.615081801
              ],
              [
                120.106243744,
                -9.614947435
              ],
              [
                120.105606876,
                -9.614502301
              ],
              [
                120.104836074,
                -9.613947051
              ],
              [
                120.104764924,
                -9.613817384
              ],
              [
                120.104761694,
                -9.613630921
              ],
              [
                120.104791814,
                -9.613487762
              ],
              [
                120.104677924,
                -9.61328603
              ],
              [
                120.104453579,
                -9.61304513
              ],
              [
                120.104181557,
                -9.612746465
              ],
              [
                120.104086446,
                -9.612602256
              ],
              [
                120.103992759,
                -9.612290745
              ],
              [
                120.103922586,
                -9.612046356
              ],
              [
                120.103784615,
                -9.611844423
              ],
              [
                120.103494101,
                -9.611454775
              ],
              [
                120.103324202,
                -9.611268828
              ],
              [
                120.103230028,
                -9.611014677
              ],
              [
                120.103255209,
                -9.610885818
              ],
              [
                120.103464314,
                -9.610653332
              ],
              [
                120.103716768,
                -9.610421209
              ],
              [
                120.1037804,
                -9.610302232
              ],
              [
                120.103724798,
                -9.610043625
              ],
              [
                120.103625238,
                -9.609856355
              ],
              [
                120.103224067,
                -9.609451439
              ],
              [
                120.102755588,
                -9.609031617
              ],
              [
                120.102510597,
                -9.608953077
              ],
              [
                120.102202951,
                -9.608878791
              ],
              [
                120.102010291,
                -9.608877176
              ],
              [
                120.101662973,
                -9.608936408
              ],
              [
                120.101527866,
                -9.608963957
              ],
              [
                120.101446271,
                -9.60892981
              ],
              [
                120.10128867,
                -9.608770735
              ],
              [
                120.101097597,
                -9.608582697
              ],
              [
                120.100747825,
                -9.608364646
              ],
              [
                120.100422176,
                -9.608142016
              ],
              [
                120.10002534,
                -9.607794499
              ],
              [
                120.100095743,
                -9.607446122
              ],
              [
                120.100079531,
                -9.607087457
              ],
              [
                120.099364462,
                -9.605647343
              ],
              [
                120.098324195,
                -9.606191294
              ],
              [
                120.095892378,
                -9.607546271
              ],
              [
                120.095846552,
                -9.607546532
              ],
              [
                120.094564079,
                -9.607553831
              ],
              [
                120.093503275,
                -9.607401501
              ],
              [
                120.088765866,
                -9.606709113
              ],
              [
                120.0866894,
                -9.606619912
              ],
              [
                120.083553536,
                -9.60649786
              ],
              [
                120.083062671,
                -9.606165072
              ],
              [
                120.082784142,
                -9.606347958
              ],
              [
                120.079272158,
                -9.605153102
              ],
              [
                120.078068935,
                -9.604756239
              ],
              [
                120.078066997,
                -9.604747456
              ],
              [
                120.077582596,
                -9.603101332
              ],
              [
                120.07766653,
                -9.601739658
              ],
              [
                120.079758792,
                -9.600402118
              ],
              [
                120.080150132,
                -9.598501231
              ],
              [
                120.080855872,
                -9.598261953
              ],
              [
                120.081075107,
                -9.598187621
              ],
              [
                120.081781127,
                -9.597948246
              ],
              [
                120.082529188,
                -9.59664953
              ],
              [
                120.082712473,
                -9.596338443
              ],
              [
                120.081732086,
                -9.59439415
              ],
              [
                120.081933359,
                -9.592825515
              ],
              [
                120.081996799,
                -9.592166367
              ],
              [
                120.081401407,
                -9.589135412
              ],
              [
                120.081643563,
                -9.58785394
              ],
              [
                120.0826464,
                -9.58717259
              ],
              [
                120.082797242,
                -9.586392814
              ],
              [
                120.082827812,
                -9.586234786
              ],
              [
                120.084722503,
                -9.586021284
              ],
              [
                120.085623447,
                -9.584580427
              ],
              [
                120.085663978,
                -9.582372257
              ],
              [
                120.085305284,
                -9.582075249
              ],
              [
                120.08574349,
                -9.580540377
              ]
            ]
          ]
        ]
      }
    }
  ]
}