{
  "type": "FeatureCollection",
  "features": [
    {
      "type": "Feature",
      "properties": {
        "idx": "3206",
        "nama_kewilayahan": "Dayak Iban Menua Sungai Iring Ketemenggungan Iban Batang Lupar"
      },
      "geometry": {
        "type": "MultiPolygon",
        "coordinates": [
          [
            [
              [
                112.222767125,
                1.059567252
              ],
              [
                112.221241105,
                1.063737702
              ],
              [
                112.220039005,
                1.068957272
              ],
              [
                112.213741348,
                1.073310545
              ],
              [
                112.216214548,
                1.078293478
              ],
              [
                112.216642566,
                1.079738212
              ],
              [
                112.217020892,
                1.08101521
              ],
              [
                112.217366298,
                1.08205683
              ],
              [
                112.217608156,
                1.082786185
              ],
              [
                112.21767481,
                1.082987189
              ],
              [
                112.217763606,
                1.083254965
              ],
              [
                112.218209523,
                1.083721384
              ],
              [
                112.218690001,
                1.084223953
              ],
              [
                112.219025312,
                1.084574681
              ],
              [
                112.219190781,
                1.084747756
              ],
              [
                112.219676537,
                1.085145342
              ],
              [
                112.220038403,
                1.085441524
              ],
              [
                112.220458962,
                1.085785745
              ],
              [
                112.220733124,
                1.086010143
              ],
              [
                112.221098582,
                1.086309265
              ],
              [
                112.221667668,
                1.086775054
              ],
              [
                112.222077135,
                1.087110195
              ],
              [
                112.221144454,
                1.091814086
              ],
              [
                112.220022951,
                1.096237656
              ],
              [
                112.215660278,
                1.107799248
              ],
              [
                112.224352509,
                1.113665981
              ],
              [
                112.225663241,
                1.111500419
              ],
              [
                112.225169462,
                1.1097216
              ],
              [
                112.225446112,
                1.107026349
              ],
              [
                112.241196453,
                1.100570567
              ],
              [
                112.245239957,
                1.099809079
              ],
              [
                112.249470962,
                1.096153072
              ],
              [
                112.254771013,
                1.091773014
              ],
              [
                112.242625763,
                1.079856596
              ],
              [
                112.2391454,
                1.073173658
              ],
              [
                112.235765743,
                1.071067511
              ],
              [
                112.23390579,
                1.071547659
              ],
              [
                112.231407322,
                1.070797921
              ],
              [
                112.226363026,
                1.06316581
              ],
              [
                112.222767125,
                1.059567252
              ]
            ]
          ]
        ]
      }
    }
  ]
}