{
  "type": "FeatureCollection",
  "features": [
    {
      "type": "Feature",
      "properties": {
        "idx": "3210",
        "nama_kewilayahan": "Huta Aek Tandiang"
      },
      "geometry": {
        "type": "MultiPolygon",
        "coordinates": [
          [
            [
              [
                98.994161512,
                1.856390354
              ],
              [
                98.99424243,
                1.856415798
              ],
              [
                98.995336766,
                1.855793427
              ],
              [
                98.99676416,
                1.85541043
              ],
              [
                98.99876251,
                1.854788058
              ],
              [
                99.0004278,
                1.854165684
              ],
              [
                99.002521307,
                1.854069933
              ],
              [
                99.003758379,
                1.853878431
              ],
              [
                99.005043031,
                1.853878427
              ],
              [
                99.005851887,
                1.8541178
              ],
              [
                99.006946222,
                1.854596545
              ],
              [
                99.008040558,
                1.85507529
              ],
              [
                99.009420369,
                1.854788034
              ],
              [
                99.011085656,
                1.854213524
              ],
              [
                99.012655784,
                1.853926264
              ],
              [
                99.013892856,
                1.85378263
              ],
              [
                99.014714,
                1.85373
              ],
              [
                99.020474,
                1.852813
              ],
              [
                99.022736,
                1.851702
              ],
              [
                99.024196,
                1.851905
              ],
              [
                99.028826,
                1.850495
              ],
              [
                99.030838,
                1.849556
              ],
              [
                99.031296,
                1.846625
              ],
              [
                99.033136,
                1.844962
              ],
              [
                99.036266,
                1.843351
              ],
              [
                99.036667,
                1.843264
              ],
              [
                99.036746,
                1.842977
              ],
              [
                99.036994,
                1.842457
              ],
              [
                99.037308,
                1.842181
              ],
              [
                99.037665,
                1.841989
              ],
              [
                99.037882,
                1.841519
              ],
              [
                99.039535396,
                1.841631548
              ],
              [
                99.039224,
                1.838617
              ],
              [
                99.039558,
                1.83816
              ],
              [
                99.039799,
                1.83765
              ],
              [
                99.039946,
                1.837587
              ],
              [
                99.039943901,
                1.837189324
              ],
              [
                99.039969,
                1.836936
              ],
              [
                99.040017,
                1.836566
              ],
              [
                99.039962,
                1.835867
              ],
              [
                99.040012,
                1.835238
              ],
              [
                99.040637,
                1.834895
              ],
              [
                99.040745,
                1.833576
              ],
              [
                99.039654,
                1.833843
              ],
              [
                99.039256,
                1.833804
              ],
              [
                99.038564,
                1.834404
              ],
              [
                99.037572,
                1.832887
              ],
              [
                99.039460185,
                1.82899382
              ],
              [
                99.039578695,
                1.826805504
              ],
              [
                99.039845194,
                1.826044076
              ],
              [
                99.032742954,
                1.822139286
              ],
              [
                99.032613678,
                1.822097779
              ],
              [
                99.032394172,
                1.822291958
              ],
              [
                99.032037253,
                1.822363342
              ],
              [
                99.031933067,
                1.822499236
              ],
              [
                99.031886349,
                1.822560173
              ],
              [
                99.031708887,
                1.822791644
              ],
              [
                99.03173744,
                1.823919509
              ],
              [
                99.031580396,
                1.824790392
              ],
              [
                99.031691625,
                1.825025208
              ],
              [
                99.031708887,
                1.82506165
              ],
              [
                99.03168177,
                1.825094191
              ],
              [
                99.031042638,
                1.825861149
              ],
              [
                99.031147334,
                1.826346559
              ],
              [
                99.031309137,
                1.826584505
              ],
              [
                99.031889726,
                1.827031844
              ],
              [
                99.031106883,
                1.829330403
              ],
              [
                99.031037879,
                1.830601036
              ],
              [
                99.030853399,
                1.830752935
              ],
              [
                99.030682738,
                1.830893455
              ],
              [
                99.030297266,
                1.830779241
              ],
              [
                99.029952032,
                1.830752935
              ],
              [
                99.029654811,
                1.830922009
              ],
              [
                99.029226508,
                1.830950562
              ],
              [
                99.028798205,
                1.830807795
              ],
              [
                99.028420901,
                1.830739194
              ],
              [
                99.028327072,
                1.830722134
              ],
              [
                99.027941599,
                1.830893455
              ],
              [
                99.027484743,
                1.83100767
              ],
              [
                99.026928544,
                1.831570214
              ],
              [
                99.026338437,
                1.831988999
              ],
              [
                99.026071938,
                1.832217427
              ],
              [
                99.025719778,
                1.83229357
              ],
              [
                99.025492236,
                1.832447711
              ],
              [
                99.025424724,
                1.832493445
              ],
              [
                99.024720404,
                1.832655248
              ],
              [
                99.023901869,
                1.832940783
              ],
              [
                99.02385428,
                1.833511854
              ],
              [
                99.023358762,
                1.833590628
              ],
              [
                99.022830521,
                1.833633458
              ],
              [
                99.022039263,
                1.833830685
              ],
              [
                99.021916533,
                1.833861276
              ],
              [
                99.021464506,
                1.833783545
              ],
              [
                99.021124448,
                1.833725067
              ],
              [
                99.019726514,
                1.833707221
              ],
              [
                99.018720974,
                1.834500515
              ],
              [
                99.018711091,
                1.834610337
              ],
              [
                99.018707343,
                1.834651985
              ],
              [
                99.018705714,
                1.834670085
              ],
              [
                99.01875459,
                1.834694259
              ],
              [
                99.01906899,
                1.834849759
              ],
              [
                99.019218896,
                1.835056772
              ],
              [
                99.019212997,
                1.835104412
              ],
              [
                99.01915187,
                1.835598046
              ],
              [
                99.01906621,
                1.835912135
              ],
              [
                99.018752121,
                1.836226224
              ],
              [
                99.018566523,
                1.836540313
              ],
              [
                99.018495139,
                1.83708283
              ],
              [
                99.018291338,
                1.837645335
              ],
              [
                99.018077187,
                1.838045084
              ],
              [
                99.017687109,
                1.83826648
              ],
              [
                99.017548946,
                1.838344896
              ],
              [
                99.016877938,
                1.838344896
              ],
              [
                99.016435359,
                1.838230682
              ],
              [
                99.01612127,
                1.837645335
              ],
              [
                99.016014781,
                1.837651251
              ],
              [
                99.015864288,
                1.837659611
              ],
              [
                99.015578753,
                1.83793087
              ],
              [
                99.015548595,
                1.838141972
              ],
              [
                99.015535922,
                1.838230682
              ],
              [
                99.015093343,
                1.838573324
              ],
              [
                99.014980457,
                1.838588631
              ],
              [
                99.014850241,
                1.838606287
              ],
              [
                99.014251014,
                1.838687539
              ],
              [
                99.013903706,
                1.838651361
              ],
              [
                99.013565729,
                1.838616155
              ],
              [
                99.012623462,
                1.838673262
              ],
              [
                99.012181959,
                1.839205437
              ],
              [
                99.012140042,
                1.839253596
              ],
              [
                99.012023838,
                1.8393871
              ],
              [
                99.011509868,
                1.839299616
              ],
              [
                99.01135283,
                1.839272886
              ],
              [
                99.010853143,
                1.83982968
              ],
              [
                99.010310626,
                1.839801126
              ],
              [
                99.010250869,
                1.839885782
              ],
              [
                99.010139305,
                1.840043831
              ],
              [
                99.009339806,
                1.840029555
              ],
              [
                99.008997164,
                1.840143769
              ],
              [
                99.008948497,
                1.840179163
              ],
              [
                99.00852603,
                1.840486411
              ],
              [
                99.00804062,
                1.840572072
              ],
              [
                99.007352066,
                1.840637145
              ],
              [
                99.00722738,
                1.840648928
              ],
              [
                99.00722738,
                1.839678108
              ],
              [
                99.006652777,
                1.839616544
              ],
              [
                99.006427881,
                1.839592448
              ],
              [
                99.006042408,
                1.839920813
              ],
              [
                99.006013106,
                1.839933371
              ],
              [
                99.005642659,
                1.840092134
              ],
              [
                99.005171526,
                1.839849429
              ],
              [
                99.004943097,
                1.839720938
              ],
              [
                99.0048014,
                1.839588097
              ],
              [
                99.004714669,
                1.839506787
              ],
              [
                99.004645206,
                1.839515207
              ],
              [
                99.004243536,
                1.839563894
              ],
              [
                99.003929447,
                1.839378296
              ],
              [
                99.00382951,
                1.838792949
              ],
              [
                99.004215974,
                1.838509541
              ],
              [
                99.004257813,
                1.83847886
              ],
              [
                99.003543974,
                1.83856452
              ],
              [
                99.003292761,
                1.838597467
              ],
              [
                99.003244097,
                1.838603849
              ],
              [
                99.002673092,
                1.838678735
              ],
              [
                99.001798015,
                1.83893756
              ],
              [
                99.001659441,
                1.838978547
              ],
              [
                99.001281071,
                1.839119336
              ],
              [
                99.00104554,
                1.839206975
              ],
              [
                99.000431221,
                1.839557347
              ],
              [
                99.000419742,
                1.839563894
              ],
              [
                98.998444789,
                1.839682867
              ],
              [
                98.996303275,
                1.839706662
              ],
              [
                98.995470463,
                1.840491884
              ],
              [
                98.994709036,
                1.84072983
              ],
              [
                98.99416176,
                1.840801214
              ],
              [
                98.993584637,
                1.840993588
              ],
              [
                98.993162386,
                1.841134338
              ],
              [
                98.992714798,
                1.841134338
              ],
              [
                98.992543726,
                1.841134338
              ],
              [
                98.992430835,
                1.841495746
              ],
              [
                98.992387021,
                1.841636011
              ],
              [
                98.992328844,
                1.841822257
              ],
              [
                98.992332989,
                1.843073961
              ],
              [
                98.992141994,
                1.843372221
              ],
              [
                98.99189453,
                1.843657757
              ],
              [
                98.991666102,
                1.844057506
              ],
              [
                98.991361531,
                1.84443822
              ],
              [
                98.991255459,
                1.844698577
              ],
              [
                98.991238437,
                1.845244029
              ],
              [
                98.991100543,
                1.845300448
              ],
              [
                98.990438938,
                1.845386797
              ],
              [
                98.990257461,
                1.845637468
              ],
              [
                98.989914818,
                1.845942039
              ],
              [
                98.989610247,
                1.846551181
              ],
              [
                98.989248569,
                1.847103216
              ],
              [
                98.989047602,
                1.847527481
              ],
              [
                98.989049538,
                1.847658757
              ],
              [
                98.989059446,
                1.848330587
              ],
              [
                98.988981104,
                1.848345408
              ],
              [
                98.988355125,
                1.848463837
              ],
              [
                98.987060699,
                1.848597086
              ],
              [
                98.986990326,
                1.848665448
              ],
              [
                98.986977418,
                1.848677988
              ],
              [
                98.986830863,
                1.848687443
              ],
              [
                98.986753552,
                1.848692431
              ],
              [
                98.986608601,
                1.848701783
              ],
              [
                98.986500015,
                1.848659555
              ],
              [
                98.986180298,
                1.84853522
              ],
              [
                98.98590666,
                1.848475734
              ],
              [
                98.985831663,
                1.848588
              ],
              [
                98.985632425,
                1.848803842
              ],
              [
                98.98540336,
                1.849051995
              ],
              [
                98.984916598,
                1.849376503
              ],
              [
                98.9846315,
                1.849566568
              ],
              [
                98.98320498,
                1.849586149
              ],
              [
                98.982098531,
                1.84966943
              ],
              [
                98.981646079,
                1.850044796
              ],
              [
                98.98130267,
                1.849990119
              ],
              [
                98.981183778,
                1.849987123
              ],
              [
                98.980312445,
                1.850011783
              ],
              [
                98.979427285,
                1.849954676
              ],
              [
                98.979313069,
                1.849915676
              ],
              [
                98.978841938,
                1.849754802
              ],
              [
                98.978499209,
                1.849743565
              ],
              [
                98.977971055,
                1.849726248
              ],
              [
                98.977185833,
                1.849483543
              ],
              [
                98.977114533,
                1.849454916
              ],
              [
                98.977076079,
                1.849439477
              ],
              [
                98.976630188,
                1.849102677
              ],
              [
                98.976677126,
                1.84917763
              ],
              [
                98.976793959,
                1.849389745
              ],
              [
                98.976803269,
                1.849406649
              ],
              [
                98.977629296,
                1.850906338
              ],
              [
                98.977682526,
                1.851002979
              ],
              [
                98.97902671,
                1.853443405
              ],
              [
                98.984390004,
                1.85611253
              ],
              [
                98.986740382,
                1.856179356
              ],
              [
                98.986862194,
                1.856182819
              ],
              [
                98.994161512,
                1.856390354
              ]
            ]
          ]
        ]
      }
    }
  ]
}