{
  "type": "FeatureCollection",
  "features": [
    {
      "type": "Feature",
      "properties": {
        "idx": "3228",
        "nama_kewilayahan": "Banua Hilimbu'ulawa"
      },
      "geometry": {
        "type": "Polygon",
        "coordinates": [
          [
            [
              97.693984102,
              0.679786492
            ],
            [
              97.694001437,
              0.679732366
            ],
            [
              97.694027266,
              0.679651734
            ],
            [
              97.694060554,
              0.67949075
            ],
            [
              97.694068648,
              0.679447344
            ],
            [
              97.694068648,
              0.679443719
            ],
            [
              97.694065953,
              0.679440094
            ],
            [
              97.694072257,
              0.679390352
            ],
            [
              97.694075859,
              0.67937136
            ],
            [
              97.694074968,
              0.679337891
            ],
            [
              97.694060624,
              0.679248344
            ],
            [
              97.694058828,
              0.679225727
            ],
            [
              97.69405075,
              0.679184117
            ],
            [
              97.694038179,
              0.679153367
            ],
            [
              97.694029204,
              0.679123516
            ],
            [
              97.694027429,
              0.679050242
            ],
            [
              97.694034617,
              0.679029445
            ],
            [
              97.694053501,
              0.678995086
            ],
            [
              97.694065187,
              0.678957094
            ],
            [
              97.694081367,
              0.678924539
            ],
            [
              97.694092148,
              0.678907359
            ],
            [
              97.694134398,
              0.678857617
            ],
            [
              97.694160469,
              0.678831399
            ],
            [
              97.694171242,
              0.678825977
            ],
            [
              97.694182922,
              0.67882507
            ],
            [
              97.69421168,
              0.678828695
            ],
            [
              97.694222461,
              0.678825985
            ],
            [
              97.694231444,
              0.678818758
            ],
            [
              97.694241328,
              0.678818758
            ],
            [
              97.694264687,
              0.678826008
            ],
            [
              97.694320391,
              0.67883868
            ],
            [
              97.694365313,
              0.678854969
            ],
            [
              97.69437783,
              0.678858335
            ],
            [
              97.694405742,
              0.678865836
            ],
            [
              97.694437187,
              0.678869461
            ],
            [
              97.69445157,
              0.678868563
            ],
            [
              97.694482117,
              0.678861336
            ],
            [
              97.694510875,
              0.678847774
            ],
            [
              97.69454143,
              0.67882879
            ],
            [
              97.694589961,
              0.678789906
            ],
            [
              97.694607031,
              0.678775438
            ],
            [
              97.694647477,
              0.678732031
            ],
            [
              97.694659164,
              0.678716664
            ],
            [
              97.694684328,
              0.678679586
            ],
            [
              97.694694218,
              0.678660594
            ],
            [
              97.694696914,
              0.678658789
            ],
            [
              97.69471489,
              0.678628039
            ],
            [
              97.694734664,
              0.6786
            ],
            [
              97.69475893,
              0.678576493
            ],
            [
              97.694784094,
              0.678552992
            ],
            [
              97.694812851,
              0.678532188
            ],
            [
              97.694844305,
              0.678513203
            ],
            [
              97.69490721,
              0.678480657
            ],
            [
              97.694976406,
              0.678449016
            ],
            [
              97.695042913,
              0.678408336
            ],
            [
              97.695068969,
              0.678386633
            ],
            [
              97.695087836,
              0.678364023
            ],
            [
              97.695115719,
              0.678317906
            ],
            [
              97.695127398,
              0.678292586
            ],
            [
              97.695151671,
              0.678229274
            ],
            [
              97.695168749,
              0.678198516
            ],
            [
              97.695207406,
              0.678159641
            ],
            [
              97.695232563,
              0.678142461
            ],
            [
              97.695272101,
              0.678124383
            ],
            [
              97.69528468,
              0.678120774
            ],
            [
              97.695316125,
              0.678115352
            ],
            [
              97.695335897,
              0.678093645
            ],
            [
              97.695336085,
              0.678093439
            ],
            [
              97.695336181,
              0.678093335
            ],
            [
              97.695344882,
              0.678099078
            ],
            [
              97.6953925,
              0.678124423
            ],
            [
              97.695430234,
              0.678140711
            ],
            [
              97.695454492,
              0.678145234
            ],
            [
              97.695476953,
              0.678143438
            ],
            [
              97.695506609,
              0.678133492
            ],
            [
              97.695535352,
              0.678118125
            ],
            [
              97.695547945,
              0.678105461
            ],
            [
              97.69556682,
              0.678075625
            ],
            [
              97.695580304,
              0.678043064
            ],
            [
              97.695592898,
              0.677990153
            ],
            [
              97.695648376,
              0.677975435
            ],
            [
              97.695840688,
              0.677932716
            ],
            [
              97.696470889,
              0.678479916
            ],
            [
              97.697361857,
              0.67928976
            ],
            [
              97.697883214,
              0.680449599
            ],
            [
              97.696643528,
              0.683140641
            ],
            [
              97.699598797,
              0.685114387
            ],
            [
              97.700369726,
              0.68562927
            ],
            [
              97.700397503,
              0.685647822
            ],
            [
              97.702381805,
              0.686758572
            ],
            [
              97.704979014,
              0.690545302
            ],
            [
              97.706970781,
              0.693449299
            ],
            [
              97.70711124,
              0.693654089
            ],
            [
              97.707391285,
              0.693766083
            ],
            [
              97.707529293,
              0.693967148
            ],
            [
              97.707691097,
              0.694385933
            ],
            [
              97.708081328,
              0.694899897
            ],
            [
              97.708366864,
              0.695509039
            ],
            [
              97.70833831,
              0.696260948
            ],
            [
              97.708262167,
              0.696793948
            ],
            [
              97.708262167,
              0.69700334
            ],
            [
              97.708233614,
              0.697279358
            ],
            [
              97.708157471,
              0.697498268
            ],
            [
              97.708385899,
              0.697631518
            ],
            [
              97.708680952,
              0.697764768
            ],
            [
              97.708842756,
              0.697859946
            ],
            [
              97.708976006,
              0.698126446
            ],
            [
              97.709004559,
              0.698269213
            ],
            [
              97.708928416,
              0.698411981
            ],
            [
              97.708871309,
              0.698611856
            ],
            [
              97.709033113,
              0.698792695
            ],
            [
              97.709023595,
              0.698964016
            ],
            [
              97.70909022,
              0.699125819
            ],
            [
              97.709061666,
              0.699240033
            ],
            [
              97.708928416,
              0.699411355
            ],
            [
              97.708699988,
              0.699573158
            ],
            [
              97.708376381,
              0.699734961
            ],
            [
              97.708176507,
              0.699849175
            ],
            [
              97.708033739,
              0.699896765
            ],
            [
              97.70798615,
              0.699763515
            ],
            [
              97.707890971,
              0.699639783
            ],
            [
              97.707643507,
              0.699535087
            ],
            [
              97.70750074,
              0.699506533
            ],
            [
              97.707205687,
              0.699458944
            ],
            [
              97.706977258,
              0.699335212
            ],
            [
              97.706815455,
              0.699163891
            ],
            [
              97.706672687,
              0.699125819
            ],
            [
              97.706444259,
              0.699011605
            ],
            [
              97.706251862,
              0.699088208
            ],
            [
              97.706073063,
              0.699106784
            ],
            [
              97.705901742,
              0.699230516
            ],
            [
              97.705855728,
              0.69951039
            ],
            [
              97.70570382,
              0.699503398
            ],
            [
              97.705525498,
              0.699587108
            ],
            [
              97.70546603,
              0.699718715
            ],
            [
              97.705465973,
              0.699922133
            ],
            [
              97.705549126,
              0.700113608
            ],
            [
              97.705537172,
              0.700364886
            ],
            [
              97.70526354,
              0.701238312
            ],
            [
              97.705168381,
              0.701477601
            ],
            [
              97.705001941,
              0.701585246
            ],
            [
              97.704835529,
              0.7015852
            ],
            [
              97.7046216,
              0.701477448
            ],
            [
              97.704478967,
              0.701453477
            ],
            [
              97.70425313,
              0.701429482
            ],
            [
              97.703884587,
              0.701644764
            ],
            [
              97.703718102,
              0.701907964
            ],
            [
              97.703325678,
              0.702518109
            ],
            [
              97.70320674,
              0.702781322
            ],
            [
              97.70314725,
              0.702984724
            ],
            [
              97.702992688,
              0.703116303
            ],
            [
              97.702826256,
              0.703188051
            ],
            [
              97.702731114,
              0.703367511
            ],
            [
              97.702707296,
              0.703535025
            ],
            [
              97.702873695,
              0.703582936
            ],
            [
              97.703099532,
              0.70360693
            ],
            [
              97.703242148,
              0.70369073
            ],
            [
              97.703313431,
              0.703822373
            ],
            [
              97.703313385,
              0.703989894
            ],
            [
              97.70320637,
              0.704121487
            ],
            [
              97.702980475,
              0.70430091
            ],
            [
              97.702837779,
              0.704504288
            ],
            [
              97.702790181,
              0.704695727
            ],
            [
              97.70277825,
              0.704851279
            ],
            [
              97.703101642,
              0.705063586
            ],
            [
              97.703648918,
              0.704968407
            ],
            [
              97.703910659,
              0.704944613
            ],
            [
              97.70412481,
              0.70508738
            ],
            [
              97.704243783,
              0.705563273
            ],
            [
              97.703982042,
              0.705943986
            ],
            [
              97.70412481,
              0.706277111
            ],
            [
              97.704457935,
              0.706229522
            ],
            [
              97.704862443,
              0.706110549
            ],
            [
              97.705314541,
              0.705943986
            ],
            [
              97.705504897,
              0.706277111
            ],
            [
              97.705552487,
              0.706443673
            ],
            [
              97.705600076,
              0.706729209
            ],
            [
              97.705814227,
              0.707133717
            ],
            [
              97.706075968,
              0.707419252
            ],
            [
              97.706480477,
              0.70725269
            ],
            [
              97.706647039,
              0.706871976
            ],
            [
              97.707051547,
              0.706562646
            ],
            [
              97.707717796,
              0.706396084
            ],
            [
              97.707694002,
              0.70663403
            ],
            [
              97.707694002,
              0.707062333
            ],
            [
              97.707503645,
              0.707490636
            ],
            [
              97.707456056,
              0.707847555
            ],
            [
              97.707717796,
              0.707966528
            ],
            [
              97.708360251,
              0.708275858
            ],
            [
              97.708836143,
              0.708418626
            ],
            [
              97.709074089,
              0.708608983
            ],
            [
              97.709264446,
              0.708965902
            ],
            [
              97.709264446,
              0.709251437
            ],
            [
              97.708978911,
              0.709584562
            ],
            [
              97.708550608,
              0.709822508
            ],
            [
              97.707884358,
              0.709822508
            ],
            [
              97.707503645,
              0.710012865
            ],
            [
              97.707337082,
              0.710464962
            ],
            [
              97.706766012,
              0.71060773
            ],
            [
              97.70659945,
              0.710131838
            ],
            [
              97.706385298,
              0.709536972
            ],
            [
              97.706028379,
              0.709227643
            ],
            [
              97.705040903,
              0.708965902
            ],
            [
              97.704112913,
              0.709251437
            ],
            [
              97.701578787,
              0.709751124
            ],
            [
              97.701007716,
              0.709965275
            ],
            [
              97.698901893,
              0.710250811
            ],
            [
              97.697973903,
              0.710500654
            ],
            [
              97.696010848,
              0.710714806
            ],
            [
              97.694618863,
              0.711178801
            ],
            [
              97.693583798,
              0.711571412
            ],
            [
              97.691620743,
              0.711642795
            ],
            [
              97.689586303,
              0.711214493
            ],
            [
              97.687730324,
              0.710714806
            ],
            [
              97.686802334,
              0.710464962
            ],
            [
              97.685374657,
              0.709893892
            ],
            [
              97.684089748,
              0.709536972
            ],
            [
              97.682733456,
              0.709037286
            ],
            [
              97.682198077,
              0.708608983
            ],
            [
              97.681874976,
              0.708180759
            ],
            [
              97.680985454,
              0.70746572
            ],
            [
              97.679225347,
              0.706050864
            ],
            [
              97.678333049,
              0.704563701
            ],
            [
              97.677440751,
              0.703433457
            ],
            [
              97.67506129,
              0.701946294
            ],
            [
              97.670897233,
              0.701529888
            ],
            [
              97.668577259,
              0.702124753
            ],
            [
              97.666792663,
              0.706407783
            ],
            [
              97.665246013,
              0.709976974
            ],
            [
              97.663401931,
              0.712475409
            ],
            [
              97.661141443,
              0.715628194
            ],
            [
              97.660480864,
              0.717454727
            ],
            [
              97.656843046,
              0.718745566
            ],
            [
              97.654599124,
              0.721847462
            ],
            [
              97.653693829,
              0.722172485
            ],
            [
              97.651314368,
              0.723064783
            ],
            [
              97.648459015,
              0.72312427
            ],
            [
              97.646020068,
              0.721934539
            ],
            [
              97.644175985,
              0.720566349
            ],
            [
              97.643343174,
              0.71765151
            ],
            [
              97.643224201,
              0.715331535
            ],
            [
              97.644413932,
              0.711940803
            ],
            [
              97.645246743,
              0.708609558
            ],
            [
              97.648221069,
              0.704683447
            ],
            [
              97.651552315,
              0.699270173
            ],
            [
              97.654943046,
              0.695582009
            ],
            [
              97.658274292,
              0.691061033
            ],
            [
              97.661546051,
              0.688086707
            ],
            [
              97.663925512,
              0.687610814
            ],
            [
              97.66848747,
              0.689381491
            ],
            [
              97.676802759,
              0.690459265
            ],
            [
              97.676802767,
              0.690439366
            ],
            [
              97.67680636,
              0.690425796
            ],
            [
              97.676814454,
              0.690414944
            ],
            [
              97.676827931,
              0.690404999
            ],
            [
              97.6768459,
              0.690397765
            ],
            [
              97.676855454,
              0.690395843
            ],
            [
              97.676873572,
              0.690392202
            ],
            [
              97.676877353,
              0.690391444
            ],
            [
              97.676907002,
              0.690392358
            ],
            [
              97.676963775,
              0.690400538
            ],
            [
              97.67698247,
              0.690403233
            ],
            [
              97.677034463,
              0.690411562
            ],
            [
              97.67703908,
              0.690412296
            ],
            [
              97.677076813,
              0.690416827
            ],
            [
              97.677111853,
              0.690418648
            ],
            [
              97.677143299,
              0.690421366
            ],
            [
              97.677313102,
              0.690457601
            ],
            [
              97.677344549,
              0.69046303
            ],
            [
              97.677404736,
              0.690484757
            ],
            [
              97.677478416,
              0.690512812
            ],
            [
              97.677515252,
              0.69052368
            ],
            [
              97.677552088,
              0.69053364
            ],
            [
              97.677623063,
              0.690543609
            ],
            [
              97.677646423,
              0.690544523
            ],
            [
              97.677663493,
              0.690541804
            ],
            [
              97.677678775,
              0.690533679
            ],
            [
              97.677695853,
              0.690518304
            ],
            [
              97.6776974,
              0.690516483
            ],
            [
              97.677712024,
              0.690499312
            ],
            [
              97.677738993,
              0.690456812
            ],
            [
              97.677766861,
              0.690405273
            ],
            [
              97.677773158,
              0.690385366
            ],
            [
              97.677808212,
              0.690344671
            ],
            [
              97.677833383,
              0.690306694
            ],
            [
              97.677846861,
              0.690275039
            ],
            [
              97.677881931,
              0.690178265
            ],
            [
              97.677881931,
              0.690175554
            ],
            [
              97.677901719,
              0.690114046
            ],
            [
              97.677905314,
              0.690094155
            ],
            [
              97.677908024,
              0.690061593
            ],
            [
              97.67790354,
              0.690029937
            ],
            [
              97.67789636,
              0.690001898
            ],
            [
              97.677886478,
              0.689973858
            ],
            [
              97.677874813,
              0.689925007
            ],
            [
              97.677864963,
              0.689826421
            ],
            [
              97.677865877,
              0.689766718
            ],
            [
              97.677871275,
              0.689730546
            ],
            [
              97.677884767,
              0.689680804
            ],
            [
              97.677909931,
              0.689615679
            ],
            [
              97.677932416,
              0.689577702
            ],
            [
              97.677969266,
              0.689517108
            ],
            [
              97.677997134,
              0.689480937
            ],
            [
              97.678019602,
              0.689461046
            ],
            [
              97.678066329,
              0.689432116
            ],
            [
              97.678147205,
              0.689392343
            ],
            [
              97.678180454,
              0.689379687
            ],
            [
              97.67824515,
              0.689357093
            ],
            [
              97.678281095,
              0.689340819
            ],
            [
              97.67830536,
              0.689324546
            ],
            [
              97.678329463,
              0.689302569
            ],
            [
              97.678334119,
              0.689298327
            ],
            [
              97.678385352,
              0.689241358
            ],
            [
              97.678432087,
              0.68919253
            ],
            [
              97.678449157,
              0.689178968
            ],
            [
              97.678460938,
              0.689171366
            ],
            [
              97.678484213,
              0.689156366
            ],
            [
              97.678525548,
              0.689139187
            ],
            [
              97.678613603,
              0.689109366
            ],
            [
              97.67865583,
              0.689089476
            ],
            [
              97.678693588,
              0.689066882
            ],
            [
              97.678726837,
              0.689041562
            ],
            [
              97.678792671,
              0.688974445
            ],
            [
              97.678794242,
              0.688972845
            ],
            [
              97.678812211,
              0.688952945
            ],
            [
              97.678851758,
              0.688916781
            ],
            [
              97.678885007,
              0.688892367
            ],
            [
              97.678915562,
              0.688873383
            ],
            [
              97.678926344,
              0.688863438
            ],
            [
              97.678936234,
              0.688847156
            ],
            [
              97.678947023,
              0.688824547
            ],
            [
              97.678971305,
              0.688757625
            ],
            [
              97.678979398,
              0.688716922
            ],
            [
              97.678981211,
              0.688677125
            ],
            [
              97.67897675,
              0.688559539
            ],
            [
              97.678981257,
              0.688512509
            ],
            [
              97.678985749,
              0.688490805
            ],
            [
              97.67900014,
              0.688461859
            ],
            [
              97.679005531,
              0.688455531
            ],
            [
              97.679028899,
              0.68844107
            ],
            [
              97.679054101,
              0.688417086
            ],
            [
              97.67906215,
              0.688409421
            ],
            [
              97.679082821,
              0.688394952
            ],
            [
              97.679107977,
              0.688385913
            ],
            [
              97.679130447,
              0.688381398
            ],
            [
              97.679142533,
              0.688379569
            ],
            [
              97.679157353,
              0.688377319
            ],
            [
              97.679178063,
              0.688374179
            ],
            [
              97.679193736,
              0.688369976
            ],
            [
              97.679218494,
              0.688363335
            ],
            [
              97.679259838,
              0.688346156
            ],
            [
              97.67928415,
              0.688332398
            ],
            [
              97.67930297,
              0.688321749
            ],
            [
              97.679320947,
              0.688305477
            ],
            [
              97.679335321,
              0.688288288
            ],
            [
              97.679350611,
              0.688259351
            ],
            [
              97.679358705,
              0.688227702
            ],
            [
              97.679375142,
              0.688154679
            ],
            [
              97.679375805,
              0.688151733
            ],
            [
              97.67938183,
              0.688136296
            ],
            [
              97.679385689,
              0.688126405
            ],
            [
              97.679398275,
              0.688103796
            ],
            [
              97.67941265,
              0.688084804
            ],
            [
              97.679431525,
              0.688072148
            ],
            [
              97.679458485,
              0.688057687
            ],
            [
              97.679476455,
              0.688050452
            ],
            [
              97.67949847,
              0.688044546
            ],
            [
              97.679516892,
              0.688039608
            ],
            [
              97.67955733,
              0.688031483
            ],
            [
              97.679712775,
              0.688016148
            ],
            [
              97.679748713,
              0.688012539
            ],
            [
              97.679799931,
              0.688000804
            ],
            [
              97.679825986,
              0.687989952
            ],
            [
              97.679843963,
              0.687978194
            ],
            [
              97.679858345,
              0.687961921
            ],
            [
              97.679882611,
              0.68792303
            ],
            [
              97.679916774,
              0.687852491
            ],
            [
              97.679954541,
              0.687744866
            ],
            [
              97.679970727,
              0.68770689
            ],
            [
              97.679991399,
              0.687673421
            ],
            [
              97.680010274,
              0.687654438
            ],
            [
              97.680036338,
              0.687632733
            ],
            [
              97.68006779,
              0.687615563
            ],
            [
              97.680118111,
              0.687597483
            ],
            [
              97.680202572,
              0.68757489
            ],
            [
              97.680243009,
              0.687569476
            ],
            [
              97.680348133,
              0.687562273
            ],
            [
              97.680374345,
              0.68756228
            ],
            [
              97.680420915,
              0.687562288
            ],
            [
              97.680462244,
              0.687556875
            ],
            [
              97.680506275,
              0.687546937
            ],
            [
              97.68058847,
              0.687521507
            ],
            [
              97.680634774,
              0.687507179
            ],
            [
              97.680705025,
              0.687481898
            ],
            [
              97.680732719,
              0.687471929
            ],
            [
              97.68077765,
              0.687447515
            ],
            [
              97.680874704,
              0.687389663
            ],
            [
              97.680924127,
              0.687365249
            ],
            [
              97.680970853,
              0.687348983
            ],
            [
              97.68101758,
              0.687339046
            ],
            [
              97.681063399,
              0.687331827
            ],
            [
              97.681120907,
              0.687318273
            ],
            [
              97.681183806,
              0.687302015
            ],
            [
              97.681264633,
              0.687288476
            ],
            [
              97.681264681,
              0.687288468
            ],
            [
              97.68127833,
              0.687287538
            ],
            [
              97.681304213,
              0.687285765
            ],
            [
              97.681341946,
              0.687287585
            ],
            [
              97.681361416,
              0.687291108
            ],
            [
              97.681376994,
              0.687293921
            ],
            [
              97.681409338,
              0.687303882
            ],
            [
              97.681438978,
              0.687317468
            ],
            [
              97.68148929,
              0.687346413
            ],
            [
              97.681528423,
              0.687363023
            ],
            [
              97.681540494,
              0.68736814
            ],
            [
              97.681545884,
              0.687369046
            ],
            [
              97.681548588,
              0.687366327
            ],
            [
              97.681554869,
              0.68736814
            ],
            [
              97.681576431,
              0.687377195
            ],
            [
              97.681591705,
              0.687388054
            ],
            [
              97.68164111,
              0.687434194
            ],
            [
              97.681668861,
              0.687458765
            ],
            [
              97.681752494,
              0.687532812
            ],
            [
              97.681774955,
              0.687550913
            ],
            [
              97.681811791,
              0.687575343
            ],
            [
              97.68184233,
              0.687588913
            ],
            [
              97.681875572,
              0.687597968
            ],
            [
              97.68188308,
              0.687598733
            ],
            [
              97.681893541,
              0.687599788
            ],
            [
              97.681944758,
              0.687596179
            ],
            [
              97.68199508,
              0.687591671
            ],
            [
              97.682022141,
              0.687589649
            ],
            [
              97.682055275,
              0.687587171
            ],
            [
              97.6821029,
              0.687578132
            ],
            [
              97.682133455,
              0.687570007
            ],
            [
              97.682143338,
              0.687563671
            ],
            [
              97.682144126,
              0.687563858
            ],
            [
              97.682155017,
              0.68756639
            ],
            [
              97.682175681,
              0.687569108
            ],
            [
              97.682217908,
              0.687571835
            ],
            [
              97.682304478,
              0.687590241
            ],
            [
              97.682349977,
              0.687599913
            ],
            [
              97.682385923,
              0.687603539
            ],
            [
              97.682390415,
              0.687601733
            ],
            [
              97.682402095,
              0.687609874
            ],
            [
              97.682436228,
              0.687637023
            ],
            [
              97.682450603,
              0.687645163
            ],
            [
              97.682466774,
              0.687652405
            ],
            [
              97.682484744,
              0.687637937
            ],
            [
              97.682488049,
              0.687635718
            ],
            [
              97.682503619,
              0.68762528
            ],
            [
              97.682526087,
              0.687611718
            ],
            [
              97.682550345,
              0.687600874
            ],
            [
              97.68259797,
              0.687585507
            ],
            [
              97.682646494,
              0.687574671
            ],
            [
              97.682690525,
              0.687569257
            ],
            [
              97.682692424,
              0.687569218
            ],
            [
              97.682725494,
              0.687568452
            ],
            [
              97.682767799,
              0.687567469
            ],
            [
              97.682842369,
              0.68756839
            ],
            [
              97.682880103,
              0.687563882
            ],
            [
              97.682917844,
              0.687554843
            ],
            [
              97.68295379,
              0.687539476
            ],
            [
              97.682985243,
              0.687521398
            ],
            [
              97.683010407,
              0.687500601
            ],
            [
              97.683028963,
              0.68747789
            ],
            [
              97.683085009,
              0.687409273
            ],
            [
              97.683136431,
              0.687340335
            ],
            [
              97.683141634,
              0.687332406
            ],
            [
              97.68316411,
              0.687285374
            ],
            [
              97.683175799,
              0.687257343
            ],
            [
              97.683177595,
              0.687242866
            ],
            [
              97.683174908,
              0.687228398
            ],
            [
              97.683166822,
              0.687213921
            ],
            [
              97.683142572,
              0.687180453
            ],
            [
              97.683130907,
              0.687156023
            ],
            [
              97.683121924,
              0.68712346
            ],
            [
              97.683118338,
              0.687084569
            ],
            [
              97.68312015,
              0.687044773
            ],
            [
              97.683126447,
              0.687004968
            ],
            [
              97.683137244,
              0.686968804
            ],
            [
              97.683150728,
              0.68693714
            ],
            [
              97.683166009,
              0.686908203
            ],
            [
              97.68318136,
              0.686865952
            ],
            [
              97.683183095,
              0.686861179
            ],
            [
              97.683187588,
              0.686845804
            ],
            [
              97.683190299,
              0.686812335
            ],
            [
              97.683188502,
              0.686788819
            ],
            [
              97.683181322,
              0.686760773
            ],
            [
              97.683167852,
              0.68672821
            ],
            [
              97.683141813,
              0.686682077
            ],
            [
              97.683123853,
              0.686653132
            ],
            [
              97.683102299,
              0.686608804
            ],
            [
              97.683091524,
              0.686577132
            ],
            [
              97.683083447,
              0.686543671
            ],
            [
              97.683083174,
              0.686539163
            ],
            [
              97.683081658,
              0.686513819
            ],
            [
              97.68308347,
              0.686489405
            ],
            [
              97.683090649,
              0.686464077
            ],
            [
              97.683102353,
              0.686438757
            ],
            [
              97.683118525,
              0.686415241
            ],
            [
              97.68314908,
              0.686379069
            ],
            [
              97.683175752,
              0.686352929
            ],
            [
              97.683184134,
              0.68634471
            ],
            [
              97.683218283,
              0.686314874
            ],
            [
              97.683242041,
              0.686295819
            ],
            [
              97.683276142,
              0.686268468
            ],
            [
              97.683280291,
              0.686265141
            ],
            [
              97.683280298,
              0.686263335
            ],
            [
              97.683310853,
              0.686237108
            ],
            [
              97.683313986,
              0.686234062
            ],
            [
              97.683348095,
              0.686200843
            ],
            [
              97.683366572,
              0.686182851
            ],
            [
              97.683428587,
              0.686127703
            ],
            [
              97.683433978,
              0.686125898
            ],
            [
              97.68343308,
              0.686120468
            ],
            [
              97.683426799,
              0.686094233
            ],
            [
              97.683466329,
              0.68608339
            ],
            [
              97.683571463,
              0.686062608
            ],
            [
              97.683609205,
              0.68604996
            ],
            [
              97.683644252,
              0.686033702
            ],
            [
              97.683676602,
              0.686013804
            ],
            [
              97.683722431,
              0.685981257
            ],
            [
              97.683788931,
              0.685939671
            ],
            [
              97.683887783,
              0.685893569
            ],
            [
              97.683924627,
              0.685880007
            ],
            [
              97.683970455,
              0.685868265
            ],
            [
              97.684012681,
              0.685860125
            ],
            [
              97.68402436,
              0.685855616
            ],
            [
              97.684029759,
              0.685851094
            ],
            [
              97.684058509,
              0.685844765
            ],
            [
              97.684070181,
              0.685836632
            ],
            [
              97.684072891,
              0.685833015
            ],
            [
              97.684077384,
              0.685833015
            ],
            [
              97.684099852,
              0.685815835
            ],
            [
              97.684115126,
              0.685801375
            ],
            [
              97.68417265,
              0.685735358
            ],
            [
              97.684204111,
              0.685692858
            ],
            [
              97.684225681,
              0.685662116
            ],
            [
              97.684267033,
              0.685597905
            ],
            [
              97.684289501,
              0.685564445
            ],
            [
              97.684354213,
              0.685486663
            ],
            [
              97.684382079,
              0.685456835
            ],
            [
              97.684382079,
              0.685455023
            ],
            [
              97.684453977,
              0.685375452
            ],
            [
              97.684461166,
              0.685368218
            ],
            [
              97.684461166,
              0.685365499
            ],
            [
              97.684494423,
              0.685332046
            ],
            [
              97.684521383,
              0.685308538
            ],
            [
              97.684521383,
              0.685306726
            ],
            [
              97.684554634,
              0.685278694
            ],
            [
              97.684592384,
              0.685250671
            ],
            [
              97.684672361,
              0.685199132
            ],
            [
              97.684708306,
              0.685181055
            ],
            [
              97.684799063,
              0.685147616
            ],
            [
              97.684867361,
              0.685116883
            ],
            [
              97.684919477,
              0.685084335
            ],
            [
              97.684941048,
              0.685068062
            ],
            [
              97.684949141,
              0.685059921
            ],
            [
              97.684959923,
              0.685049069
            ],
            [
              97.684996767,
              0.685021944
            ],
            [
              97.685015642,
              0.685012905
            ],
            [
              97.68505068,
              0.685001148
            ],
            [
              97.685094713,
              0.68499303
            ],
            [
              97.685148783,
              0.684986765
            ],
            [
              97.685164799,
              0.684984905
            ],
            [
              97.685202533,
              0.684982202
            ],
            [
              97.685216447,
              0.684982843
            ],
            [
              97.685242071,
              0.684984023
            ],
            [
              97.685310588,
              0.684990148
            ],
            [
              97.685343595,
              0.684993094
            ],
            [
              97.685386697,
              0.684998608
            ],
            [
              97.685568256,
              0.684777804
            ],
            [
              97.685966406,
              0.68444786
            ],
            [
              97.686386791,
              0.684206734
            ],
            [
              97.68691979,
              0.683749877
            ],
            [
              97.687528932,
              0.683197842
            ],
            [
              97.688214217,
              0.682645807
            ],
            [
              97.688556859,
              0.682512557
            ],
            [
              97.68912793,
              0.682246058
            ],
            [
              97.689984536,
              0.68201763
            ],
            [
              97.690574642,
              0.681808237
            ],
            [
              97.691526427,
              0.681446559
            ],
            [
              97.691997063,
              0.681455649
            ],
            [
              97.692035711,
              0.681407719
            ],
            [
              97.692065555,
              0.681376225
            ],
            [
              97.692072554,
              0.681368837
            ],
            [
              97.692106711,
              0.681339
            ],
            [
              97.692143555,
              0.681314586
            ],
            [
              97.692311601,
              0.681216946
            ],
            [
              97.692318789,
              0.681213328
            ],
            [
              97.692402366,
              0.681159992
            ],
            [
              97.692473359,
              0.681118399
            ],
            [
              97.692498524,
              0.68110575
            ],
            [
              97.692606351,
              0.681067789
            ],
            [
              97.692633305,
              0.681056039
            ],
            [
              97.69266746,
              0.68103254
            ],
            [
              97.692700711,
              0.681001781
            ],
            [
              97.69270333,
              0.680998828
            ],
            [
              97.692730366,
              0.680968328
            ],
            [
              97.692819351,
              0.680851672
            ],
            [
              97.692857101,
              0.68080375
            ],
            [
              97.692913047,
              0.680739045
            ],
            [
              97.692935297,
              0.680713313
            ],
            [
              97.692999109,
              0.680643688
            ],
            [
              97.693001594,
              0.680641904
            ],
            [
              97.693005399,
              0.680639172
            ],
            [
              97.693033266,
              0.680608422
            ],
            [
              97.693036859,
              0.680605711
            ],
            [
              97.69304687,
              0.680595883
            ],
            [
              97.693073703,
              0.680569539
            ],
            [
              97.693147399,
              0.680505336
            ],
            [
              97.693244461,
              0.680430297
            ],
            [
              97.693374765,
              0.680339883
            ],
            [
              97.693406218,
              0.680314563
            ],
            [
              97.693467335,
              0.680248547
            ],
            [
              97.693497187,
              0.680219373
            ],
            [
              97.693498789,
              0.680217805
            ],
            [
              97.693498789,
              0.680216
            ],
            [
              97.693533843,
              0.680182539
            ],
            [
              97.693654893,
              0.680080203
            ],
            [
              97.693663257,
              0.680073133
            ],
            [
              97.693704133,
              0.680041046
            ],
            [
              97.693745039,
              0.680008938
            ],
            [
              97.693832211,
              0.679948359
            ],
            [
              97.693895117,
              0.679905867
            ],
            [
              97.693923874,
              0.679882352
            ],
            [
              97.693945445,
              0.679856133
            ],
            [
              97.693972414,
              0.679815438
            ],
            [
              97.693984102,
              0.679786492
            ]
          ]
        ]
      }
    }
  ]
}