{
  "type": "FeatureCollection",
  "features": [
    {
      "type": "Feature",
      "properties": {
        "idx": "3270",
        "nama_kewilayahan": "Fanugwa Loran"
      },
      "geometry": {
        "type": "MultiPolygon",
        "coordinates": [
          [
            [
              [
                134.409023196,
                -6.146295913
              ],
              [
                134.409104385,
                -6.146326139
              ],
              [
                134.409233842,
                -6.146402955
              ],
              [
                134.409350407,
                -6.146505043
              ],
              [
                134.409422276,
                -6.146633031
              ],
              [
                134.409491573,
                -6.146818829
              ],
              [
                134.409758197,
                -6.147910044
              ],
              [
                134.413124664,
                -6.160802101
              ],
              [
                134.413229161,
                -6.161119207
              ],
              [
                134.413347774,
                -6.161364038
              ],
              [
                134.413425843,
                -6.161450223
              ],
              [
                134.41350343,
                -6.161501551
              ],
              [
                134.413615544,
                -6.161566428
              ],
              [
                134.413797934,
                -6.161614815
              ],
              [
                134.414512281,
                -6.161743699
              ],
              [
                134.420002535,
                -6.16286826
              ],
              [
                134.420094986,
                -6.162892948
              ],
              [
                134.420145274,
                -6.162909523
              ],
              [
                134.420181086,
                -6.162919999
              ],
              [
                134.420502708,
                -6.163028361
              ],
              [
                134.420714644,
                -6.163113441
              ],
              [
                134.420987518,
                -6.16327071
              ],
              [
                134.421272021,
                -6.163457109
              ],
              [
                134.421997194,
                -6.164173305
              ],
              [
                134.422815228,
                -6.165090359
              ],
              [
                134.423576111,
                -6.166108333
              ],
              [
                134.431999092,
                -6.176897224
              ],
              [
                134.432092862,
                -6.176990007
              ],
              [
                134.432205,
                -6.177080557
              ],
              [
                134.449417419,
                -6.189513289
              ],
              [
                134.449479325,
                -6.189553362
              ],
              [
                134.449545786,
                -6.189591154
              ],
              [
                134.449697056,
                -6.189649661
              ],
              [
                134.45509718,
                -6.19160255
              ],
              [
                134.456180725,
                -6.192047721
              ],
              [
                134.456569053,
                -6.192253356
              ],
              [
                134.456791948,
                -6.192393786
              ],
              [
                134.462693084,
                -6.197518844
              ],
              [
                134.467629923,
                -6.202558461
              ],
              [
                134.471185582,
                -6.20658321
              ],
              [
                134.471521528,
                -6.206023549
              ],
              [
                134.471997015,
                -6.205697009
              ],
              [
                134.472596853,
                -6.205573244
              ],
              [
                134.472998713,
                -6.205568733
              ],
              [
                134.473517657,
                -6.205694329
              ],
              [
                134.47408462,
                -6.205731614
              ],
              [
                134.474551004,
                -6.2055502
              ],
              [
                134.47473343,
                -6.205406608
              ],
              [
                134.475052783,
                -6.20490928
              ],
              [
                134.475387416,
                -6.204468558
              ],
              [
                134.476165412,
                -6.203773617
              ],
              [
                134.476736122,
                -6.203367253
              ],
              [
                134.476958824,
                -6.203053966
              ],
              [
                134.478456177,
                -6.203075935
              ],
              [
                134.481226689,
                -6.202947194
              ],
              [
                134.483080303,
                -6.202701435
              ],
              [
                134.485682524,
                -6.202442143
              ],
              [
                134.489369377,
                -6.202031132
              ],
              [
                134.491956791,
                -6.201265201
              ],
              [
                134.492546406,
                -6.201145686
              ],
              [
                134.492986537,
                -6.201056471
              ],
              [
                134.496358794,
                -6.200372902
              ],
              [
                134.499868499,
                -6.200313416
              ],
              [
                134.503616149,
                -6.200729822
              ],
              [
                134.506471502,
                -6.202098011
              ],
              [
                134.508969936,
                -6.204447729
              ],
              [
                134.510605816,
                -6.206143095
              ],
              [
                134.510903248,
                -6.208344096
              ],
              [
                134.510962734,
                -6.209147165
              ],
              [
                134.510695046,
                -6.210247665
              ],
              [
                134.510338126,
                -6.211229193
              ],
              [
                134.509713518,
                -6.212329694
              ],
              [
                134.509743261,
                -6.213311221
              ],
              [
                134.510516586,
                -6.213906086
              ],
              [
                134.51146837,
                -6.214590182
              ],
              [
                134.511944262,
                -6.215393249
              ],
              [
                134.511944262,
                -6.216345034
              ],
              [
                134.512122722,
                -6.217207589
              ],
              [
                134.512539127,
                -6.21848655
              ],
              [
                134.511765803,
                -6.219616793
              ],
              [
                134.5115576,
                -6.220449604
              ],
              [
                134.511230424,
                -6.221788051
              ],
              [
                134.510992478,
                -6.222858809
              ],
              [
                134.510814019,
                -6.224256742
              ],
              [
                134.511081708,
                -6.225119297
              ],
              [
                134.511379141,
                -6.225952108
              ],
              [
                134.511289911,
                -6.226993123
              ],
              [
                134.509832491,
                -6.228480285
              ],
              [
                134.509713518,
                -6.22934284
              ],
              [
                134.510058454,
                -6.230563384
              ],
              [
                134.510100181,
                -6.23071103
              ],
              [
                134.510397614,
                -6.232049476
              ],
              [
                134.510992478,
                -6.23344741
              ],
              [
                134.511379141,
                -6.234845343
              ],
              [
                134.511111451,
                -6.23600533
              ],
              [
                134.510754532,
                -6.236510966
              ],
              [
                134.509612391,
                -6.23724503
              ],
              [
                134.50908891,
                -6.2378161
              ],
              [
                134.509017526,
                -6.238268198
              ],
              [
                134.509398239,
                -6.239267572
              ],
              [
                134.509184088,
                -6.239838642
              ],
              [
                134.508850964,
                -6.240243151
              ],
              [
                134.508160921,
                -6.240956989
              ],
              [
                134.507756412,
                -6.241194936
              ],
              [
                134.507137752,
                -6.24148047
              ],
              [
                134.506542887,
                -6.241908773
              ],
              [
                134.50635253,
                -6.242289487
              ],
              [
                134.506614271,
                -6.242670201
              ],
              [
                134.507494671,
                -6.243169888
              ],
              [
                134.507875385,
                -6.243812342
              ],
              [
                134.507946769,
                -6.244597565
              ],
              [
                134.50728052,
                -6.245668322
              ],
              [
                134.507161547,
                -6.246001447
              ],
              [
                134.506876012,
                -6.246762874
              ],
              [
                134.506423914,
                -6.247381534
              ],
              [
                134.505614898,
                -6.247976399
              ],
              [
                134.505210389,
                -6.24849988
              ],
              [
                134.505234184,
                -6.248880594
              ],
              [
                134.505710076,
                -6.249285103
              ],
              [
                134.505686281,
                -6.249856173
              ],
              [
                134.505400746,
                -6.250141709
              ],
              [
                134.504972444,
                -6.250165503
              ],
              [
                134.504520345,
                -6.250117915
              ],
              [
                134.503925481,
                -6.249879968
              ],
              [
                134.50361615,
                -6.249927557
              ],
              [
                134.503235436,
                -6.250141709
              ],
              [
                134.502688161,
                -6.250498628
              ],
              [
                134.50237883,
                -6.250736574
              ],
              [
                134.502236064,
                -6.251045904
              ],
              [
                134.501926734,
                -6.251616975
              ],
              [
                134.501664992,
                -6.251759742
              ],
              [
                134.5011891,
                -6.252092866
              ],
              [
                134.500546646,
                -6.25252117
              ],
              [
                134.500403879,
                -6.252592554
              ],
              [
                134.499880397,
                -6.252901884
              ],
              [
                134.499571068,
                -6.253020857
              ],
              [
                134.499166559,
                -6.253116035
              ],
              [
                134.499085454,
                -6.253162381
              ],
              [
                134.498833435,
                -6.253306392
              ],
              [
                134.498619283,
                -6.253568132
              ],
              [
                134.49850031,
                -6.253972641
              ],
              [
                134.498119596,
                -6.254519917
              ],
              [
                134.497905445,
                -6.254686479
              ],
              [
                134.497548526,
                -6.254757863
              ],
              [
                134.497239196,
                -6.254829247
              ],
              [
                134.496596741,
                -6.25525755
              ],
              [
                134.496239822,
                -6.255447907
              ],
              [
                134.495668752,
                -6.255543086
              ],
              [
                134.4954546,
                -6.255757237
              ],
              [
                134.495311833,
                -6.256114156
              ],
              [
                134.495097681,
                -6.256471075
              ],
              [
                134.494788351,
                -6.256780405
              ],
              [
                134.494716967,
                -6.257113529
              ],
              [
                134.495002503,
                -6.257303886
              ],
              [
                134.49488353,
                -6.257589422
              ],
              [
                134.494597995,
                -6.258065314
              ],
              [
                134.494669378,
                -6.258327055
              ],
              [
                134.494859735,
                -6.258660179
              ],
              [
                134.494740762,
                -6.259112277
              ],
              [
                134.494693173,
                -6.259707142
              ],
              [
                134.494764556,
                -6.260087856
              ],
              [
                134.494740762,
                -6.260539954
              ],
              [
                134.49426487,
                -6.261206202
              ],
              [
                134.493765183,
                -6.261777273
              ],
              [
                134.493479647,
                -6.262205576
              ],
              [
                134.493639072,
                -6.262748093
              ],
              [
                134.493353536,
                -6.263319165
              ],
              [
                134.492668252,
                -6.263737949
              ],
              [
                134.49219236,
                -6.264270949
              ],
              [
                134.49165936,
                -6.265089483
              ],
              [
                134.491430932,
                -6.265774768
              ],
              [
                134.49122154,
                -6.266555231
              ],
              [
                134.49108829,
                -6.267468944
              ],
              [
                134.490878897,
                -6.268268443
              ],
              [
                134.490710455,
                -6.268651267
              ],
              [
                134.490606285,
                -6.268888018
              ],
              [
                134.490590833,
                -6.268923136
              ],
              [
                134.490483308,
                -6.269167512
              ],
              [
                134.490460112,
                -6.269220227
              ],
              [
                134.490294277,
                -6.269972863
              ],
              [
                134.489976323,
                -6.271240252
              ],
              [
                134.489652173,
                -6.272009169
              ],
              [
                134.489304201,
                -6.272834588
              ],
              [
                134.488956621,
                -6.273612102
              ],
              [
                134.48820117,
                -6.275669683
              ],
              [
                134.487925694,
                -6.276088257
              ],
              [
                134.487769659,
                -6.276662518
              ],
              [
                134.487757256,
                -6.27711725
              ],
              [
                134.487678261,
                -6.277472663
              ],
              [
                134.487408898,
                -6.278684581
              ],
              [
                134.487218464,
                -6.279349053
              ],
              [
                134.487201445,
                -6.279521848
              ],
              [
                134.487062961,
                -6.279964801
              ],
              [
                134.486777624,
                -6.280407671
              ],
              [
                134.485836039,
                -6.281188588
              ],
              [
                134.48471818,
                -6.282846906
              ],
              [
                134.483898091,
                -6.284640914
              ],
              [
                134.483807699,
                -6.284955508
              ],
              [
                134.483119108,
                -6.287360857
              ],
              [
                134.482274792,
                -6.289737454
              ],
              [
                134.481897478,
                -6.290726347
              ],
              [
                134.481513753,
                -6.291747146
              ],
              [
                134.481061268,
                -6.293064869
              ],
              [
                134.480352635,
                -6.295283632
              ],
              [
                134.480152669,
                -6.29592167
              ],
              [
                134.479303,
                -6.29761
              ],
              [
                134.480109999,
                -6.30142
              ],
              [
                134.4801637,
                -6.301595218
              ],
              [
                134.479706707,
                -6.303318177
              ],
              [
                134.479559524,
                -6.303669905
              ],
              [
                134.479303863,
                -6.304369843
              ],
              [
                134.479015935,
                -6.305158115
              ],
              [
                134.478544925,
                -6.306447613
              ],
              [
                134.477710621,
                -6.308650994
              ],
              [
                134.477549394,
                -6.309076787
              ],
              [
                134.477544805,
                -6.309088908
              ],
              [
                134.477372088,
                -6.309576986
              ],
              [
                134.477343168,
                -6.309792362
              ],
              [
                134.477299902,
                -6.310000543
              ],
              [
                134.477177735,
                -6.310172743
              ],
              [
                134.477069935,
                -6.310330599
              ],
              [
                134.476962084,
                -6.310538715
              ],
              [
                134.476898684,
                -6.310665269
              ],
              [
                134.476867933,
                -6.310726651
              ],
              [
                134.47685643,
                -6.310830553
              ],
              [
                134.476878896,
                -6.31097928
              ],
              [
                134.477321623,
                -6.311377734
              ],
              [
                134.477219483,
                -6.311658621
              ],
              [
                134.477216465,
                -6.31166812
              ],
              [
                134.477198056,
                -6.311726058
              ],
              [
                134.477165396,
                -6.311828844
              ],
              [
                134.477023552,
                -6.312218918
              ],
              [
                134.476501953,
                -6.313653323
              ],
              [
                134.47638405,
                -6.313977555
              ],
              [
                134.476294569,
                -6.314223626
              ],
              [
                134.475655979,
                -6.315979736
              ],
              [
                134.475125577,
                -6.317099479
              ],
              [
                134.47445132,
                -6.318522911
              ],
              [
                134.474049843,
                -6.319370469
              ],
              [
                134.473336004,
                -6.320917118
              ],
              [
                134.473454978,
                -6.321749929
              ],
              [
                134.473514465,
                -6.323296579
              ],
              [
                134.473038573,
                -6.324188877
              ],
              [
                134.473395491,
                -6.325140661
              ],
              [
                134.472860113,
                -6.326449364
              ],
              [
                134.471795664,
                -6.329775801
              ],
              [
                134.471153776,
                -6.331781694
              ],
              [
                134.471254934,
                -6.332354382
              ],
              [
                134.471403621,
                -6.3331623
              ],
              [
                134.471851693,
                -6.333611514
              ],
              [
                134.472240053,
                -6.333970916
              ],
              [
                134.473106359,
                -6.33480948
              ],
              [
                134.474361272,
                -6.335768105
              ],
              [
                134.474719583,
                -6.336277062
              ],
              [
                134.474868457,
                -6.336905475
              ],
              [
                134.474867701,
                -6.337653406
              ],
              [
                134.47486649,
                -6.338850095
              ],
              [
                134.474477877,
                -6.339931692
              ],
              [
                134.473757323,
                -6.341937138
              ],
              [
                134.473577055,
                -6.34243886
              ],
              [
                134.472379378,
                -6.343993339
              ],
              [
                134.472198805,
                -6.345130011
              ],
              [
                134.472586108,
                -6.346536515
              ],
              [
                134.468365494,
                -6.363390535
              ],
              [
                134.466360196,
                -6.371397742
              ],
              [
                134.464766542,
                -6.377761032
              ],
              [
                134.464008825,
                -6.380786448
              ],
              [
                134.462492798,
                -6.386839516
              ],
              [
                134.462592376,
                -6.386644342
              ],
              [
                134.462419509,
                -6.387232931
              ],
              [
                134.462261041,
                -6.387778454
              ],
              [
                134.462260862,
                -6.387950777
              ],
              [
                134.462260592,
                -6.38820926
              ],
              [
                134.461886972,
                -6.388596596
              ],
              [
                134.461757572,
                -6.388797505
              ],
              [
                134.461714269,
                -6.389027223
              ],
              [
                134.461670996,
                -6.389228222
              ],
              [
                134.461541686,
                -6.389342968
              ],
              [
                134.461369478,
                -6.389299707
              ],
              [
                134.461297661,
                -6.389342712
              ],
              [
                134.461311805,
                -6.389543769
              ],
              [
                134.461354733,
                -6.389673058
              ],
              [
                134.461325844,
                -6.38984535
              ],
              [
                134.461225213,
                -6.389988847
              ],
              [
                134.460923574,
                -6.390175214
              ],
              [
                134.46063623,
                -6.390419036
              ],
              [
                134.460349125,
                -6.390433095
              ],
              [
                134.460162533,
                -6.390418539
              ],
              [
                134.459932891,
                -6.390389578
              ],
              [
                134.459645696,
                -6.390489798
              ],
              [
                134.459401506,
                -6.390647505
              ],
              [
                134.459028078,
                -6.390848155
              ],
              [
                134.458712113,
                -6.391005785
              ],
              [
                134.458582773,
                -6.391149252
              ],
              [
                134.458553928,
                -6.391278463
              ],
              [
                134.45845319,
                -6.391522481
              ],
              [
                134.458122886,
                -6.391665735
              ],
              [
                134.457706273,
                -6.391981221
              ],
              [
                134.456935344,
                -6.392521309
              ],
              [
                134.456672027,
                -6.392664634
              ],
              [
                134.456144962,
                -6.393358154
              ],
              [
                134.455881416,
                -6.39371688
              ],
              [
                134.455498427,
                -6.393907944
              ],
              [
                134.455235209,
                -6.393955532
              ],
              [
                134.455149483,
                -6.393978003
              ],
              [
                134.454780522,
                -6.394074719
              ],
              [
                134.454541102,
                -6.394242001
              ],
              [
                134.454277504,
                -6.394648595
              ],
              [
                134.454061653,
                -6.395150973
              ],
              [
                134.453678509,
                -6.395485637
              ],
              [
                134.453247464,
                -6.395868118
              ],
              [
                134.452815681,
                -6.396944674
              ],
              [
                134.452240808,
                -6.397590271
              ],
              [
                134.451977232,
                -6.397972928
              ],
              [
                134.451689322,
                -6.398738499
              ],
              [
                134.451329946,
                -6.399216788
              ],
              [
                134.450899024,
                -6.399479599
              ],
              [
                134.450372557,
                -6.399598704
              ],
              [
                134.450084952,
                -6.40007707
              ],
              [
                134.450012615,
                -6.400603533
              ],
              [
                134.450011283,
                -6.401848082
              ],
              [
                134.449819246,
                -6.402446218
              ],
              [
                134.44953169,
                -6.402876715
              ],
              [
                134.449268236,
                -6.403139704
              ],
              [
                134.448765563,
                -6.403378501
              ],
              [
                134.448430387,
                -6.403593543
              ],
              [
                134.448190832,
                -6.40388049
              ],
              [
                134.448070823,
                -6.404239366
              ],
              [
                134.447950659,
                -6.404741843
              ],
              [
                134.447906583,
                -6.404812224
              ],
              [
                134.44783083,
                -6.404933184
              ],
              [
                134.447615122,
                -6.405291957
              ],
              [
                134.447566964,
                -6.405579108
              ],
              [
                134.447590399,
                -6.406033872
              ],
              [
                134.447685532,
                -6.406560515
              ],
              [
                134.447781,
                -6.406776021
              ],
              [
                134.447948113,
                -6.407111272
              ],
              [
                134.448162872,
                -6.407638043
              ],
              [
                134.448232136,
                -6.408285483
              ],
              [
                134.448387606,
                -6.40888104
              ],
              [
                134.448530128,
                -6.409838539
              ],
              [
                134.448552638,
                -6.411154913
              ],
              [
                134.448431598,
                -6.412471133
              ],
              [
                134.448406876,
                -6.41321305
              ],
              [
                134.44838241,
                -6.41371563
              ],
              [
                134.449204378,
                -6.416483244
              ],
              [
                134.449316813,
                -6.418723553
              ],
              [
                134.449372692,
                -6.420159633
              ],
              [
                134.450744761,
                -6.425790298
              ],
              [
                134.450399306,
                -6.426651538
              ],
              [
                134.450300038,
                -6.426834957
              ],
              [
                134.449107507,
                -6.429038401
              ],
              [
                134.448845827,
                -6.429521903
              ],
              [
                134.448383737,
                -6.430222008
              ],
              [
                134.448451745,
                -6.430930715
              ],
              [
                134.448569464,
                -6.432157443
              ],
              [
                134.44842195,
                -6.433109749
              ],
              [
                134.447939329,
                -6.434121994
              ],
              [
                134.447273675,
                -6.434896121
              ],
              [
                134.443899417,
                -6.438820189
              ],
              [
                134.442702707,
                -6.439108211
              ],
              [
                134.442038584,
                -6.439274349
              ],
              [
                134.441604017,
                -6.439381112
              ],
              [
                134.43910333,
                -6.439225545
              ],
              [
                134.438139661,
                -6.438705122
              ],
              [
                134.43664174,
                -6.437203438
              ],
              [
                134.435423216,
                -6.435981843
              ],
              [
                134.432926366,
                -6.43225216
              ],
              [
                134.43211833,
                -6.431212709
              ],
              [
                134.431255256,
                -6.430619073
              ],
              [
                134.430330821,
                -6.430013592
              ],
              [
                134.429583045,
                -6.428554753
              ],
              [
                134.428366286,
                -6.426230466
              ],
              [
                134.427868897,
                -6.424964011
              ],
              [
                134.427303007,
                -6.422869192
              ],
              [
                134.427363017,
                -6.418309606
              ],
              [
                134.427277937,
                -6.417249744
              ],
              [
                134.426831798,
                -6.417037257
              ],
              [
                134.426352717,
                -6.416854823
              ],
              [
                134.425140278,
                -6.416026288
              ],
              [
                134.423091014,
                -6.414625887
              ],
              [
                134.422318445,
                -6.414097935
              ],
              [
                134.421438552,
                -6.41315789
              ],
              [
                134.420496358,
                -6.412151279
              ],
              [
                134.418308243,
                -6.408790937
              ],
              [
                134.415775747,
                -6.408137059
              ],
              [
                134.41329595,
                -6.406040048
              ],
              [
                134.412771219,
                -6.405395511
              ],
              [
                134.411568875,
                -6.403310594
              ],
              [
                134.409815985,
                -6.40122029
              ],
              [
                134.407423983,
                -6.398511602
              ],
              [
                134.406366623,
                -6.398093794
              ],
              [
                134.404961942,
                -6.397653738
              ],
              [
                134.401402681,
                -6.397083035
              ],
              [
                134.400962569,
                -6.397012464
              ],
              [
                134.3996996,
                -6.396809948
              ],
              [
                134.396798518,
                -6.397045887
              ],
              [
                134.39464804,
                -6.397908742
              ],
              [
                134.39305815,
                -6.398926241
              ],
              [
                134.39247761,
                -6.399187875
              ],
              [
                134.389946337,
                -6.400328644
              ],
              [
                134.386989906,
                -6.40069777
              ],
              [
                134.385020012,
                -6.400736003
              ],
              [
                134.382722113,
                -6.400457565
              ],
              [
                134.38046744,
                -6.39994521
              ],
              [
                134.378185096,
                -6.400260353
              ],
              [
                134.375674871,
                -6.400458608
              ],
              [
                134.374586619,
                -6.400485745
              ],
              [
                134.373287212,
                -6.400521301
              ],
              [
                134.371817296,
                -6.400282037
              ],
              [
                134.370077813,
                -6.400059216
              ],
              [
                134.368314692,
                -6.398949877
              ],
              [
                134.367937263,
                -6.398066545
              ],
              [
                134.367115119,
                -6.39493737
              ],
              [
                134.367194697,
                -6.394244401
              ],
              [
                134.367049663,
                -6.391461651
              ],
              [
                134.366777176,
                -6.390499388
              ],
              [
                134.366315204,
                -6.388867971
              ],
              [
                134.365946225,
                -6.388317546
              ],
              [
                134.364708434,
                -6.38656078
              ],
              [
                134.363548661,
                -6.38513495
              ],
              [
                134.363223166,
                -6.38439032
              ],
              [
                134.362610077,
                -6.38284245
              ],
              [
                134.362197886,
                -6.381184283
              ],
              [
                134.358035253,
                -6.377968065
              ],
              [
                134.354340441,
                -6.375413235
              ],
              [
                134.351655549,
                -6.374708157
              ],
              [
                134.349954826,
                -6.373882265
              ],
              [
                134.349085941,
                -6.372368588
              ],
              [
                134.348905614,
                -6.37132565
              ],
              [
                134.348348139,
                -6.368857513
              ],
              [
                134.347398075,
                -6.36685884
              ],
              [
                134.346988621,
                -6.365722977
              ],
              [
                134.346265141,
                -6.363756658
              ],
              [
                134.346410323,
                -6.356012678
              ],
              [
                134.346220958,
                -6.354093652
              ],
              [
                134.34592159,
                -6.352530851
              ],
              [
                134.344249788,
                -6.350374743
              ],
              [
                134.342298914,
                -6.348218276
              ],
              [
                134.339591558,
                -6.345263066
              ],
              [
                134.337265019,
                -6.342732149
              ],
              [
                134.33308239,
                -6.34102254
              ],
              [
                134.326873893,
                -6.337978869
              ],
              [
                134.325445809,
                -6.337009821
              ],
              [
                134.323733403,
                -6.334049626
              ],
              [
                134.32225575,
                -6.325839725
              ],
              [
                134.322086914,
                -6.324825232
              ],
              [
                134.322009257,
                -6.323229585
              ],
              [
                134.320850171,
                -6.319366855
              ],
              [
                134.32049856,
                -6.317903553
              ],
              [
                134.320086975,
                -6.316500098
              ],
              [
                134.320031623,
                -6.31608514
              ],
              [
                134.318954485,
                -6.313145647
              ],
              [
                134.318017676,
                -6.311131332
              ],
              [
                134.316048614,
                -6.307389398
              ],
              [
                134.315577767,
                -6.306441118
              ],
              [
                134.314682303,
                -6.304536173
              ],
              [
                134.314090081,
                -6.302868451
              ],
              [
                134.310605272,
                -6.300573854
              ],
              [
                134.309262654,
                -6.299203656
              ],
              [
                134.30862422,
                -6.297891314
              ],
              [
                134.308068651,
                -6.296224614
              ],
              [
                134.307823342,
                -6.295488683
              ],
              [
                134.30720934,
                -6.294269016
              ],
              [
                134.306033992,
                -6.292399607
              ],
              [
                134.304753112,
                -6.290997715
              ],
              [
                134.304489178,
                -6.290784828
              ],
              [
                134.303961229,
                -6.290358988
              ],
              [
                134.301491773,
                -6.289067849
              ],
              [
                134.299818185,
                -6.288527117
              ],
              [
                134.298122432,
                -6.288421999
              ],
              [
                134.29764685,
                -6.288291121
              ],
              [
                134.297234115,
                -6.288054395
              ],
              [
                134.297099631,
                -6.287410855
              ],
              [
                134.29708173,
                -6.287221696
              ],
              [
                134.297197372,
                -6.287009594
              ],
              [
                134.298059586,
                -6.286383918
              ],
              [
                134.298886277,
                -6.285971707
              ],
              [
                134.301399881,
                -6.284359587
              ],
              [
                134.301883146,
                -6.283765193
              ],
              [
                134.303015423,
                -6.28237254
              ],
              [
                134.304088269,
                -6.281678557
              ],
              [
                134.30488448,
                -6.281369197
              ],
              [
                134.305200432,
                -6.281197298
              ],
              [
                134.305473291,
                -6.281054061
              ],
              [
                134.305832389,
                -6.28081042
              ],
              [
                134.306249063,
                -6.280437616
              ],
              [
                134.306809189,
                -6.28010808
              ],
              [
                134.307412329,
                -6.279807321
              ],
              [
                134.308532217,
                -6.279421085
              ],
              [
                134.309393465,
                -6.279278623
              ],
              [
                134.310441747,
                -6.278777408
              ],
              [
                134.310901318,
                -6.278519535
              ],
              [
                134.311547601,
                -6.278147028
              ],
              [
                134.312263426,
                -6.277459597
              ],
              [
                134.312309163,
                -6.277415674
              ],
              [
                134.313688149,
                -6.27642665
              ],
              [
                134.31372282,
                -6.276417378
              ],
              [
                134.313921093,
                -6.276275813
              ],
              [
                134.31429761,
                -6.276102851
              ],
              [
                134.314762672,
                -6.276002124
              ],
              [
                134.315202,
                -6.276021813
              ],
              [
                134.315611846,
                -6.275912211
              ],
              [
                134.316094723,
                -6.275872581
              ],
              [
                134.316240436,
                -6.275860621
              ],
              [
                134.316307357,
                -6.275848622
              ],
              [
                134.316501958,
                -6.275640535
              ],
              [
                134.316515021,
                -6.275623486
              ],
              [
                134.316659455,
                -6.275359346
              ],
              [
                134.316739499,
                -6.275010261
              ],
              [
                134.316833787,
                -6.274291135
              ],
              [
                134.316856646,
                -6.274043099
              ],
              [
                134.316904955,
                -6.273905324
              ],
              [
                134.317078629,
                -6.27361654
              ],
              [
                134.317294229,
                -6.273358342
              ],
              [
                134.317467993,
                -6.27321796
              ],
              [
                134.317804519,
                -6.273098191
              ],
              [
                134.317831358,
                -6.273096078
              ],
              [
                134.317954722,
                -6.273086364
              ],
              [
                134.318299122,
                -6.273101171
              ],
              [
                134.318542955,
                -6.273202008
              ],
              [
                134.318758107,
                -6.273288447
              ],
              [
                134.319088158,
                -6.273303236
              ],
              [
                134.319360917,
                -6.273231791
              ],
              [
                134.31966262,
                -6.272973704
              ],
              [
                134.31989253,
                -6.272744244
              ],
              [
                134.320132648,
                -6.272408786
              ],
              [
                134.320255893,
                -6.272072343
              ],
              [
                134.320453999,
                -6.27136642
              ],
              [
                134.320424205,
                -6.271010673
              ],
              [
                134.320397468,
                -6.270691429
              ],
              [
                134.320326755,
                -6.269887182
              ],
              [
                134.32031991,
                -6.269727189
              ],
              [
                134.320297128,
                -6.269194814
              ],
              [
                134.320307972,
                -6.269079494
              ],
              [
                134.320370598,
                -6.268748579
              ],
              [
                134.32075713,
                -6.268016988
              ],
              [
                134.321082771,
                -6.267629495
              ],
              [
                134.321146165,
                -6.267581911
              ],
              [
                134.322050374,
                -6.266967756
              ],
              [
                134.32239723,
                -6.266816837
              ],
              [
                134.322971905,
                -6.266314981
              ],
              [
                134.323415174,
                -6.265732915
              ],
              [
                134.323791279,
                -6.265239042
              ],
              [
                134.324107455,
                -6.264880451
              ],
              [
                134.324254112,
                -6.264743521
              ],
              [
                134.324930226,
                -6.26437818
              ],
              [
                134.326064551,
                -6.2638914
              ],
              [
                134.326473677,
                -6.263640904
              ],
              [
                134.326888935,
                -6.263243474
              ],
              [
                134.327257122,
                -6.262744134
              ],
              [
                134.327757892,
                -6.261830844
              ],
              [
                134.327828327,
                -6.261711681
              ],
              [
                134.328072727,
                -6.261367356
              ],
              [
                134.328375133,
                -6.260680481
              ],
              [
                134.32859085,
                -6.260190502
              ],
              [
                134.328884514,
                -6.259810582
              ],
              [
                134.329062018,
                -6.259512894
              ],
              [
                134.329540722,
                -6.259020728
              ],
              [
                134.329743264,
                -6.258841748
              ],
              [
                134.330053938,
                -6.258567218
              ],
              [
                134.330334308,
                -6.258416881
              ],
              [
                134.330853056,
                -6.258289727
              ],
              [
                134.330946802,
                -6.258254915
              ],
              [
                134.33216664,
                -6.257913599
              ],
              [
                134.334435242,
                -6.257561844
              ],
              [
                134.334806353,
                -6.257557671
              ],
              [
                134.335035421,
                -6.257541443
              ],
              [
                134.335914132,
                -6.257296818
              ],
              [
                134.336608602,
                -6.257125807
              ],
              [
                134.336922739,
                -6.256962305
              ],
              [
                134.337320383,
                -6.256697757
              ],
              [
                134.337794526,
                -6.256238835
              ],
              [
                134.338053339,
                -6.255837082
              ],
              [
                134.338168468,
                -6.255578747
              ],
              [
                134.338226231,
                -6.25529162
              ],
              [
                134.338244574,
                -6.254769559
              ],
              [
                134.338283695,
                -6.254482594
              ],
              [
                134.338738907,
                -6.253012653
              ],
              [
                134.338886902,
                -6.252664793
              ],
              [
                134.339378368,
                -6.251509597
              ],
              [
                134.339429926,
                -6.251406733
              ],
              [
                134.340099021,
                -6.250071832
              ],
              [
                134.340170691,
                -6.249800005
              ],
              [
                134.340257071,
                -6.249363497
              ],
              [
                134.340328423,
                -6.248994707
              ],
              [
                134.340329176,
                -6.248986255
              ],
              [
                134.340313466,
                -6.248436483
              ],
              [
                134.340301794,
                -6.248028074
              ],
              [
                134.34046033,
                -6.247482593
              ],
              [
                134.340561177,
                -6.247166799
              ],
              [
                134.340704984,
                -6.24692286
              ],
              [
                134.340934857,
                -6.246707747
              ],
              [
                134.341084171,
                -6.246615719
              ],
              [
                134.341423139,
                -6.246406799
              ],
              [
                134.341968787,
                -6.246134641
              ],
              [
                134.342370878,
                -6.245905383
              ],
              [
                134.342649535,
                -6.245653725
              ],
              [
                134.342797586,
                -6.245472493
              ],
              [
                134.34314343,
                -6.245049131
              ],
              [
                134.343680116,
                -6.244600642
              ],
              [
                134.344082949,
                -6.243979993
              ],
              [
                134.344691086,
                -6.243043025
              ],
              [
                134.344841269,
                -6.242725584
              ],
              [
                134.345072414,
                -6.241764826
              ],
              [
                134.345271677,
                -6.239970804
              ],
              [
                134.345383113,
                -6.239522492
              ],
              [
                134.3455489,
                -6.239150457
              ],
              [
                134.345973287,
                -6.238545366
              ],
              [
                134.346351756,
                -6.238073151
              ],
              [
                134.346905201,
                -6.237493957
              ],
              [
                134.347224978,
                -6.237024619
              ],
              [
                134.347949029,
                -6.235791369
              ],
              [
                134.349229126,
                -6.234151025
              ],
              [
                134.34962295,
                -6.233646366
              ],
              [
                134.35097325,
                -6.230907326
              ],
              [
                134.351275795,
                -6.230293617
              ],
              [
                134.351289796,
                -6.229986859
              ],
              [
                134.351246043,
                -6.22987071
              ],
              [
                134.351195696,
                -6.22973706
              ],
              [
                134.350970342,
                -6.229157641
              ],
              [
                134.350780294,
                -6.228668996
              ],
              [
                134.350759967,
                -6.228504627
              ],
              [
                134.350809922,
                -6.228098855
              ],
              [
                134.350929944,
                -6.227740001
              ],
              [
                134.351289274,
                -6.227261775
              ],
              [
                134.351672343,
                -6.226927179
              ],
              [
                134.352044723,
                -6.226708589
              ],
              [
                134.352102315,
                -6.226651096
              ],
              [
                134.352389648,
                -6.226187878
              ],
              [
                134.351973484,
                -6.225344057
              ],
              [
                134.35196841,
                -6.22533377
              ],
              [
                134.351646667,
                -6.224681401
              ],
              [
                134.351371256,
                -6.224122969
              ],
              [
                134.351151987,
                -6.223678375
              ],
              [
                134.351008019,
                -6.223254642
              ],
              [
                134.351004392,
                -6.223243967
              ],
              [
                134.350928247,
                -6.22295501
              ],
              [
                134.350647956,
                -6.221500911
              ],
              [
                134.35063757,
                -6.221342069
              ],
              [
                134.350677157,
                -6.220694302
              ],
              [
                134.350822517,
                -6.219858253
              ],
              [
                134.35111028,
                -6.218989683
              ],
              [
                134.351595856,
                -6.218150564
              ],
              [
                134.351920174,
                -6.217731938
              ],
              [
                134.35237256,
                -6.216851241
              ],
              [
                134.352535301,
                -6.216241578
              ],
              [
                134.353037381,
                -6.214360663
              ],
              [
                134.353334611,
                -6.213887918
              ],
              [
                134.353597981,
                -6.213483634
              ],
              [
                134.354095276,
                -6.212830014
              ],
              [
                134.354921992,
                -6.212304489
              ],
              [
                134.355510593,
                -6.212014375
              ],
              [
                134.355913306,
                -6.211812043
              ],
              [
                134.356296187,
                -6.211621041
              ],
              [
                134.356640779,
                -6.21144914
              ],
              [
                134.35713859,
                -6.211143397
              ],
              [
                134.357578983,
                -6.210856731
              ],
              [
                134.357961955,
                -6.210589141
              ],
              [
                134.358651228,
                -6.210168748
              ],
              [
                134.359149109,
                -6.209805563
              ],
              [
                134.359742649,
                -6.209442492
              ],
              [
                134.360529021,
                -6.20914986
              ],
              [
                134.361007646,
                -6.20888717
              ],
              [
                134.361509984,
                -6.208792042
              ],
              [
                134.36232345,
                -6.208505821
              ],
              [
                134.362969453,
                -6.208267264
              ],
              [
                134.36363937,
                -6.208028735
              ],
              [
                134.364005953,
                -6.207807438
              ],
              [
                134.364145316,
                -6.207463234
              ],
              [
                134.364402002,
                -6.20708644
              ],
              [
                134.364673706,
                -6.206754918
              ],
              [
                134.365020755,
                -6.206438569
              ],
              [
                134.365518366,
                -6.206258156
              ],
              [
                134.365865089,
                -6.206213319
              ],
              [
                134.366483047,
                -6.206229143
              ],
              [
                134.367101005,
                -6.206244966
              ],
              [
                134.367643563,
                -6.206290867
              ],
              [
                134.368095598,
                -6.206412078
              ],
              [
                134.368668337,
                -6.206427845
              ],
              [
                134.369135498,
                -6.206503822
              ],
              [
                134.36955753,
                -6.206504325
              ],
              [
                134.369828838,
                -6.206504648
              ],
              [
                134.370160577,
                -6.20638437
              ],
              [
                134.370477298,
                -6.206218822
              ],
              [
                134.370658385,
                -6.206038028
              ],
              [
                134.370824541,
                -6.205736544
              ],
              [
                134.370915406,
                -6.205374635
              ],
              [
                134.370961035,
                -6.205027755
              ],
              [
                134.370961392,
                -6.204726073
              ],
              [
                134.370886245,
                -6.204544976
              ],
              [
                134.370720643,
                -6.204378854
              ],
              [
                134.370449516,
                -6.204227691
              ],
              [
                134.370208517,
                -6.204091647
              ],
              [
                134.36981681,
                -6.203940341
              ],
              [
                134.369470323,
                -6.203789088
              ],
              [
                134.369063507,
                -6.203667931
              ],
              [
                134.368717037,
                -6.203501593
              ],
              [
                134.368581654,
                -6.203275171
              ],
              [
                134.368521705,
                -6.202988502
              ],
              [
                134.368522119,
                -6.202641569
              ],
              [
                134.368582767,
                -6.202339961
              ],
              [
                134.368703706,
                -6.202038422
              ],
              [
                134.368809536,
                -6.201767036
              ],
              [
                134.368960637,
                -6.20145045
              ],
              [
                134.369096665,
                -6.201133846
              ],
              [
                134.36908188,
                -6.200892484
              ],
              [
                134.368946586,
                -6.200590641
              ],
              [
                134.368886692,
                -6.20025872
              ],
              [
                134.368932303,
                -6.199926925
              ],
              [
                134.369025282,
                -6.19973044
              ],
              [
                134.369121084,
                -6.199610886
              ],
              [
                134.369270702,
                -6.199485414
              ],
              [
                134.369426298,
                -6.199359948
              ],
              [
                134.369593788,
                -6.199288347
              ],
              [
                134.369749335,
                -6.199204765
              ],
              [
                134.369880945,
                -6.199139103
              ],
              [
                134.369988648,
                -6.199067431
              ],
              [
                134.370030698,
                -6.198899946
              ],
              [
                134.370054762,
                -6.198774324
              ],
              [
                134.370097123,
                -6.198343571
              ],
              [
                134.370145443,
                -6.197930776
              ],
              [
                134.370229861,
                -6.197326555
              ],
              [
                134.370295989,
                -6.197021481
              ],
              [
                134.370374032,
                -6.196752322
              ],
              [
                134.37042823,
                -6.1964233
              ],
              [
                134.370404628,
                -6.196160004
              ],
              [
                134.370363018,
                -6.19595652
              ],
              [
                134.370345741,
                -6.195400044
              ],
              [
                134.370292564,
                -6.194867461
              ],
              [
                134.370215565,
                -6.194257064
              ],
              [
                134.370132224,
                -6.193951814
              ],
              [
                134.370030814,
                -6.193760226
              ],
              [
                134.369941389,
                -6.193544718
              ],
              [
                134.369887943,
                -6.193239502
              ],
              [
                134.369876248,
                -6.193018104
              ],
              [
                134.369936467,
                -6.192653188
              ],
              [
                134.370026608,
                -6.192264376
              ],
              [
                134.370098735,
                -6.191941359
              ],
              [
                134.370122955,
                -6.191684103
              ],
              [
                134.370111253,
                -6.191468687
              ],
              [
                134.370069615,
                -6.191289136
              ],
              [
                134.369974147,
                -6.191127471
              ],
              [
                134.369914559,
                -6.190959867
              ],
              [
                134.369807207,
                -6.190738354
              ],
              [
                134.369771583,
                -6.190528894
              ],
              [
                134.369783674,
                -6.190415224
              ],
              [
                134.369873659,
                -6.190158045
              ],
              [
                134.369951552,
                -6.190014536
              ],
              [
                134.370053373,
                -6.18985909
              ],
              [
                134.370179059,
                -6.189745554
              ],
              [
                134.370334687,
                -6.189590171
              ],
              [
                134.370502252,
                -6.189452752
              ],
              [
                134.370645916,
                -6.189303338
              ],
              [
                134.370819473,
                -6.189153959
              ],
              [
                134.371052944,
                -6.18889695
              ],
              [
                134.371196728,
                -6.188645819
              ],
              [
                134.371280662,
                -6.188448467
              ],
              [
                134.371322753,
                -6.188245081
              ],
              [
                134.371364872,
                -6.188017762
              ],
              [
                134.371359169,
                -6.187784404
              ],
              [
                134.371258006,
                -6.187383399
              ],
              [
                134.371162504,
                -6.187251651
              ],
              [
                134.371061037,
                -6.187107929
              ],
              [
                134.370929636,
                -6.187000073
              ],
              [
                134.370768355,
                -6.186880214
              ],
              [
                134.370666832,
                -6.18678436
              ],
              [
                134.370571273,
                -6.186700479
              ],
              [
                134.370463801,
                -6.186580684
              ],
              [
                134.370410141,
                -6.186454969
              ],
              [
                134.370362511,
                -6.186287379
              ],
              [
                134.37034488,
                -6.186030073
              ],
              [
                134.370363077,
                -6.185808709
              ],
              [
                134.370399204,
                -6.185593349
              ],
              [
                134.370483066,
                -6.185455832
              ],
              [
                134.370560979,
                -6.185294373
              ],
              [
                134.370573107,
                -6.185150786
              ],
              [
                134.37056739,
                -6.184929394
              ],
              [
                134.370513738,
                -6.184797696
              ],
              [
                134.370442243,
                -6.184588193
              ],
              [
                134.370376833,
                -6.184288946
              ],
              [
                134.370323189,
                -6.184151266
              ],
              [
                134.370299522,
                -6.183941819
              ],
              [
                134.370299706,
                -6.183786251
              ],
              [
                134.370395723,
                -6.183481213
              ],
              [
                134.370461764,
                -6.18324794
              ],
              [
                134.370521854,
                -6.182990725
              ],
              [
                134.37052208,
                -6.182799257
              ],
              [
                134.370522292,
                -6.182619756
              ],
              [
                134.370528533,
                -6.182398378
              ],
              [
                134.370534709,
                -6.182230851
              ],
              [
                134.370552949,
                -6.181973586
              ],
              [
                134.370571105,
                -6.181788123
              ],
              [
                134.370547345,
                -6.181656461
              ],
              [
                134.37045181,
                -6.181554631
              ],
              [
                134.370290516,
                -6.181446739
              ],
              [
                134.370129287,
                -6.181284997
              ],
              [
                134.369950164,
                -6.181087332
              ],
              [
                134.369729228,
                -6.180859703
              ],
              [
                134.369550176,
                -6.180602205
              ],
              [
                134.369514474,
                -6.180458561
              ],
              [
                134.369502695,
                -6.180308963
              ],
              [
                134.369520794,
                -6.180171366
              ],
              [
                134.369550807,
                -6.180069684
              ],
              [
                134.369563025,
                -6.179848315
              ],
              [
                134.369515402,
                -6.179674739
              ],
              [
                134.369420044,
                -6.179423324
              ],
              [
                134.369258815,
                -6.179261582
              ],
              [
                134.369127592,
                -6.179004142
              ],
              [
                134.368888889,
                -6.178777778
              ],
              [
                134.369160309,
                -6.17876783
              ],
              [
                134.370093067,
                -6.178914584
              ],
              [
                134.371993628,
                -6.179495866
              ],
              [
                134.374174934,
                -6.180384791
              ],
              [
                134.378399387,
                -6.18211574
              ],
              [
                134.37940567,
                -6.182382682
              ],
              [
                134.380027777,
                -6.182444444
              ],
              [
                134.380556393,
                -6.182336432
              ],
              [
                134.381192905,
                -6.182156048
              ],
              [
                134.382032618,
                -6.181764114
              ],
              [
                134.384488255,
                -6.180192508
              ],
              [
                134.387419307,
                -6.178302428
              ],
              [
                134.388360426,
                -6.177543565
              ],
              [
                134.388793225,
                -6.177044018
              ],
              [
                134.388961669,
                -6.176687349
              ],
              [
                134.389027778,
                -6.176472222
              ],
              [
                134.389051965,
                -6.176243566
              ],
              [
                134.389068454,
                -6.175967841
              ],
              [
                134.388940114,
                -6.175180248
              ],
              [
                134.388485481,
                -6.173391994
              ],
              [
                134.388241871,
                -6.172373507
              ],
              [
                134.387920824,
                -6.171193019
              ],
              [
                134.387725766,
                -6.170021706
              ],
              [
                134.387615684,
                -6.169052796
              ],
              [
                134.387667134,
                -6.167988511
              ],
              [
                134.387944484,
                -6.166480959
              ],
              [
                134.388713133,
                -6.165016438
              ],
              [
                134.38981987,
                -6.163825908
              ],
              [
                134.391567234,
                -6.16291202
              ],
              [
                134.396235276,
                -6.160978406
              ],
              [
                134.399809754,
                -6.159509232
              ],
              [
                134.402877943,
                -6.158094242
              ],
              [
                134.405611799,
                -6.156509537
              ],
              [
                134.40607864,
                -6.156099792
              ],
              [
                134.406410393,
                -6.155625206
              ],
              [
                134.406649999,
                -6.15499
              ],
              [
                134.40668514,
                -6.154803833
              ],
              [
                134.407777777,
                -6.1475
              ],
              [
                134.407815763,
                -6.147287864
              ],
              [
                134.407877829,
                -6.147102576
              ],
              [
                134.407929513,
                -6.146984969
              ],
              [
                134.408001725,
                -6.146859886
              ],
              [
                134.40814246,
                -6.146664836
              ],
              [
                134.408285673,
                -6.146499538
              ],
              [
                134.408406652,
                -6.146401796
              ],
              [
                134.408533353,
                -6.146326284
              ],
              [
                134.408705171,
                -6.146273351
              ],
              [
                134.408894344,
                -6.14626493
              ],
              [
                134.409023196,
                -6.146295913
              ]
            ]
          ]
        ]
      }
    }
  ]
}