{
  "type": "FeatureCollection",
  "features": [
    {
      "type": "Feature",
      "properties": {
        "idx": "3275",
        "nama_kewilayahan": "Rungan Tatau"
      },
      "geometry": {
        "type": "MultiPolygon",
        "coordinates": [
          [
            [
              [
                115.589243662,
                -2.049813031
              ],
              [
                115.619184,
                -2.059983
              ],
              [
                115.633135,
                -2.061869
              ],
              [
                115.657763,
                -2.067943
              ],
              [
                115.67892,
                -2.062631
              ],
              [
                115.685274,
                -2.057521
              ],
              [
                115.690778917,
                -2.057936305
              ],
              [
                115.692000001,
                -2.066888889
              ],
              [
                115.687562193,
                -2.076796403
              ],
              [
                115.685807876,
                -2.078693967
              ],
              [
                115.685805557,
                -2.078694444
              ],
              [
                115.685803183,
                -2.078695672
              ],
              [
                115.685151428,
                -2.078894784
              ],
              [
                115.683981175,
                -2.079245235
              ],
              [
                115.68175337,
                -2.079638834
              ],
              [
                115.68175,
                -2.079638888
              ],
              [
                115.68174315,
                -2.07964064
              ],
              [
                115.680814833,
                -2.079964838
              ],
              [
                115.679907863,
                -2.080540372
              ],
              [
                115.678876474,
                -2.082285091
              ],
              [
                115.678470045,
                -2.083599938
              ],
              [
                115.678131753,
                -2.084319794
              ],
              [
                115.677631649,
                -2.085383969
              ],
              [
                115.676769129,
                -2.086300301
              ],
              [
                115.676750001,
                -2.086305555
              ],
              [
                115.676737238,
                -2.086322771
              ],
              [
                115.675803603,
                -2.086846617
              ],
              [
                115.675170221,
                -2.086944102
              ],
              [
                115.674634051,
                -2.087305101
              ],
              [
                115.673793076,
                -2.088064053
              ],
              [
                115.672940034,
                -2.088688214
              ],
              [
                115.672172512,
                -2.088993878
              ],
              [
                115.671258935,
                -2.089189144
              ],
              [
                115.670326445,
                -2.089744257
              ],
              [
                115.670305556,
                -2.089749999
              ],
              [
                115.6703,
                -2.08976
              ],
              [
                115.670161372,
                -2.090934211
              ],
              [
                115.670294565,
                -2.091853273
              ],
              [
                115.670389937,
                -2.094297756
              ],
              [
                115.670157587,
                -2.0954248
              ],
              [
                115.669807909,
                -2.095938383
              ],
              [
                115.669805556,
                -2.095944444
              ],
              [
                115.669801375,
                -2.095947982
              ],
              [
                115.6698,
                -2.09595
              ],
              [
                115.669206913,
                -2.096281673
              ],
              [
                115.667818207,
                -2.09665419
              ],
              [
                115.664931434,
                -2.097105063
              ],
              [
                115.664212487,
                -2.097570045
              ],
              [
                115.663593676,
                -2.098363482
              ],
              [
                115.66278596,
                -2.099455721
              ],
              [
                115.662398655,
                -2.100459763
              ],
              [
                115.662200082,
                -2.100974539
              ],
              [
                115.661419232,
                -2.10262184
              ],
              [
                115.661324385,
                -2.10293971
              ],
              [
                115.660686403,
                -2.105077852
              ],
              [
                115.660002853,
                -2.106872266
              ],
              [
                115.65952436,
                -2.109109613
              ],
              [
                115.659527778,
                -2.109138889
              ],
              [
                115.659510351,
                -2.10915173
              ],
              [
                115.658159277,
                -2.112194415
              ],
              [
                115.657308367,
                -2.113432182
              ],
              [
                115.656659883,
                -2.114693636
              ],
              [
                115.656030502,
                -2.115897263
              ],
              [
                115.655378797,
                -2.116474268
              ],
              [
                115.654611173,
                -2.116877933
              ],
              [
                115.653916809,
                -2.117067241
              ],
              [
                115.652333547,
                -2.117065858
              ],
              [
                115.650529712,
                -2.116971204
              ],
              [
                115.649690656,
                -2.11713706
              ],
              [
                115.649008381,
                -2.117430523
              ],
              [
                115.648555434,
                -2.117980267
              ],
              [
                115.639369571,
                -2.100238741
              ],
              [
                115.631939581,
                -2.100327655
              ],
              [
                115.618339,
                -2.100252
              ],
              [
                115.616035,
                -2.091408
              ],
              [
                115.616666,
                -2.089012
              ],
              [
                115.610349,
                -2.087292
              ],
              [
                115.609926,
                -2.086892
              ],
              [
                115.608548,
                -2.086223
              ],
              [
                115.607538,
                -2.083858
              ],
              [
                115.606776,
                -2.083203
              ],
              [
                115.605203775,
                -2.080262229
              ],
              [
                115.605316799,
                -2.080357408
              ],
              [
                115.605477413,
                -2.080291972
              ],
              [
                115.605643975,
                -2.080184897
              ],
              [
                115.605822434,
                -2.080054026
              ],
              [
                115.606012791,
                -2.080018334
              ],
              [
                115.606119867,
                -2.08012541
              ],
              [
                115.606186492,
                -2.080265203
              ],
              [
                115.606207907,
                -2.080343726
              ],
              [
                115.606179354,
                -2.080422248
              ],
              [
                115.606115108,
                -2.080511478
              ],
              [
                115.60601874,
                -2.080525754
              ],
              [
                115.605893818,
                -2.080515047
              ],
              [
                115.605815296,
                -2.080586431
              ],
              [
                115.605833142,
                -2.080729198
              ],
              [
                115.605875972,
                -2.080804151
              ],
              [
                115.605933079,
                -2.080911227
              ],
              [
                115.605996088,
                -2.080981326
              ],
              [
                115.60607223,
                -2.080994651
              ],
              [
                115.606146469,
                -2.080996555
              ],
              [
                115.606209287,
                -2.08096229
              ],
              [
                115.606274989,
                -2.08095195
              ],
              [
                115.606339374,
                -2.080963273
              ],
              [
                115.606376747,
                -2.08098606
              ],
              [
                115.606367283,
                -2.081030819
              ],
              [
                115.60635196,
                -2.081108151
              ],
              [
                115.60639717,
                -2.081127187
              ],
              [
                115.606475692,
                -2.081117669
              ],
              [
                115.606559422,
                -2.081083812
              ],
              [
                115.606630357,
                -2.081079598
              ],
              [
                115.606706499,
                -2.081172397
              ],
              [
                115.606796919,
                -2.081277093
              ],
              [
                115.606892097,
                -2.081355615
              ],
              [
                115.606987276,
                -2.081484106
              ],
              [
                115.607077695,
                -2.081541213
              ],
              [
                115.607222842,
                -2.081557869
              ],
              [
                115.607398923,
                -2.08151028
              ],
              [
                115.607505998,
                -2.081438896
              ],
              [
                115.607570244,
                -2.081265196
              ],
              [
                115.607639248,
                -2.081148602
              ],
              [
                115.607651145,
                -2.080993937
              ],
              [
                115.607575003,
                -2.080779786
              ],
              [
                115.607613074,
                -2.080634639
              ],
              [
                115.607698735,
                -2.080482353
              ],
              [
                115.607711822,
                -2.08023251
              ],
              [
                115.607736806,
                -2.08005405
              ],
              [
                115.607836743,
                -2.07992199
              ],
              [
                115.607947388,
                -2.079904144
              ],
              [
                115.608086587,
                -2.080007651
              ],
              [
                115.608257908,
                -2.080250356
              ],
              [
                115.608422091,
                -2.080353862
              ],
              [
                115.608550582,
                -2.080460938
              ],
              [
                115.60860055,
                -2.080600136
              ],
              [
                115.608693349,
                -2.080732196
              ],
              [
                115.608805779,
                -2.08076075
              ],
              [
                115.608973531,
                -2.080735766
              ],
              [
                115.609059192,
                -2.08071792
              ],
              [
                115.609216236,
                -2.080789304
              ],
              [
                115.609341158,
                -2.080842841
              ],
              [
                115.609366142,
                -2.080960625
              ],
              [
                115.609362573,
                -2.08102487
              ],
              [
                115.609230513,
                -2.081056993
              ],
              [
                115.60915556,
                -2.081096254
              ],
              [
                115.609119868,
                -2.081244375
              ],
              [
                115.609120582,
                -2.08127864
              ],
              [
                115.609106305,
                -2.081307193
              ],
              [
                115.609036349,
                -2.081295772
              ],
              [
                115.608963537,
                -2.081257225
              ],
              [
                115.608833619,
                -2.081191551
              ],
              [
                115.608753669,
                -2.081111602
              ],
              [
                115.608662297,
                -2.081050211
              ],
              [
                115.608610901,
                -2.08100167
              ],
              [
                115.608578064,
                -2.080968834
              ],
              [
                115.608518102,
                -2.080981683
              ],
              [
                115.608490976,
                -2.081047356
              ],
              [
                115.60848241,
                -2.081101608
              ],
              [
                115.608475272,
                -2.081204401
              ],
              [
                115.608480982,
                -2.08134003
              ],
              [
                115.608502398,
                -2.081562034
              ],
              [
                115.60851953,
                -2.081616285
              ],
              [
                115.608563788,
                -2.081659116
              ],
              [
                115.6087037,
                -2.081680531
              ],
              [
                115.608853606,
                -2.081709084
              ],
              [
                115.609037776,
                -2.081721933
              ],
              [
                115.609196248,
                -2.081753342
              ],
              [
                115.609386129,
                -2.081800455
              ],
              [
                115.609510337,
                -2.081824726
              ],
              [
                115.6095703,
                -2.081801883
              ],
              [
                115.60959457,
                -2.081760481
              ],
              [
                115.609623124,
                -2.081659116
              ],
              [
                115.609608847,
                -2.081567744
              ],
              [
                115.609558184,
                -2.081461174
              ],
              [
                115.60953439,
                -2.081370755
              ],
              [
                115.609510595,
                -2.08125654
              ],
              [
                115.609567702,
                -2.081185157
              ],
              [
                115.609672398,
                -2.081189916
              ],
              [
                115.609829443,
                -2.081285094
              ],
              [
                115.609972211,
                -2.081513522
              ],
              [
                115.610129255,
                -2.081570629
              ],
              [
                115.610272023,
                -2.081570629
              ],
              [
                115.610543281,
                -2.08152304
              ],
              [
                115.610690808,
                -2.081475451
              ],
              [
                115.610747915,
                -2.081380272
              ],
              [
                115.610862129,
                -2.081361237
              ],
              [
                115.610943031,
                -2.08130413
              ],
              [
                115.610987669,
                -2.081193913
              ],
              [
                115.610963399,
                -2.081155366
              ],
              [
                115.610897726,
                -2.081135378
              ],
              [
                115.610766379,
                -2.08109112
              ],
              [
                115.610669297,
                -2.081041152
              ],
              [
                115.610579354,
                -2.081012598
              ],
              [
                115.610556511,
                -2.080981189
              ],
              [
                115.610546517,
                -2.080921227
              ],
              [
                115.610572215,
                -2.080874113
              ],
              [
                115.610646455,
                -2.080858409
              ],
              [
                115.610732115,
                -2.080848415
              ],
              [
                115.610846329,
                -2.080862692
              ],
              [
                115.610907719,
                -2.080884107
              ],
              [
                115.610963399,
                -2.080871258
              ],
              [
                115.610996065,
                -2.080821416
              ],
              [
                115.611054532,
                -2.08067757
              ],
              [
                115.611161608,
                -2.080601427
              ],
              [
                115.611263925,
                -2.080530043
              ],
              [
                115.611366242,
                -2.080530043
              ],
              [
                115.611447143,
                -2.080527664
              ],
              [
                115.611528045,
                -2.08049911
              ],
              [
                115.611608947,
                -2.080430106
              ],
              [
                115.611666054,
                -2.080351584
              ],
              [
                115.61168271,
                -2.080219524
              ],
              [
                115.611692228,
                -2.080067238
              ],
              [
                115.611618464,
                -2.07988402
              ],
              [
                115.61159229,
                -2.079776944
              ],
              [
                115.611578014,
                -2.07970556
              ],
              [
                115.611582772,
                -2.079636556
              ],
              [
                115.611611326,
                -2.07957469
              ],
              [
                115.611677951,
                -2.07953067
              ],
              [
                115.611744576,
                -2.079516393
              ],
              [
                115.611822431,
                -2.07957004
              ],
              [
                115.611868308,
                -2.079711509
              ],
              [
                115.611908759,
                -2.079768616
              ],
              [
                115.61199204,
                -2.079809067
              ],
              [
                115.612084839,
                -2.079842379
              ],
              [
                115.61221333,
                -2.079842379
              ],
              [
                115.612313267,
                -2.079842379
              ],
              [
                115.612413204,
                -2.07984
              ],
              [
                115.612465553,
                -2.079861415
              ],
              [
                115.612539316,
                -2.079909004
              ],
              [
                115.612604751,
                -2.079919712
              ],
              [
                115.612718965,
                -2.079914953
              ],
              [
                115.612759827,
                -2.07987908
              ],
              [
                115.612771313,
                -2.079786462
              ],
              [
                115.612723724,
                -2.07970794
              ],
              [
                115.612666617,
                -2.07961752
              ],
              [
                115.612623787,
                -2.079534239
              ],
              [
                115.612626166,
                -2.079450958
              ],
              [
                115.612695171,
                -2.079400989
              ],
              [
                115.612773693,
                -2.079381953
              ],
              [
                115.612816523,
                -2.079408128
              ],
              [
                115.612954532,
                -2.079500927
              ],
              [
                115.613068746,
                -2.079562793
              ],
              [
                115.613173442,
                -2.079591346
              ],
              [
                115.613256723,
                -2.07957469
              ],
              [
                115.613287801,
                -2.079528814
              ],
              [
                115.613306692,
                -2.079500927
              ],
              [
                115.613297174,
                -2.079412886
              ],
              [
                115.613311451,
                -2.079320087
              ],
              [
                115.613347143,
                -2.07922015
              ],
              [
                115.61340187,
                -2.079155905
              ],
              [
                115.613438102,
                -2.079135776
              ],
              [
                115.612082467,
                -2.078091663
              ],
              [
                115.610409773,
                -2.076803349
              ],
              [
                115.60795,
                -2.07573
              ],
              [
                115.607858845,
                -2.075603628
              ],
              [
                115.607783892,
                -2.075525105
              ],
              [
                115.60770537,
                -2.075471568
              ],
              [
                115.6077482,
                -2.075393045
              ],
              [
                115.607830291,
                -2.075335938
              ],
              [
                115.607888588,
                -2.075192933
              ],
              [
                115.607924502,
                -2.075110306
              ],
              [
                115.60798567,
                -2.075099658
              ],
              [
                115.60801232,
                -2.074989251
              ],
              [
                115.608023742,
                -2.074882651
              ],
              [
                115.607968538,
                -2.074827448
              ],
              [
                115.607911697,
                -2.074799096
              ],
              [
                115.607898848,
                -2.074724857
              ],
              [
                115.607923118,
                -2.074626347
              ],
              [
                115.608004496,
                -2.07460636
              ],
              [
                115.608021628,
                -2.074533548
              ],
              [
                115.608053037,
                -2.074517844
              ],
              [
                115.608125464,
                -2.07444257
              ],
              [
                115.608223021,
                -2.074237936
              ],
              [
                115.608156397,
                -2.074209383
              ],
              [
                115.608087392,
                -2.074192726
              ],
              [
                115.608075891,
                -2.0741263
              ],
              [
                115.608104445,
                -2.074007327
              ],
              [
                115.608073512,
                -2.073919287
              ],
              [
                115.608063994,
                -2.073878836
              ],
              [
                115.607990231,
                -2.073855041
              ],
              [
                115.607909329,
                -2.073881215
              ],
              [
                115.607921226,
                -2.073794365
              ],
              [
                115.607975954,
                -2.073758673
              ],
              [
                115.608006887,
                -2.073606387
              ],
              [
                115.607980713,
                -2.073406513
              ],
              [
                115.607887605,
                -2.073334597
              ],
              [
                115.60790093,
                -2.073227998
              ],
              [
                115.607940905,
                -2.073186119
              ],
              [
                115.607942808,
                -2.073151855
              ],
              [
                115.607876183,
                -2.073071905
              ],
              [
                115.607888985,
                -2.073008072
              ],
              [
                115.607850543,
                -2.072944835
              ],
              [
                115.607904081,
                -2.072805636
              ],
              [
                115.60791122,
                -2.072670007
              ],
              [
                115.607964757,
                -2.072555793
              ],
              [
                115.608068264,
                -2.07252367
              ],
              [
                115.608157494,
                -2.072462994
              ],
              [
                115.608186047,
                -2.072295242
              ],
              [
                115.608268139,
                -2.072223858
              ],
              [
                115.608364507,
                -2.072230997
              ],
              [
                115.60843946,
                -2.072284534
              ],
              [
                115.608486573,
                -2.072281322
              ],
              [
                115.608622202,
                -2.072174246
              ],
              [
                115.608693586,
                -2.072038617
              ],
              [
                115.608800662,
                -2.072038617
              ],
              [
                115.608914876,
                -2.072088586
              ],
              [
                115.6089677,
                -2.072079068
              ],
              [
                115.609034325,
                -2.07202672
              ],
              [
                115.609086673,
                -2.071964854
              ],
              [
                115.609119986,
                -2.071912506
              ],
              [
                115.609134263,
                -2.071803051
              ],
              [
                115.609158057,
                -2.071648386
              ],
              [
                115.609127124,
                -2.071581761
              ],
              [
                115.609081022,
                -2.071571787
              ],
              [
                115.608985844,
                -2.071540854
              ],
              [
                115.608931116,
                -2.071564648
              ],
              [
                115.608847835,
                -2.071545613
              ],
              [
                115.608776451,
                -2.071571787
              ],
              [
                115.608714585,
                -2.071595581
              ],
              [
                115.608686032,
                -2.071569407
              ],
              [
                115.608712206,
                -2.07146947
              ],
              [
                115.608757415,
                -2.071383809
              ],
              [
                115.608788348,
                -2.071310046
              ],
              [
                115.608750277,
                -2.071191073
              ],
              [
                115.608778831,
                -2.0710721
              ],
              [
                115.608874009,
                -2.071010234
              ],
              [
                115.608884145,
                -2.070896829
              ],
              [
                115.608937445,
                -2.070845433
              ],
              [
                115.608908892,
                -2.070754061
              ],
              [
                115.608842267,
                -2.070729315
              ],
              [
                115.608806099,
                -2.070748351
              ],
              [
                115.608736262,
                -2.07075882
              ],
              [
                115.608685698,
                -2.070732051
              ],
              [
                115.608641084,
                -2.070696359
              ],
              [
                115.608560777,
                -2.070749897
              ],
              [
                115.608513187,
                -2.07075882
              ],
              [
                115.608498316,
                -2.070696359
              ],
              [
                115.608498316,
                -2.070616052
              ],
              [
                115.608556375,
                -2.070569415
              ],
              [
                115.60859635,
                -2.070535151
              ],
              [
                115.608624903,
                -2.070460912
              ],
              [
                115.608666782,
                -2.070429503
              ],
              [
                115.608721985,
                -2.070393335
              ],
              [
                115.608760057,
                -2.070311481
              ],
              [
                115.608741021,
                -2.07022011
              ],
              [
                115.608748635,
                -2.070164907
              ],
              [
                115.60876196,
                -2.070077342
              ],
              [
                115.608746732,
                -2.070056403
              ],
              [
                115.608710564,
                -2.070075439
              ],
              [
                115.608670589,
                -2.070100185
              ],
              [
                115.608657264,
                -2.070138257
              ],
              [
                115.608657264,
                -2.070201074
              ],
              [
                115.608626807,
                -2.070194412
              ],
              [
                115.608560182,
                -2.070226773
              ],
              [
                115.608541146,
                -2.070308626
              ],
              [
                115.60848975,
                -2.070365733
              ],
              [
                115.608426932,
                -2.070411419
              ],
              [
                115.608379343,
                -2.070419033
              ],
              [
                115.608327946,
                -2.070392383
              ],
              [
                115.60827655,
                -2.070334324
              ],
              [
                115.608242286,
                -2.070242953
              ],
              [
                115.608284164,
                -2.070176328
              ],
              [
                115.608251804,
                -2.070136353
              ],
              [
                115.608209925,
                -2.070128739
              ],
              [
                115.608238479,
                -2.07008686
              ],
              [
                115.608299393,
                -2.070014525
              ],
              [
                115.608314621,
                -2.069940286
              ],
              [
                115.608333657,
                -2.069915539
              ],
              [
                115.60831,
                -2.069854
              ],
              [
                115.593144,
                -2.054784
              ],
              [
                115.589243662,
                -2.049813031
              ]
            ]
          ]
        ]
      }
    }
  ]
}