{
  "type": "FeatureCollection",
  "features": [
    {
      "type": "Feature",
      "properties": {
        "idx": "3299",
        "nama_kewilayahan": "Poraalle/Buttu Bagasa Tande"
      },
      "geometry": {
        "type": "MultiPolygon",
        "coordinates": [
          [
            [
              [
                118.995698579,
                -3.534996412
              ],
              [
                118.995468281,
                -3.535289472
              ],
              [
                118.995278186,
                -3.535462122
              ],
              [
                118.994955134,
                -3.535807301
              ],
              [
                118.994631918,
                -3.536075929
              ],
              [
                118.994251522,
                -3.536325542
              ],
              [
                118.993661819,
                -3.536671297
              ],
              [
                118.993285799,
                -3.536844014
              ],
              [
                118.992824594,
                -3.53705586
              ],
              [
                118.992302887,
                -3.537237728
              ],
              [
                118.991838097,
                -3.537399754
              ],
              [
                118.990569001,
                -3.538008253
              ],
              [
                118.990406024,
                -3.537625754
              ],
              [
                118.990402291,
                -3.537618392
              ],
              [
                118.990394795,
                -3.537603606
              ],
              [
                118.990389733,
                -3.537593645
              ],
              [
                118.990311161,
                -3.537335094
              ],
              [
                118.99022891,
                -3.537127244
              ],
              [
                118.990221282,
                -3.537105655
              ],
              [
                118.990212531,
                -3.537087914
              ],
              [
                118.990210169,
                -3.537070793
              ],
              [
                118.990163499,
                -3.536963702
              ],
              [
                118.990158806,
                -3.536954187
              ],
              [
                118.990154108,
                -3.536944643
              ],
              [
                118.990033412,
                -3.536854053
              ],
              [
                118.99002068,
                -3.536847797
              ],
              [
                118.990004512,
                -3.536834863
              ],
              [
                118.989860858,
                -3.536751548
              ],
              [
                118.98984575,
                -3.53674159
              ],
              [
                118.98983325,
                -3.536730391
              ],
              [
                118.989782591,
                -3.53657648
              ],
              [
                118.98977507,
                -3.536562081
              ],
              [
                118.989769286,
                -3.536551081
              ],
              [
                118.989787524,
                -3.536339622
              ],
              [
                118.989787308,
                -3.536325423
              ],
              [
                118.98980682,
                -3.536138671
              ],
              [
                118.98981888,
                -3.53583479
              ],
              [
                118.989661747,
                -3.535597088
              ],
              [
                118.989731242,
                -3.535068956
              ],
              [
                118.989743947,
                -3.534972403
              ],
              [
                118.989777505,
                -3.534972373
              ],
              [
                118.989814792,
                -3.53497234
              ],
              [
                118.989942603,
                -3.534972226
              ],
              [
                118.989970313,
                -3.534969981
              ],
              [
                118.990014862,
                -3.534991768
              ],
              [
                118.990605048,
                -3.534873974
              ],
              [
                118.990664153,
                -3.534847258
              ],
              [
                118.990701576,
                -3.534830915
              ],
              [
                118.990754014,
                -3.534808041
              ],
              [
                118.991292434,
                -3.534381356
              ],
              [
                118.991329525,
                -3.53436441
              ],
              [
                118.991374038,
                -3.534344074
              ],
              [
                118.991396295,
                -3.534333906
              ],
              [
                118.991448283,
                -3.534310202
              ],
              [
                118.99149286,
                -3.534289912
              ],
              [
                118.991552306,
                -3.534262871
              ],
              [
                118.991589464,
                -3.534245967
              ],
              [
                118.991611724,
                -3.534235794
              ],
              [
                118.991923276,
                -3.534010015
              ],
              [
                118.991968263,
                -3.533989956
              ],
              [
                118.992005893,
                -3.533973313
              ],
              [
                118.992043613,
                -3.533956787
              ],
              [
                118.992326802,
                -3.533772263
              ],
              [
                118.992642955,
                -3.533566259
              ],
              [
                118.992665354,
                -3.53355588
              ],
              [
                118.992717658,
                -3.533531742
              ],
              [
                118.993014319,
                -3.533332918
              ],
              [
                118.993052294,
                -3.533316245
              ],
              [
                118.993090111,
                -3.533299582
              ],
              [
                118.993315107,
                -3.533119254
              ],
              [
                118.993337798,
                -3.533109045
              ],
              [
                118.993374823,
                -3.533070805
              ],
              [
                118.99341266,
                -3.533053789
              ],
              [
                118.993437975,
                -3.533009955
              ],
              [
                118.993475858,
                -3.532992919
              ],
              [
                118.993502012,
                -3.532970322
              ],
              [
                118.993523179,
                -3.532917047
              ],
              [
                118.993561119,
                -3.532899856
              ],
              [
                118.99360726,
                -3.532900716
              ],
              [
                118.993627907,
                -3.532945936
              ],
              [
                118.993646416,
                -3.532986485
              ],
              [
                118.993660985,
                -3.533000567
              ],
              [
                118.994018098,
                -3.533499421
              ],
              [
                118.99427416,
                -3.533958538
              ],
              [
                118.994277115,
                -3.533969358
              ],
              [
                118.994491015,
                -3.534270122
              ],
              [
                118.994614133,
                -3.534246965
              ],
              [
                118.99462718,
                -3.534239226
              ],
              [
                118.994794743,
                -3.534162718
              ],
              [
                118.994951636,
                -3.534304867
              ],
              [
                118.994956528,
                -3.534312329
              ],
              [
                118.995175982,
                -3.53451748
              ],
              [
                118.995181297,
                -3.534519217
              ],
              [
                118.995192899,
                -3.534537207
              ],
              [
                118.99536881,
                -3.534684812
              ],
              [
                118.995537797,
                -3.534885443
              ],
              [
                118.995698579,
                -3.534996412
              ]
            ]
          ]
        ]
      }
    }
  ]
}