{
  "type": "FeatureCollection",
  "features": [
    {
      "type": "Feature",
      "properties": {
        "idx": "3316",
        "nama_kewilayahan": "Dayak Benuaq Madjaun"
      },
      "geometry": {
        "type": "Polygon",
        "coordinates": [
          [
            [
              115.723676497,
              -0.62410598
            ],
            [
              115.723647298,
              -0.624100024
            ],
            [
              115.723494915,
              -0.624100024
            ],
            [
              115.721953517,
              -0.624100026
            ],
            [
              115.721622677,
              -0.624100027
            ],
            [
              115.719988375,
              -0.624100029
            ],
            [
              115.719979025,
              -0.624106619
            ],
            [
              115.719964373,
              -0.624100029
            ],
            [
              115.719813938,
              -0.624100029
            ],
            [
              115.719806107,
              -0.624108211
            ],
            [
              115.719663615,
              -0.624208544
            ],
            [
              115.719526067,
              -0.624243076
            ],
            [
              115.719390198,
              -0.624290266
            ],
            [
              115.719219374,
              -0.624351706
            ],
            [
              115.719093478,
              -0.624497552
            ],
            [
              115.718952998,
              -0.624545412
            ],
            [
              115.71884001,
              -0.624646414
            ],
            [
              115.718757028,
              -0.624737275
            ],
            [
              115.718730464,
              -0.624756843
            ],
            [
              115.7186993,
              -0.624763622
            ],
            [
              115.718665763,
              -0.624755353
            ],
            [
              115.718633846,
              -0.624736601
            ],
            [
              115.718592088,
              -0.624742525
            ],
            [
              115.718574262,
              -0.6247509
            ],
            [
              115.7185239,
              -0.624777929
            ],
            [
              115.718469446,
              -0.624833247
            ],
            [
              115.718363163,
              -0.624913965
            ],
            [
              115.718225447,
              -0.6250122
            ],
            [
              115.718061246,
              -0.625030305
            ],
            [
              115.717958987,
              -0.625148824
            ],
            [
              115.717884305,
              -0.625187215
            ],
            [
              115.717844658,
              -0.625210349
            ],
            [
              115.717826301,
              -0.625249911
            ],
            [
              115.717781541,
              -0.625428361
            ],
            [
              115.717661682,
              -0.625530789
            ],
            [
              115.717535953,
              -0.62565526
            ],
            [
              115.717373093,
              -0.625641261
            ],
            [
              115.717258713,
              -0.625651774
            ],
            [
              115.717207215,
              -0.625746037
            ],
            [
              115.717097077,
              -0.625866735
            ],
            [
              115.717044271,
              -0.625921553
            ],
            [
              115.716917955,
              -0.626044432
            ],
            [
              115.716754423,
              -0.626112577
            ],
            [
              115.716712431,
              -0.626156666
            ],
            [
              115.716587876,
              -0.626192037
            ],
            [
              115.7164914,
              -0.62617913
            ],
            [
              115.716360224,
              -0.626274934
            ],
            [
              115.716287181,
              -0.626297882
            ],
            [
              115.716243212,
              -0.626303516
            ],
            [
              115.716207505,
              -0.626323549
            ],
            [
              115.716102898,
              -0.626324387
            ],
            [
              115.715944899,
              -0.626292369
            ],
            [
              115.715767957,
              -0.626293374
            ],
            [
              115.71566092,
              -0.626176447
            ],
            [
              115.715535696,
              -0.626212153
            ],
            [
              115.715413068,
              -0.626317095
            ],
            [
              115.715280717,
              -0.626385659
            ],
            [
              115.715284909,
              -0.626430168
            ],
            [
              115.715123055,
              -0.626480626
            ],
            [
              115.714997578,
              -0.626592861
            ],
            [
              115.714871598,
              -0.626650946
            ],
            [
              115.714736983,
              -0.626680953
            ],
            [
              115.714567417,
              -0.626725629
            ],
            [
              115.714419478,
              -0.626697633
            ],
            [
              115.714268268,
              -0.626780195
            ],
            [
              115.714084368,
              -0.626853538
            ],
            [
              115.713957635,
              -0.62685295
            ],
            [
              115.71379226,
              -0.626852112
            ],
            [
              115.713656725,
              -0.626851022
            ],
            [
              115.713570894,
              -0.626777932
            ],
            [
              115.713456983,
              -0.626830737
            ],
            [
              115.713305271,
              -0.626908774
            ],
            [
              115.713170574,
              -0.626969374
            ],
            [
              115.713128575,
              -0.626979282
            ],
            [
              115.713016011,
              -0.627005836
            ],
            [
              115.712955074,
              -0.626966106
            ],
            [
              115.712940451,
              -0.626937477
            ],
            [
              115.712887685,
              -0.626834175
            ],
            [
              115.712839489,
              -0.626650192
            ],
            [
              115.712856915,
              -0.626613224
            ],
            [
              115.712851069,
              -0.626586998
            ],
            [
              115.712838547,
              -0.626577795
            ],
            [
              115.712771267,
              -0.626591255
            ],
            [
              115.712673108,
              -0.626688496
            ],
            [
              115.712515192,
              -0.626726384
            ],
            [
              115.712466427,
              -0.626709082
            ],
            [
              115.71231614,
              -0.626742157
            ],
            [
              115.712276102,
              -0.626789844
            ],
            [
              115.712257809,
              -0.626785778
            ],
            [
              115.712152004,
              -0.626699476
            ],
            [
              115.712114119,
              -0.626599399
            ],
            [
              115.712134623,
              -0.626512098
            ],
            [
              115.712112593,
              -0.626492497
            ],
            [
              115.712010602,
              -0.626497137
            ],
            [
              115.711829218,
              -0.626500659
            ],
            [
              115.711661999,
              -0.626468306
            ],
            [
              115.711373995,
              -0.626428492
            ],
            [
              115.711300907,
              -0.62637317
            ],
            [
              115.711153049,
              -0.626317683
            ],
            [
              115.711010892,
              -0.626181141
            ],
            [
              115.710858175,
              -0.626134789
            ],
            [
              115.710701936,
              -0.62608458
            ],
            [
              115.710689112,
              -0.626079299
            ],
            [
              115.710429942,
              -0.625979471
            ],
            [
              115.710233974,
              -0.625909233
            ],
            [
              115.710070694,
              -0.625877214
            ],
            [
              115.709975393,
              -0.625842846
            ],
            [
              115.709856286,
              -0.625788447
            ],
            [
              115.709824602,
              -0.625624835
            ],
            [
              115.70977783,
              -0.625486029
            ],
            [
              115.70973743,
              -0.625328618
            ],
            [
              115.709625364,
              -0.625245552
            ],
            [
              115.709519836,
              -0.625260221
            ],
            [
              115.709348929,
              -0.625281259
            ],
            [
              115.709213897,
              -0.625286623
            ],
            [
              115.709089593,
              -0.625228202
            ],
            [
              115.708960008,
              -0.625226777
            ],
            [
              115.708937712,
              -0.62525167
            ],
            [
              115.708737805,
              -0.625287546
            ],
            [
              115.708564718,
              -0.62528436
            ],
            [
              115.708430776,
              -0.625316631
            ],
            [
              115.708303034,
              -0.625384273
            ],
            [
              115.708199344,
              -0.625348512
            ],
            [
              115.70811394,
              -0.625365749
            ],
            [
              115.708064654,
              -0.62543029
            ],
            [
              115.707994162,
              -0.625565322
            ],
            [
              115.707868182,
              -0.625547636
            ],
            [
              115.707828959,
              -0.625552543
            ],
            [
              115.707800708,
              -0.625697505
            ],
            [
              115.707622508,
              -0.625852989
            ],
            [
              115.707444728,
              -0.625877799
            ],
            [
              115.707288574,
              -0.625839493
            ],
            [
              115.70715354,
              -0.625762801
            ],
            [
              115.707028902,
              -0.625626427
            ],
            [
              115.706914572,
              -0.625554341
            ],
            [
              115.706801082,
              -0.625548725
            ],
            [
              115.706694213,
              -0.625465158
            ],
            [
              115.706607376,
              -0.625477899
            ],
            [
              115.706430183,
              -0.625535399
            ],
            [
              115.706272855,
              -0.625557275
            ],
            [
              115.706151233,
              -0.625531375
            ],
            [
              115.705986947,
              -0.625532296
            ],
            [
              115.705858201,
              -0.625555933
            ],
            [
              115.705770359,
              -0.625686944
            ],
            [
              115.705711686,
              -0.625831027
            ],
            [
              115.705644728,
              -0.625810587
            ],
            [
              115.705588512,
              -0.625755748
            ],
            [
              115.70550331,
              -0.625760454
            ],
            [
              115.705355288,
              -0.625692224
            ],
            [
              115.705264174,
              -0.625720471
            ],
            [
              115.705215645,
              -0.625786353
            ],
            [
              115.705046331,
              -0.625754084
            ],
            [
              115.704916075,
              -0.625674789
            ],
            [
              115.704781042,
              -0.625610921
            ],
            [
              115.704657746,
              -0.625485191
            ],
            [
              115.704580381,
              -0.625374214
            ],
            [
              115.704409305,
              -0.625374299
            ],
            [
              115.704268573,
              -0.625412771
            ],
            [
              115.704083412,
              -0.625465064
            ],
            [
              115.704028265,
              -0.625451413
            ],
            [
              115.703466426,
              -0.625565741
            ],
            [
              115.703321503,
              -0.62553104
            ],
            [
              115.70319393,
              -0.625571105
            ],
            [
              115.703064764,
              -0.625625756
            ],
            [
              115.70289654,
              -0.625664061
            ],
            [
              115.702727226,
              -0.62565593
            ],
            [
              115.702559923,
              -0.625657188
            ],
            [
              115.702410137,
              -0.62559751
            ],
            [
              115.702322212,
              -0.625645202
            ],
            [
              115.702160358,
              -0.625638998
            ],
            [
              115.7020327,
              -0.625697421
            ],
            [
              115.70190345,
              -0.625743941
            ],
            [
              115.701772862,
              -0.625663139
            ],
            [
              115.701657275,
              -0.62576892
            ],
            [
              115.701564906,
              -0.625791047
            ],
            [
              115.701556525,
              -0.625808649
            ],
            [
              115.701515285,
              -0.625808899
            ],
            [
              115.701351672,
              -0.625816528
            ],
            [
              115.701228038,
              -0.625761962
            ],
            [
              115.701063166,
              -0.62575182
            ],
            [
              115.700905168,
              -0.625723992
            ],
            [
              115.700760999,
              -0.625643189
            ],
            [
              115.700601909,
              -0.625617458
            ],
            [
              115.7004305,
              -0.6255846
            ],
            [
              115.700309465,
              -0.625445209
            ],
            [
              115.700151718,
              -0.625381255
            ],
            [
              115.699985756,
              -0.625358205
            ],
            [
              115.69989079,
              -0.625324846
            ],
            [
              115.699756886,
              -0.625306359
            ],
            [
              115.699707251,
              -0.625312948
            ],
            [
              115.699620725,
              -0.625349741
            ],
            [
              115.699479154,
              -0.625428194
            ],
            [
              115.699373332,
              -0.625479919
            ],
            [
              115.699334988,
              -0.625526016
            ],
            [
              115.699328028,
              -0.625624247
            ],
            [
              115.699189141,
              -0.625704461
            ],
            [
              115.699025442,
              -0.625705215
            ],
            [
              115.698884375,
              -0.625693146
            ],
            [
              115.698757975,
              -0.625590134
            ],
            [
              115.698743519,
              -0.625589684
            ],
            [
              115.698730684,
              -0.625593992
            ],
            [
              115.698716424,
              -0.625627015
            ],
            [
              115.698713571,
              -0.62566578
            ],
            [
              115.698729058,
              -0.625720556
            ],
            [
              115.699329179,
              -0.62739196
            ],
            [
              115.699426096,
              -0.627661888
            ],
            [
              115.699405988,
              -0.62774628
            ],
            [
              115.699424281,
              -0.627822958
            ],
            [
              115.699511425,
              -0.627907476
            ],
            [
              115.699559871,
              -0.628018455
            ],
            [
              115.699676966,
              -0.628132783
            ],
            [
              115.6997747,
              -0.628245687
            ],
            [
              115.699906044,
              -0.628284831
            ],
            [
              115.699946362,
              -0.628392371
            ],
            [
              115.699926497,
              -0.62853939
            ],
            [
              115.699936319,
              -0.628564245
            ],
            [
              115.699975344,
              -0.628747996
            ],
            [
              115.699949882,
              -0.628935099
            ],
            [
              115.699976115,
              -0.62907868
            ],
            [
              115.700003526,
              -0.62920751
            ],
            [
              115.700064797,
              -0.629295689
            ],
            [
              115.700134702,
              -0.629448406
            ],
            [
              115.700233609,
              -0.629571202
            ],
            [
              115.70032472,
              -0.629683268
            ],
            [
              115.700399571,
              -0.629780749
            ],
            [
              115.700416418,
              -0.629813774
            ],
            [
              115.700518343,
              -0.629878733
            ],
            [
              115.700576061,
              -0.629917878
            ],
            [
              115.700626469,
              -0.629991051
            ],
            [
              115.700695284,
              -0.630058357
            ],
            [
              115.700776504,
              -0.630149636
            ],
            [
              115.700841046,
              -0.630263045
            ],
            [
              115.700845824,
              -0.630271175
            ],
            [
              115.700868318,
              -0.630339293
            ],
            [
              115.700791843,
              -0.630481307
            ],
            [
              115.700760999,
              -0.630646851
            ],
            [
              115.700810452,
              -0.630785655
            ],
            [
              115.700868287,
              -0.630948097
            ],
            [
              115.70092629,
              -0.631098385
            ],
            [
              115.701044726,
              -0.631228639
            ],
            [
              115.701185625,
              -0.631347997
            ],
            [
              115.70128009,
              -0.631487723
            ],
            [
              115.701302984,
              -0.631538757
            ],
            [
              115.701313588,
              -0.631601729
            ],
            [
              115.701310624,
              -0.631662249
            ],
            [
              115.701276146,
              -0.631721935
            ],
            [
              115.701272443,
              -0.631825882
            ],
            [
              115.701289143,
              -0.631886618
            ],
            [
              115.701309259,
              -0.632078146
            ],
            [
              115.701391653,
              -0.632214184
            ],
            [
              115.701433647,
              -0.632342092
            ],
            [
              115.701452171,
              -0.63244326
            ],
            [
              115.701593908,
              -0.632531773
            ],
            [
              115.701653169,
              -0.63265021
            ],
            [
              115.70164768,
              -0.632692222
            ],
            [
              115.701714387,
              -0.632809764
            ],
            [
              115.701817956,
              -0.63286772
            ],
            [
              115.701899597,
              -0.632978824
            ],
            [
              115.701926951,
              -0.633055155
            ],
            [
              115.70192843,
              -0.633165948
            ],
            [
              115.702014596,
              -0.633309782
            ],
            [
              115.702049884,
              -0.633468452
            ],
            [
              115.702116101,
              -0.633624104
            ],
            [
              115.702112162,
              -0.633751425
            ],
            [
              115.702177959,
              -0.633842787
            ],
            [
              115.702239498,
              -0.633867276
            ],
            [
              115.70232364,
              -0.633981213
            ],
            [
              115.7023373,
              -0.634061555
            ],
            [
              115.702374179,
              -0.634124753
            ],
            [
              115.702486414,
              -0.634338829
            ],
            [
              115.702524215,
              -0.634491128
            ],
            [
              115.702522931,
              -0.63457535
            ],
            [
              115.702543155,
              -0.634653359
            ],
            [
              115.702593378,
              -0.634712899
            ],
            [
              115.702649345,
              -0.63481392
            ],
            [
              115.702674754,
              -0.634969398
            ],
            [
              115.70275874,
              -0.635124715
            ],
            [
              115.702855887,
              -0.635303417
            ],
            [
              115.702900396,
              -0.63542881
            ],
            [
              115.702971223,
              -0.635548756
            ],
            [
              115.703035009,
              -0.635770458
            ],
            [
              115.703159145,
              -0.635907417
            ],
            [
              115.70327079,
              -0.6360049
            ],
            [
              115.703300632,
              -0.636112606
            ],
            [
              115.703313288,
              -0.636233641
            ],
            [
              115.703357796,
              -0.636322238
            ],
            [
              115.703428037,
              -0.636408068
            ],
            [
              115.703542197,
              -0.636586269
            ],
            [
              115.703589724,
              -0.636751727
            ],
            [
              115.703714949,
              -0.636850047
            ],
            [
              115.703763798,
              -0.636951427
            ],
            [
              115.703793741,
              -0.637081049
            ],
            [
              115.703767008,
              -0.637126154
            ],
            [
              115.703774979,
              -0.637184663
            ],
            [
              115.703790009,
              -0.637226727
            ],
            [
              115.703773957,
              -0.637268723
            ],
            [
              115.70372112,
              -0.637301377
            ],
            [
              115.703715065,
              -0.637343162
            ],
            [
              115.703725,
              -0.637388429
            ],
            [
              115.703811263,
              -0.63749359
            ],
            [
              115.703832043,
              -0.637518921
            ],
            [
              115.703873557,
              -0.637595084
            ],
            [
              115.703916199,
              -0.637673317
            ],
            [
              115.704009322,
              -0.637743305
            ],
            [
              115.704161453,
              -0.637926953
            ],
            [
              115.704181151,
              -0.637990237
            ],
            [
              115.704207805,
              -0.638105907
            ],
            [
              115.704211747,
              -0.638187737
            ],
            [
              115.704245973,
              -0.638248997
            ],
            [
              115.704258851,
              -0.63836214
            ],
            [
              115.704312326,
              -0.638515027
            ],
            [
              115.704320138,
              -0.63857865
            ],
            [
              115.704324028,
              -0.638610328
            ],
            [
              115.704350842,
              -0.638677533
            ],
            [
              115.704380382,
              -0.638707105
            ],
            [
              115.704406037,
              -0.638732789
            ],
            [
              115.704408424,
              -0.6387669
            ],
            [
              115.704414754,
              -0.638857344
            ],
            [
              115.704410894,
              -0.638956619
            ],
            [
              115.704424276,
              -0.638983337
            ],
            [
              115.704431602,
              -0.63912565
            ],
            [
              115.704531514,
              -0.639273339
            ],
            [
              115.704609214,
              -0.639334777
            ],
            [
              115.704688675,
              -0.63944173
            ],
            [
              115.704731412,
              -0.639455599
            ],
            [
              115.704802836,
              -0.639478778
            ],
            [
              115.704909453,
              -0.639575087
            ],
            [
              115.704968629,
              -0.639705091
            ],
            [
              115.704989218,
              -0.639736299
            ],
            [
              115.705005169,
              -0.639796282
            ],
            [
              115.704981891,
              -0.639862401
            ],
            [
              115.704935235,
              -0.639890206
            ],
            [
              115.704875675,
              -0.639925702
            ],
            [
              115.704864763,
              -0.639971762
            ],
            [
              115.704865391,
              -0.640061653
            ],
            [
              115.704880422,
              -0.640076376
            ],
            [
              115.704913646,
              -0.640130733
            ],
            [
              115.704915814,
              -0.640213138
            ],
            [
              115.704938256,
              -0.64026232
            ],
            [
              115.704982399,
              -0.640277579
            ],
            [
              115.705027987,
              -0.640308693
            ],
            [
              115.705036941,
              -0.640324998
            ],
            [
              115.705057556,
              -0.640349347
            ],
            [
              115.705081024,
              -0.640355883
            ],
            [
              115.70512782,
              -0.64034522
            ],
            [
              115.705147382,
              -0.640349997
            ],
            [
              115.705161069,
              -0.640379696
            ],
            [
              115.705178378,
              -0.640399513
            ],
            [
              115.705209385,
              -0.640410155
            ],
            [
              115.705245003,
              -0.640405776
            ],
            [
              115.705307708,
              -0.640426538
            ],
            [
              115.705343647,
              -0.640458307
            ],
            [
              115.70535856,
              -0.64047149
            ],
            [
              115.705395205,
              -0.640476425
            ],
            [
              115.705452409,
              -0.640461451
            ],
            [
              115.705514276,
              -0.640456941
            ],
            [
              115.705548796,
              -0.640475544
            ],
            [
              115.705569671,
              -0.640515849
            ],
            [
              115.705560024,
              -0.64054299
            ],
            [
              115.705532397,
              -0.640562391
            ],
            [
              115.705474413,
              -0.640638453
            ],
            [
              115.705452686,
              -0.640734572
            ],
            [
              115.705483614,
              -0.640861456
            ],
            [
              115.70547865,
              -0.640887929
            ],
            [
              115.705503947,
              -0.641011155
            ],
            [
              115.70556716,
              -0.641116116
            ],
            [
              115.705594171,
              -0.641220286
            ],
            [
              115.705634823,
              -0.641303184
            ],
            [
              115.705752925,
              -0.64141701
            ],
            [
              115.705810341,
              -0.641579786
            ],
            [
              115.705808881,
              -0.641606268
            ],
            [
              115.705819339,
              -0.641670498
            ],
            [
              115.705871014,
              -0.641737048
            ],
            [
              115.705901285,
              -0.641808194
            ],
            [
              115.705920598,
              -0.641905979
            ],
            [
              115.705927855,
              -0.641942723
            ],
            [
              115.705972279,
              -0.642169788
            ],
            [
              115.706042185,
              -0.642307
            ],
            [
              115.70607873,
              -0.642451504
            ],
            [
              115.706159531,
              -0.642576395
            ],
            [
              115.70626795,
              -0.642615785
            ],
            [
              115.706301185,
              -0.64262786
            ],
            [
              115.706379891,
              -0.642708158
            ],
            [
              115.70647687,
              -0.642839922
            ],
            [
              115.706501177,
              -0.642988784
            ],
            [
              115.706533796,
              -0.643059518
            ],
            [
              115.706578049,
              -0.643088876
            ],
            [
              115.70671986,
              -0.643029688
            ],
            [
              115.706904095,
              -0.643004542
            ],
            [
              115.707112135,
              -0.643011583
            ],
            [
              115.707273654,
              -0.643076962
            ],
            [
              115.7073392,
              -0.643120967
            ],
            [
              115.707331739,
              -0.643292964
            ],
            [
              115.707278515,
              -0.643458002
            ],
            [
              115.707256742,
              -0.643538209
            ],
            [
              115.70727513,
              -0.643581429
            ],
            [
              115.707348672,
              -0.643626982
            ],
            [
              115.707437017,
              -0.643624049
            ],
            [
              115.707570624,
              -0.643651375
            ],
            [
              115.707644712,
              -0.643635427
            ],
            [
              115.707670705,
              -0.643629832
            ],
            [
              115.707843288,
              -0.643604519
            ],
            [
              115.707992736,
              -0.643531093
            ],
            [
              115.708148641,
              -0.643536374
            ],
            [
              115.708274585,
              -0.643495086
            ],
            [
              115.708344462,
              -0.643470678
            ],
            [
              115.708402964,
              -0.643440591
            ],
            [
              115.708412826,
              -0.643375934
            ],
            [
              115.708385848,
              -0.643238063
            ],
            [
              115.708390625,
              -0.643104288
            ],
            [
              115.708458034,
              -0.642990379
            ],
            [
              115.708463046,
              -0.64298191
            ],
            [
              115.708475367,
              -0.6428364
            ],
            [
              115.708492969,
              -0.642777812
            ],
            [
              115.708601933,
              -0.642759372
            ],
            [
              115.708678988,
              -0.64281514
            ],
            [
              115.708773859,
              -0.642883802
            ],
            [
              115.708819777,
              -0.642884181
            ],
            [
              115.708844255,
              -0.64284889
            ],
            [
              115.70886873,
              -0.642680499
            ],
            [
              115.708871254,
              -0.642662653
            ],
            [
              115.708880554,
              -0.642596886
            ],
            [
              115.70892645,
              -0.642503217
            ],
            [
              115.709036117,
              -0.642419568
            ],
            [
              115.709096634,
              -0.642278752
            ],
            [
              115.709136281,
              -0.64216465
            ],
            [
              115.709153631,
              -0.642145815
            ],
            [
              115.709270725,
              -0.641983374
            ],
            [
              115.709299476,
              -0.641881451
            ],
            [
              115.709319229,
              -0.641742901
            ],
            [
              115.709359075,
              -0.641708537
            ],
            [
              115.709429982,
              -0.641679615
            ],
            [
              115.709502872,
              -0.641687075
            ],
            [
              115.709539006,
              -0.641701648
            ],
            [
              115.70960214,
              -0.641707839
            ],
            [
              115.709646738,
              -0.64168741
            ],
            [
              115.70973852,
              -0.641677939
            ],
            [
              115.709830134,
              -0.641762931
            ],
            [
              115.70998151,
              -0.641780534
            ],
            [
              115.709985434,
              -0.641778993
            ],
            [
              115.71006005,
              -0.641749687
            ],
            [
              115.710189383,
              -0.641656398
            ],
            [
              115.710292564,
              -0.641585989
            ],
            [
              115.710340184,
              -0.641541688
            ],
            [
              115.710431933,
              -0.641503791
            ],
            [
              115.710476966,
              -0.641512815
            ],
            [
              115.71074921,
              -0.641502255
            ],
            [
              115.71094937,
              -0.641469229
            ],
            [
              115.711134106,
              -0.641411059
            ],
            [
              115.711349438,
              -0.641397731
            ],
            [
              115.711571475,
              -0.641347859
            ],
            [
              115.711777586,
              -0.641409467
            ],
            [
              115.71193198,
              -0.641401252
            ],
            [
              115.712138259,
              -0.641398235
            ],
            [
              115.712227693,
              -0.641450705
            ],
            [
              115.71238586,
              -0.641427655
            ],
            [
              115.712391139,
              -0.641426899
            ],
            [
              115.712463309,
              -0.641349116
            ],
            [
              115.712544614,
              -0.64125985
            ],
            [
              115.712710743,
              -0.641185921
            ],
            [
              115.712812918,
              -0.641051391
            ],
            [
              115.712955578,
              -0.640977548
            ],
            [
              115.7129912,
              -0.640896326
            ],
            [
              115.713143081,
              -0.640819884
            ],
            [
              115.713311893,
              -0.640842934
            ],
            [
              115.713511382,
              -0.640861038
            ],
            [
              115.713736101,
              -0.640847293
            ],
            [
              115.713889993,
              -0.640961454
            ],
            [
              115.713986971,
              -0.641134122
            ],
            [
              115.714107419,
              -0.641180892
            ],
            [
              115.714174724,
              -0.641221125
            ],
            [
              115.714240273,
              -0.641175862
            ],
            [
              115.714403636,
              -0.641072933
            ],
            [
              115.714448896,
              -0.640984505
            ],
            [
              115.714484457,
              -0.640977442
            ],
            [
              115.714509513,
              -0.640979851
            ],
            [
              115.714566497,
              -0.640946844
            ],
            [
              115.714670012,
              -0.640668758
            ],
            [
              115.714808648,
              -0.640565074
            ],
            [
              115.714923986,
              -0.640530112
            ],
            [
              115.714998834,
              -0.640486361
            ],
            [
              115.715032288,
              -0.640424004
            ],
            [
              115.715056114,
              -0.640379593
            ],
            [
              115.715102736,
              -0.640326047
            ],
            [
              115.715173464,
              -0.640299006
            ],
            [
              115.715263283,
              -0.640264666
            ],
            [
              115.715412146,
              -0.640212866
            ],
            [
              115.715463486,
              -0.640227199
            ],
            [
              115.715582377,
              -0.640212169
            ],
            [
              115.715651365,
              -0.640135081
            ],
            [
              115.715736221,
              -0.64008525
            ],
            [
              115.715767115,
              -0.640022566
            ],
            [
              115.715755888,
              -0.639899634
            ],
            [
              115.715765203,
              -0.63985012
            ],
            [
              115.715712973,
              -0.639813134
            ],
            [
              115.715642648,
              -0.639671898
            ],
            [
              115.715615659,
              -0.639511132
            ],
            [
              115.71561633,
              -0.639319605
            ],
            [
              115.715717581,
              -0.639202595
            ],
            [
              115.715901314,
              -0.639150459
            ],
            [
              115.715975913,
              -0.638993383
            ],
            [
              115.716017487,
              -0.638834042
            ],
            [
              115.716153945,
              -0.638696244
            ],
            [
              115.716167623,
              -0.638678184
            ],
            [
              115.716320996,
              -0.638651903
            ],
            [
              115.71640417,
              -0.638587997
            ],
            [
              115.716500939,
              -0.638562168
            ],
            [
              115.716606819,
              -0.638588957
            ],
            [
              115.716776804,
              -0.638539252
            ],
            [
              115.716906974,
              -0.638368846
            ],
            [
              115.717048314,
              -0.63828592
            ],
            [
              115.717076669,
              -0.638239397
            ],
            [
              115.71706547,
              -0.638144794
            ],
            [
              115.717090559,
              -0.638013701
            ],
            [
              115.717116664,
              -0.63797507
            ],
            [
              115.716911072,
              -0.637871524
            ],
            [
              115.716507069,
              -0.637320994
            ],
            [
              115.716507187,
              -0.636842362
            ],
            [
              115.71676879,
              -0.636435589
            ],
            [
              115.717696163,
              -0.635502486
            ],
            [
              115.718861132,
              -0.63511987
            ],
            [
              115.719170211,
              -0.635000289
            ],
            [
              115.719289124,
              -0.634808865
            ],
            [
              115.71931296,
              -0.634545622
            ],
            [
              115.719313013,
              -0.634330237
            ],
            [
              115.719313142,
              -0.633803741
            ],
            [
              115.719218217,
              -0.63313363
            ],
            [
              115.719265926,
              -0.632463554
            ],
            [
              115.719408657,
              -0.632080683
            ],
            [
              115.719717759,
              -0.631865374
            ],
            [
              115.719990163,
              -0.631623532
            ],
            [
              115.720089043,
              -0.631484251
            ],
            [
              115.720103015,
              -0.631425239
            ],
            [
              115.720026993,
              -0.631099637
            ],
            [
              115.71969425,
              -0.630788442
            ],
            [
              115.719123757,
              -0.630548984
            ],
            [
              115.718054022,
              -0.630357266
            ],
            [
              115.717578694,
              -0.629830651
            ],
            [
              115.717341075,
              -0.629375891
            ],
            [
              115.717412465,
              -0.629088728
            ],
            [
              115.717769117,
              -0.6288495
            ],
            [
              115.718577448,
              -0.628634315
            ],
            [
              115.719552168,
              -0.628514897
            ],
            [
              115.720835923,
              -0.628443418
            ],
            [
              115.72207218,
              -0.628180475
            ],
            [
              115.722547685,
              -0.627989138
            ],
            [
              115.723023278,
              -0.627438825
            ],
            [
              115.724307358,
              -0.626027168
            ],
            [
              115.724495174,
              -0.625828741
            ],
            [
              115.724798153,
              -0.625404137
            ],
            [
              115.724833857,
              -0.625212691
            ],
            [
              115.72483389,
              -0.625081067
            ],
            [
              115.724524896,
              -0.62485364
            ],
            [
              115.723740563,
              -0.624135496
            ],
            [
              115.723676497,
              -0.62410598
            ]
          ]
        ]
      }
    }
  ]
}