{
  "type": "FeatureCollection",
  "features": [
    {
      "type": "Feature",
      "properties": {
        "idx": "3414",
        "nama_kewilayahan": "Dayak Kualant Banua Montaraya Soba Kampong Sabar Bubu"
      },
      "geometry": {
        "type": "MultiPolygon",
        "coordinates": [
          [
            [
              [
                110.193606065,
                -0.684434816
              ],
              [
                110.193304733,
                -0.684259744
              ],
              [
                110.193068674,
                -0.684160045
              ],
              [
                110.192994566,
                -0.684186268
              ],
              [
                110.192762795,
                -0.684294587
              ],
              [
                110.19218032,
                -0.684889629
              ],
              [
                110.191878888,
                -0.685321297
              ],
              [
                110.191681769,
                -0.68576465
              ],
              [
                110.191519402,
                -0.686336357
              ],
              [
                110.191438169,
                -0.686919746
              ],
              [
                110.191403334,
                -0.687293118
              ],
              [
                110.191322141,
                -0.687631479
              ],
              [
                110.191055523,
                -0.687806455
              ],
              [
                110.190823725,
                -0.687701402
              ],
              [
                110.190545608,
                -0.687327976
              ],
              [
                110.190406576,
                -0.686989579
              ],
              [
                110.190279154,
                -0.686534503
              ],
              [
                110.190140117,
                -0.686219442
              ],
              [
                110.189943121,
                -0.685939374
              ],
              [
                110.189549052,
                -0.685834295
              ],
              [
                110.188191483,
                -0.685818749
              ],
              [
                110.18803983,
                -0.685713878
              ],
              [
                110.187935279,
                -0.685578829
              ],
              [
                110.187869935,
                -0.685404572
              ],
              [
                110.187904785,
                -0.685295662
              ],
              [
                110.188117986,
                -0.684902503
              ],
              [
                110.188038925,
                -0.684213592
              ],
              [
                110.187985129,
                -0.683969963
              ],
              [
                110.187760844,
                -0.683753374
              ],
              [
                110.187518597,
                -0.683663103
              ],
              [
                110.187258386,
                -0.683672082
              ],
              [
                110.187105832,
                -0.683771308
              ],
              [
                110.187057844,
                -0.683910233
              ],
              [
                110.187050807,
                -0.684086577
              ],
              [
                110.187032622,
                -0.684524126
              ],
              [
                110.187032521,
                -0.68512576
              ],
              [
                110.186905673,
                -0.685563291
              ],
              [
                110.186706401,
                -0.68589142
              ],
              [
                110.186398476,
                -0.686164837
              ],
              [
                110.186054327,
                -0.686438249
              ],
              [
                110.185728297,
                -0.6866752
              ],
              [
                110.185687448,
                -0.686972951
              ],
              [
                110.185891141,
                -0.687568562
              ],
              [
                110.186090274,
                -0.688060843
              ],
              [
                110.186091708,
                -0.688556843
              ],
              [
                110.185854697,
                -0.688881212
              ],
              [
                110.185637314,
                -0.689209339
              ],
              [
                110.185275062,
                -0.689446283
              ],
              [
                110.183934774,
                -0.690047686
              ],
              [
                110.183807963,
                -0.69026644
              ],
              [
                110.183518078,
                -0.690940948
              ],
              [
                110.182499695,
                -0.690362154
              ],
              [
                110.181839591,
                -0.689734766
              ],
              [
                110.181097899,
                -0.689047624
              ],
              [
                110.18062319,
                -0.688763775
              ],
              [
                110.180348733,
                -0.688689051
              ],
              [
                110.179955558,
                -0.688778594
              ],
              [
                110.179371,
                -0.689499956
              ],
              [
                110.179026786,
                -0.690156223
              ],
              [
                110.178573849,
                -0.691158865
              ],
              [
                110.178339737,
                -0.691876408
              ],
              [
                110.178177417,
                -0.69216808
              ],
              [
                110.177922403,
                -0.692261381
              ],
              [
                110.177609456,
                -0.69223799
              ],
              [
                110.177377669,
                -0.692074597
              ],
              [
                110.177448131,
                -0.691869834
              ],
              [
                110.177447326,
                -0.6914212
              ],
              [
                110.177296729,
                -0.690942784
              ],
              [
                110.17707657,
                -0.690557701
              ],
              [
                110.176728893,
                -0.690289276
              ],
              [
                110.176311644,
                -0.690184191
              ],
              [
                110.175929141,
                -0.690230797
              ],
              [
                110.175500301,
                -0.690125709
              ],
              [
                110.17509465,
                -0.689973954
              ],
              [
                110.174097852,
                -0.689938776
              ],
              [
                110.173750167,
                -0.689717023
              ],
              [
                110.173738669,
                -0.689180292
              ],
              [
                110.173752426,
                -0.689161406
              ],
              [
                110.173756852,
                -0.688889838
              ],
              [
                110.173836697,
                -0.688676964
              ],
              [
                110.173868745,
                -0.688652578
              ],
              [
                110.174075728,
                -0.68851736
              ],
              [
                110.174449344,
                -0.688337911
              ],
              [
                110.17454502,
                -0.688003373
              ],
              [
                110.174545277,
                -0.687972866
              ],
              [
                110.174545656,
                -0.687944196
              ],
              [
                110.174546534,
                -0.687877928
              ],
              [
                110.174535436,
                -0.68784439
              ],
              [
                110.173936013,
                -0.687430125
              ],
              [
                110.173681033,
                -0.687336737
              ],
              [
                110.173043575,
                -0.687138269
              ],
              [
                110.172742198,
                -0.687243228
              ],
              [
                110.17237127,
                -0.68738318
              ],
              [
                110.171977168,
                -0.687476455
              ],
              [
                110.171687392,
                -0.687523077
              ],
              [
                110.171309119,
                -0.68773106
              ],
              [
                110.171142669,
                -0.687277953
              ],
              [
                110.171038405,
                -0.686974567
              ],
              [
                110.170598086,
                -0.686227738
              ],
              [
                110.134062142,
                -0.625911294
              ],
              [
                110.166323003,
                -0.625301407
              ],
              [
                110.182992289,
                -0.627728475
              ],
              [
                110.200815769,
                -0.619350774
              ],
              [
                110.202260395,
                -0.619119279
              ],
              [
                110.213907091,
                -0.616977023
              ],
              [
                110.210633563,
                -0.633540564
              ],
              [
                110.209213305,
                -0.636181906
              ],
              [
                110.214595392,
                -0.641393487
              ],
              [
                110.214561086,
                -0.642044726
              ],
              [
                110.214504666,
                -0.64232102
              ],
              [
                110.214428676,
                -0.642516957
              ],
              [
                110.214300473,
                -0.642636419
              ],
              [
                110.214072571,
                -0.642755866
              ],
              [
                110.21390165,
                -0.642808411
              ],
              [
                110.213654788,
                -0.642736684
              ],
              [
                110.213388942,
                -0.642612382
              ],
              [
                110.213080376,
                -0.642440281
              ],
              [
                110.212947459,
                -0.642344674
              ],
              [
                110.212676848,
                -0.642339853
              ],
              [
                110.212529661,
                -0.642421077
              ],
              [
                110.212330242,
                -0.642554866
              ],
              [
                110.212216273,
                -0.642731682
              ],
              [
                110.212159275,
                -0.642908506
              ],
              [
                110.212154503,
                -0.64306622
              ],
              [
                110.212258926,
                -0.643223952
              ],
              [
                110.212391831,
                -0.643400806
              ],
              [
                110.212515251,
                -0.643510748
              ],
              [
                110.2126909,
                -0.643582464
              ],
              [
                110.212876046,
                -0.643639844
              ],
              [
                110.213456967,
                -0.643736659
              ],
              [
                110.213680593,
                -0.6437641
              ],
              [
                110.213826438,
                -0.643771953
              ],
              [
                110.213956727,
                -0.643766101
              ],
              [
                110.214104527,
                -0.643701523
              ],
              [
                110.214285384,
                -0.643650654
              ],
              [
                110.214460406,
                -0.643597826
              ],
              [
                110.214864916,
                -0.643392342
              ],
              [
                110.215073011,
                -0.643245555
              ],
              [
                110.215238314,
                -0.643175108
              ],
              [
                110.215349157,
                -0.64317121
              ],
              [
                110.215461941,
                -0.643188845
              ],
              [
                110.21557472,
                -0.643245633
              ],
              [
                110.215656385,
                -0.643304373
              ],
              [
                110.215712761,
                -0.643415964
              ],
              [
                110.215732194,
                -0.643507974
              ],
              [
                110.215730234,
                -0.643605854
              ],
              [
                110.215710775,
                -0.643690027
              ],
              [
                110.21563881,
                -0.643785937
              ],
              [
                110.215230745,
                -0.64429019
              ],
              [
                110.215083533,
                -0.644529131
              ],
              [
                110.214955316,
                -0.644739398
              ],
              [
                110.21483657,
                -0.645112163
              ],
              [
                110.214789051,
                -0.645394133
              ],
              [
                110.214765289,
                -0.645547065
              ],
              [
                110.214708287,
                -0.645757344
              ],
              [
                110.214556353,
                -0.64582901
              ],
              [
                110.214388028,
                -0.645808121
              ],
              [
                110.214138572,
                -0.64579071
              ],
              [
                110.213943946,
                -0.645628185
              ],
              [
                110.213811063,
                -0.645307953
              ],
              [
                110.21372564,
                -0.645092873
              ],
              [
                110.213573741,
                -0.644935134
              ],
              [
                110.213402829,
                -0.644935108
              ],
              [
                110.213241407,
                -0.644963758
              ],
              [
                110.213094224,
                -0.645016307
              ],
              [
                110.212989757,
                -0.645145331
              ],
              [
                110.212918521,
                -0.645288697
              ],
              [
                110.212923245,
                -0.645451193
              ],
              [
                110.21293271,
                -0.645642365
              ],
              [
                110.212880458,
                -0.645828749
              ],
              [
                110.212500584,
                -0.646273161
              ],
              [
                110.212362905,
                -0.64626836
              ],
              [
                110.212163513,
                -0.646220536
              ],
              [
                110.211945133,
                -0.64616793
              ],
              [
                110.211693525,
                -0.646081864
              ],
              [
                110.211337456,
                -0.646086587
              ],
              [
                110.21110957,
                -0.64610089
              ],
              [
                110.210865284,
                -0.646142289
              ],
              [
                110.210881641,
                -0.64639239
              ],
              [
                110.210948054,
                -0.646736507
              ],
              [
                110.211023975,
                -0.646999378
              ],
              [
                110.21118536,
                -0.64721447
              ],
              [
                110.211299278,
                -0.647362645
              ],
              [
                110.21141787,
                -0.647993526
              ],
              [
                110.211427335,
                -0.648189478
              ],
              [
                110.211470026,
                -0.648433227
              ],
              [
                110.211441499,
                -0.648696082
              ],
              [
                110.211379756,
                -0.648858567
              ],
              [
                110.211189835,
                -0.64897324
              ],
              [
                110.211028418,
                -0.648973214
              ],
              [
                110.210805297,
                -0.648868035
              ],
              [
                110.210610669,
                -0.648724627
              ],
              [
                110.210435007,
                -0.648734158
              ],
              [
                110.21024984,
                -0.648810597
              ],
              [
                110.210093156,
                -0.648901379
              ],
              [
                110.209974436,
                -0.64909253
              ],
              [
                110.209689496,
                -0.649642101
              ],
              [
                110.209850337,
                -0.649771558
              ],
              [
                110.210209628,
                -0.6499233
              ],
              [
                110.210459098,
                -0.65013028
              ],
              [
                110.210653548,
                -0.65020372
              ],
              [
                110.210741643,
                -0.650329142
              ],
              [
                110.210838849,
                -0.650485152
              ],
              [
                110.210857057,
                -0.650631974
              ],
              [
                110.210811454,
                -0.650800197
              ],
              [
                110.210708124,
                -0.650943941
              ],
              [
                110.210504509,
                -0.651200842
              ],
              [
                110.210343451,
                -0.651323166
              ],
              [
                110.210155057,
                -0.651387369
              ],
              [
                110.209975782,
                -0.651427105
              ],
              [
                110.209793471,
                -0.651457663
              ],
              [
                110.209571671,
                -0.651408688
              ],
              [
                110.209374181,
                -0.6513536
              ],
              [
                110.20914632,
                -0.651209804
              ],
              [
                110.208997442,
                -0.651170017
              ],
              [
                110.208687531,
                -0.651099617
              ],
              [
                110.208487007,
                -0.651007823
              ],
              [
                110.208301683,
                -0.650876269
              ],
              [
                110.208204476,
                -0.650723317
              ],
              [
                110.208049548,
                -0.650512241
              ],
              [
                110.207925,
                -0.650334815
              ],
              [
                110.207742627,
                -0.650071329
              ],
              [
                110.207416241,
                -0.65000407
              ],
              [
                110.206928601,
                -0.650104008
              ],
              [
                110.206985907,
                -0.650549135
              ],
              [
                110.207134209,
                -0.650937474
              ],
              [
                110.207482797,
                -0.651333312
              ],
              [
                110.207749782,
                -0.651759007
              ],
              [
                110.20809096,
                -0.65210257
              ],
              [
                110.208476665,
                -0.652334126
              ],
              [
                110.208884626,
                -0.652543284
              ],
              [
                110.20945579,
                -0.652730064
              ],
              [
                110.209663466,
                -0.652931722
              ],
              [
                110.209811785,
                -0.653208046
              ],
              [
                110.209752407,
                -0.65341713
              ],
              [
                110.209480215,
                -0.653569196
              ],
              [
                110.20912928,
                -0.653461836
              ],
              [
                110.208639714,
                -0.653282537
              ],
              [
                110.208075972,
                -0.653073355
              ],
              [
                110.207586429,
                -0.652744703
              ],
              [
                110.207274884,
                -0.652655043
              ],
              [
                110.206748207,
                -0.652610153
              ],
              [
                110.205876801,
                -0.65256447
              ],
              [
                110.205754148,
                -0.652834023
              ],
              [
                110.205657656,
                -0.653192452
              ],
              [
                110.205709539,
                -0.653468761
              ],
              [
                110.205909794,
                -0.653685353
              ],
              [
                110.205924607,
                -0.653834707
              ],
              [
                110.206102608,
                -0.654043828
              ],
              [
                110.20612809,
                -0.654672328
              ],
              [
                110.206265618,
                -0.655238668
              ],
              [
                110.206332331,
                -0.655552317
              ],
              [
                110.206628993,
                -0.655948147
              ],
              [
                110.206895996,
                -0.656254361
              ],
              [
                110.207081402,
                -0.656545626
              ],
              [
                110.207088774,
                -0.656836864
              ],
              [
                110.206903288,
                -0.657053395
              ],
              [
                110.206695563,
                -0.657172842
              ],
              [
                110.206472996,
                -0.657322159
              ],
              [
                110.20625043,
                -0.657464007
              ],
              [
                110.206109474,
                -0.657546128
              ],
              [
                110.20602042,
                -0.657777609
              ],
              [
                110.205968406,
                -0.658330203
              ],
              [
                110.206176079,
                -0.658546796
              ],
              [
                110.206368944,
                -0.658576697
              ],
              [
                110.20662114,
                -0.658696219
              ],
              [
                110.20682139,
                -0.658942681
              ],
              [
                110.206717512,
                -0.659099485
              ],
              [
                110.206532057,
                -0.65911439
              ],
              [
                110.206279846,
                -0.659084479
              ],
              [
                110.206101822,
                -0.65902471
              ],
              [
                110.205923791,
                -0.659002278
              ],
              [
                110.205760583,
                -0.659069461
              ],
              [
                110.205634457,
                -0.659181454
              ],
              [
                110.205448939,
                -0.659599609
              ],
              [
                110.205390385,
                -0.659828673
              ],
              [
                110.205211492,
                -0.660025224
              ],
              [
                110.205063092,
                -0.660264163
              ],
              [
                110.20483311,
                -0.660391075
              ],
              [
                110.204573476,
                -0.6603985
              ],
              [
                110.204306443,
                -0.660286443
              ],
              [
                110.204158119,
                -0.660047457
              ],
              [
                110.204069145,
                -0.659771141
              ],
              [
                110.204002428,
                -0.659487363
              ],
              [
                110.203928292,
                -0.659203582
              ],
              [
                110.203861553,
                -0.659054221
              ],
              [
                110.20365385,
                -0.659031784
              ],
              [
                110.203423888,
                -0.659039215
              ],
              [
                110.203268095,
                -0.659121333
              ],
              [
                110.203208735,
                -0.659218402
              ],
              [
                110.203134857,
                -0.659357896
              ],
              [
                110.203245751,
                -0.659681399
              ],
              [
                110.203349568,
                -0.65991291
              ],
              [
                110.203364363,
                -0.660174278
              ],
              [
                110.20334949,
                -0.66040577
              ],
              [
                110.203438941,
                -0.660586874
              ],
              [
                110.203462059,
                -0.660983593
              ],
              [
                110.203462011,
                -0.661286963
              ],
              [
                110.203485138,
                -0.66163701
              ],
              [
                110.203589402,
                -0.661963734
              ],
              [
                110.203797972,
                -0.662360483
              ],
              [
                110.204110864,
                -0.662733913
              ],
              [
                110.204690329,
                -0.663200731
              ],
              [
                110.20493369,
                -0.663480805
              ],
              [
                110.204958657,
                -0.663915796
              ],
              [
                110.204928944,
                -0.664169689
              ],
              [
                110.204572854,
                -0.664296581
              ],
              [
                110.204365162,
                -0.664206936
              ],
              [
                110.204187143,
                -0.664109828
              ],
              [
                110.203690132,
                -0.66410228
              ],
              [
                110.203512105,
                -0.664057445
              ],
              [
                110.203274701,
                -0.664206759
              ],
              [
                110.203118892,
                -0.664393423
              ],
              [
                110.203133684,
                -0.664662258
              ],
              [
                110.203163311,
                -0.664946031
              ],
              [
                110.20330423,
                -0.665102874
              ],
              [
                110.203363555,
                -0.665229832
              ],
              [
                110.203400601,
                -0.665506139
              ],
              [
                110.203274437,
                -0.665857095
              ],
              [
                110.202844161,
                -0.666013844
              ],
              [
                110.202480672,
                -0.66602872
              ],
              [
                110.202183966,
                -0.665924126
              ],
              [
                110.201954001,
                -0.665946491
              ],
              [
                110.201709189,
                -0.666036062
              ],
              [
                110.201516288,
                -0.66622272
              ],
              [
                110.201634956,
                -0.666357156
              ],
              [
                110.201827798,
                -0.666536409
              ],
              [
                110.202042906,
                -0.666640991
              ],
              [
                110.202309936,
                -0.66677545
              ],
              [
                110.202517621,
                -0.666909901
              ],
              [
                110.202680813,
                -0.666947265
              ],
              [
                110.202933035,
                -0.666909968
              ],
              [
                110.203378124,
                -0.666895106
              ],
              [
                110.203763874,
                -0.666835428
              ],
              [
                110.204045745,
                -0.66694002
              ],
              [
                110.204297945,
                -0.66703714
              ],
              [
                110.204639149,
                -0.667216418
              ],
              [
                110.204928444,
                -0.667291141
              ],
              [
                110.205128691,
                -0.667552539
              ],
              [
                110.205736857,
                -0.668284461
              ],
              [
                110.205825842,
                -0.668486101
              ],
              [
                110.205860095,
                -0.668836616
              ],
              [
                110.20572097,
                -0.669058287
              ],
              [
                110.205257319,
                -0.669174893
              ],
              [
                110.204909584,
                -0.669244845
              ],
              [
                110.204527059,
                -0.669419804
              ],
              [
                110.204144499,
                -0.669816457
              ],
              [
                110.204167587,
                -0.670399866
              ],
              [
                110.20380821,
                -0.670784855
              ],
              [
                110.203414094,
                -0.670959811
              ],
              [
                110.203182194,
                -0.671484837
              ],
              [
                110.203008271,
                -0.671858188
              ],
              [
                110.202799597,
                -0.672103184
              ],
              [
                110.202498235,
                -0.672114803
              ],
              [
                110.202057813,
                -0.671939709
              ],
              [
                110.201883997,
                -0.671659646
              ],
              [
                110.201617473,
                -0.671262887
              ],
              [
                110.201327739,
                -0.671041145
              ],
              [
                110.201014804,
                -0.670936081
              ],
              [
                110.200609119,
                -0.670982687
              ],
              [
                110.200365709,
                -0.671005983
              ],
              [
                110.200214992,
                -0.671227652
              ],
              [
                110.200064244,
                -0.671647678
              ],
              [
                110.200064204,
                -0.671892708
              ],
              [
                110.200226439,
                -0.672114429
              ],
              [
                110.200226397,
                -0.672371127
              ],
              [
                110.200458174,
                -0.672616195
              ],
              [
                110.20060881,
                -0.672884586
              ],
              [
                110.200678321,
                -0.673094623
              ],
              [
                110.200492815,
                -0.673421299
              ],
              [
                110.200353712,
                -0.673502952
              ],
              [
                110.200029185,
                -0.673409554
              ],
              [
                110.199727813,
                -0.673479513
              ],
              [
                110.199391661,
                -0.673596138
              ],
              [
                110.199043911,
                -0.673759434
              ],
              [
                110.19876569,
                -0.674016086
              ],
              [
                110.198580193,
                -0.674284421
              ],
              [
                110.198359942,
                -0.674447738
              ],
              [
                110.197989037,
                -0.674447676
              ],
              [
                110.197745626,
                -0.674470972
              ],
              [
                110.19754857,
                -0.674552616
              ],
              [
                110.197374686,
                -0.674680935
              ],
              [
                110.19722397,
                -0.674902604
              ],
              [
                110.197096403,
                -0.675322634
              ],
              [
                110.197073164,
                -0.675672673
              ],
              [
                110.197230284,
                -0.676157653
              ],
              [
                110.19737531,
                -0.676527293
              ],
              [
                110.19750137,
                -0.676826017
              ],
              [
                110.197545823,
                -0.677162065
              ],
              [
                110.197560624,
                -0.677378628
              ],
              [
                110.197315762,
                -0.677766901
              ],
              [
                110.197041238,
                -0.678095427
              ],
              [
                110.196699964,
                -0.678341801
              ],
              [
                110.19673697,
                -0.67885707
              ],
              [
                110.196778208,
                -0.679168498
              ],
              [
                110.196937108,
                -0.679768147
              ],
              [
                110.19688515,
                -0.679954827
              ],
              [
                110.19673676,
                -0.680126556
              ],
              [
                110.196514187,
                -0.680305741
              ],
              [
                110.196239688,
                -0.680477449
              ],
              [
                110.196180316,
                -0.680641725
              ],
              [
                110.196135776,
                -0.680835875
              ],
              [
                110.196083803,
                -0.681112167
              ],
              [
                110.196017009,
                -0.681298844
              ],
              [
                110.196009551,
                -0.681537805
              ],
              [
                110.196061451,
                -0.681702101
              ],
              [
                110.196187531,
                -0.681866408
              ],
              [
                110.196194914,
                -0.682082969
              ],
              [
                110.196180054,
                -0.682224851
              ],
              [
                110.196061351,
                -0.682306974
              ],
              [
                110.195914981,
                -0.682334595
              ],
              [
                110.195638544,
                -0.682150083
              ],
              [
                110.195445708,
                -0.68194096
              ],
              [
                110.195089674,
                -0.681731807
              ],
              [
                110.194763314,
                -0.681507726
              ],
              [
                110.194466642,
                -0.681194038
              ],
              [
                110.19438508,
                -0.680969997
              ],
              [
                110.194446729,
                -0.680745072
              ],
              [
                110.194704136,
                -0.680499594
              ],
              [
                110.194971213,
                -0.680350287
              ],
              [
                110.195290224,
                -0.680156184
              ],
              [
                110.19532064,
                -0.680043715
              ],
              [
                110.195260597,
                -0.679879879
              ],
              [
                110.195104824,
                -0.679835048
              ],
              [
                110.194904547,
                -0.679760338
              ],
              [
                110.194622648,
                -0.679827499
              ],
              [
                110.194236882,
                -0.679976786
              ],
              [
                110.193992065,
                -0.680096225
              ],
              [
                110.193517273,
                -0.68029777
              ],
              [
                110.19327987,
                -0.680439613
              ],
              [
                110.193064715,
                -0.680618799
              ],
              [
                110.192990512,
                -0.680753202
              ],
              [
                110.192997898,
                -0.680947361
              ],
              [
                110.193005282,
                -0.681148986
              ],
              [
                110.193086847,
                -0.681350624
              ],
              [
                110.193279675,
                -0.681612021
              ],
              [
                110.193465103,
                -0.681761404
              ],
              [
                110.193524407,
                -0.682007843
              ],
              [
                110.193546613,
                -0.682291614
              ],
              [
                110.19353915,
                -0.682560446
              ],
              [
                110.193524272,
                -0.682814341
              ],
              [
                110.193531659,
                -0.683001031
              ],
              [
                110.193568707,
                -0.683254935
              ],
              [
                110.193628034,
                -0.68335949
              ],
              [
                110.194577491,
                -0.683733029
              ],
              [
                110.194869532,
                -0.684014979
              ],
              [
                110.195066521,
                -0.684341719
              ],
              [
                110.195222611,
                -0.6847951
              ],
              [
                110.195008462,
                -0.684971785
              ],
              [
                110.194707233,
                -0.685076721
              ],
              [
                110.194391406,
                -0.685021405
              ],
              [
                110.194000091,
                -0.684796593
              ],
              [
                110.193606065,
                -0.684434816
              ]
            ]
          ]
        ]
      }
    }
  ]
}