{
  "type": "FeatureCollection",
  "features": [
    {
      "type": "Feature",
      "properties": {
        "idx": "351",
        "nama_kewilayahan": "Dusun Ensawak"
      },
      "geometry": {
        "type": "Polygon",
        "coordinates": [
          [
            [
              111.108983171,
              -0.105665481
            ],
            [
              111.10709872,
              -0.103997084
            ],
            [
              111.103908399,
              -0.099225274
            ],
            [
              111.098187208,
              -0.1014699
            ],
            [
              111.098003401,
              -0.101542013
            ],
            [
              111.091511797,
              -0.104088899
            ],
            [
              111.085227025,
              -0.105862874
            ],
            [
              111.085495796,
              -0.106291294
            ],
            [
              111.087940899,
              -0.110774851
            ],
            [
              111.088048054,
              -0.110971342
            ],
            [
              111.080664784,
              -0.115926718
            ],
            [
              111.077474483,
              -0.118771467
            ],
            [
              111.078841767,
              -0.1218915
            ],
            [
              111.07665413,
              -0.123267994
            ],
            [
              111.076380679,
              -0.124460949
            ],
            [
              111.07583378,
              -0.128406882
            ],
            [
              111.074922268,
              -0.130425733
            ],
            [
              111.077930283,
              -0.132811635
            ],
            [
              111.078386047,
              -0.134463418
            ],
            [
              111.079297573,
              -0.13721639
            ],
            [
              111.081029463,
              -0.138959935
            ],
            [
              111.085131297,
              -0.140519936
            ],
            [
              111.088139309,
              -0.141621116
            ],
            [
              111.092332292,
              -0.14226346
            ],
            [
              111.100080501,
              -0.144104514
            ],
            [
              111.100212424,
              -0.143971701
            ],
            [
              111.101477394,
              -0.142248727
            ],
            [
              111.104304984,
              -0.141274863
            ],
            [
              111.105644377,
              -0.142548355
            ],
            [
              111.10683493,
              -0.139626795
            ],
            [
              111.102667941,
              -0.137828933
            ],
            [
              111.10155177,
              -0.134383003
            ],
            [
              111.110578493,
              -0.127839919
            ],
            [
              111.110838336,
              -0.127651571
            ],
            [
              111.110954235,
              -0.127666626
            ],
            [
              111.111895412,
              -0.127559642
            ],
            [
              111.112000095,
              -0.12740635
            ],
            [
              111.112034504,
              -0.127395411
            ],
            [
              111.117624368,
              -0.125618273
            ],
            [
              111.119931084,
              -0.124944056
            ],
            [
              111.119980185,
              -0.124810589
            ],
            [
              111.117327252,
              -0.121765897
            ],
            [
              111.115936554,
              -0.115142643
            ],
            [
              111.112846896,
              -0.114412166
            ],
            [
              111.11010673,
              -0.106658278
            ],
            [
              111.108983171,
              -0.105665481
            ]
          ]
        ]
      }
    }
  ]
}