{
  "type": "FeatureCollection",
  "features": [
    {
      "type": "Feature",
      "properties": {
        "idx": "369",
        "nama_kewilayahan": "Vaenumpu"
      },
      "geometry": {
        "type": "Polygon",
        "coordinates": [
          [
            [
              119.827375412,
              -0.910247803
            ],
            [
              119.828271865,
              -0.909805298
            ],
            [
              119.831148148,
              -0.908271789
            ],
            [
              119.832563401,
              -0.905708313
            ],
            [
              119.834466934,
              -0.904726028
            ],
            [
              119.834676742,
              -0.902200699
            ],
            [
              119.833154679,
              -0.898881913
            ],
            [
              119.831415177,
              -0.898483276
            ],
            [
              119.830419541,
              -0.896549225
            ],
            [
              119.830007553,
              -0.89481163
            ],
            [
              119.829248428,
              -0.892875673
            ],
            [
              119.828565597,
              -0.890861511
            ],
            [
              119.82753563,
              -0.888885497
            ],
            [
              119.827077865,
              -0.887779236
            ],
            [
              119.826749801,
              -0.884937286
            ],
            [
              119.825605392,
              -0.882961274
            ],
            [
              119.825372696,
              -0.882923127
            ],
            [
              119.822668076,
              -0.88228607
            ],
            [
              119.821355821,
              -0.881610871
            ],
            [
              119.820775985,
              -0.881294251
            ],
            [
              119.819768906,
              -0.881528854
            ],
            [
              119.816553115,
              -0.88203621
            ],
            [
              119.812288284,
              -0.882619857
            ],
            [
              119.810697555,
              -0.882854462
            ],
            [
              119.808526992,
              -0.883638381
            ],
            [
              119.805738449,
              -0.883436203
            ],
            [
              119.802743912,
              -0.885442732
            ],
            [
              119.80219841,
              -0.886112213
            ],
            [
              119.800100326,
              -0.887016296
            ],
            [
              119.798547745,
              -0.88776207
            ],
            [
              119.795129775,
              -0.888822556
            ],
            [
              119.794038772,
              -0.890003204
            ],
            [
              119.792051316,
              -0.892011642
            ],
            [
              119.790342332,
              -0.892482758
            ],
            [
              119.788988113,
              -0.892637253
            ],
            [
              119.787473678,
              -0.892911912
            ],
            [
              119.785078049,
              -0.892551422
            ],
            [
              119.78260231,
              -0.892349243
            ],
            [
              119.781709671,
              -0.892425537
            ],
            [
              119.779729843,
              -0.892934799
            ],
            [
              119.779108047,
              -0.89340782
            ],
            [
              119.778173446,
              -0.894235611
            ],
            [
              119.777116775,
              -0.895652772
            ],
            [
              119.775987624,
              -0.896677018
            ],
            [
              119.774656295,
              -0.898647309
            ],
            [
              119.773561478,
              -0.900224686
            ],
            [
              119.772546768,
              -0.901090622
            ],
            [
              119.770383835,
              -0.90602112
            ],
            [
              119.76938057,
              -0.910795212
            ],
            [
              119.770437241,
              -0.91332817
            ],
            [
              119.771287918,
              -0.914024352
            ],
            [
              119.772539139,
              -0.915176391
            ],
            [
              119.77366066,
              -0.916044235
            ],
            [
              119.775411607,
              -0.917150498
            ],
            [
              119.775758744,
              -0.917629241
            ],
            [
              119.776491165,
              -0.918518066
            ],
            [
              119.77669716,
              -0.919706345
            ],
            [
              119.776731491,
              -0.919887543
            ],
            [
              119.777097703,
              -0.921451568
            ],
            [
              119.77775383,
              -0.922983169
            ],
            [
              119.777750016,
              -0.922847748
            ],
            [
              119.777723312,
              -0.922361374
            ],
            [
              119.777814865,
              -0.921506881
            ],
            [
              119.778017043,
              -0.920736312
            ],
            [
              119.779039382,
              -0.920221329
            ],
            [
              119.779737473,
              -0.919881821
            ],
            [
              119.780099868,
              -0.919610978
            ],
            [
              119.780530929,
              -0.919136048
            ],
            [
              119.78084755,
              -0.918787003
            ],
            [
              119.781904221,
              -0.918634415
            ],
            [
              119.783338546,
              -0.918439865
            ],
            [
              119.788293839,
              -0.918685913
            ],
            [
              119.790243149,
              -0.916461944
            ],
            [
              119.790941238,
              -0.916175843
            ],
            [
              119.791624068,
              -0.915838242
            ],
            [
              119.791799545,
              -0.915716171
            ],
            [
              119.792364121,
              -0.914957046
            ],
            [
              119.792753219,
              -0.914293289
            ],
            [
              119.793157577,
              -0.913818359
            ],
            [
              119.793497085,
              -0.9134655
            ],
            [
              119.794351578,
              -0.912937165
            ],
            [
              119.794542313,
              -0.912870407
            ],
            [
              119.795484542,
              -0.912775039
            ],
            [
              119.796251297,
              -0.9128685
            ],
            [
              119.797071457,
              -0.91331482
            ],
            [
              119.797677995,
              -0.913747788
            ],
            [
              119.798254013,
              -0.914207459
            ],
            [
              119.798700333,
              -0.914531708
            ],
            [
              119.799089431,
              -0.914720536
            ],
            [
              119.799386978,
              -0.914815905
            ],
            [
              119.799951554,
              -0.914773941
            ],
            [
              119.800611496,
              -0.914611817
            ],
            [
              119.80125618,
              -0.914299011
            ],
            [
              119.801698684,
              -0.913852692
            ],
            [
              119.802236557,
              -0.913284302
            ],
            [
              119.802843093,
              -0.912633894
            ],
            [
              119.803163528,
              -0.912254333
            ],
            [
              119.803449631,
              -0.91209221
            ],
            [
              119.806150437,
              -0.911972046
            ],
            [
              119.810567856,
              -0.911664963
            ],
            [
              119.813199997,
              -0.911512375
            ],
            [
              119.814184189,
              -0.9110775
            ],
            [
              119.814931869,
              -0.911336899
            ],
            [
              119.815603256,
              -0.911418915
            ],
            [
              119.816507339,
              -0.911403656
            ],
            [
              119.817274094,
              -0.911254883
            ],
            [
              119.817770005,
              -0.911199569
            ],
            [
              119.818494797,
              -0.911144256
            ],
            [
              119.819372178,
              -0.911144256
            ],
            [
              119.820001603,
              -0.911144256
            ],
            [
              119.820623398,
              -0.911128999
            ],
            [
              119.821241379,
              -0.91117096
            ],
            [
              119.821928025,
              -0.911006927
            ],
            [
              119.822774886,
              -0.91092491
            ],
            [
              119.823350907,
              -0.910869597
            ],
            [
              119.824010849,
              -0.910842896
            ],
            [
              119.824468613,
              -0.910896302
            ],
            [
              119.824911117,
              -0.910814285
            ],
            [
              119.825555802,
              -0.910692215
            ],
            [
              119.82600975,
              -0.910596847
            ],
            [
              119.826524735,
              -0.910669329
            ],
            [
              119.827375412,
              -0.910247803
            ]
          ]
        ]
      }
    }
  ]
}