{
  "type": "FeatureCollection",
  "features": [
    {
      "type": "Feature",
      "properties": {
        "idx": "394",
        "nama_kewilayahan": "Dayak Kebahan Kampung Melaban Pedini"
      },
      "geometry": {
        "type": "Polygon",
        "coordinates": [
          [
            [
              112.421398391,
              -0.045934473
            ],
            [
              112.421231038,
              -0.045833389
            ],
            [
              112.420272041,
              -0.045893749
            ],
            [
              112.418773609,
              -0.046074804
            ],
            [
              112.418054363,
              -0.046195501
            ],
            [
              112.417395061,
              -0.046678245
            ],
            [
              112.416496017,
              -0.047583385
            ],
            [
              112.415656916,
              -0.048729889
            ],
            [
              112.414398257,
              -0.049997084
            ],
            [
              112.41397871,
              -0.05072119
            ],
            [
              112.412600162,
              -0.051505661
            ],
            [
              112.411701114,
              -0.052169439
            ],
            [
              112.410442444,
              -0.053014248
            ],
            [
              112.409843082,
              -0.053678018
            ],
            [
              112.408884125,
              -0.055608971
            ],
            [
              112.408224832,
              -0.056514111
            ],
            [
              112.407265869,
              -0.058143358
            ],
            [
              112.406306915,
              -0.060134657
            ],
            [
              112.405108192,
              -0.061341522
            ],
            [
              112.403429972,
              -0.062850109
            ],
            [
              112.401512004,
              -0.064419048
            ],
            [
              112.399474165,
              -0.066169017
            ],
            [
              112.398215496,
              -0.067194864
            ],
            [
              112.396417383,
              -0.068100044
            ],
            [
              112.394799085,
              -0.069065562
            ],
            [
              112.392821208,
              -0.07172067
            ],
            [
              112.392161934,
              -0.073229241
            ],
            [
              112.391742401,
              -0.074315409
            ],
            [
              112.391442742,
              -0.075341234
            ],
            [
              112.391262967,
              -0.07654808
            ],
            [
              112.390244101,
              -0.07908248
            ],
            [
              112.389464958,
              -0.080651402
            ],
            [
              112.388925533,
              -0.081194498
            ],
            [
              112.388801977,
              -0.083156565
            ],
            [
              112.388450815,
              -0.084217277
            ],
            [
              112.390558084,
              -0.086102891
            ],
            [
              112.391611702,
              -0.086574275
            ],
            [
              112.391377638,
              -0.088459973
            ],
            [
              112.390558238,
              -0.090227838
            ],
            [
              112.389270606,
              -0.092938567
            ],
            [
              112.388099989,
              -0.094235025
            ],
            [
              112.386226969,
              -0.095531515
            ],
            [
              112.381661443,
              -0.097770963
            ],
            [
              112.379203092,
              -0.099303197
            ],
            [
              112.378312318,
              -0.100289734
            ],
            [
              112.378032473,
              -0.100599664
            ],
            [
              112.37697891,
              -0.101660415
            ],
            [
              112.376744862,
              -0.103663981
            ],
            [
              112.376320299,
              -0.104625797
            ],
            [
              112.376276637,
              -0.104724708
            ],
            [
              112.374286536,
              -0.105785505
            ],
            [
              112.373232947,
              -0.106256978
            ],
            [
              112.372179384,
              -0.107317734
            ],
            [
              112.371008733,
              -0.107907068
            ],
            [
              112.370263114,
              -0.108563942
            ],
            [
              112.370072227,
              -0.108732106
            ],
            [
              112.368433374,
              -0.110853603
            ],
            [
              112.368452145,
              -0.111099133
            ],
            [
              112.368550512,
              -0.112385734
            ],
            [
              112.368433555,
              -0.114742872
            ],
            [
              112.368550736,
              -0.117100002
            ],
            [
              112.368902179,
              -0.121932107
            ],
            [
              112.36948761,
              -0.123699927
            ],
            [
              112.370073009,
              -0.124878461
            ],
            [
              112.370683418,
              -0.125124234
            ],
            [
              112.372414415,
              -0.12582119
            ],
            [
              112.374053408,
              -0.126646099
            ],
            [
              112.375458302,
              -0.128178157
            ],
            [
              112.375575432,
              -0.129356714
            ],
            [
              112.374404826,
              -0.130653199
            ],
            [
              112.373117197,
              -0.132774684
            ],
            [
              112.371595466,
              -0.135485469
            ],
            [
              112.369605384,
              -0.136782006
            ],
            [
              112.367849376,
              -0.13701782
            ],
            [
              112.366561688,
              -0.138078606
            ],
            [
              112.365742284,
              -0.139375078
            ],
            [
              112.365274122,
              -0.141260814
            ],
            [
              112.365625403,
              -0.142557219
            ],
            [
              112.365625472,
              -0.143735787
            ],
            [
              112.365825464,
              -0.144675093
            ],
            [
              112.365976776,
              -0.145385762
            ],
            [
              112.365742696,
              -0.14632863
            ],
            [
              112.364103812,
              -0.147507298
            ],
            [
              112.362581988,
              -0.148568104
            ],
            [
              112.361411368,
              -0.149628892
            ],
            [
              112.362113889,
              -0.151396703
            ],
            [
              112.361294491,
              -0.152693181
            ],
            [
              112.361177422,
              -0.152693189
            ],
            [
              112.361528733,
              -0.154343166
            ],
            [
              112.361294731,
              -0.156464607
            ],
            [
              112.36199728,
              -0.158585986
            ],
            [
              112.362348546,
              -0.159528821
            ],
            [
              112.36281697,
              -0.161768071
            ],
            [
              112.363636543,
              -0.163182299
            ],
            [
              112.363834244,
              -0.164922777
            ],
            [
              112.364477529,
              -0.165066645
            ],
            [
              112.364947526,
              -0.166743773
            ],
            [
              112.364914246,
              -0.16720489
            ],
            [
              112.364864609,
              -0.167892654
            ],
            [
              112.364776824,
              -0.169109012
            ],
            [
              112.363239149,
              -0.170786282
            ],
            [
              112.362641211,
              -0.172076449
            ],
            [
              112.362384447,
              -0.172717642
            ],
            [
              112.361787034,
              -0.174209518
            ],
            [
              112.360898596,
              -0.175138472
            ],
            [
              112.36083029,
              -0.17568893
            ],
            [
              112.360578645,
              -0.176320632
            ],
            [
              112.359693171,
              -0.17854342
            ],
            [
              112.359482243,
              -0.178968193
            ],
            [
              112.359469217,
              -0.178994427
            ],
            [
              112.359025825,
              -0.179887351
            ],
            [
              112.358625482,
              -0.181567233
            ],
            [
              112.358625567,
              -0.182709531
            ],
            [
              112.358959412,
              -0.184322166
            ],
            [
              112.360027526,
              -0.186942653
            ],
            [
              112.363565201,
              -0.189697328
            ],
            [
              112.364366293,
              -0.191713082
            ],
            [
              112.364900325,
              -0.192653754
            ],
            [
              112.365434356,
              -0.193594427
            ],
            [
              112.365701415,
              -0.194602312
            ],
            [
              112.365701469,
              -0.195274253
            ],
            [
              112.365968576,
              -0.196886885
            ],
            [
              112.365968649,
              -0.197760404
            ],
            [
              112.369239398,
              -0.20105263
            ],
            [
              112.37001266,
              -0.200888673
            ],
            [
              112.370507519,
              -0.200783747
            ],
            [
              112.371575344,
              -0.199775751
            ],
            [
              112.373644207,
              -0.197222216
            ],
            [
              112.3747787,
              -0.195273506
            ],
            [
              112.376647379,
              -0.193324741
            ],
            [
              112.378048914,
              -0.192182335
            ],
            [
              112.380184672,
              -0.191510226
            ],
            [
              112.382053471,
              -0.191106914
            ],
            [
              112.3845897,
              -0.190569162
            ],
            [
              112.385991392,
              -0.19144256
            ],
            [
              112.389328671,
              -0.19251738
            ],
            [
              112.393266519,
              -0.192113898
            ],
            [
              112.394334407,
              -0.191979425
            ],
            [
              112.397471405,
              -0.192583904
            ],
            [
              112.399607214,
              -0.192785305
            ],
            [
              112.403077869,
              -0.192717825
            ],
            [
              112.404707742,
              -0.191796084
            ],
            [
              112.405939455,
              -0.191415515
            ],
            [
              112.406073304,
              -0.19127653
            ],
            [
              112.402150979,
              -0.188588004
            ],
            [
              112.399717204,
              -0.181957838
            ],
            [
              112.401339089,
              -0.17823426
            ],
            [
              112.399651832,
              -0.175556114
            ],
            [
              112.398223959,
              -0.170591609
            ],
            [
              112.398136109,
              -0.170083293
            ],
            [
              112.398124808,
              -0.1700179
            ],
            [
              112.398094132,
              -0.169840395
            ],
            [
              112.398061575,
              -0.168272626
            ],
            [
              112.397315268,
              -0.16673757
            ],
            [
              112.396261492,
              -0.165401062
            ],
            [
              112.395692954,
              -0.164679984
            ],
            [
              112.394395108,
              -0.163112301
            ],
            [
              112.393647177,
              -0.162625159
            ],
            [
              112.392740417,
              -0.162034571
            ],
            [
              112.391604874,
              -0.161708028
            ],
            [
              112.390858641,
              -0.16121815
            ],
            [
              112.390599051,
              -0.16059759
            ],
            [
              112.390793678,
              -0.160107645
            ],
            [
              112.390663868,
              -0.159585063
            ],
            [
              112.389722945,
              -0.158637928
            ],
            [
              112.389281451,
              -0.158326846
            ],
            [
              112.389074043,
              -0.158180703
            ],
            [
              112.388504376,
              -0.157885309
            ],
            [
              112.387531265,
              -0.155730425
            ],
            [
              112.387410528,
              -0.154576421
            ],
            [
              112.387621928,
              -0.154089879
            ],
            [
              112.388311282,
              -0.15298749
            ],
            [
              112.38908176,
              -0.15213006
            ],
            [
              112.389081734,
              -0.151721785
            ],
            [
              112.388554481,
              -0.150986923
            ],
            [
              112.388094688,
              -0.150524093
            ],
            [
              112.387824455,
              -0.150252072
            ],
            [
              112.387581103,
              -0.149843813
            ],
            [
              112.387581082,
              -0.149517193
            ],
            [
              112.388148771,
              -0.148373986
            ],
            [
              112.388716496,
              -0.147761536
            ],
            [
              112.389486986,
              -0.147067419
            ],
            [
              112.389933031,
              -0.146210014
            ],
            [
              112.390848855,
              -0.145933353
            ],
            [
              112.391177577,
              -0.145395507
            ],
            [
              112.391582703,
              -0.143899674
            ],
            [
              112.392528146,
              -0.142811756
            ],
            [
              112.393906824,
              -0.137357681
            ],
            [
              112.394418723,
              -0.135332611
            ],
            [
              112.395094008,
              -0.133972749
            ],
            [
              112.396779645,
              -0.132475231
            ],
            [
              112.396809313,
              -0.132448874
            ],
            [
              112.397390123,
              -0.131932883
            ],
            [
              112.398605673,
              -0.130165047
            ],
            [
              112.399956321,
              -0.128805151
            ],
            [
              112.401171873,
              -0.127037318
            ],
            [
              112.401137512,
              -0.126829827
            ],
            [
              112.401773723,
              -0.126367192
            ],
            [
              112.40230088,
              -0.125509789
            ],
            [
              112.403436364,
              -0.124938147
            ],
            [
              112.405707333,
              -0.123835689
            ],
            [
              112.407653894,
              -0.123223176
            ],
            [
              112.410168188,
              -0.122202361
            ],
            [
              112.411100883,
              -0.121304116
            ],
            [
              112.412033604,
              -0.120936622
            ],
            [
              112.4130069,
              -0.120977398
            ],
            [
              112.414142399,
              -0.120773204
            ],
            [
              112.415318461,
              -0.120773142
            ],
            [
              112.41852221,
              -0.12069132
            ],
            [
              112.421239277,
              -0.119997118
            ],
            [
              112.421847553,
              -0.119384682
            ],
            [
              112.424077947,
              -0.118200584
            ],
            [
              112.425010643,
              -0.117424825
            ],
            [
              112.427687119,
              -0.116118227
            ],
            [
              112.428538697,
              -0.115179165
            ],
            [
              112.428944207,
              -0.114648397
            ],
            [
              112.428903525,
              -0.112035482
            ],
            [
              112.427484079,
              -0.110565784
            ],
            [
              112.426672956,
              -0.109504324
            ],
            [
              112.426064567,
              -0.107748797
            ],
            [
              112.425174847,
              -0.106108107
            ],
            [
              112.425174791,
              -0.104896057
            ],
            [
              112.424731079,
              -0.101387513
            ],
            [
              112.4249211,
              -0.099665121
            ],
            [
              112.424467423,
              -0.097512396
            ],
            [
              112.424774134,
              -0.097018304
            ],
            [
              112.424774079,
              -0.095658497
            ],
            [
              112.423929777,
              -0.092938921
            ],
            [
              112.423254323,
              -0.090389309
            ],
            [
              112.42342307,
              -0.088009642
            ],
            [
              112.422916473,
              -0.085799974
            ],
            [
              112.421734513,
              -0.083250379
            ],
            [
              112.421734476,
              -0.082230524
            ],
            [
              112.420552549,
              -0.080530804
            ],
            [
              112.419370565,
              -0.077131324
            ],
            [
              112.419539299,
              -0.073901772
            ],
            [
              112.420889937,
              -0.07169204
            ],
            [
              112.421058712,
              -0.069652322
            ],
            [
              112.420889825,
              -0.067952566
            ],
            [
              112.420552098,
              -0.066252817
            ],
            [
              112.422578048,
              -0.062343312
            ],
            [
              112.423084519,
              -0.06064354
            ],
            [
              112.424435219,
              -0.060473529
            ],
            [
              112.426798939,
              -0.060133515
            ],
            [
              112.428149599,
              -0.058433724
            ],
            [
              112.429669107,
              -0.057243857
            ],
            [
              112.430648783,
              -0.055693909
            ],
            [
              112.431262331,
              -0.055113633
            ],
            [
              112.432719995,
              -0.054881888
            ],
            [
              112.433640616,
              -0.054457066
            ],
            [
              112.434264558,
              -0.054085288
            ],
            [
              112.433997825,
              -0.053737794
            ],
            [
              112.433338491,
              -0.052591331
            ],
            [
              112.432799042,
              -0.051867254
            ],
            [
              112.432139724,
              -0.051444881
            ],
            [
              112.430221729,
              -0.051022537
            ],
            [
              112.429562414,
              -0.050720847
            ],
            [
              112.429202779,
              -0.050177785
            ],
            [
              112.429502439,
              -0.049031299
            ],
            [
              112.429502419,
              -0.048065841
            ],
            [
              112.428903044,
              -0.047824489
            ],
            [
              112.427644361,
              -0.047703835
            ],
            [
              112.426505561,
              -0.048005563
            ],
            [
              112.425486631,
              -0.048186609
            ],
            [
              112.424347825,
              -0.048186633
            ],
            [
              112.423808383,
              -0.047884936
            ],
            [
              112.422849373,
              -0.047221205
            ],
            [
              112.422130108,
              -0.046376441
            ],
            [
              112.421398391,
              -0.045934473
            ]
          ]
        ]
      }
    }
  ]
}