{
  "type": "FeatureCollection",
  "features": [
    {
      "type": "Feature",
      "properties": {
        "idx": "395",
        "nama_kewilayahan": "Dayak Kebahan Kampung Pandau"
      },
      "geometry": {
        "type": "Polygon",
        "coordinates": [
          [
            [
              112.277801772,
              -0.280425731
            ],
            [
              112.277801566,
              -0.280425718
            ],
            [
              112.276081562,
              -0.28233559
            ],
            [
              112.27737167,
              -0.282660135
            ],
            [
              112.278708563,
              -0.282912335
            ],
            [
              112.280546882,
              -0.284089756
            ],
            [
              112.281101666,
              -0.285175786
            ],
            [
              112.281265535,
              -0.285496571
            ],
            [
              112.284390672,
              -0.286865154
            ],
            [
              112.285644037,
              -0.287369707
            ],
            [
              112.287649273,
              -0.286864785
            ],
            [
              112.290657255,
              -0.287285022
            ],
            [
              112.293434713,
              -0.28643888
            ],
            [
              112.29364114,
              -0.286478171
            ],
            [
              112.293777366,
              -0.286478156
            ],
            [
              112.29378227,
              -0.286469925
            ],
            [
              112.293838255,
              -0.286467467
            ],
            [
              112.29391858,
              -0.286462558
            ],
            [
              112.293991603,
              -0.286452748
            ],
            [
              112.294067059,
              -0.286440487
            ],
            [
              112.294067924,
              -0.28644066
            ],
            [
              112.294083349,
              -0.286429325
            ],
            [
              112.294109975,
              -0.286425153
            ],
            [
              112.294243589,
              -0.286398233
            ],
            [
              112.294437326,
              -0.286344404
            ],
            [
              112.294590979,
              -0.286290582
            ],
            [
              112.294784716,
              -0.286236756
            ],
            [
              112.294998491,
              -0.28614257
            ],
            [
              112.295192224,
              -0.286048387
            ],
            [
              112.295412677,
              -0.285934026
            ],
            [
              112.295606405,
              -0.285799488
            ],
            [
              112.295766729,
              -0.28565823
            ],
            [
              112.29599385,
              -0.285429528
            ],
            [
              112.296207612,
              -0.285227732
            ],
            [
              112.296421375,
              -0.285019209
            ],
            [
              112.296581697,
              -0.2848645
            ],
            [
              112.296815504,
              -0.284676152
            ],
            [
              112.297109425,
              -0.284386912
            ],
            [
              112.297323184,
              -0.284138036
            ],
            [
              112.297436728,
              -0.283882447
            ],
            [
              112.297496828,
              -0.283633587
            ],
            [
              112.29757695,
              -0.283209855
            ],
            [
              112.297620635,
              -0.282950202
            ],
            [
              112.297626272,
              -0.282941853
            ],
            [
              112.297666102,
              -0.282761321
            ],
            [
              112.297710556,
              -0.282644234
            ],
            [
              112.297806309,
              -0.282434167
            ],
            [
              112.297919163,
              -0.282217208
            ],
            [
              112.297984139,
              -0.282089789
            ],
            [
              112.298090155,
              -0.28189005
            ],
            [
              112.298203015,
              -0.281714415
            ],
            [
              112.298312453,
              -0.281545666
            ],
            [
              112.298404796,
              -0.281428574
            ],
            [
              112.29851082,
              -0.281304595
            ],
            [
              112.29869209,
              -0.281118622
            ],
            [
              112.298787855,
              -0.281029078
            ],
            [
              112.298908229,
              -0.280928938
            ],
            [
              112.299024954,
              -0.280838986
            ],
            [
              112.299077362,
              -0.280800607
            ],
            [
              112.299139299,
              -0.280756829
            ],
            [
              112.299331064,
              -0.280623697
            ],
            [
              112.299620962,
              -0.280431902
            ],
            [
              112.299891471,
              -0.28024469
            ],
            [
              112.300083235,
              -0.280104962
            ],
            [
              112.300249987,
              -0.279974231
            ],
            [
              112.300371475,
              -0.279866891
            ],
            [
              112.300543581,
              -0.279698983
            ],
            [
              112.300710982,
              -0.279514373
            ],
            [
              112.300767496,
              -0.279451326
            ],
            [
              112.300957466,
              -0.279234251
            ],
            [
              112.301106344,
              -0.279063948
            ],
            [
              112.301236166,
              -0.27892363
            ],
            [
              112.301524787,
              -0.278622469
            ],
            [
              112.301695313,
              -0.2784469
            ],
            [
              112.30187159,
              -0.278273596
            ],
            [
              112.301964016,
              -0.278187998
            ],
            [
              112.302141961,
              -0.278039125
            ],
            [
              112.302376009,
              -0.277878406
            ],
            [
              112.302627017,
              -0.277741276
            ],
            [
              112.30308797,
              -0.277546181
            ],
            [
              112.303515526,
              -0.277418344
            ],
            [
              112.303829511,
              -0.27732415
            ],
            [
              112.303939136,
              -0.277300903
            ],
            [
              112.304083375,
              -0.277270315
            ],
            [
              112.304346518,
              -0.277230907
            ],
            [
              112.304578424,
              -0.277210811
            ],
            [
              112.304712481,
              -0.277200066
            ],
            [
              112.305014986,
              -0.277182584
            ],
            [
              112.305212721,
              -0.277172369
            ],
            [
              112.305470608,
              -0.277152553
            ],
            [
              112.305704626,
              -0.277124524
            ],
            [
              112.305779754,
              -0.277115693
            ],
            [
              112.305866077,
              -0.277100967
            ],
            [
              112.305983997,
              -0.277077548
            ],
            [
              112.306143511,
              -0.277042299
            ],
            [
              112.306421743,
              -0.276971969
            ],
            [
              112.306595458,
              -0.276924019
            ],
            [
              112.306634272,
              -0.276911119
            ],
            [
              112.306811244,
              -0.276861002
            ],
            [
              112.306949521,
              -0.276814537
            ],
            [
              112.307112005,
              -0.276762635
            ],
            [
              112.307277868,
              -0.276704199
            ],
            [
              112.307423485,
              -0.276652274
            ],
            [
              112.307544497,
              -0.276607564
            ],
            [
              112.308008326,
              -0.276417769
            ],
            [
              112.308206053,
              -0.276329006
            ],
            [
              112.308452612,
              -0.276212658
            ],
            [
              112.308714022,
              -0.27607945
            ],
            [
              112.30891238,
              -0.275970369
            ],
            [
              112.309247439,
              -0.275769911
            ],
            [
              112.309761825,
              -0.275473922
            ],
            [
              112.30996174,
              -0.275375458
            ],
            [
              112.310203862,
              -0.275271105
            ],
            [
              112.310328008,
              -0.275223119
            ],
            [
              112.310600221,
              -0.275127457
            ],
            [
              112.310874123,
              -0.275033267
            ],
            [
              112.311154704,
              -0.274939075
            ],
            [
              112.311348437,
              -0.274858345
            ],
            [
              112.311357586,
              -0.274858783
            ],
            [
              112.31140522,
              -0.274834799
            ],
            [
              112.31155219,
              -0.274767527
            ],
            [
              112.311846127,
              -0.274626255
            ],
            [
              112.312153418,
              -0.274404272
            ],
            [
              112.312467378,
              -0.274088131
            ],
            [
              112.31269449,
              -0.27378545
            ],
            [
              112.312861478,
              -0.273509678
            ],
            [
              112.313001748,
              -0.273274263
            ],
            [
              112.313100898,
              -0.273094548
            ],
            [
              112.313107958,
              -0.273087439
            ],
            [
              112.313115298,
              -0.273065755
            ],
            [
              112.313288969,
              -0.272789982
            ],
            [
              112.313475996,
              -0.272480578
            ],
            [
              112.313689747,
              -0.2721779
            ],
            [
              112.313916865,
              -0.271935752
            ],
            [
              112.314069178,
              -0.271740203
            ],
            [
              112.314939353,
              -0.27005508
            ],
            [
              112.315529279,
              -0.268569881
            ],
            [
              112.316709331,
              -0.267480651
            ],
            [
              112.31713772,
              -0.267178694
            ],
            [
              112.31867613,
              -0.266094313
            ],
            [
              112.319659404,
              -0.264213037
            ],
            [
              112.321625984,
              -0.260747515
            ],
            [
              112.32192081,
              -0.258668296
            ],
            [
              112.322805637,
              -0.255796946
            ],
            [
              112.322313781,
              -0.254608892
            ],
            [
              112.3223137,
              -0.253816821
            ],
            [
              112.322118545,
              -0.253579951
            ],
            [
              112.321734181,
              -0.253483257
            ],
            [
              112.320327764,
              -0.253313496
            ],
            [
              112.318358733,
              -0.252634083
            ],
            [
              112.316895995,
              -0.251841348
            ],
            [
              112.314758115,
              -0.25036906
            ],
            [
              112.313182847,
              -0.24940643
            ],
            [
              112.311494999,
              -0.247764188
            ],
            [
              112.310426024,
              -0.246688233
            ],
            [
              112.30969455,
              -0.245215798
            ],
            [
              112.308963076,
              -0.243743364
            ],
            [
              112.307725291,
              -0.242214343
            ],
            [
              112.306881317,
              -0.240855185
            ],
            [
              112.306656173,
              -0.23960924
            ],
            [
              112.304856019,
              -0.240119128
            ],
            [
              112.302999554,
              -0.240062671
            ],
            [
              112.301874384,
              -0.239609698
            ],
            [
              112.300974272,
              -0.239496514
            ],
            [
              112.298105123,
              -0.238760532
            ],
            [
              112.297317431,
              -0.237684538
            ],
            [
              112.296417254,
              -0.236891732
            ],
            [
              112.294054365,
              -0.235645981
            ],
            [
              112.29281672,
              -0.235646095
            ],
            [
              112.288934923,
              -0.234683657
            ],
            [
              112.288203541,
              -0.234174007
            ],
            [
              112.283702843,
              -0.232418725
            ],
            [
              112.281846339,
              -0.232079082
            ],
            [
              112.280777392,
              -0.231342917
            ],
            [
              112.27757034,
              -0.226699089
            ],
            [
              112.276276333,
              -0.225566492
            ],
            [
              112.275380739,
              -0.221639567
            ],
            [
              112.274807119,
              -0.219124379
            ],
            [
              112.274700547,
              -0.218657084
            ],
            [
              112.274317745,
              -0.214751604
            ],
            [
              112.274103499,
              -0.2143293
            ],
            [
              112.273772292,
              -0.213977397
            ],
            [
              112.273459484,
              -0.213644016
            ],
            [
              112.273330671,
              -0.21338471
            ],
            [
              112.273036261,
              -0.213014281
            ],
            [
              112.273091429,
              -0.212680868
            ],
            [
              112.272723406,
              -0.212088176
            ],
            [
              112.272447394,
              -0.211717745
            ],
            [
              112.27217136,
              -0.211087997
            ],
            [
              112.27207933,
              -0.210624939
            ],
            [
              112.271895318,
              -0.21032859
            ],
            [
              112.271619324,
              -0.210180433
            ],
            [
              112.271435324,
              -0.210032268
            ],
            [
              112.271349242,
              -0.209791603
            ],
            [
              112.271119356,
              -0.20951233
            ],
            [
              112.270976998,
              -0.209276325
            ],
            [
              112.27091837,
              -0.209040313
            ],
            [
              112.271002081,
              -0.208821147
            ],
            [
              112.270960185,
              -0.208433408
            ],
            [
              112.270968535,
              -0.208138387
            ],
            [
              112.27124478,
              -0.207413455
            ],
            [
              112.271495936,
              -0.207059409
            ],
            [
              112.271680112,
              -0.206747514
            ],
            [
              112.271814047,
              -0.20637662
            ],
            [
              112.27187264,
              -0.206165884
            ],
            [
              112.271973051,
              -0.205365106
            ],
            [
              112.271721788,
              -0.204378912
            ],
            [
              112.271437085,
              -0.204008049
            ],
            [
              112.271470562,
              -0.203847893
            ],
            [
              112.271470544,
              -0.203620306
            ],
            [
              112.271486311,
              -0.203403145
            ],
            [
              112.269804752,
              -0.200817239
            ],
            [
              112.26794791,
              -0.196059977
            ],
            [
              112.267047419,
              -0.190962823
            ],
            [
              112.266173021,
              -0.189047275
            ],
            [
              112.266090897,
              -0.188867367
            ],
            [
              112.265974469,
              -0.188683207
            ],
            [
              112.265697054,
              -0.188244401
            ],
            [
              112.263952976,
              -0.18671536
            ],
            [
              112.262546393,
              -0.184506662
            ],
            [
              112.261083609,
              -0.183090867
            ],
            [
              112.259902135,
              -0.182014868
            ],
            [
              112.258551862,
              -0.180542427
            ],
            [
              112.257820465,
              -0.179749574
            ],
            [
              112.256751383,
              -0.176861209
            ],
            [
              112.252588071,
              -0.172670419
            ],
            [
              112.250956497,
              -0.170914806
            ],
            [
              112.250735003,
              -0.17061316
            ],
            [
              112.250762789,
              -0.17059887
            ],
            [
              112.249961375,
              -0.169936219
            ],
            [
              112.249960069,
              -0.169917295
            ],
            [
              112.246177015,
              -0.172764058
            ],
            [
              112.244690781,
              -0.17372179
            ],
            [
              112.242561409,
              -0.17481696
            ],
            [
              112.239038208,
              -0.176633978
            ],
            [
              112.236889896,
              -0.177499257
            ],
            [
              112.236732893,
              -0.177594108
            ],
            [
              112.235600925,
              -0.178277966
            ],
            [
              112.234569805,
              -0.179748766
            ],
            [
              112.234140195,
              -0.180700447
            ],
            [
              112.234139217,
              -0.180722146
            ],
            [
              112.234054389,
              -0.182603751
            ],
            [
              112.232937378,
              -0.184680157
            ],
            [
              112.231858227,
              -0.185427181
            ],
            [
              112.233796805,
              -0.185804775
            ],
            [
              112.235171824,
              -0.186669814
            ],
            [
              112.237320269,
              -0.187707826
            ],
            [
              112.237686112,
              -0.188645138
            ],
            [
              112.238265723,
              -0.190130133
            ],
            [
              112.238609549,
              -0.1913413
            ],
            [
              112.239241244,
              -0.19180759
            ],
            [
              112.239898638,
              -0.192292855
            ],
            [
              112.241703344,
              -0.193330881
            ],
            [
              112.243336185,
              -0.194455436
            ],
            [
              112.245570562,
              -0.195493428
            ],
            [
              112.247203333,
              -0.195666333
            ],
            [
              112.248171526,
              -0.198131242
            ],
            [
              112.248664497,
              -0.199386289
            ],
            [
              112.251500315,
              -0.199126533
            ],
            [
              112.251414552,
              -0.201375879
            ],
            [
              112.252445805,
              -0.201894878
            ],
            [
              112.253906729,
              -0.202413842
            ],
            [
              112.254508565,
              -0.206220366
            ],
            [
              112.254852391,
              -0.207345006
            ],
            [
              112.255883705,
              -0.208642617
            ],
            [
              112.255626047,
              -0.210459409
            ],
            [
              112.255712058,
              -0.211411044
            ],
            [
              112.257258967,
              -0.212535587
            ],
            [
              112.2600297,
              -0.21354965
            ],
            [
              112.260776482,
              -0.21391995
            ],
            [
              112.261059611,
              -0.214177361
            ],
            [
              112.261379269,
              -0.214388797
            ],
            [
              112.26138841,
              -0.214499124
            ],
            [
              112.261297103,
              -0.214738177
            ],
            [
              112.261160125,
              -0.214848517
            ],
            [
              112.26119668,
              -0.21516111
            ],
            [
              112.261151028,
              -0.215289832
            ],
            [
              112.261123646,
              -0.215473714
            ],
            [
              112.261352008,
              -0.21605292
            ],
            [
              112.261774846,
              -0.217024677
            ],
            [
              112.261899828,
              -0.217552943
            ],
            [
              112.262243643,
              -0.218504552
            ],
            [
              112.263446787,
              -0.219283066
            ],
            [
              112.265595433,
              -0.222743385
            ],
            [
              112.265938001,
              -0.223616847
            ],
            [
              112.266827551,
              -0.22588497
            ],
            [
              112.266884727,
              -0.226030752
            ],
            [
              112.264994319,
              -0.227674657
            ],
            [
              112.264650689,
              -0.228885864
            ],
            [
              112.267314753,
              -0.230096802
            ],
            [
              112.268517922,
              -0.231134845
            ],
            [
              112.269463458,
              -0.234076182
            ],
            [
              112.270494847,
              -0.236065875
            ],
            [
              112.271612193,
              -0.238315094
            ],
            [
              112.273674873,
              -0.241169809
            ],
            [
              112.27530786,
              -0.243765021
            ],
            [
              112.277370494,
              -0.246100655
            ],
            [
              112.278401857,
              -0.247744286
            ],
            [
              112.279691114,
              -0.250339524
            ],
            [
              112.281152081,
              -0.251291013
            ],
            [
              112.282613073,
              -0.252502036
            ],
            [
              112.28357422,
              -0.253156461
            ],
            [
              112.285535012,
              -0.254491519
            ],
            [
              112.286222654,
              -0.256221688
            ],
            [
              112.287382168,
              -0.258166772
            ],
            [
              112.28770369,
              -0.25941475
            ],
            [
              112.288338295,
              -0.26087463
            ],
            [
              112.288338444,
              -0.262334578
            ],
            [
              112.28670716,
              -0.264068433
            ],
            [
              112.284803842,
              -0.264616111
            ],
            [
              112.283444382,
              -0.265528722
            ],
            [
              112.282084922,
              -0.266441333
            ],
            [
              112.280906773,
              -0.267718913
            ],
            [
              112.279819356,
              -0.269908952
            ],
            [
              112.279819605,
              -0.272281374
            ],
            [
              112.280363592,
              -0.273832514
            ],
            [
              112.280509096,
              -0.274210811
            ],
            [
              112.281451539,
              -0.27666105
            ],
            [
              112.28036402,
              -0.277847379
            ],
            [
              112.278913963,
              -0.279124992
            ],
            [
              112.278172737,
              -0.279735667
            ],
            [
              112.27806517,
              -0.279890403
            ],
            [
              112.277895886,
              -0.280198554
            ],
            [
              112.277821015,
              -0.28038213
            ],
            [
              112.277801772,
              -0.280425731
            ]
          ]
        ]
      }
    }
  ]
}