{
  "type": "FeatureCollection",
  "features": [
    {
      "type": "Feature",
      "properties": {
        "idx": "398",
        "nama_kewilayahan": "Dayak Kebahan Kampung Pelembak/Pintas"
      },
      "geometry": {
        "type": "Polygon",
        "coordinates": [
          [
            [
              112.252168535,
              -0.27867605
            ],
            [
              112.252170906,
              -0.278943076
            ],
            [
              112.250550443,
              -0.280644264
            ],
            [
              112.253057091,
              -0.280643994
            ],
            [
              112.25648293,
              -0.281484793
            ],
            [
              112.258321397,
              -0.283923981
            ],
            [
              112.260410567,
              -0.286699605
            ],
            [
              112.261664007,
              -0.287792983
            ],
            [
              112.262917419,
              -0.28863401
            ],
            [
              112.264407545,
              -0.288579853
            ],
            [
              112.268749796,
              -0.287785667
            ],
            [
              112.270262879,
              -0.285866262
            ],
            [
              112.270281809,
              -0.285857366
            ],
            [
              112.270499368,
              -0.285649531
            ],
            [
              112.270700182,
              -0.28538553
            ],
            [
              112.270921817,
              -0.284982086
            ],
            [
              112.271773667,
              -0.283838383
            ],
            [
              112.273945949,
              -0.282660514
            ],
            [
              112.275700541,
              -0.282239739
            ],
            [
              112.276081562,
              -0.28233559
            ],
            [
              112.277801566,
              -0.280425718
            ],
            [
              112.277801772,
              -0.280425731
            ],
            [
              112.277821015,
              -0.28038213
            ],
            [
              112.277895886,
              -0.280198554
            ],
            [
              112.27806517,
              -0.279890403
            ],
            [
              112.278172737,
              -0.279735667
            ],
            [
              112.278913963,
              -0.279124992
            ],
            [
              112.279596795,
              -0.278523364
            ],
            [
              112.28036402,
              -0.277847379
            ],
            [
              112.281451539,
              -0.27666105
            ],
            [
              112.280509096,
              -0.274210811
            ],
            [
              112.280363592,
              -0.273832514
            ],
            [
              112.279819605,
              -0.272281374
            ],
            [
              112.279819356,
              -0.269908952
            ],
            [
              112.280906773,
              -0.267718913
            ],
            [
              112.282084922,
              -0.266441333
            ],
            [
              112.283444382,
              -0.265528722
            ],
            [
              112.284803842,
              -0.264616111
            ],
            [
              112.28670716,
              -0.264068433
            ],
            [
              112.288338444,
              -0.262334578
            ],
            [
              112.288338295,
              -0.26087463
            ],
            [
              112.28770369,
              -0.25941475
            ],
            [
              112.287382168,
              -0.258166772
            ],
            [
              112.286222654,
              -0.256221688
            ],
            [
              112.285535012,
              -0.254491519
            ],
            [
              112.28357422,
              -0.253156461
            ],
            [
              112.282613073,
              -0.252502036
            ],
            [
              112.281152081,
              -0.251291013
            ],
            [
              112.279691114,
              -0.250339524
            ],
            [
              112.278401857,
              -0.247744286
            ],
            [
              112.277370494,
              -0.246100655
            ],
            [
              112.27530786,
              -0.243765021
            ],
            [
              112.273674873,
              -0.241169809
            ],
            [
              112.271612193,
              -0.238315094
            ],
            [
              112.270494847,
              -0.236065875
            ],
            [
              112.269463458,
              -0.234076182
            ],
            [
              112.268517922,
              -0.231134845
            ],
            [
              112.267314753,
              -0.230096802
            ],
            [
              112.264650689,
              -0.228885864
            ],
            [
              112.264994319,
              -0.227674657
            ],
            [
              112.266884727,
              -0.226030752
            ],
            [
              112.266827551,
              -0.22588497
            ],
            [
              112.265938001,
              -0.223616847
            ],
            [
              112.265595433,
              -0.222743385
            ],
            [
              112.263446787,
              -0.219283066
            ],
            [
              112.262243643,
              -0.218504552
            ],
            [
              112.261899828,
              -0.217552943
            ],
            [
              112.261774846,
              -0.217024677
            ],
            [
              112.261352008,
              -0.21605292
            ],
            [
              112.261123646,
              -0.215473714
            ],
            [
              112.261151028,
              -0.215289832
            ],
            [
              112.26119668,
              -0.21516111
            ],
            [
              112.261160125,
              -0.214848517
            ],
            [
              112.261297103,
              -0.214738177
            ],
            [
              112.26138841,
              -0.214499124
            ],
            [
              112.261379269,
              -0.214388797
            ],
            [
              112.261059611,
              -0.214177361
            ],
            [
              112.260776482,
              -0.21391995
            ],
            [
              112.2600297,
              -0.21354965
            ],
            [
              112.257258967,
              -0.212535587
            ],
            [
              112.255712058,
              -0.211411044
            ],
            [
              112.255626047,
              -0.210459409
            ],
            [
              112.255883705,
              -0.208642617
            ],
            [
              112.254852391,
              -0.207345006
            ],
            [
              112.254508565,
              -0.206220366
            ],
            [
              112.253906729,
              -0.202413842
            ],
            [
              112.252445805,
              -0.201894878
            ],
            [
              112.251414552,
              -0.201375879
            ],
            [
              112.251500315,
              -0.199126533
            ],
            [
              112.248664497,
              -0.199386289
            ],
            [
              112.248171526,
              -0.198131242
            ],
            [
              112.247203333,
              -0.195666333
            ],
            [
              112.245570562,
              -0.195493428
            ],
            [
              112.243336185,
              -0.194455436
            ],
            [
              112.241703344,
              -0.193330881
            ],
            [
              112.239898638,
              -0.192292855
            ],
            [
              112.239241244,
              -0.19180759
            ],
            [
              112.238609549,
              -0.1913413
            ],
            [
              112.238265723,
              -0.190130133
            ],
            [
              112.237686112,
              -0.188645138
            ],
            [
              112.237320269,
              -0.187707826
            ],
            [
              112.235171824,
              -0.186669814
            ],
            [
              112.233796805,
              -0.185804775
            ],
            [
              112.231858227,
              -0.185427181
            ],
            [
              112.231562483,
              -0.185631904
            ],
            [
              112.230445358,
              -0.186064553
            ],
            [
              112.228726704,
              -0.186756783
            ],
            [
              112.229156439,
              -0.187621891
            ],
            [
              112.229929958,
              -0.189092569
            ],
            [
              112.230789364,
              -0.189871131
            ],
            [
              112.232594092,
              -0.191168707
            ],
            [
              112.232674813,
              -0.191470458
            ],
            [
              112.233195799,
              -0.193418019
            ],
            [
              112.233521343,
              -0.194597537
            ],
            [
              112.233625587,
              -0.194975232
            ],
            [
              112.235172498,
              -0.196099798
            ],
            [
              112.236203922,
              -0.198868153
            ],
            [
              112.236805576,
              -0.200338839
            ],
            [
              112.236896288,
              -0.200640124
            ],
            [
              112.237665142,
              -0.203193718
            ],
            [
              112.237493384,
              -0.204664463
            ],
            [
              112.237063828,
              -0.20622174
            ],
            [
              112.237665441,
              -0.207086827
            ],
            [
              112.23998577,
              -0.208211318
            ],
            [
              112.240329659,
              -0.210114588
            ],
            [
              112.240845344,
              -0.211066195
            ],
            [
              112.241962579,
              -0.212104265
            ],
            [
              112.242650259,
              -0.214613097
            ],
            [
              112.24230661,
              -0.215737799
            ],
            [
              112.242650491,
              -0.217468038
            ],
            [
              112.243681872,
              -0.219457758
            ],
            [
              112.243939777,
              -0.220668923
            ],
            [
              112.243939892,
              -0.222053136
            ],
            [
              112.244283769,
              -0.223696859
            ],
            [
              112.244026111,
              -0.225427148
            ],
            [
              112.242479431,
              -0.227157548
            ],
            [
              112.241534302,
              -0.22897441
            ],
            [
              112.24084692,
              -0.230099145
            ],
            [
              112.240589182,
              -0.23087779
            ],
            [
              112.241362839,
              -0.233646149
            ],
            [
              112.241227706,
              -0.234916947
            ],
            [
              112.241217227,
              -0.235015484
            ],
            [
              112.241469485,
              -0.236002722
            ],
            [
              112.241491278,
              -0.236216462
            ],
            [
              112.241694307,
              -0.238207548
            ],
            [
              112.24186323,
              -0.239864157
            ],
            [
              112.242847027,
              -0.243131461
            ],
            [
              112.242158712,
              -0.244616705
            ],
            [
              112.242257255,
              -0.246695949
            ],
            [
              112.242454094,
              -0.248181109
            ],
            [
              112.243240968,
              -0.248973131
            ],
            [
              112.245798124,
              -0.249566958
            ],
            [
              112.246584971,
              -0.250061944
            ],
            [
              112.246880096,
              -0.25085401
            ],
            [
              112.246697063,
              -0.253160083
            ],
            [
              112.246683632,
              -0.253329325
            ],
            [
              112.246880569,
              -0.255804601
            ],
            [
              112.246880684,
              -0.256992743
            ],
            [
              112.246585827,
              -0.258973008
            ],
            [
              112.246586021,
              -0.260953244
            ],
            [
              112.246586148,
              -0.262240398
            ],
            [
              112.2448163,
              -0.266795123
            ],
            [
              112.24471804,
              -0.267686239
            ],
            [
              112.244831735,
              -0.267915104
            ],
            [
              112.244833744,
              -0.267949412
            ],
            [
              112.245172935,
              -0.268745956
            ],
            [
              112.245794734,
              -0.269713168
            ],
            [
              112.246331707,
              -0.270196751
            ],
            [
              112.246586123,
              -0.271021755
            ],
            [
              112.246981817,
              -0.271676046
            ],
            [
              112.24822539,
              -0.273325972
            ],
            [
              112.248960209,
              -0.274122476
            ],
            [
              112.249007579,
              -0.274214161
            ],
            [
              112.249327651,
              -0.274833667
            ],
            [
              112.25009073,
              -0.275630166
            ],
            [
              112.251164696,
              -0.27676802
            ],
            [
              112.251560383,
              -0.27733696
            ],
            [
              112.252165847,
              -0.278677567
            ],
            [
              112.252168535,
              -0.27867605
            ]
          ]
        ]
      }
    }
  ]
}