{
  "type": "FeatureCollection",
  "features": [
    {
      "type": "Feature",
      "properties": {
        "idx": "463",
        "nama_kewilayahan": "Kampong Tambak Bayan"
      },
      "geometry": {
        "type": "Polygon",
        "coordinates": [
          [
            [
              98.762635448,
              3.649799253
            ],
            [
              98.762608483,
              3.650585497
            ],
            [
              98.762644427,
              3.651272171
            ],
            [
              98.762638433,
              3.651582139
            ],
            [
              98.762602237,
              3.651715439
            ],
            [
              98.762128548,
              3.651764624
            ],
            [
              98.761411753,
              3.65178096
            ],
            [
              98.76067192,
              3.651788449
            ],
            [
              98.756895733,
              3.651934708
            ],
            [
              98.756895738,
              3.65193556
            ],
            [
              98.756905081,
              3.652773203
            ],
            [
              98.756936067,
              3.653832105
            ],
            [
              98.756971044,
              3.654325401
            ],
            [
              98.75698621,
              3.654401233
            ],
            [
              98.757070096,
              3.654700826
            ],
            [
              98.757086147,
              3.654758152
            ],
            [
              98.75720827,
              3.654920982
            ],
            [
              98.757515187,
              3.655360847
            ],
            [
              98.757744624,
              3.655665965
            ],
            [
              98.757861003,
              3.655849017
            ],
            [
              98.757873203,
              3.655888242
            ],
            [
              98.7579142,
              3.656257212
            ],
            [
              98.757899923,
              3.656571301
            ],
            [
              98.757899923,
              3.656737269
            ],
            [
              98.757873466,
              3.656847776
            ],
            [
              98.757865874,
              3.656936285
            ],
            [
              98.757859679,
              3.6570085
            ],
            [
              98.757861701,
              3.657048948
            ],
            [
              98.757926863,
              3.657274229
            ],
            [
              98.758020273,
              3.657453668
            ],
            [
              98.758149379,
              3.657659876
            ],
            [
              98.758437738,
              3.657960752
            ],
            [
              98.758546817,
              3.658141086
            ],
            [
              98.758622915,
              3.658292508
            ],
            [
              98.758712346,
              3.658534047
            ],
            [
              98.75881613,
              3.658742494
            ],
            [
              98.758878903,
              3.658904485
            ],
            [
              98.758892459,
              3.659020071
            ],
            [
              98.758866282,
              3.659186352
            ],
            [
              98.758824302,
              3.659376322
            ],
            [
              98.758722077,
              3.659536701
            ],
            [
              98.758603692,
              3.659693932
            ],
            [
              98.758390022,
              3.659940069
            ],
            [
              98.75818433,
              3.660143155
            ],
            [
              98.757968505,
              3.660306248
            ],
            [
              98.757768538,
              3.660474195
            ],
            [
              98.75749728,
              3.660843897
            ],
            [
              98.757152297,
              3.661314078
            ],
            [
              98.757079608,
              3.663669671
            ],
            [
              98.75782319,
              3.664859402
            ],
            [
              98.757377041,
              3.665900416
            ],
            [
              98.758120623,
              3.666197848
            ],
            [
              98.758269339,
              3.667090146
            ],
            [
              98.759310353,
              3.668428593
            ],
            [
              98.759310353,
              3.669320891
            ],
            [
              98.760202651,
              3.66976704
            ],
            [
              98.760053935,
              3.670659338
            ],
            [
              98.760500084,
              3.672146501
            ],
            [
              98.760500084,
              3.675120827
            ],
            [
              98.761094949,
              3.677500288
            ],
            [
              98.762730828,
              3.679284884
            ],
            [
              98.767043601,
              3.678690019
            ],
            [
              98.769571779,
              3.677946437
            ],
            [
              98.770017928,
              3.676013125
            ],
            [
              98.770910226,
              3.673931097
            ],
            [
              98.772843538,
              3.671997785
            ],
            [
              98.774628133,
              3.671700352
            ],
            [
              98.776858878,
              3.66976704
            ],
            [
              98.779833204,
              3.66694143
            ],
            [
              98.781171651,
              3.66530555
            ],
            [
              98.781915233,
              3.663074806
            ],
            [
              98.782510098,
              3.661438926
            ],
            [
              98.783402396,
              3.659059465
            ],
            [
              98.783551112,
              3.657126153
            ],
            [
              98.783970208,
              3.655618288
            ],
            [
              98.782764107,
              3.65290456
            ],
            [
              98.783065633,
              3.649286257
            ],
            [
              98.783819446,
              3.645517191
            ],
            [
              98.784422496,
              3.6426527
            ],
            [
              98.782931571,
              3.640747371
            ],
            [
              98.782926565,
              3.640747523
            ],
            [
              98.781706342,
              3.640792689
            ],
            [
              98.780142831,
              3.640853365
            ],
            [
              98.779942658,
              3.640961071
            ],
            [
              98.779692634,
              3.64095098
            ],
            [
              98.778749018,
              3.640912894
            ],
            [
              98.77847708,
              3.640931536
            ],
            [
              98.778360186,
              3.640871438
            ],
            [
              98.777525599,
              3.640931363
            ],
            [
              98.776440006,
              3.640940606
            ],
            [
              98.776241733,
              3.640972472
            ],
            [
              98.776106557,
              3.641078688
            ],
            [
              98.776177723,
              3.641679757
            ],
            [
              98.776144043,
              3.642540139
            ],
            [
              98.776122183,
              3.642818356
            ],
            [
              98.776168717,
              3.643163415
            ],
            [
              98.77618693,
              3.643544155
            ],
            [
              98.774091848,
              3.643650784
            ],
            [
              98.774089069,
              3.643650926
            ],
            [
              98.773970302,
              3.643739568
            ],
            [
              98.7737933,
              3.643857617
            ],
            [
              98.773658586,
              3.643998761
            ],
            [
              98.773508043,
              3.64471464
            ],
            [
              98.773374039,
              3.644928176
            ],
            [
              98.771957756,
              3.644917105
            ],
            [
              98.769862842,
              3.644941357
            ],
            [
              98.768355288,
              3.644946662
            ],
            [
              98.768119331,
              3.644952922
            ],
            [
              98.768061977,
              3.6448789
            ],
            [
              98.768042332,
              3.644691841
            ],
            [
              98.768019155,
              3.644514115
            ],
            [
              98.767950534,
              3.644404908
            ],
            [
              98.767418569,
              3.644391694
            ],
            [
              98.764849507,
              3.644327879
            ],
            [
              98.764497569,
              3.644304194
            ],
            [
              98.764239412,
              3.644330997
            ],
            [
              98.764156774,
              3.644430653
            ],
            [
              98.764177657,
              3.64475786
            ],
            [
              98.764171427,
              3.645273726
            ],
            [
              98.763485361,
              3.645226646
            ],
            [
              98.763033586,
              3.645229326
            ],
            [
              98.762615205,
              3.645180849
            ],
            [
              98.762610339,
              3.645215694
            ],
            [
              98.762589212,
              3.645366998
            ],
            [
              98.762592478,
              3.645790047
            ],
            [
              98.76261026,
              3.646180694
            ],
            [
              98.762612703,
              3.646528068
            ],
            [
              98.762569154,
              3.647054616
            ],
            [
              98.762603512,
              3.647307099
            ],
            [
              98.762597463,
              3.647523053
            ],
            [
              98.762592614,
              3.647728852
            ],
            [
              98.762644057,
              3.648058335
            ],
            [
              98.762604065,
              3.648653182
            ],
            [
              98.76262163,
              3.649232947
            ],
            [
              98.762625573,
              3.649394536
            ],
            [
              98.762635448,
              3.649799253
            ]
          ]
        ]
      }
    }
  ]
}