{
  "type": "FeatureCollection",
  "features": [
    {
      "type": "Feature",
      "properties": {
        "idx": "488",
        "nama_kewilayahan": "Kampong Penara"
      },
      "geometry": {
        "type": "Polygon",
        "coordinates": [
          [
            [
              98.820783821,
              3.586731033
            ],
            [
              98.821711704,
              3.58766294
            ],
            [
              98.822452001,
              3.588284361
            ],
            [
              98.824184749,
              3.589916031
            ],
            [
              98.825078466,
              3.590700691
            ],
            [
              98.826587962,
              3.592028638
            ],
            [
              98.828253755,
              3.593055513
            ],
            [
              98.830332369,
              3.594585298
            ],
            [
              98.831243471,
              3.595492494
            ],
            [
              98.832461823,
              3.596551369
            ],
            [
              98.833321366,
              3.597739609
            ],
            [
              98.833941473,
              3.598864038
            ],
            [
              98.833915481,
              3.599003828
            ],
            [
              98.833854806,
              3.599330151
            ],
            [
              98.833755882,
              3.599777618
            ],
            [
              98.833867358,
              3.600496179
            ],
            [
              98.834047097,
              3.60082853
            ],
            [
              98.834044395,
              3.601029255
            ],
            [
              98.8340923,
              3.601646636
            ],
            [
              98.834178166,
              3.602483787
            ],
            [
              98.834075707,
              3.603681917
            ],
            [
              98.834048019,
              3.604569295
            ],
            [
              98.833940534,
              3.605352377
            ],
            [
              98.833838837,
              3.606152941
            ],
            [
              98.833788316,
              3.60642675
            ],
            [
              98.833668491,
              3.607228763
            ],
            [
              98.833531961,
              3.608266212
            ],
            [
              98.833359702,
              3.609450763
            ],
            [
              98.833356338,
              3.609473893
            ],
            [
              98.833230421,
              3.610339766
            ],
            [
              98.832939555,
              3.612462708
            ],
            [
              98.832734979,
              3.612998235
            ],
            [
              98.832631282,
              3.613787602
            ],
            [
              98.832936927,
              3.614636608
            ],
            [
              98.833199006,
              3.614546891
            ],
            [
              98.833412926,
              3.615521416
            ],
            [
              98.834019689,
              3.616021103
            ],
            [
              98.834215832,
              3.616172413
            ],
            [
              98.834291808,
              3.616134639
            ],
            [
              98.834350004,
              3.616105705
            ],
            [
              98.834474489,
              3.615938428
            ],
            [
              98.834507489,
              3.615842787
            ],
            [
              98.834576483,
              3.615378648
            ],
            [
              98.834833464,
              3.615178774
            ],
            [
              98.835104723,
              3.615257296
            ],
            [
              98.835196866,
              3.615418547
            ],
            [
              98.835206531,
              3.615426528
            ],
            [
              98.835316414,
              3.615517265
            ],
            [
              98.835531828,
              3.615576465
            ],
            [
              98.835761454,
              3.615549969
            ],
            [
              98.836061266,
              3.615350095
            ],
            [
              98.836064141,
              3.615338594
            ],
            [
              98.836075899,
              3.615291563
            ],
            [
              98.836200516,
              3.614793096
            ],
            [
              98.836202843,
              3.614768899
            ],
            [
              98.836146927,
              3.614293614
            ],
            [
              98.836149145,
              3.614289677
            ],
            [
              98.836654928,
              3.613391654
            ],
            [
              98.836846488,
              3.613051535
            ],
            [
              98.836857146,
              3.613032157
            ],
            [
              98.836925011,
              3.612908768
            ],
            [
              98.836970248,
              3.612716508
            ],
            [
              98.83699836,
              3.612638053
            ],
            [
              98.836832377,
              3.612151596
            ],
            [
              98.836892864,
              3.611561614
            ],
            [
              98.837033215,
              3.6111202
            ],
            [
              98.837048541,
              3.611071997
            ],
            [
              98.837230715,
              3.610702336
            ],
            [
              98.837389022,
              3.610435233
            ],
            [
              98.837408441,
              3.610402467
            ],
            [
              98.837411352,
              3.610397556
            ],
            [
              98.837419081,
              3.610384515
            ],
            [
              98.837444245,
              3.610353725
            ],
            [
              98.837633682,
              3.610121938
            ],
            [
              98.837635269,
              3.610119995
            ],
            [
              98.837697934,
              3.610043321
            ],
            [
              98.83789702,
              3.609813443
            ],
            [
              98.838071762,
              3.609611675
            ],
            [
              98.838281158,
              3.609437103
            ],
            [
              98.838839689,
              3.608846572
            ],
            [
              98.838944408,
              3.608793777
            ],
            [
              98.839070904,
              3.608746341
            ],
            [
              98.839202155,
              3.608697122
            ],
            [
              98.839859116,
              3.608446149
            ],
            [
              98.840471045,
              3.608212378
            ],
            [
              98.840682241,
              3.608175944
            ],
            [
              98.840752992,
              3.608163738
            ],
            [
              98.841007023,
              3.608007622
            ],
            [
              98.841083602,
              3.607978367
            ],
            [
              98.841743419,
              3.607726302
            ],
            [
              98.841781778,
              3.607700729
            ],
            [
              98.84199954,
              3.607555554
            ],
            [
              98.842043231,
              3.607526427
            ],
            [
              98.842453919,
              3.607493307
            ],
            [
              98.842535406,
              3.607404808
            ],
            [
              98.842586401,
              3.607349424
            ],
            [
              98.842686534,
              3.607194021
            ],
            [
              98.842758554,
              3.607008467
            ],
            [
              98.842764572,
              3.606892296
            ],
            [
              98.842800028,
              3.606828202
            ],
            [
              98.84282077,
              3.606769469
            ],
            [
              98.842845489,
              3.60672995
            ],
            [
              98.842876812,
              3.6067063
            ],
            [
              98.842913834,
              3.606667087
            ],
            [
              98.842942136,
              3.606630525
            ],
            [
              98.843059573,
              3.606406014
            ],
            [
              98.843156819,
              3.606220103
            ],
            [
              98.843222482,
              3.606096657
            ],
            [
              98.843335279,
              3.605884599
            ],
            [
              98.843513738,
              3.605327805
            ],
            [
              98.843620814,
              3.605185037
            ],
            [
              98.843863519,
              3.604899502
            ],
            [
              98.843913727,
              3.604825056
            ],
            [
              98.844070532,
              3.604592552
            ],
            [
              98.844198847,
              3.60418622
            ],
            [
              98.844252865,
              3.604041698
            ],
            [
              98.84426381,
              3.603844187
            ],
            [
              98.844294482,
              3.603556643
            ],
            [
              98.844339373,
              3.603493731
            ],
            [
              98.844348922,
              3.603480349
            ],
            [
              98.844417664,
              3.603384015
            ],
            [
              98.844638897,
              3.60325267
            ],
            [
              98.844964828,
              3.603037958
            ],
            [
              98.845250105,
              3.602850028
            ],
            [
              98.845443174,
              3.602733031
            ],
            [
              98.845515925,
              3.60267784
            ],
            [
              98.845727238,
              3.602501963
            ],
            [
              98.845876444,
              3.602332072
            ],
            [
              98.846012839,
              3.60215791
            ],
            [
              98.846096269,
              3.602051379
            ],
            [
              98.846313261,
              3.601801963
            ],
            [
              98.846725831,
              3.601255826
            ],
            [
              98.846734491,
              3.601242487
            ],
            [
              98.846838978,
              3.601046789
            ],
            [
              98.846917519,
              3.600883275
            ],
            [
              98.846933302,
              3.600865648
            ],
            [
              98.847060924,
              3.600723112
            ],
            [
              98.847194834,
              3.600590108
            ],
            [
              98.847350721,
              3.600401405
            ],
            [
              98.84736381,
              3.600385561
            ],
            [
              98.847589755,
              3.600159616
            ],
            [
              98.84792514,
              3.599653045
            ],
            [
              98.848085039,
              3.599411531
            ],
            [
              98.84827504,
              3.59912455
            ],
            [
              98.848674789,
              3.598260806
            ],
            [
              98.848812213,
              3.597539332
            ],
            [
              98.848831946,
              3.597477461
            ],
            [
              98.848922762,
              3.597264042
            ],
            [
              98.848970429,
              3.597159963
            ],
            [
              98.848971229,
              3.597158217
            ],
            [
              98.849086363,
              3.596906823
            ],
            [
              98.849112722,
              3.596799857
            ],
            [
              98.849281552,
              3.596383411
            ],
            [
              98.849352935,
              3.596247782
            ],
            [
              98.849402904,
              3.595997938
            ],
            [
              98.849380944,
              3.595968856
            ],
            [
              98.849210827,
              3.595743566
            ],
            [
              98.849138784,
              3.595648158
            ],
            [
              98.849050952,
              3.595195483
            ],
            [
              98.849092844,
              3.595055035
            ],
            [
              98.84904284,
              3.594937132
            ],
            [
              98.849039101,
              3.594660474
            ],
            [
              98.849086983,
              3.594521402
            ],
            [
              98.84919639,
              3.594397075
            ],
            [
              98.849302089,
              3.594337518
            ],
            [
              98.849355264,
              3.594266706
            ],
            [
              98.849481426,
              3.594177651
            ],
            [
              98.849531682,
              3.594113912
            ],
            [
              98.849774022,
              3.593806553
            ],
            [
              98.84978588,
              3.593652969
            ],
            [
              98.849770182,
              3.593446892
            ],
            [
              98.849769524,
              3.593438246
            ],
            [
              98.849763121,
              3.593354196
            ],
            [
              98.849726209,
              3.5931518
            ],
            [
              98.849717857,
              3.59298161
            ],
            [
              98.849798468,
              3.592812183
            ],
            [
              98.849830922,
              3.592775671
            ],
            [
              98.849969419,
              3.592619858
            ],
            [
              98.850007651,
              3.592586613
            ],
            [
              98.850077678,
              3.592577344
            ],
            [
              98.85025475,
              3.592553905
            ],
            [
              98.850917001,
              3.592557062
            ],
            [
              98.851141923,
              3.592576366
            ],
            [
              98.851208333,
              3.592613461
            ],
            [
              98.851294576,
              3.592621483
            ],
            [
              98.851414836,
              3.592655843
            ],
            [
              98.851744294,
              3.592749974
            ],
            [
              98.85175998,
              3.592747122
            ],
            [
              98.85181651,
              3.592736844
            ],
            [
              98.851829585,
              3.59272957
            ],
            [
              98.852088498,
              3.592495185
            ],
            [
              98.852334276,
              3.592272691
            ],
            [
              98.852500962,
              3.592121796
            ],
            [
              98.852675423,
              3.591904319
            ],
            [
              98.853403451,
              3.590996779
            ],
            [
              98.853760446,
              3.590583038
            ],
            [
              98.854035306,
              3.590209123
            ],
            [
              98.854512539,
              3.589614215
            ],
            [
              98.854651593,
              3.589489506
            ],
            [
              98.854699621,
              3.589464906
            ],
            [
              98.855109652,
              3.58925489
            ],
            [
              98.855245527,
              3.58907233
            ],
            [
              98.855378084,
              3.588752444
            ],
            [
              98.855397466,
              3.588709349
            ],
            [
              98.855577605,
              3.588095748
            ],
            [
              98.855767278,
              3.587842852
            ],
            [
              98.855851197,
              3.587692598
            ],
            [
              98.855934525,
              3.587389048
            ],
            [
              98.855917029,
              3.587295738
            ],
            [
              98.855891694,
              3.58716062
            ],
            [
              98.855847684,
              3.587090636
            ],
            [
              98.855456253,
              3.586468197
            ],
            [
              98.855434838,
              3.586218354
            ],
            [
              98.855520498,
              3.586054171
            ],
            [
              98.855543628,
              3.586011613
            ],
            [
              98.85557702,
              3.585950171
            ],
            [
              98.855698958,
              3.585725805
            ],
            [
              98.855760595,
              3.585664168
            ],
            [
              98.855852088,
              3.585435659
            ],
            [
              98.855854978,
              3.585421515
            ],
            [
              98.855877418,
              3.584854922
            ],
            [
              98.855770342,
              3.584540834
            ],
            [
              98.855672395,
              3.584108236
            ],
            [
              98.85551336,
              3.583405831
            ],
            [
              98.855469939,
              3.583337541
            ],
            [
              98.85546573,
              3.583293472
            ],
            [
              98.85526683,
              3.583018107
            ],
            [
              98.854728138,
              3.58217089
            ],
            [
              98.854563955,
              3.581728311
            ],
            [
              98.854392634,
              3.580550478
            ],
            [
              98.854281095,
              3.580101043
            ],
            [
              98.854256985,
              3.579974007
            ],
            [
              98.854201408,
              3.579744528
            ],
            [
              98.854138743,
              3.57952201
            ],
            [
              98.854035867,
              3.579272341
            ],
            [
              98.853917508,
              3.579095871
            ],
            [
              98.853884903,
              3.579057469
            ],
            [
              98.853688124,
              3.578825701
            ],
            [
              98.853554268,
              3.578663354
            ],
            [
              98.853522844,
              3.578438137
            ],
            [
              98.853534472,
              3.57828697
            ],
            [
              98.853541892,
              3.57819051
            ],
            [
              98.853533318,
              3.578150986
            ],
            [
              98.853520144,
              3.577405943
            ],
            [
              98.853507804,
              3.575957839
            ],
            [
              98.853506213,
              3.57586349
            ],
            [
              98.853491837,
              3.575011153
            ],
            [
              98.85355747,
              3.574998573
            ],
            [
              98.853628827,
              3.574725557
            ],
            [
              98.853619309,
              3.574601825
            ],
            [
              98.853538407,
              3.573868951
            ],
            [
              98.853376604,
              3.573721424
            ],
            [
              98.852943542,
              3.573454925
            ],
            [
              98.852638971,
              3.573264568
            ],
            [
              98.852522976,
              3.573139862
            ],
            [
              98.852287753,
              3.571988023
            ],
            [
              98.852236127,
              3.571755617
            ],
            [
              98.852101009,
              3.570786117
            ],
            [
              98.85213739,
              3.570381208
            ],
            [
              98.852749347,
              3.569538197
            ],
            [
              98.852837642,
              3.569130669
            ],
            [
              98.853118548,
              3.568760197
            ],
            [
              98.853325656,
              3.568369781
            ],
            [
              98.853241691,
              3.567988439
            ],
            [
              98.853109205,
              3.567386728
            ],
            [
              98.852873642,
              3.56610209
            ],
            [
              98.852220577,
              3.565852453
            ],
            [
              98.851042281,
              3.563823438
            ],
            [
              98.848955734,
              3.562553328
            ],
            [
              98.848453228,
              3.562295555
            ],
            [
              98.84819357,
              3.561994696
            ],
            [
              98.847897069,
              3.561599829
            ],
            [
              98.847428864,
              3.560566928
            ],
            [
              98.847228744,
              3.560147829
            ],
            [
              98.84724719,
              3.55988732
            ],
            [
              98.847178434,
              3.559780723
            ],
            [
              98.847105391,
              3.559577161
            ],
            [
              98.846950758,
              3.559429395
            ],
            [
              98.847203746,
              3.559052679
            ],
            [
              98.847385627,
              3.558579547
            ],
            [
              98.847726315,
              3.557520944
            ],
            [
              98.848361748,
              3.556126889
            ],
            [
              98.848891716,
              3.555410161
            ],
            [
              98.849600766,
              3.554469789
            ],
            [
              98.849500888,
              3.552847663
            ],
            [
              98.849495383,
              3.552785805
            ],
            [
              98.849493072,
              3.552759837
            ],
            [
              98.849417562,
              3.552533802
            ],
            [
              98.848958075,
              3.551937193
            ],
            [
              98.848322298,
              3.551127855
            ],
            [
              98.847036826,
              3.549495677
            ],
            [
              98.846616362,
              3.547697311
            ],
            [
              98.846531567,
              3.547334638
            ],
            [
              98.846453832,
              3.547042193
            ],
            [
              98.846240983,
              3.546241446
            ],
            [
              98.844152818,
              3.543286798
            ],
            [
              98.843691537,
              3.542825141
            ],
            [
              98.843205301,
              3.542338507
            ],
            [
              98.841999484,
              3.542017339
            ],
            [
              98.842005942,
              3.541614023
            ],
            [
              98.841716985,
              3.541668711
            ],
            [
              98.841529549,
              3.541614952
            ],
            [
              98.841408413,
              3.541513595
            ],
            [
              98.841327872,
              3.541367122
            ],
            [
              98.841259526,
              3.541185231
            ],
            [
              98.841084269,
              3.541090078
            ],
            [
              98.840706375,
              3.541082197
            ],
            [
              98.840692919,
              3.541085053
            ],
            [
              98.840564227,
              3.541066379
            ],
            [
              98.840485362,
              3.540953047
            ],
            [
              98.840455111,
              3.540770115
            ],
            [
              98.840422856,
              3.540482261
            ],
            [
              98.840245987,
              3.540249519
            ],
            [
              98.840096562,
              3.540124512
            ],
            [
              98.839943129,
              3.539981481
            ],
            [
              98.839791079,
              3.539820612
            ],
            [
              98.839542095,
              3.539644815
            ],
            [
              98.839415308,
              3.539526864
            ],
            [
              98.839280399,
              3.539240629
            ],
            [
              98.83905913,
              3.538992991
            ],
            [
              98.838901399,
              3.53881836
            ],
            [
              98.838830325,
              3.538696111
            ],
            [
              98.838653275,
              3.538326002
            ],
            [
              98.838524742,
              3.538043581
            ],
            [
              98.838346931,
              3.537890957
            ],
            [
              98.838098404,
              3.537517206
            ],
            [
              98.837895785,
              3.537261729
            ],
            [
              98.837739604,
              3.537035656
            ],
            [
              98.837763561,
              3.536774453
            ],
            [
              98.837859753,
              3.53664863
            ],
            [
              98.837537625,
              3.536014442
            ],
            [
              98.837398442,
              3.535862752
            ],
            [
              98.837459473,
              3.535108355
            ],
            [
              98.83742755,
              3.534903853
            ],
            [
              98.837425135,
              3.534888383
            ],
            [
              98.837229958,
              3.534892048
            ],
            [
              98.837140518,
              3.534954118
            ],
            [
              98.837001476,
              3.53513735
            ],
            [
              98.836827647,
              3.535315362
            ],
            [
              98.836477882,
              3.535765533
            ],
            [
              98.836398082,
              3.535861736
            ],
            [
              98.836329695,
              3.535984259
            ],
            [
              98.836166003,
              3.536218136
            ],
            [
              98.835988986,
              3.536423767
            ],
            [
              98.834606491,
              3.538029743
            ],
            [
              98.834545942,
              3.538100466
            ],
            [
              98.829945103,
              3.543474369
            ],
            [
              98.827419702,
              3.541017307
            ],
            [
              98.825025845,
              3.540861405
            ],
            [
              98.824648776,
              3.540836848
            ],
            [
              98.823461835,
              3.540759544
            ],
            [
              98.818806246,
              3.539983064
            ],
            [
              98.818467674,
              3.541689427
            ],
            [
              98.817295278,
              3.547598157
            ],
            [
              98.817128377,
              3.548439319
            ],
            [
              98.816778128,
              3.548443024
            ],
            [
              98.815447099,
              3.548457104
            ],
            [
              98.81455783,
              3.54848308
            ],
            [
              98.812177033,
              3.548552627
            ],
            [
              98.812179031,
              3.548869212
            ],
            [
              98.811940707,
              3.548904363
            ],
            [
              98.81177452,
              3.548873216
            ],
            [
              98.811768248,
              3.548567579
            ],
            [
              98.811726307,
              3.548565793
            ],
            [
              98.811680378,
              3.548567135
            ],
            [
              98.810153324,
              3.548611742
            ],
            [
              98.807097664,
              3.548642631
            ],
            [
              98.805962259,
              3.548694607
            ],
            [
              98.80711736,
              3.54865671
            ],
            [
              98.807215387,
              3.548747855
            ],
            [
              98.807380373,
              3.548897441
            ],
            [
              98.80769794,
              3.549158312
            ],
            [
              98.808106745,
              3.549578903
            ],
            [
              98.808461216,
              3.549915604
            ],
            [
              98.808508325,
              3.549946623
            ],
            [
              98.809062048,
              3.550929472
            ],
            [
              98.810064461,
              3.552726551
            ],
            [
              98.810070695,
              3.552739013
            ],
            [
              98.810397095,
              3.553391584
            ],
            [
              98.810563849,
              3.553753281
            ],
            [
              98.811080479,
              3.554678137
            ],
            [
              98.811373068,
              3.555256608
            ],
            [
              98.81271292,
              3.557845896
            ],
            [
              98.813383885,
              3.559117379
            ],
            [
              98.814167243,
              3.560676963
            ],
            [
              98.814510393,
              3.561338782
            ],
            [
              98.815151269,
              3.562314823
            ],
            [
              98.816044824,
              3.563767984
            ],
            [
              98.81553378,
              3.564195095
            ],
            [
              98.814833872,
              3.564884565
            ],
            [
              98.814820332,
              3.564976963
            ],
            [
              98.814784224,
              3.565223364
            ],
            [
              98.814839738,
              3.565721579
            ],
            [
              98.815003901,
              3.566381585
            ],
            [
              98.815763892,
              3.568668062
            ],
            [
              98.815767018,
              3.568685756
            ],
            [
              98.815840709,
              3.569102883
            ],
            [
              98.816214917,
              3.570412079
            ],
            [
              98.816604667,
              3.57175292
            ],
            [
              98.816836357,
              3.572772095
            ],
            [
              98.817007358,
              3.573278314
            ],
            [
              98.817007887,
              3.573279882
            ],
            [
              98.81716852,
              3.573854854
            ],
            [
              98.817358945,
              3.574422674
            ],
            [
              98.817428407,
              3.574673983
            ],
            [
              98.817474978,
              3.574936403
            ],
            [
              98.81756772,
              3.575191423
            ],
            [
              98.817766614,
              3.575554054
            ],
            [
              98.817919176,
              3.575778842
            ],
            [
              98.818341786,
              3.576272261
            ],
            [
              98.818753017,
              3.5768156
            ],
            [
              98.819101465,
              3.577669485
            ],
            [
              98.819431487,
              3.578589799
            ],
            [
              98.818992486,
              3.579112171
            ],
            [
              98.818714032,
              3.579859126
            ],
            [
              98.81870035,
              3.580072894
            ],
            [
              98.818897058,
              3.580272823
            ],
            [
              98.819241191,
              3.580391481
            ],
            [
              98.819615523,
              3.580542295
            ],
            [
              98.819880274,
              3.580696441
            ],
            [
              98.820183395,
              3.580899981
            ],
            [
              98.820490437,
              3.581103271
            ],
            [
              98.820957892,
              3.581373748
            ],
            [
              98.821169919,
              3.581594174
            ],
            [
              98.820805499,
              3.5819498
            ],
            [
              98.820238496,
              3.582326463
            ],
            [
              98.819841651,
              3.582571035
            ],
            [
              98.819565445,
              3.582780811
            ],
            [
              98.819133038,
              3.583272257
            ],
            [
              98.818882185,
              3.583593392
            ],
            [
              98.818389075,
              3.584278746
            ],
            [
              98.818118965,
              3.584003687
            ],
            [
              98.818387208,
              3.58428134
            ],
            [
              98.818813496,
              3.584860306
            ],
            [
              98.818826043,
              3.584877347
            ],
            [
              98.819225436,
              3.585422427
            ],
            [
              98.819287862,
              3.585469148
            ],
            [
              98.81983861,
              3.585881345
            ],
            [
              98.819981292,
              3.585998455
            ],
            [
              98.820783821,
              3.586731033
            ]
          ]
        ]
      }
    }
  ]
}