{
  "type": "FeatureCollection",
  "features": [
    {
      "type": "Feature",
      "properties": {
        "idx": "565",
        "nama_kewilayahan": "Tanarawa"
      },
      "geometry": {
        "type": "Polygon",
        "coordinates": [
          [
            [
              122.590972905,
              -8.57286312
            ],
            [
              122.591680451,
              -8.573432729
            ],
            [
              122.594727672,
              -8.57631059
            ],
            [
              122.595934229,
              -8.577450955
            ],
            [
              122.595975765,
              -8.577488978
            ],
            [
              122.598129879,
              -8.579460891
            ],
            [
              122.598492778,
              -8.579508923
            ],
            [
              122.598986823,
              -8.579684683
            ],
            [
              122.599564498,
              -8.57964224
            ],
            [
              122.600424971,
              -8.579446365
            ],
            [
              122.602272288,
              -8.57931607
            ],
            [
              122.602629203,
              -8.579178085
            ],
            [
              122.602802354,
              -8.579013778
            ],
            [
              122.603168514,
              -8.578895787
            ],
            [
              122.603684355,
              -8.578905541
            ],
            [
              122.603928312,
              -8.578971893
            ],
            [
              122.604193885,
              -8.579044416
            ],
            [
              122.60520251,
              -8.578957826
            ],
            [
              122.606218819,
              -8.578908135
            ],
            [
              122.606796285,
              -8.578955691
            ],
            [
              122.606796578,
              -8.578955498
            ],
            [
              122.607274731,
              -8.579095461
            ],
            [
              122.608807188,
              -8.579544037
            ],
            [
              122.610943655,
              -8.580095438
            ],
            [
              122.613341636,
              -8.580714318
            ],
            [
              122.620110578,
              -8.582461181
            ],
            [
              122.623478693,
              -8.583330342
            ],
            [
              122.624243729,
              -8.583527759
            ],
            [
              122.624390516,
              -8.583565637
            ],
            [
              122.624416663,
              -8.583572313
            ],
            [
              122.624508361,
              -8.583595725
            ],
            [
              122.625639136,
              -8.583677221
            ],
            [
              122.625650577,
              -8.584100373
            ],
            [
              122.625655687,
              -8.584105132
            ],
            [
              122.625680147,
              -8.584924437
            ],
            [
              122.625697222,
              -8.585496376
            ],
            [
              122.625691246,
              -8.585604452
            ],
            [
              122.625695778,
              -8.585772043
            ],
            [
              122.625755651,
              -8.587986338
            ],
            [
              122.62576458,
              -8.58805349
            ],
            [
              122.624958084,
              -8.589364131
            ],
            [
              122.624946398,
              -8.589383122
            ],
            [
              122.623385446,
              -8.590859851
            ],
            [
              122.622048367,
              -8.591228105
            ],
            [
              122.620636729,
              -8.591891931
            ],
            [
              122.619777829,
              -8.592430917
            ],
            [
              122.616744838,
              -8.591923427
            ],
            [
              122.612670095,
              -8.591241588
            ],
            [
              122.612650911,
              -8.591257531
            ],
            [
              122.612554794,
              -8.591337406
            ],
            [
              122.610419858,
              -8.59311157
            ],
            [
              122.609941423,
              -8.593509152
            ],
            [
              122.609540648,
              -8.594488859
            ],
            [
              122.609137091,
              -8.595475362
            ],
            [
              122.608764038,
              -8.59638729
            ],
            [
              122.609138185,
              -8.599019603
            ],
            [
              122.609241332,
              -8.599745293
            ],
            [
              122.607407184,
              -8.602054764
            ],
            [
              122.607373546,
              -8.602097119
            ],
            [
              122.60657259,
              -8.603105632
            ],
            [
              122.606552906,
              -8.603130417
            ],
            [
              122.605583852,
              -8.603283058
            ],
            [
              122.605322248,
              -8.603324264
            ],
            [
              122.604125441,
              -8.603512775
            ],
            [
              122.603890328,
              -8.603549808
            ],
            [
              122.601764732,
              -8.603884603
            ],
            [
              122.601516834,
              -8.603923647
            ],
            [
              122.599663371,
              -8.60421594
            ],
            [
              122.597633341,
              -8.604536067
            ],
            [
              122.596558115,
              -8.605523496
            ],
            [
              122.594935975,
              -8.607013164
            ],
            [
              122.59359151,
              -8.608247819
            ],
            [
              122.593514992,
              -8.608322145
            ],
            [
              122.593435227,
              -8.608399626
            ],
            [
              122.592808876,
              -8.609008037
            ],
            [
              122.592773986,
              -8.609038024
            ],
            [
              122.592103535,
              -8.609614247
            ],
            [
              122.591966515,
              -8.609740073
            ],
            [
              122.590645765,
              -8.610952922
            ],
            [
              122.590073002,
              -8.611682402
            ],
            [
              122.589868733,
              -8.611930325
            ],
            [
              122.589779679,
              -8.611989274
            ],
            [
              122.589051993,
              -8.613088123
            ],
            [
              122.588661828,
              -8.614013231
            ],
            [
              122.587821833,
              -8.613423984
            ],
            [
              122.587665254,
              -8.613314048
            ],
            [
              122.587623928,
              -8.613286952
            ],
            [
              122.58729236,
              -8.613069547
            ],
            [
              122.587038268,
              -8.612998174
            ],
            [
              122.585561509,
              -8.612583358
            ],
            [
              122.585450083,
              -8.612594004
            ],
            [
              122.585140122,
              -8.612503469
            ],
            [
              122.584962432,
              -8.612454478
            ],
            [
              122.58419222,
              -8.612242121
            ],
            [
              122.583731074,
              -8.612114977
            ],
            [
              122.583587446,
              -8.612060858
            ],
            [
              122.582792311,
              -8.61176125
            ],
            [
              122.582566006,
              -8.611675978
            ],
            [
              122.582443641,
              -8.611629871
            ],
            [
              122.58154495,
              -8.61121774
            ],
            [
              122.580911381,
              -8.611013573
            ],
            [
              122.580820982,
              -8.610984442
            ],
            [
              122.580791882,
              -8.610975064
            ],
            [
              122.579937945,
              -8.610366603
            ],
            [
              122.579772036,
              -8.610248386
            ],
            [
              122.579495833,
              -8.610034098
            ],
            [
              122.579076895,
              -8.609709071
            ],
            [
              122.578975959,
              -8.609630761
            ],
            [
              122.578897946,
              -8.609570236
            ],
            [
              122.578564298,
              -8.609170867
            ],
            [
              122.578533913,
              -8.609134498
            ],
            [
              122.578522477,
              -8.609059971
            ],
            [
              122.578489722,
              -8.608846514
            ],
            [
              122.578485659,
              -8.608820033
            ],
            [
              122.578505362,
              -8.608626092
            ],
            [
              122.578530374,
              -8.608589147
            ],
            [
              122.57865756,
              -8.608567382
            ],
            [
              122.578801084,
              -8.608564484
            ],
            [
              122.579028341,
              -8.608559895
            ],
            [
              122.579114864,
              -8.608558148
            ],
            [
              122.579300787,
              -8.608554097
            ],
            [
              122.579327621,
              -8.608553513
            ],
            [
              122.579665323,
              -8.608515281
            ],
            [
              122.579689589,
              -8.608512534
            ],
            [
              122.579710537,
              -8.608504516
            ],
            [
              122.580310988,
              -8.6082747
            ],
            [
              122.58291209,
              -8.605098449
            ],
            [
              122.583098073,
              -8.60487134
            ],
            [
              122.58309235,
              -8.604846153
            ],
            [
              122.583076193,
              -8.604775041
            ],
            [
              122.583062875,
              -8.604716425
            ],
            [
              122.58304631,
              -8.604643514
            ],
            [
              122.583026955,
              -8.604558328
            ],
            [
              122.582825783,
              -8.603672907
            ],
            [
              122.58289119,
              -8.602602143
            ],
            [
              122.582974364,
              -8.601240487
            ],
            [
              122.582971764,
              -8.60116609
            ],
            [
              122.58287612,
              -8.598429475
            ],
            [
              122.582832873,
              -8.597192083
            ],
            [
              122.582902681,
              -8.596903662
            ],
            [
              122.582939343,
              -8.596752188
            ],
            [
              122.582952558,
              -8.596697589
            ],
            [
              122.582959816,
              -8.5966676
            ],
            [
              122.582935612,
              -8.596644368
            ],
            [
              122.581315584,
              -8.595089348
            ],
            [
              122.580623739,
              -8.594425259
            ],
            [
              122.579180899,
              -8.593040294
            ],
            [
              122.577502153,
              -8.591965149
            ],
            [
              122.577202038,
              -8.591381918
            ],
            [
              122.576748697,
              -8.590500909
            ],
            [
              122.576345568,
              -8.589717479
            ],
            [
              122.576276565,
              -8.58963772
            ],
            [
              122.575730143,
              -8.589006132
            ],
            [
              122.575530389,
              -8.588778996
            ],
            [
              122.575258797,
              -8.588470176
            ],
            [
              122.574636051,
              -8.587749083
            ],
            [
              122.574615087,
              -8.587727288
            ],
            [
              122.573016708,
              -8.586065536
            ],
            [
              122.572532405,
              -8.586189123
            ],
            [
              122.572370974,
              -8.586227885
            ],
            [
              122.572153285,
              -8.586281187
            ],
            [
              122.572057878,
              -8.586317588
            ],
            [
              122.571913449,
              -8.586458588
            ],
            [
              122.571617445,
              -8.586570214
            ],
            [
              122.571416883,
              -8.5866138
            ],
            [
              122.571135556,
              -8.586720574
            ],
            [
              122.570866532,
              -8.586759216
            ],
            [
              122.570663465,
              -8.586856342
            ],
            [
              122.570511721,
              -8.586977863
            ],
            [
              122.570237756,
              -8.587060307
            ],
            [
              122.569824458,
              -8.587101221
            ],
            [
              122.569574998,
              -8.587137449
            ],
            [
              122.569412413,
              -8.587228907
            ],
            [
              122.569393559,
              -8.587258323
            ],
            [
              122.569356082,
              -8.587316794
            ],
            [
              122.569335901,
              -8.587323809
            ],
            [
              122.568576561,
              -8.587587767
            ],
            [
              122.567881138,
              -8.587579297
            ],
            [
              122.567853588,
              -8.587578962
            ],
            [
              122.567741142,
              -8.587562845
            ],
            [
              122.567625986,
              -8.587545989
            ],
            [
              122.567378714,
              -8.587509796
            ],
            [
              122.56732848,
              -8.587492739
            ],
            [
              122.567261921,
              -8.587470138
            ],
            [
              122.567227139,
              -8.587458328
            ],
            [
              122.566851765,
              -8.58739785
            ],
            [
              122.566777366,
              -8.587385864
            ],
            [
              122.566303456,
              -8.587345354
            ],
            [
              122.566241104,
              -8.587321756
            ],
            [
              122.565540637,
              -8.58705666
            ],
            [
              122.565510502,
              -8.587038504
            ],
            [
              122.565160614,
              -8.586827704
            ],
            [
              122.565115173,
              -8.586800327
            ],
            [
              122.565021068,
              -8.58671986
            ],
            [
              122.565002818,
              -8.586704255
            ],
            [
              122.564507103,
              -8.586404
            ],
            [
              122.564463077,
              -8.58638655
            ],
            [
              122.564031369,
              -8.586215437
            ],
            [
              122.56398301,
              -8.586204218
            ],
            [
              122.563477231,
              -8.586086883
            ],
            [
              122.563426611,
              -8.586080898
            ],
            [
              122.562930874,
              -8.586022662
            ],
            [
              122.562657779,
              -8.585880271
            ],
            [
              122.562316314,
              -8.585525438
            ],
            [
              122.561903578,
              -8.585213057
            ],
            [
              122.561755809,
              -8.585118855
            ],
            [
              122.56159453,
              -8.585063378
            ],
            [
              122.561322761,
              -8.585065015
            ],
            [
              122.560331338,
              -8.585070985
            ],
            [
              122.557512393,
              -8.584022889
            ],
            [
              122.557181481,
              -8.58402251
            ],
            [
              122.557062539,
              -8.583706454
            ],
            [
              122.557156062,
              -8.582646778
            ],
            [
              122.557497555,
              -8.581284911
            ],
            [
              122.558012606,
              -8.579726073
            ],
            [
              122.558874334,
              -8.578154187
            ],
            [
              122.559260072,
              -8.577078497
            ],
            [
              122.55936665,
              -8.576781287
            ],
            [
              122.560253504,
              -8.574880064
            ],
            [
              122.560284526,
              -8.574816222
            ],
            [
              122.560682218,
              -8.573997771
            ],
            [
              122.561276784,
              -8.573422923
            ],
            [
              122.561398014,
              -8.573307403
            ],
            [
              122.561737031,
              -8.572984354
            ],
            [
              122.56232743,
              -8.572691366
            ],
            [
              122.562470984,
              -8.572620126
            ],
            [
              122.562955895,
              -8.572399031
            ],
            [
              122.563898817,
              -8.57256959
            ],
            [
              122.564474751,
              -8.5729353
            ],
            [
              122.564961401,
              -8.572709065
            ],
            [
              122.565475055,
              -8.572400703
            ],
            [
              122.566188907,
              -8.571972155
            ],
            [
              122.566764754,
              -8.571972801
            ],
            [
              122.566992409,
              -8.572371575
            ],
            [
              122.567965191,
              -8.572601296
            ],
            [
              122.569234897,
              -8.572631294
            ],
            [
              122.569716566,
              -8.572690577
            ],
            [
              122.570170994,
              -8.572859381
            ],
            [
              122.570516917,
              -8.57305982
            ],
            [
              122.5709136,
              -8.57351435
            ],
            [
              122.571584866,
              -8.573777069
            ],
            [
              122.571840328,
              -8.573854305
            ],
            [
              122.572149558,
              -8.573947796
            ],
            [
              122.572432982,
              -8.574230511
            ],
            [
              122.5724428,
              -8.574257689
            ],
            [
              122.572690601,
              -8.574943684
            ],
            [
              122.573006026,
              -8.575317148
            ],
            [
              122.573206554,
              -8.575731766
            ],
            [
              122.573949236,
              -8.576175938
            ],
            [
              122.57442526,
              -8.576526953
            ],
            [
              122.574839098,
              -8.576919133
            ],
            [
              122.575167542,
              -8.577091653
            ],
            [
              122.578329961,
              -8.579578994
            ],
            [
              122.57936155,
              -8.580390358
            ],
            [
              122.580629197,
              -8.579146809
            ],
            [
              122.582087101,
              -8.576846082
            ],
            [
              122.585075672,
              -8.574899103
            ],
            [
              122.587232979,
              -8.571672982
            ],
            [
              122.587428005,
              -8.571665955
            ],
            [
              122.587640049,
              -8.571591719
            ],
            [
              122.587741924,
              -8.571510045
            ],
            [
              122.587924157,
              -8.571363947
            ],
            [
              122.588173953,
              -8.571238261
            ],
            [
              122.588375782,
              -8.571194223
            ],
            [
              122.588673367,
              -8.57115369
            ],
            [
              122.588861454,
              -8.571167507
            ],
            [
              122.589015278,
              -8.571239157
            ],
            [
              122.58915195,
              -8.571358446
            ],
            [
              122.589199732,
              -8.571450408
            ],
            [
              122.589234203,
              -8.571600866
            ],
            [
              122.589343216,
              -8.571596938
            ],
            [
              122.58972511,
              -8.571893649
            ],
            [
              122.590972905,
              -8.57286312
            ]
          ]
        ]
      }
    }
  ]
}