{
  "type": "FeatureCollection",
  "features": [
    {
      "type": "Feature",
      "properties": {
        "idx": "587",
        "nama_kewilayahan": "Aik Berik"
      },
      "geometry": {
        "type": "Polygon",
        "coordinates": [
          [
            [
              116.354772929,
              -8.500660841
            ],
            [
              116.354777823,
              -8.500668177
            ],
            [
              116.354790107,
              -8.500658427
            ],
            [
              116.354819618,
              -8.500616953
            ],
            [
              116.355119598,
              -8.500224205
            ],
            [
              116.355205617,
              -8.500136417
            ],
            [
              116.355360361,
              -8.500031644
            ],
            [
              116.355453682,
              -8.499978064
            ],
            [
              116.355650118,
              -8.49988313
            ],
            [
              116.35575814,
              -8.499841786
            ],
            [
              116.355826862,
              -8.499827245
            ],
            [
              116.355983896,
              -8.499820177
            ],
            [
              116.35611884,
              -8.499817958
            ],
            [
              116.356378891,
              -8.499828158
            ],
            [
              116.356452479,
              -8.49983805
            ],
            [
              116.356584897,
              -8.499879791
            ],
            [
              116.356670703,
              -8.499919013
            ],
            [
              116.356790809,
              -8.499987602
            ],
            [
              116.356854489,
              -8.500053656
            ],
            [
              116.356908372,
              -8.500109923
            ],
            [
              116.356967116,
              -8.500193065
            ],
            [
              116.357047853,
              -8.50032998
            ],
            [
              116.357138391,
              -8.500474238
            ],
            [
              116.357233808,
              -8.500635602
            ],
            [
              116.35745163,
              -8.500958374
            ],
            [
              116.357500622,
              -8.501004863
            ],
            [
              116.357525108,
              -8.501034213
            ],
            [
              116.357723721,
              -8.501105374
            ],
            [
              116.357961566,
              -8.501191255
            ],
            [
              116.358135657,
              -8.501255047
            ],
            [
              116.358211682,
              -8.501274713
            ],
            [
              116.358250926,
              -8.501282105
            ],
            [
              116.358292615,
              -8.501294386
            ],
            [
              116.358420114,
              -8.501343447
            ],
            [
              116.358547557,
              -8.501426703
            ],
            [
              116.358640708,
              -8.501475707
            ],
            [
              116.358704449,
              -8.501505122
            ],
            [
              116.35874615,
              -8.501510076
            ],
            [
              116.358807487,
              -8.501510177
            ],
            [
              116.358932631,
              -8.501500613
            ],
            [
              116.359109322,
              -8.501476478
            ],
            [
              116.359317932,
              -8.501437741
            ],
            [
              116.359450517,
              -8.501379339
            ],
            [
              116.359511899,
              -8.501352572
            ],
            [
              116.359553636,
              -8.501335543
            ],
            [
              116.359610111,
              -8.501308769
            ],
            [
              116.359676403,
              -8.501279567
            ],
            [
              116.359742696,
              -8.501250366
            ],
            [
              116.359786903,
              -8.501223571
            ],
            [
              116.359863078,
              -8.501152863
            ],
            [
              116.360157864,
              -8.500931078
            ],
            [
              116.36029793,
              -8.500799412
            ],
            [
              116.360489544,
              -8.500653176
            ],
            [
              116.36054114,
              -8.500609295
            ],
            [
              116.360619837,
              -8.500497068
            ],
            [
              116.360669032,
              -8.500421431
            ],
            [
              116.360698543,
              -8.500379957
            ],
            [
              116.360701097,
              -8.500318898
            ],
            [
              116.360715899,
              -8.500270072
            ],
            [
              116.360742996,
              -8.500204168
            ],
            [
              116.360789734,
              -8.500130969
            ],
            [
              116.360883083,
              -8.500060289
            ],
            [
              116.360996039,
              -8.500001854
            ],
            [
              116.361054983,
              -8.499965313
            ],
            [
              116.361150774,
              -8.499901965
            ],
            [
              116.361194997,
              -8.499865399
            ],
            [
              116.361212175,
              -8.499862985
            ],
            [
              116.361327415,
              -8.49990714
            ],
            [
              116.361457401,
              -8.499936663
            ],
            [
              116.361526053,
              -8.499963643
            ],
            [
              116.361545624,
              -8.499997871
            ],
            [
              116.361574913,
              -8.500090735
            ],
            [
              116.361721446,
              -8.500498876
            ],
            [
              116.361777565,
              -8.500687042
            ],
            [
              116.361784877,
              -8.500716364
            ],
            [
              116.361824124,
              -8.500721314
            ],
            [
              116.362089087,
              -8.500729076
            ],
            [
              116.362511,
              -8.50078106
            ],
            [
              116.36259194,
              -8.500795847
            ],
            [
              116.362663014,
              -8.500842372
            ],
            [
              116.363163011,
              -8.50115339
            ],
            [
              116.363616425,
              -8.501444792
            ],
            [
              116.363739039,
              -8.50148163
            ],
            [
              116.363981897,
              -8.50150401
            ],
            [
              116.364477154,
              -8.501714876
            ],
            [
              116.364712535,
              -8.501808076
            ],
            [
              116.364764014,
              -8.501835028
            ],
            [
              116.364766455,
              -8.501842359
            ],
            [
              116.364741764,
              -8.501937577
            ],
            [
              116.364667865,
              -8.502115761
            ],
            [
              116.364613672,
              -8.502247569
            ],
            [
              116.364557052,
              -8.502362275
            ],
            [
              116.364532393,
              -8.502437953
            ],
            [
              116.364520057,
              -8.502479455
            ],
            [
              116.364522446,
              -8.50251854
            ],
            [
              116.364541973,
              -8.502579635
            ],
            [
              116.364615079,
              -8.502882627
            ],
            [
              116.364639481,
              -8.50296327
            ],
            [
              116.364673737,
              -8.503019504
            ],
            [
              116.364693349,
              -8.503029306
            ],
            [
              116.364727674,
              -8.503044017
            ],
            [
              116.364764496,
              -8.503031865
            ],
            [
              116.36490445,
              -8.502968588
            ],
            [
              116.364997723,
              -8.502944314
            ],
            [
              116.365041918,
              -8.502924846
            ],
            [
              116.365393112,
              -8.502715362
            ],
            [
              116.365638473,
              -8.502708434
            ],
            [
              116.365810233,
              -8.502698944
            ],
            [
              116.365866688,
              -8.502684381
            ],
            [
              116.365881408,
              -8.502684405
            ],
            [
              116.365888713,
              -8.502718612
            ],
            [
              116.365915532,
              -8.502821242
            ],
            [
              116.365939935,
              -8.502901885
            ],
            [
              116.365956973,
              -8.502984959
            ],
            [
              116.365966618,
              -8.50308756
            ],
            [
              116.365968991,
              -8.503136415
            ],
            [
              116.36597383,
              -8.503177945
            ],
            [
              116.365956579,
              -8.503224325
            ],
            [
              116.365907401,
              -8.503290193
            ],
            [
              116.365863106,
              -8.503370724
            ],
            [
              116.365831114,
              -8.503429293
            ],
            [
              116.365808944,
              -8.503482992
            ],
            [
              116.365774503,
              -8.503539114
            ],
            [
              116.365740082,
              -8.503583024
            ],
            [
              116.365720414,
              -8.503607417
            ],
            [
              116.365705652,
              -8.503631818
            ],
            [
              116.365685952,
              -8.503675751
            ],
            [
              116.365658887,
              -8.503722115
            ],
            [
              116.365614592,
              -8.503802646
            ],
            [
              116.365580143,
              -8.503863653
            ],
            [
              116.36556292,
              -8.503892935
            ],
            [
              116.365562896,
              -8.50390759
            ],
            [
              116.365611918,
              -8.503936981
            ],
            [
              116.365678154,
              -8.503941974
            ],
            [
              116.365746812,
              -8.503966511
            ],
            [
              116.365805647,
              -8.503995917
            ],
            [
              116.365960173,
              -8.504023036
            ],
            [
              116.366117129,
              -8.504064815
            ],
            [
              116.366288781,
              -8.504121273
            ],
            [
              116.366399145,
              -8.50414832
            ],
            [
              116.366465357,
              -8.504167968
            ],
            [
              116.366521759,
              -8.504185158
            ],
            [
              116.36652792,
              -8.504915482
            ],
            [
              116.366510641,
              -8.50497896
            ],
            [
              116.366483308,
              -8.505188972
            ],
            [
              116.366451147,
              -8.505350126
            ],
            [
              116.366443493,
              -8.505423613
            ],
            [
              116.366438683,
              -8.50546979
            ],
            [
              116.366433636,
              -8.50555527
            ],
            [
              116.366433599,
              -8.505577904
            ],
            [
              116.366433544,
              -8.505611448
            ],
            [
              116.366413755,
              -8.505709117
            ],
            [
              116.366396504,
              -8.505755496
            ],
            [
              116.366391497,
              -8.505816551
            ],
            [
              116.366393878,
              -8.505860521
            ],
            [
              116.366418357,
              -8.505894756
            ],
            [
              116.366445229,
              -8.505965633
            ],
            [
              116.366474547,
              -8.506041399
            ],
            [
              116.366513631,
              -8.506146491
            ],
            [
              116.366528267,
              -8.506197808
            ],
            [
              116.366520843,
              -8.506236876
            ],
            [
              116.366491292,
              -8.506302776
            ],
            [
              116.366424815,
              -8.506444334
            ],
            [
              116.366378077,
              -8.506517534
            ],
            [
              116.36635347,
              -8.506561459
            ],
            [
              116.366314138,
              -8.506607803
            ],
            [
              116.366287101,
              -8.506637069
            ],
            [
              116.366252663,
              -8.506690749
            ],
            [
              116.366203501,
              -8.506746847
            ],
            [
              116.366156792,
              -8.506802949
            ],
            [
              116.366105175,
              -8.506859043
            ],
            [
              116.366070698,
              -8.506937147
            ],
            [
              116.365859185,
              -8.507247003
            ],
            [
              116.365689467,
              -8.507505634
            ],
            [
              116.365544343,
              -8.507727667
            ],
            [
              116.365492679,
              -8.507813071
            ],
            [
              116.365426241,
              -8.507930203
            ],
            [
              116.365025045,
              -8.508701386
            ],
            [
              116.364980729,
              -8.508794129
            ],
            [
              116.364946283,
              -8.508852694
            ],
            [
              116.364904469,
              -8.508916131
            ],
            [
              116.364786446,
              -8.509069817
            ],
            [
              116.364646313,
              -8.509240565
            ],
            [
              116.364479191,
              -8.509411268
            ],
            [
              116.364452154,
              -8.509440535
            ],
            [
              116.364407954,
              -8.509462445
            ],
            [
              116.364368677,
              -8.509474593
            ],
            [
              116.364331834,
              -8.509498958
            ],
            [
              116.36430725,
              -8.509528229
            ],
            [
              116.364157351,
              -8.50966965
            ],
            [
              116.364115541,
              -8.509730644
            ],
            [
              116.364044332,
              -8.509764723
            ],
            [
              116.363941239,
              -8.509791423
            ],
            [
              116.363666431,
              -8.509798301
            ],
            [
              116.363519228,
              -8.509793175
            ],
            [
              116.363487316,
              -8.509802892
            ],
            [
              116.363394037,
              -8.509829608
            ],
            [
              116.36332529,
              -8.509858805
            ],
            [
              116.363271284,
              -8.509875815
            ],
            [
              116.363224634,
              -8.509895278
            ],
            [
              116.363158345,
              -8.509922038
            ],
            [
              116.363079827,
              -8.509924351
            ],
            [
              116.363013574,
              -8.509929128
            ],
            [
              116.362971892,
              -8.509911962
            ],
            [
              116.362913011,
              -8.509909423
            ],
            [
              116.362886023,
              -8.509909379
            ],
            [
              116.362849195,
              -8.509923974
            ],
            [
              116.36276084,
              -8.509940927
            ],
            [
              116.362682295,
              -8.509960338
            ],
            [
              116.362650383,
              -8.509970056
            ],
            [
              116.362584101,
              -8.50999193
            ],
            [
              116.362562003,
              -8.510001664
            ],
            [
              116.362345813,
              -8.510169843
            ],
            [
              116.362082889,
              -8.510408779
            ],
            [
              116.361874035,
              -8.510591626
            ],
            [
              116.36181017,
              -8.510635486
            ],
            [
              116.361736491,
              -8.510679331
            ],
            [
              116.36170211,
              -8.510698814
            ],
            [
              116.361626014,
              -8.510720672
            ],
            [
              116.361343752,
              -8.510783714
            ],
            [
              116.361357866,
              -8.511150116
            ],
            [
              116.361369963,
              -8.511252721
            ],
            [
              116.361355117,
              -8.511328415
            ],
            [
              116.361308208,
              -8.5115042
            ],
            [
              116.361261344,
              -8.511653116
            ],
            [
              116.361229334,
              -8.511721454
            ],
            [
              116.361214512,
              -8.511782493
            ],
            [
              116.361214415,
              -8.511841113
            ],
            [
              116.361214346,
              -8.511882636
            ],
            [
              116.36119464,
              -8.511929012
            ],
            [
              116.361170024,
              -8.511977822
            ],
            [
              116.361145371,
              -8.512048614
            ],
            [
              116.361125642,
              -8.512109645
            ],
            [
              116.361105896,
              -8.512180445
            ],
            [
              116.361103353,
              -8.512234177
            ],
            [
              116.361098329,
              -8.512305001
            ],
            [
              116.361065339,
              -8.512964428
            ],
            [
              116.361055456,
              -8.513005934
            ],
            [
              116.360989088,
              -8.513079101
            ],
            [
              116.360789889,
              -8.513357221
            ],
            [
              116.3606743,
              -8.51352068
            ],
            [
              116.360573502,
              -8.51364264
            ],
            [
              116.360423575,
              -8.513798714
            ],
            [
              116.360514312,
              -8.513825731
            ],
            [
              116.360587883,
              -8.513847835
            ],
            [
              116.360732569,
              -8.513892038
            ],
            [
              116.360823323,
              -8.513909285
            ],
            [
              116.360852761,
              -8.513911776
            ],
            [
              116.360931259,
              -8.513921675
            ],
            [
              116.361009773,
              -8.513921804
            ],
            [
              116.36192796,
              -8.513813246
            ],
            [
              116.362354589,
              -8.513762806
            ],
            [
              116.363223338,
              -8.513649432
            ],
            [
              116.363714154,
              -8.51358673
            ],
            [
              116.363937456,
              -8.513569998
            ],
            [
              116.364133793,
              -8.513538566
            ],
            [
              116.364236701,
              -8.513624223
            ],
            [
              116.364346954,
              -8.513719661
            ],
            [
              116.364636095,
              -8.513949731
            ],
            [
              116.36490811,
              -8.514150462
            ],
            [
              116.365243905,
              -8.514358625
            ],
            [
              116.365459666,
              -8.514451793
            ],
            [
              116.365690208,
              -8.514508348
            ],
            [
              116.365942813,
              -8.51457715
            ],
            [
              116.366575523,
              -8.514766256
            ],
            [
              116.366120761,
              -8.515283329
            ],
            [
              116.366029806,
              -8.51538821
            ],
            [
              116.36600766,
              -8.515427254
            ],
            [
              116.365940521,
              -8.515969384
            ],
            [
              116.365939684,
              -8.515974594
            ],
            [
              116.365878546,
              -8.516355202
            ],
            [
              116.365848814,
              -8.516531015
            ],
            [
              116.365836357,
              -8.516645793
            ],
            [
              116.365836216,
              -8.516731281
            ],
            [
              116.365843183,
              -8.516970659
            ],
            [
              116.365843042,
              -8.517056148
            ],
            [
              116.365862465,
              -8.517180748
            ],
            [
              116.365874621,
              -8.517249158
            ],
            [
              116.365881845,
              -8.517332216
            ],
            [
              116.365898899,
              -8.517405519
            ],
            [
              116.365908609,
              -8.517469041
            ],
            [
              116.365925683,
              -8.517530132
            ],
            [
              116.36594026,
              -8.517618086
            ],
            [
              116.365952415,
              -8.517686497
            ],
            [
              116.365974385,
              -8.517754923
            ],
            [
              116.365989034,
              -8.517798912
            ],
            [
              116.365996331,
              -8.517838005
            ],
            [
              116.365996278,
              -8.517869757
            ],
            [
              116.365996222,
              -8.517903953
            ],
            [
              116.365954394,
              -8.517974718
            ],
            [
              116.365910105,
              -8.518050363
            ],
            [
              116.365843726,
              -8.518130858
            ],
            [
              116.365738077,
              -8.518218617
            ],
            [
              116.365676673,
              -8.518257597
            ],
            [
              116.365615196,
              -8.518340542
            ],
            [
              116.365379301,
              -8.518552656
            ],
            [
              116.365062321,
              -8.518835471
            ],
            [
              116.364809199,
              -8.519079309
            ],
            [
              116.364764977,
              -8.519113432
            ],
            [
              116.364710906,
              -8.519169522
            ],
            [
              116.364654356,
              -8.519240263
            ],
            [
              116.364592887,
              -8.519318323
            ],
            [
              116.364514219,
              -8.51941101
            ],
            [
              116.364472411,
              -8.519469562
            ],
            [
              116.364413384,
              -8.519554954
            ],
            [
              116.364349445,
              -8.51964278
            ],
            [
              116.364317468,
              -8.519691578
            ],
            [
              116.364290398,
              -8.519740384
            ],
            [
              116.364233812,
              -8.519833107
            ],
            [
              116.364216572,
              -8.519872159
            ],
            [
              116.363980252,
              -8.520340736
            ],
            [
              116.36375626,
              -8.520772696
            ],
            [
              116.363682373,
              -8.520941109
            ],
            [
              116.363638039,
              -8.521043622
            ],
            [
              116.363608462,
              -8.521124177
            ],
            [
              116.363576448,
              -8.521194957
            ],
            [
              116.363544459,
              -8.521251083
            ],
            [
              116.363512469,
              -8.521307208
            ],
            [
              116.363480471,
              -8.521368219
            ],
            [
              116.363448465,
              -8.521434115
            ],
            [
              116.363409102,
              -8.521497556
            ],
            [
              116.363357387,
              -8.521612269
            ],
            [
              116.363298221,
              -8.521780706
            ],
            [
              116.363271106,
              -8.52185638
            ],
            [
              116.363234238,
              -8.5218954
            ],
            [
              116.362722823,
              -8.522536944
            ],
            [
              116.36212285,
              -8.523315122
            ],
            [
              116.361938359,
              -8.523598152
            ],
            [
              116.361884226,
              -8.523690878
            ],
            [
              116.361827716,
              -8.523737193
            ],
            [
              116.361790834,
              -8.523783541
            ],
            [
              116.361768679,
              -8.52382747
            ],
            [
              116.361758824,
              -8.523851879
            ],
            [
              116.361721922,
              -8.523910438
            ],
            [
              116.361628474,
              -8.524037296
            ],
            [
              116.361579292,
              -8.524103163
            ],
            [
              116.361554659,
              -8.524161743
            ],
            [
              116.361549743,
              -8.52416662
            ],
            [
              116.361179749,
              -8.523863139
            ],
            [
              116.360970303,
              -8.524397706
            ],
            [
              116.361149227,
              -8.524512799
            ],
            [
              116.360958951,
              -8.525323402
            ],
            [
              116.36093158,
              -8.525552954
            ],
            [
              116.360844643,
              -8.526190308
            ],
            [
              116.35997942,
              -8.527117039
            ],
            [
              116.360595495,
              -8.526991044
            ],
            [
              116.360612646,
              -8.527005727
            ],
            [
              116.360380911,
              -8.527662383
            ],
            [
              116.359372724,
              -8.527504399
            ],
            [
              116.35915933,
              -8.527460081
            ],
            [
              116.358307684,
              -8.527597898
            ],
            [
              116.358192293,
              -8.52763923
            ],
            [
              116.358140722,
              -8.527666012
            ],
            [
              116.358135807,
              -8.527670889
            ],
            [
              116.358121081,
              -8.527673307
            ],
            [
              116.358086787,
              -8.527639055
            ],
            [
              116.358062299,
              -8.527609704
            ],
            [
              116.358013259,
              -8.527590083
            ],
            [
              116.357969114,
              -8.527577797
            ],
            [
              116.357920065,
              -8.527563061
            ],
            [
              116.357866118,
              -8.527543432
            ],
            [
              116.357760648,
              -8.527521275
            ],
            [
              116.357635549,
              -8.527499085
            ],
            [
              116.35752516,
              -8.527484247
            ],
            [
              116.357456486,
              -8.527467036
            ],
            [
              116.357402518,
              -8.527459619
            ],
            [
              116.357324002,
              -8.527459489
            ],
            [
              116.357191472,
              -8.52747881
            ],
            [
              116.356234364,
              -8.527589579
            ],
            [
              116.356138656,
              -8.52759919
            ],
            [
              116.356069942,
              -8.527606404
            ],
            [
              116.356018423,
              -8.527601434
            ],
            [
              116.355542638,
              -8.527468748
            ],
            [
              116.355486114,
              -8.527522389
            ],
            [
              116.355407463,
              -8.527602862
            ],
            [
              116.355363219,
              -8.527649196
            ],
            [
              116.355321471,
              -8.527671109
            ],
            [
              116.355238047,
              -8.527670971
            ],
            [
              116.355135047,
              -8.527639047
            ],
            [
              116.355063916,
              -8.527624274
            ],
            [
              116.354995239,
              -8.527609505
            ],
            [
              116.35494864,
              -8.527597215
            ],
            [
              116.354909406,
              -8.527582494
            ],
            [
              116.354860387,
              -8.52755066
            ],
            [
              116.35480648,
              -8.527506605
            ],
            [
              116.354573684,
              -8.527327915
            ],
            [
              116.354485443,
              -8.527274032
            ],
            [
              116.354456028,
              -8.527256886
            ],
            [
              116.354451211,
              -8.527203143
            ],
            [
              116.354471348,
              -8.526900304
            ],
            [
              116.354491117,
              -8.526817291
            ],
            [
              116.354559966,
              -8.526729475
            ],
            [
              116.354594362,
              -8.526702665
            ],
            [
              116.354626317,
              -8.526668523
            ],
            [
              116.354645974,
              -8.526651458
            ],
            [
              116.354660729,
              -8.526631942
            ],
            [
              116.354668168,
              -8.526585547
            ],
            [
              116.354665739,
              -8.526570888
            ],
            [
              116.354609207,
              -8.526629414
            ],
            [
              116.354547804,
              -8.52666595
            ],
            [
              116.354474138,
              -8.526700022
            ],
            [
              116.354429931,
              -8.526724374
            ],
            [
              116.354378356,
              -8.526753599
            ],
            [
              116.354378368,
              -8.526746271
            ],
            [
              116.353954275,
              -8.526515969
            ],
            [
              116.35374849,
              -8.52632511
            ],
            [
              116.353324656,
              -8.525940929
            ],
            [
              116.353054979,
              -8.525808584
            ],
            [
              116.351824376,
              -8.525142168
            ],
            [
              116.35105193,
              -8.524877086
            ],
            [
              116.350892552,
              -8.524813314
            ],
            [
              116.350215843,
              -8.524521523
            ],
            [
              116.350105496,
              -8.524482258
            ],
            [
              116.349816019,
              -8.524452463
            ],
            [
              116.349593349,
              -8.524444415
            ],
            [
              116.34955256,
              -8.524525283
            ],
            [
              116.34950087,
              -8.524641207
            ],
            [
              116.349427426,
              -8.52480026
            ],
            [
              116.349400014,
              -8.524983671
            ],
            [
              116.349326721,
              -8.525053694
            ],
            [
              116.349128664,
              -8.525180163
            ],
            [
              116.349044534,
              -8.52524747
            ],
            [
              116.348922458,
              -8.525317411
            ],
            [
              116.348773289,
              -8.52538191
            ],
            [
              116.348653945,
              -8.525438366
            ],
            [
              116.348621373,
              -8.525467988
            ],
            [
              116.348463693,
              -8.525756399
            ],
            [
              116.348428397,
              -8.525794111
            ],
            [
              116.348371424,
              -8.525829088
            ],
            [
              116.348317175,
              -8.525855976
            ],
            [
              116.348246623,
              -8.525907117
            ],
            [
              116.348170619,
              -8.525977135
            ],
            [
              116.348082422,
              -8.526045784
            ],
            [
              116.348049813,
              -8.526096989
            ],
            [
              116.348022464,
              -8.52624263
            ],
            [
              116.347987108,
              -8.526315414
            ],
            [
              116.347949006,
              -8.526409777
            ],
            [
              116.347908271,
              -8.52645827
            ],
            [
              116.347859405,
              -8.526506751
            ],
            [
              116.347829438,
              -8.526598429
            ],
            [
              116.347696209,
              -8.526851808
            ],
            [
              116.347557559,
              -8.527105178
            ],
            [
              116.347543866,
              -8.52718879
            ],
            [
              116.347500027,
              -8.527469298
            ],
            [
              116.347239538,
              -8.527652317
            ],
            [
              116.347187943,
              -8.527711584
            ],
            [
              116.347185054,
              -8.527816797
            ],
            [
              116.347125394,
              -8.52783828
            ],
            [
              116.346965359,
              -8.52791625
            ],
            [
              116.346881261,
              -8.527964671
            ],
            [
              116.346862175,
              -8.528032086
            ],
            [
              116.346848615,
              -8.528037459
            ],
            [
              116.3467347,
              -8.528088528
            ],
            [
              116.34665598,
              -8.528161239
            ],
            [
              116.346634198,
              -8.528220556
            ],
            [
              116.346604193,
              -8.528333817
            ],
            [
              116.346558065,
              -8.528366114
            ],
            [
              116.346433245,
              -8.528454935
            ],
            [
              116.346254124,
              -8.52860032
            ],
            [
              116.346088591,
              -8.528724144
            ],
            [
              116.346055963,
              -8.528786141
            ],
            [
              116.345898216,
              -8.529112321
            ],
            [
              116.345854734,
              -8.529182393
            ],
            [
              116.34583297,
              -8.529230919
            ],
            [
              116.345789469,
              -8.529311783
            ],
            [
              116.345737796,
              -8.529416914
            ],
            [
              116.345637179,
              -8.529616389
            ],
            [
              116.345555666,
              -8.529737657
            ],
            [
              116.345392686,
              -8.529953214
            ],
            [
              116.345178139,
              -8.53021185
            ],
            [
              116.345115625,
              -8.530316963
            ],
            [
              116.345050295,
              -8.530484123
            ],
            [
              116.345006725,
              -8.530605455
            ],
            [
              116.344982209,
              -8.530678256
            ],
            [
              116.344955084,
              -8.5306917
            ],
            [
              116.344917104,
              -8.530713219
            ],
            [
              116.344857397,
              -8.530761681
            ],
            [
              116.34481938,
              -8.530804783
            ],
            [
              116.344775888,
              -8.530880251
            ],
            [
              116.344669914,
              -8.531041946
            ],
            [
              116.344574716,
              -8.531241429
            ],
            [
              116.344501273,
              -8.531397784
            ],
            [
              116.344465967,
              -8.53144089
            ],
            [
              116.344406241,
              -8.531500143
            ],
            [
              116.344373654,
              -8.531537859
            ],
            [
              116.344346483,
              -8.531578281
            ],
            [
              116.344316495,
              -8.531680751
            ],
            [
              116.344262084,
              -8.531802064
            ],
            [
              116.344196892,
              -8.531888287
            ],
            [
              116.344109861,
              -8.532066201
            ],
            [
              116.344093762,
              -8.532082172
            ],
            [
              116.344100389,
              -8.532091171
            ],
            [
              116.344006149,
              -8.532236706
            ],
            [
              116.343846694,
              -8.532350318
            ],
            [
              116.343727781,
              -8.532422431
            ],
            [
              116.343663334,
              -8.532490183
            ],
            [
              116.343285073,
              -8.532721581
            ],
            [
              116.342624284,
              -8.533160114
            ],
            [
              116.342501463,
              -8.533240508
            ],
            [
              116.342277982,
              -8.533354927
            ],
            [
              116.341818694,
              -8.533617939
            ],
            [
              116.341663958,
              -8.533708049
            ],
            [
              116.341595171,
              -8.533756783
            ],
            [
              116.341550888,
              -8.533825098
            ],
            [
              116.341474648,
              -8.533927554
            ],
            [
              116.341425453,
              -8.533998303
            ],
            [
              116.341386086,
              -8.534061741
            ],
            [
              116.34135902,
              -8.534105661
            ],
            [
              116.341324606,
              -8.53414224
            ],
            [
              116.341285292,
              -8.534173926
            ],
            [
              116.341263167,
              -8.534198313
            ],
            [
              116.341265588,
              -8.534217857
            ],
            [
              116.341267987,
              -8.534249614
            ],
            [
              116.341267928,
              -8.534283809
            ],
            [
              116.341240846,
              -8.534337498
            ],
            [
              116.341223574,
              -8.534393647
            ],
            [
              116.341225307,
              -8.534813761
            ],
            [
              116.341099943,
              -8.534945443
            ],
            [
              116.340994422,
              -8.534952592
            ],
            [
              116.340849626,
              -8.534969443
            ],
            [
              116.340753903,
              -8.534986378
            ],
            [
              116.340653252,
              -8.535015517
            ],
            [
              116.340523169,
              -8.535037278
            ],
            [
              116.340481419,
              -8.53505919
            ],
            [
              116.340437164,
              -8.535110407
            ],
            [
              116.340358487,
              -8.535203089
            ],
            [
              116.340274911,
              -8.535290877
            ],
            [
              116.340127426,
              -8.535444504
            ],
            [
              116.340090558,
              -8.535481079
            ],
            [
              116.340046328,
              -8.535517641
            ],
            [
              116.339987364,
              -8.535561506
            ],
            [
              116.33994069,
              -8.535593179
            ],
            [
              116.339827661,
              -8.535685802
            ],
            [
              116.339763785,
              -8.535732101
            ],
            [
              116.33971709,
              -8.535775987
            ],
            [
              116.339660521,
              -8.535854051
            ],
            [
              116.339540072,
              -8.535980856
            ],
            [
              116.33950564,
              -8.536027205
            ],
            [
              116.339289216,
              -8.536317494
            ],
            [
              116.339156465,
              -8.536463819
            ],
            [
              116.338976997,
              -8.536666241
            ],
            [
              116.338814826,
              -8.53679786
            ],
            [
              116.338583775,
              -8.537031946
            ],
            [
              116.338534542,
              -8.537124678
            ],
            [
              116.338460775,
              -8.537214924
            ],
            [
              116.338404239,
              -8.537273448
            ],
            [
              116.338355102,
              -8.537310002
            ],
            [
              116.338266664,
              -8.537370914
            ],
            [
              116.338183129,
              -8.537434276
            ],
            [
              116.338102069,
              -8.53748543
            ],
            [
              116.337998938,
              -8.537529219
            ],
            [
              116.337925268,
              -8.537563289
            ],
            [
              116.337795163,
              -8.537597262
            ],
            [
              116.337674873,
              -8.537631251
            ],
            [
              116.337576691,
              -8.537650624
            ],
            [
              116.337512866,
              -8.537667612
            ],
            [
              116.33746864,
              -8.537701732
            ],
            [
              116.337407256,
              -8.537726052
            ],
            [
              116.337304179,
              -8.537738088
            ],
            [
              116.337228115,
              -8.537737958
            ],
            [
              116.337156983,
              -8.537723181
            ],
            [
              116.337100577,
              -8.537705987
            ],
            [
              116.337031924,
              -8.53767656
            ],
            [
              116.336982926,
              -8.537632511
            ],
            [
              116.336958461,
              -8.537590947
            ],
            [
              116.336948735,
              -8.537539637
            ],
            [
              116.336941517,
              -8.53745658
            ],
            [
              116.336922039,
              -8.537368616
            ],
            [
              116.336897591,
              -8.537317282
            ],
            [
              116.336875575,
              -8.537278164
            ],
            [
              116.336846194,
              -8.537241476
            ],
            [
              116.336753102,
              -8.537155219
            ],
            [
              116.336701655,
              -8.537108723
            ],
            [
              116.336674736,
              -8.537067154
            ],
            [
              116.336652733,
              -8.537020709
            ],
            [
              116.336633213,
              -8.536957171
            ],
            [
              116.336606345,
              -8.536886292
            ],
            [
              116.336586816,
              -8.536827638
            ],
            [
              116.336559944,
              -8.536759202
            ],
            [
              116.336530634,
              -8.536680992
            ],
            [
              116.33651111,
              -8.536619896
            ],
            [
              116.336503796,
              -8.536593016
            ],
            [
              116.336489171,
              -8.536536813
            ],
            [
              116.336481898,
              -8.536485508
            ],
            [
              116.336481982,
              -8.536436658
            ],
            [
              116.336489727,
              -8.536214403
            ],
            [
              116.336502215,
              -8.536087414
            ],
            [
              116.336529484,
              -8.535926255
            ],
            [
              116.336556715,
              -8.535787079
            ],
            [
              116.33659132,
              -8.535640588
            ],
            [
              116.336613546,
              -8.535557581
            ],
            [
              116.336630882,
              -8.535464795
            ],
            [
              116.336655655,
              -8.535328057
            ],
            [
              116.336675702,
              -8.535086284
            ],
            [
              116.336688312,
              -8.534888462
            ],
            [
              116.336708198,
              -8.534739503
            ],
            [
              116.336715753,
              -8.534627161
            ],
            [
              116.336715855,
              -8.534568541
            ],
            [
              116.336716006,
              -8.534480611
            ],
            [
              116.336733338,
              -8.534390268
            ],
            [
              116.336760539,
              -8.534268189
            ],
            [
              116.336802479,
              -8.534136365
            ],
            [
              116.336913527,
              -8.533770179
            ],
            [
              116.336925922,
              -8.533696925
            ],
            [
              116.336953131,
              -8.533569961
            ],
            [
              116.336982739,
              -8.533474754
            ],
            [
              116.337039431,
              -8.533325858
            ],
            [
              116.337076383,
              -8.533240434
            ],
            [
              116.337108454,
              -8.533140346
            ],
            [
              116.337142927,
              -8.533069572
            ],
            [
              116.33717001,
              -8.533015883
            ],
            [
              116.337229012,
              -8.532950036
            ],
            [
              116.337349494,
              -8.532803692
            ],
            [
              116.33746751,
              -8.53266467
            ],
            [
              116.337514222,
              -8.532611015
            ],
            [
              116.337536356,
              -8.532581743
            ],
            [
              116.337565897,
              -8.532525615
            ],
            [
              116.337588106,
              -8.532452378
            ],
            [
              116.337605378,
              -8.53239623
            ],
            [
              116.337617765,
              -8.532327861
            ],
            [
              116.337617857,
              -8.532274126
            ],
            [
              116.337603207,
              -8.532232578
            ],
            [
              116.337576334,
              -8.532164142
            ],
            [
              116.337495629,
              -8.532010127
            ],
            [
              116.337392882,
              -8.531831648
            ],
            [
              116.337363548,
              -8.531768093
            ],
            [
              116.3373391,
              -8.531716758
            ],
            [
              116.337317088,
              -8.531675198
            ],
            [
              116.337299963,
              -8.531645859
            ],
            [
              116.337285296,
              -8.531614081
            ],
            [
              116.33726823,
              -8.531550547
            ],
            [
              116.337251176,
              -8.531479685
            ],
            [
              116.337246324,
              -8.531447924
            ],
            [
              116.337243971,
              -8.5313893
            ],
            [
              116.337244152,
              -8.531284272
            ],
            [
              116.337244544,
              -8.53105712
            ],
            [
              116.337251997,
              -8.531003397
            ],
            [
              116.337271715,
              -8.530952139
            ],
            [
              116.337293907,
              -8.530888671
            ],
            [
              116.33731615,
              -8.530795894
            ],
            [
              116.337335927,
              -8.53071044
            ],
            [
              116.337338427,
              -8.530683577
            ],
            [
              116.337328717,
              -8.530622497
            ],
            [
              116.337301803,
              -8.530578486
            ],
            [
              116.337132716,
              -8.53045363
            ],
            [
              116.337061665,
              -8.530392446
            ],
            [
              116.337017567,
              -8.53035329
            ],
            [
              116.336961179,
              -8.530326326
            ],
            [
              116.336907241,
              -8.530301809
            ],
            [
              116.336848396,
              -8.530277283
            ],
            [
              116.336711055,
              -8.530240411
            ],
            [
              116.336558991,
              -8.530203513
            ],
            [
              116.336465808,
              -8.530171601
            ],
            [
              116.336379968,
              -8.530149472
            ],
            [
              116.336296594,
              -8.530120019
            ],
            [
              116.336247551,
              -8.530102838
            ],
            [
              116.336198516,
              -8.530080772
            ],
            [
              116.336161741,
              -8.530063611
            ],
            [
              116.336115159,
              -8.530041549
            ],
            [
              116.336095547,
              -8.530031745
            ],
            [
              116.336031794,
              -8.530007211
            ],
            [
              116.335933725,
              -8.529963078
            ],
            [
              116.33588958,
              -8.52995079
            ],
            [
              116.335865065,
              -8.529938536
            ],
            [
              116.335850372,
              -8.529921413
            ],
            [
              116.335838163,
              -8.529887197
            ],
            [
              116.335833323,
              -8.529848108
            ],
            [
              116.335818656,
              -8.529816331
            ],
            [
              116.33579667,
              -8.529760116
            ],
            [
              116.335767315,
              -8.529708773
            ],
            [
              116.335757564,
              -8.529672118
            ],
            [
              116.335760102,
              -8.529623273
            ],
            [
              116.335765081,
              -8.529581758
            ],
            [
              116.335767611,
              -8.529537798
            ],
            [
              116.335797143,
              -8.529486556
            ],
            [
              116.335834053,
              -8.529425556
            ],
            [
              116.335866107,
              -8.529335238
            ],
            [
              116.335920251,
              -8.529240073
            ],
            [
              116.335942401,
              -8.529201031
            ],
            [
              116.335969455,
              -8.52916444
            ],
            [
              116.335994029,
              -8.529142499
            ],
            [
              116.336043178,
              -8.529098618
            ],
            [
              116.336114431,
              -8.529042562
            ],
            [
              116.336178318,
              -8.528988936
            ],
            [
              116.336212724,
              -8.528957243
            ],
            [
              116.336254478,
              -8.528932889
            ],
            [
              116.336286426,
              -8.528903634
            ],
            [
              116.336308626,
              -8.528835281
            ],
            [
              116.33633323,
              -8.528796243
            ],
            [
              116.336365229,
              -8.528737678
            ],
            [
              116.336473429,
              -8.52859864
            ],
            [
              116.336549673,
              -8.528493743
            ],
            [
              116.33668983,
              -8.528320564
            ],
            [
              116.336775905,
              -8.528205913
            ],
            [
              116.336815256,
              -8.528152246
            ],
            [
              116.336837431,
              -8.528098548
            ],
            [
              116.336876862,
              -8.527998473
            ],
            [
              116.336916284,
              -8.527903282
            ],
            [
              116.336938451,
              -8.52785447
            ],
            [
              116.336942605,
              -8.527847184
            ],
            [
              116.336970445,
              -8.527798347
            ],
            [
              116.336992595,
              -8.527759305
            ],
            [
              116.337004948,
              -8.527710476
            ],
            [
              116.337014817,
              -8.52767874
            ],
            [
              116.337017309,
              -8.527656762
            ],
            [
              116.337025293,
              -8.527295284
            ],
            [
              116.337021838,
              -8.526452613
            ],
            [
              116.337017604,
              -8.526061805
            ],
            [
              116.337020226,
              -8.525964109
            ],
            [
              116.337027667,
              -8.525917714
            ],
            [
              116.337042506,
              -8.525849349
            ],
            [
              116.337064719,
              -8.525773669
            ],
            [
              116.337084479,
              -8.525697985
            ],
            [
              116.337091894,
              -8.525666246
            ],
            [
              116.33709197,
              -8.525622281
            ],
            [
              116.337097029,
              -8.525534359
            ],
            [
              116.337089735,
              -8.525495266
            ],
            [
              116.337065279,
              -8.525448817
            ],
            [
              116.337053078,
              -8.525409716
            ],
            [
              116.3370335,
              -8.525380372
            ],
            [
              116.337028664,
              -8.525338842
            ],
            [
              116.337028732,
              -8.525299762
            ],
            [
              116.337028774,
              -8.525275337
            ],
            [
              116.33703374,
              -8.52524115
            ],
            [
              116.337041177,
              -8.525197197
            ],
            [
              116.337048571,
              -8.52517767
            ],
            [
              116.337085392,
              -8.525167963
            ],
            [
              116.337132024,
              -8.525160715
            ],
            [
              116.337220387,
              -8.525141326
            ],
            [
              116.337294017,
              -8.525129239
            ],
            [
              116.337316144,
              -8.525127758
            ],
            [
              116.33736518,
              -8.525124475
            ],
            [
              116.337470694,
              -8.52511977
            ],
            [
              116.337527148,
              -8.525107654
            ],
            [
              116.33755905,
              -8.525105266
            ],
            [
              116.337617894,
              -8.525129792
            ],
            [
              116.337684083,
              -8.5251641
            ],
            [
              116.33774539,
              -8.525183744
            ],
            [
              116.337779699,
              -8.525208228
            ],
            [
              116.337826317,
              -8.525208307
            ],
            [
              116.337877889,
              -8.525181528
            ],
            [
              116.337922101,
              -8.525154736
            ],
            [
              116.338015448,
              -8.52509139
            ],
            [
              116.338101433,
              -8.525028031
            ],
            [
              116.338123537,
              -8.525015856
            ],
            [
              116.33818752,
              -8.524906052
            ],
            [
              116.338239189,
              -8.524823095
            ],
            [
              116.338278585,
              -8.524742559
            ],
            [
              116.338317982,
              -8.524662024
            ],
            [
              116.338372108,
              -8.524576628
            ],
            [
              116.338473034,
              -8.524386285
            ],
            [
              116.338524724,
              -8.524291115
            ],
            [
              116.338546857,
              -8.524261842
            ],
            [
              116.338866854,
              -8.523663973
            ],
            [
              116.339531824,
              -8.523640679
            ],
            [
              116.339733561,
              -8.523325939
            ],
            [
              116.339832002,
              -8.523152688
            ],
            [
              116.339883729,
              -8.523035535
            ],
            [
              116.339935427,
              -8.52293548
            ],
            [
              116.340366227,
              -8.522108202
            ],
            [
              116.340403135,
              -8.522047202
            ],
            [
              116.34047207,
              -8.521910538
            ],
            [
              116.340568045,
              -8.52174461
            ],
            [
              116.340609869,
              -8.521678734
            ],
            [
              116.340634476,
              -8.521637253
            ],
            [
              116.340646816,
              -8.521595751
            ],
            [
              116.340671389,
              -8.52157381
            ],
            [
              116.340710684,
              -8.521551894
            ],
            [
              116.341270714,
              -8.521196238
            ],
            [
              116.341334571,
              -8.521159709
            ],
            [
              116.341386155,
              -8.521125601
            ],
            [
              116.341450086,
              -8.521045107
            ],
            [
              116.341509089,
              -8.520976816
            ],
            [
              116.341595099,
              -8.520898802
            ],
            [
              116.341754887,
              -8.520720769
            ],
            [
              116.341796661,
              -8.520684203
            ],
            [
              116.341833611,
              -8.520598777
            ],
            [
              116.341875443,
              -8.520528015
            ],
            [
              116.341927114,
              -8.520442615
            ],
            [
              116.341966468,
              -8.520386504
            ],
            [
              116.341991083,
              -8.520340138
            ],
            [
              116.342018143,
              -8.520298661
            ],
            [
              116.342050136,
              -8.520242538
            ],
            [
              116.342091964,
              -8.520174218
            ],
            [
              116.342123944,
              -8.520125422
            ],
            [
              116.342131359,
              -8.520093682
            ],
            [
              116.342124094,
              -8.520037492
            ],
            [
              116.342087341,
              -8.52000812
            ],
            [
              116.341989377,
              -8.519902926
            ],
            [
              116.341928187,
              -8.519814892
            ],
            [
              116.341827787,
              -8.519699924
            ],
            [
              116.341739625,
              -8.519602074
            ],
            [
              116.341641657,
              -8.519499322
            ],
            [
              116.341551029,
              -8.519408796
            ],
            [
              116.341511851,
              -8.519362322
            ],
            [
              116.341475126,
              -8.519315852
            ],
            [
              116.341428588,
              -8.519269365
            ],
            [
              116.341394296,
              -8.519235112
            ],
            [
              116.341355102,
              -8.519198408
            ],
            [
              116.341308575,
              -8.519144594
            ],
            [
              116.341230207,
              -8.519058973
            ],
            [
              116.341068563,
              -8.518887723
            ],
            [
              116.341002455,
              -8.518807008
            ],
            [
              116.340980435,
              -8.518770333
            ],
            [
              116.340965756,
              -8.518745883
            ],
            [
              116.340951097,
              -8.518709221
            ],
            [
              116.340946215,
              -8.518694557
            ],
            [
              116.340929061,
              -8.518682316
            ],
            [
              116.340902017,
              -8.518714022
            ],
            [
              116.340855349,
              -8.518743253
            ],
            [
              116.340798908,
              -8.518748043
            ],
            [
              116.340681166,
              -8.518730745
            ],
            [
              116.340480027,
              -8.518698651
            ],
            [
              116.340347571,
              -8.518676444
            ],
            [
              116.340259268,
              -8.518661639
            ],
            [
              116.340121968,
              -8.518602785
            ],
            [
              116.3391019,
              -8.51823956
            ],
            [
              116.339016109,
              -8.518190564
            ],
            [
              116.33840348,
              -8.517744985
            ],
            [
              116.337822719,
              -8.517316556
            ],
            [
              116.33747924,
              -8.517303758
            ],
            [
              116.337180393,
              -8.517019918
            ],
            [
              116.337138728,
              -8.516992979
            ],
            [
              116.336668342,
              -8.51658672
            ],
            [
              116.336259212,
              -8.516229415
            ],
            [
              116.336144021,
              -8.516155943
            ],
            [
              116.335393982,
              -8.515719895
            ],
            [
              116.335167565,
              -8.515587723
            ],
            [
              116.334315503,
              -8.515090325
            ],
            [
              116.334446043,
              -8.51479989
            ],
            [
              116.334507576,
              -8.51468764
            ],
            [
              116.334561698,
              -8.514604687
            ],
            [
              116.334630608,
              -8.51448268
            ],
            [
              116.334728982,
              -8.51434851
            ],
            [
              116.334886334,
              -8.514160706
            ],
            [
              116.334969914,
              -8.514068034
            ],
            [
              116.334996992,
              -8.514016788
            ],
            [
              116.335046198,
              -8.513938712
            ],
            [
              116.335080712,
              -8.513843513
            ],
            [
              116.335142265,
              -8.51371905
            ],
            [
              116.335191526,
              -8.513609222
            ],
            [
              116.335208781,
              -8.513562843
            ],
            [
              116.33522112,
              -8.513521342
            ],
            [
              116.335782973,
              -8.513527187
            ],
            [
              116.336020941,
              -8.513542249
            ],
            [
              116.33624668,
              -8.513535307
            ],
            [
              116.336332596,
              -8.513511028
            ],
            [
              116.336418549,
              -8.513464767
            ],
            [
              116.336561011,
              -8.513374638
            ],
            [
              116.33665188,
              -8.5133235
            ],
            [
              116.336708353,
              -8.513299171
            ],
            [
              116.336759907,
              -8.513282162
            ],
            [
              116.336781993,
              -8.513279757
            ],
            [
              116.336951279,
              -8.513284931
            ],
            [
              116.337081304,
              -8.51329248
            ],
            [
              116.337118107,
              -8.513292543
            ],
            [
              116.337147562,
              -8.513285265
            ],
            [
              116.337177022,
              -8.513275546
            ],
            [
              116.337253132,
              -8.513246365
            ],
            [
              116.337336628,
              -8.513202542
            ],
            [
              116.337412751,
              -8.513166035
            ],
            [
              116.337491344,
              -8.513119761
            ],
            [
              116.337501204,
              -8.51309291
            ],
            [
              116.337550409,
              -8.513014834
            ],
            [
              116.337690614,
              -8.512809902
            ],
            [
              116.337892203,
              -8.512578207
            ],
            [
              116.337958591,
              -8.512495274
            ],
            [
              116.33799791,
              -8.512458704
            ],
            [
              116.338086322,
              -8.512410004
            ],
            [
              116.338199314,
              -8.512334478
            ],
            [
              116.338265635,
              -8.512290626
            ],
            [
              116.338331952,
              -8.512249216
            ],
            [
              116.338462157,
              -8.512151738
            ],
            [
              116.338710362,
              -8.511920121
            ],
            [
              116.338931474,
              -8.511749522
            ],
            [
              116.339123084,
              -8.511613067
            ],
            [
              116.339191833,
              -8.511583873
            ],
            [
              116.339253439,
              -8.511427657
            ],
            [
              116.339295313,
              -8.511332471
            ],
            [
              116.339349391,
              -8.511273942
            ],
            [
              116.339371485,
              -8.511266652
            ],
            [
              116.339400944,
              -8.511256932
            ],
            [
              116.339430437,
              -8.511227672
            ],
            [
              116.339506626,
              -8.511152084
            ],
            [
              116.339563116,
              -8.511117985
            ],
            [
              116.339604914,
              -8.511066763
            ],
            [
              116.339718199,
              -8.510820262
            ],
            [
              116.339851379,
              -8.510417474
            ],
            [
              116.340007268,
              -8.51000231
            ],
            [
              116.340033772,
              -8.509931723
            ],
            [
              116.340200779,
              -8.509834306
            ],
            [
              116.340480819,
              -8.509636938
            ],
            [
              116.340613443,
              -8.509559003
            ],
            [
              116.340674898,
              -8.509490716
            ],
            [
              116.34076093,
              -8.509398047
            ],
            [
              116.340864245,
              -8.509241901
            ],
            [
              116.340896337,
              -8.509127158
            ],
            [
              116.340906339,
              -8.509017261
            ],
            [
              116.340911505,
              -8.508865834
            ],
            [
              116.340906903,
              -8.508687523
            ],
            [
              116.340907097,
              -8.508574051
            ],
            [
              116.340907383,
              -8.508406635
            ],
            [
              116.340897849,
              -8.508242971
            ],
            [
              116.340876022,
              -8.508093941
            ],
            [
              116.340871219,
              -8.50803287
            ],
            [
              116.340877433,
              -8.507985862
            ],
            [
              116.340895903,
              -8.507945592
            ],
            [
              116.340914386,
              -8.507897994
            ],
            [
              116.340931636,
              -8.507854058
            ],
            [
              116.340945189,
              -8.507819886
            ],
            [
              116.340961195,
              -8.507785718
            ],
            [
              116.340967381,
              -8.507755197
            ],
            [
              116.340974823,
              -8.507707581
            ],
            [
              116.340997249,
              -8.507506111
            ],
            [
              116.341022009,
              -8.507374258
            ],
            [
              116.341056621,
              -8.507220438
            ],
            [
              116.341071468,
              -8.507147188
            ],
            [
              116.341081382,
              -8.507088584
            ],
            [
              116.341083919,
              -8.507039738
            ],
            [
              116.341086485,
              -8.506973795
            ],
            [
              116.341118443,
              -8.506937211
            ],
            [
              116.341216663,
              -8.50689097
            ],
            [
              116.341314886,
              -8.506842286
            ],
            [
              116.341368913,
              -8.506813067
            ],
            [
              116.341530853,
              -8.506808457
            ],
            [
              116.341719789,
              -8.506799006
            ],
            [
              116.341751768,
              -8.50675021
            ],
            [
              116.34182065,
              -8.506642856
            ],
            [
              116.341894471,
              -8.50651597
            ],
            [
              116.341958408,
              -8.506430591
            ],
            [
              116.341997723,
              -8.506396462
            ],
            [
              116.342027194,
              -8.506379414
            ],
            [
              116.342076314,
              -8.506350187
            ],
            [
              116.342159841,
              -8.506286823
            ],
            [
              116.342184401,
              -8.506272209
            ],
            [
              116.34221144,
              -8.506242945
            ],
            [
              116.342226194,
              -8.50622343
            ],
            [
              116.342258194,
              -8.506162421
            ],
            [
              116.342300003,
              -8.506103871
            ],
            [
              116.342314791,
              -8.506064816
            ],
            [
              116.342334506,
              -8.506013557
            ],
            [
              116.342341937,
              -8.505972047
            ],
            [
              116.342349323,
              -8.505957404
            ],
            [
              116.342589945,
              -8.505852783
            ],
            [
              116.342729919,
              -8.505779744
            ],
            [
              116.342761873,
              -8.505745603
            ],
            [
              116.342919275,
              -8.5055236
            ],
            [
              116.343096272,
              -8.50532117
            ],
            [
              116.343405437,
              -8.505307037
            ],
            [
              116.343483828,
              -8.505378002
            ],
            [
              116.343532861,
              -8.505400067
            ],
            [
              116.343567214,
              -8.505397683
            ],
            [
              116.343626131,
              -8.505378242
            ],
            [
              116.343748847,
              -8.505354024
            ],
            [
              116.343984482,
              -8.505295801
            ],
            [
              116.344065481,
              -8.505276397
            ],
            [
              116.344099834,
              -8.505274013
            ],
            [
              116.344148896,
              -8.50527898
            ],
            [
              116.344175867,
              -8.505288796
            ],
            [
              116.344232319,
              -8.505276678
            ],
            [
              116.344355139,
              -8.505191397
            ],
            [
              116.344485356,
              -8.505084146
            ],
            [
              116.344590977,
              -8.505013491
            ],
            [
              116.344699076,
              -8.504928185
            ],
            [
              116.34477772,
              -8.504850157
            ],
            [
              116.344804734,
              -8.504835548
            ],
            [
              116.344836675,
              -8.504808734
            ],
            [
              116.344863721,
              -8.504774584
            ],
            [
              116.344890801,
              -8.504720894
            ],
            [
              116.344912949,
              -8.504681851
            ],
            [
              116.345055645,
              -8.504450053
            ],
            [
              116.345131907,
              -8.504330498
            ],
            [
              116.3451688,
              -8.504276825
            ],
            [
              116.345222934,
              -8.5041841
            ],
            [
              116.345267234,
              -8.504103572
            ],
            [
              116.345304132,
              -8.504047456
            ],
            [
              116.345321356,
              -8.504018175
            ],
            [
              116.345355837,
              -8.503940072
            ],
            [
              116.345383112,
              -8.503771585
            ],
            [
              116.345407833,
              -8.503661713
            ],
            [
              116.345420241,
              -8.503578689
            ],
            [
              116.345450239,
              -8.503251442
            ],
            [
              116.345607589,
              -8.503058748
            ],
            [
              116.345713329,
              -8.50291726
            ],
            [
              116.345864726,
              -8.502763339
            ],
            [
              116.345912404,
              -8.502714866
            ],
            [
              116.346111434,
              -8.502539339
            ],
            [
              116.346155638,
              -8.502514988
            ],
            [
              116.346339901,
              -8.502366305
            ],
            [
              116.346474996,
              -8.502276158
            ],
            [
              116.346622399,
              -8.502161608
            ],
            [
              116.346700984,
              -8.502117774
            ],
            [
              116.346801643,
              -8.502078863
            ],
            [
              116.346863013,
              -8.502059426
            ],
            [
              116.346931747,
              -8.502037558
            ],
            [
              116.34699315,
              -8.501998581
            ],
            [
              116.347054566,
              -8.501952276
            ],
            [
              116.347275659,
              -8.501786556
            ],
            [
              116.347447605,
              -8.501667161
            ],
            [
              116.347567978,
              -8.50157699
            ],
            [
              116.347614664,
              -8.501535545
            ],
            [
              116.347673576,
              -8.501518546
            ],
            [
              116.347793834,
              -8.501496765
            ],
            [
              116.347938634,
              -8.50147014
            ],
            [
              116.348061361,
              -8.501438593
            ],
            [
              116.348213538,
              -8.50140221
            ],
            [
              116.348287184,
              -8.501377908
            ],
            [
              116.348375587,
              -8.501331648
            ],
            [
              116.348454176,
              -8.501285372
            ],
            [
              116.348562224,
              -8.501229375
            ],
            [
              116.348694835,
              -8.501156322
            ],
            [
              116.348748861,
              -8.501127102
            ],
            [
              116.348871662,
              -8.501051589
            ],
            [
              116.348928154,
              -8.501015046
            ],
            [
              116.349082982,
              -8.500861426
            ],
            [
              116.349154293,
              -8.500766287
            ],
            [
              116.349232932,
              -8.500690701
            ],
            [
              116.349299295,
              -8.500619979
            ],
            [
              116.34932879,
              -8.500588275
            ],
            [
              116.349419819,
              -8.500439434
            ],
            [
              116.349481288,
              -8.500361376
            ],
            [
              116.349515698,
              -8.500324796
            ],
            [
              116.349574626,
              -8.500298027
            ],
            [
              116.349648292,
              -8.500261512
            ],
            [
              116.349741614,
              -8.500207932
            ],
            [
              116.349798098,
              -8.500176274
            ],
            [
              116.349857034,
              -8.50014462
            ],
            [
              116.349911064,
              -8.500112957
            ],
            [
              116.349957717,
              -8.500091052
            ],
            [
              116.350023997,
              -8.50006918
            ],
            [
              116.350033819,
              -8.500064312
            ],
            [
              116.350063314,
              -8.500032608
            ],
            [
              116.350078093,
              -8.499998438
            ],
            [
              116.350092863,
              -8.499969152
            ],
            [
              116.350267371,
              -8.499783812
            ],
            [
              116.350296899,
              -8.499732569
            ],
            [
              116.350373055,
              -8.499674075
            ],
            [
              116.350463957,
              -8.499600951
            ],
            [
              116.350513096,
              -8.499559511
            ],
            [
              116.350626111,
              -8.499466883
            ],
            [
              116.350736673,
              -8.499374252
            ],
            [
              116.350805448,
              -8.499327959
            ],
            [
              116.350844781,
              -8.499281617
            ],
            [
              116.350896341,
              -8.49925972
            ],
            [
              116.350938058,
              -8.499254905
            ],
            [
              116.351038695,
              -8.499228205
            ],
            [
              116.351146684,
              -8.499206402
            ],
            [
              116.351235033,
              -8.499191894
            ],
            [
              116.351320937,
              -8.499172497
            ],
            [
              116.351377387,
              -8.499160378
            ],
            [
              116.351455922,
              -8.499145854
            ],
            [
              116.351505012,
              -8.499133723
            ],
            [
              116.351559029,
              -8.499109388
            ],
            [
              116.352214615,
              -8.498805164
            ],
            [
              116.35249211,
              -8.49865419
            ],
            [
              116.352779381,
              -8.498525214
            ],
            [
              116.353120092,
              -8.498716297
            ],
            [
              116.353637424,
              -8.49892477
            ],
            [
              116.353840856,
              -8.499047233
            ],
            [
              116.353853095,
              -8.499064351
            ],
            [
              116.353872665,
              -8.499098579
            ],
            [
              116.353894615,
              -8.499176776
            ],
            [
              116.353909246,
              -8.499230536
            ],
            [
              116.353931221,
              -8.499294078
            ],
            [
              116.353967929,
              -8.499350316
            ],
            [
              116.354014504,
              -8.499374819
            ],
            [
              116.354347668,
              -8.499678244
            ],
            [
              116.354377069,
              -8.499702718
            ],
            [
              116.354411352,
              -8.499741855
            ],
            [
              116.354604297,
              -8.500267316
            ],
            [
              116.354665384,
              -8.500416411
            ],
            [
              116.354699594,
              -8.500499514
            ],
            [
              116.354741123,
              -8.500607053
            ],
            [
              116.354772929,
              -8.500660841
            ]
          ]
        ]
      }
    }
  ]
}