{
  "type": "FeatureCollection",
  "features": [
    {
      "type": "Feature",
      "properties": {
        "idx": "636",
        "nama_kewilayahan": "Ngata Tompu"
      },
      "geometry": {
        "type": "Polygon",
        "coordinates": [
          [
            [
              120.066500879,
              -0.912056481
            ],
            [
              120.066382501,
              -0.912109484
            ],
            [
              120.066363458,
              -0.912376734
            ],
            [
              120.064807361,
              -0.913598687
            ],
            [
              120.064800359,
              -0.913604186
            ],
            [
              120.064559356,
              -0.913793439
            ],
            [
              120.063844861,
              -0.915594508
            ],
            [
              120.063697476,
              -0.915966029
            ],
            [
              120.063594442,
              -0.916411114
            ],
            [
              120.063437543,
              -0.916374527
            ],
            [
              120.063390184,
              -0.916363484
            ],
            [
              120.063166969,
              -0.916363676
            ],
            [
              120.062958049,
              -0.916421224
            ],
            [
              120.06274432,
              -0.916407066
            ],
            [
              120.062568492,
              -0.916282921
            ],
            [
              120.062473459,
              -0.916225634
            ],
            [
              120.062311894,
              -0.916120599
            ],
            [
              120.062140823,
              -0.916006011
            ],
            [
              120.06203625,
              -0.915900926
            ],
            [
              120.061931644,
              -0.915757597
            ],
            [
              120.061817528,
              -0.915599933
            ],
            [
              120.061727129,
              -0.915408785
            ],
            [
              120.061646242,
              -0.91523197
            ],
            [
              120.061574829,
              -0.915026463
            ],
            [
              120.061493925,
              -0.914830525
            ],
            [
              120.061370282,
              -0.914639405
            ],
            [
              120.061165885,
              -0.914429233
            ],
            [
              120.061149153,
              -0.914420613
            ],
            [
              120.060980583,
              -0.914333778
            ],
            [
              120.060567287,
              -0.914205055
            ],
            [
              120.060092255,
              -0.914081166
            ],
            [
              120.059664711,
              -0.913952454
            ],
            [
              120.059351157,
              -0.913833207
            ],
            [
              120.059315435,
              -0.913833238
            ],
            [
              120.059156438,
              -0.913833374
            ],
            [
              120.058937958,
              -0.91381922
            ],
            [
              120.058882474,
              -0.913801819
            ],
            [
              120.058785941,
              -0.913771543
            ],
            [
              120.058529387,
              -0.913661808
            ],
            [
              120.058306058,
              -0.913528141
            ],
            [
              120.05805897,
              -0.913380152
            ],
            [
              120.057783386,
              -0.913232187
            ],
            [
              120.05751731,
              -0.913093776
            ],
            [
              120.057327193,
              -0.912921834
            ],
            [
              120.057094288,
              -0.912697342
            ],
            [
              120.056880384,
              -0.912477614
            ],
            [
              120.056802609,
              -0.912411037
            ],
            [
              120.056623737,
              -0.912257922
            ],
            [
              120.05643839,
              -0.91210988
            ],
            [
              120.056238848,
              -0.912023998
            ],
            [
              120.055835105,
              -0.911962194
            ],
            [
              120.055551496,
              -0.911974169
            ],
            [
              120.05548842,
              -0.911976832
            ],
            [
              120.055113319,
              -0.91208711
            ],
            [
              120.054757219,
              -0.91220215
            ],
            [
              120.054515062,
              -0.912269287
            ],
            [
              120.054206353,
              -0.912264771
            ],
            [
              120.053945122,
              -0.91224109
            ],
            [
              120.053717091,
              -0.912164795
            ],
            [
              120.053408234,
              -0.911983392
            ],
            [
              120.053389096,
              -0.911969457
            ],
            [
              120.053080331,
              -0.911744637
            ],
            [
              120.052776222,
              -0.91156323
            ],
            [
              120.052660194,
              -0.911493542
            ],
            [
              120.052339065,
              -0.911300666
            ],
            [
              120.051859196,
              -0.911076382
            ],
            [
              120.051346095,
              -0.910866469
            ],
            [
              120.051037305,
              -0.910766338
            ],
            [
              120.05089483,
              -0.91077124
            ],
            [
              120.050887668,
              -0.910778072
            ],
            [
              120.050831557,
              -0.91083161
            ],
            [
              120.050660774,
              -0.91106123
            ],
            [
              120.050518456,
              -0.911252579
            ],
            [
              120.050285937,
              -0.911487032
            ],
            [
              120.050278575,
              -0.911491578
            ],
            [
              120.050053342,
              -0.911630652
            ],
            [
              120.049921564,
              -0.911671591
            ],
            [
              120.049868167,
              -0.911688179
            ],
            [
              120.049597488,
              -0.911726655
            ],
            [
              120.049369509,
              -0.911712508
            ],
            [
              120.049013217,
              -0.911602856
            ],
            [
              120.048823192,
              -0.911540869
            ],
            [
              120.048665157,
              -0.911490246
            ],
            [
              120.048647025,
              -0.911484438
            ],
            [
              120.048599914,
              -0.911469349
            ],
            [
              120.04847601,
              -0.911435638
            ],
            [
              120.04831964,
              -0.911393096
            ],
            [
              120.048010922,
              -0.911379017
            ],
            [
              120.047962359,
              -0.911380416
            ],
            [
              120.047668979,
              -0.911388869
            ],
            [
              120.047331801,
              -0.911417841
            ],
            [
              120.047013653,
              -0.911485043
            ],
            [
              120.046995495,
              -0.911488867
            ],
            [
              120.04688705,
              -0.911511706
            ],
            [
              120.046785725,
              -0.911533045
            ],
            [
              120.046537446,
              -0.911575556
            ],
            [
              120.046477063,
              -0.911585895
            ],
            [
              120.046192124,
              -0.911610042
            ],
            [
              120.04575517,
              -0.911591291
            ],
            [
              120.045398973,
              -0.911596376
            ],
            [
              120.045180168,
              -0.911661571
            ],
            [
              120.045109337,
              -0.911682676
            ],
            [
              120.044857706,
              -0.911783285
            ],
            [
              120.044724785,
              -0.91185511
            ],
            [
              120.044506449,
              -0.912013059
            ],
            [
              120.044269138,
              -0.912199712
            ],
            [
              120.043989148,
              -0.91246289
            ],
            [
              120.043725673,
              -0.912732463
            ],
            [
              120.043666471,
              -0.912793037
            ],
            [
              120.043410219,
              -0.913046633
            ],
            [
              120.043191886,
              -0.913209365
            ],
            [
              120.043001997,
              -0.913309922
            ],
            [
              120.042712359,
              -0.913396223
            ],
            [
              120.042601232,
              -0.913410302
            ],
            [
              120.042522406,
              -0.913420289
            ],
            [
              120.042085454,
              -0.913406319
            ],
            [
              120.041666835,
              -0.913390469
            ],
            [
              120.041591505,
              -0.913387617
            ],
            [
              120.041382542,
              -0.913397357
            ],
            [
              120.041297077,
              -0.913426114
            ],
            [
              120.041071083,
              -0.913513832
            ],
            [
              120.041050191,
              -0.91352194
            ],
            [
              120.040694167,
              -0.913732597
            ],
            [
              120.040414084,
              -0.913885819
            ],
            [
              120.040048492,
              -0.914015211
            ],
            [
              120.039730345,
              -0.914087193
            ],
            [
              120.039402671,
              -0.914125719
            ],
            [
              120.039077122,
              -0.914143712
            ],
            [
              120.039051234,
              -0.914145143
            ],
            [
              120.038543056,
              -0.914150356
            ],
            [
              120.038241765,
              -0.914150613
            ],
            [
              120.038229598,
              -0.914150624
            ],
            [
              120.037882914,
              -0.914174824
            ],
            [
              120.037559998,
              -0.914222906
            ],
            [
              120.037294065,
              -0.914261379
            ],
            [
              120.036975925,
              -0.914342923
            ],
            [
              120.03670053,
              -0.914424431
            ],
            [
              120.036420397,
              -0.914520284
            ],
            [
              120.036164015,
              -0.9146209
            ],
            [
              120.035836449,
              -0.914788506
            ],
            [
              120.035575345,
              -0.91492259
            ],
            [
              120.03539969,
              -0.915008793
            ],
            [
              120.035181315,
              -0.915123718
            ],
            [
              120.035029412,
              -0.915214683
            ],
            [
              120.034825293,
              -0.915339157
            ],
            [
              120.034616448,
              -0.91549232
            ],
            [
              120.034407596,
              -0.915635921
            ],
            [
              120.034309746,
              -0.915693847
            ],
            [
              120.034189233,
              -0.915765188
            ],
            [
              120.033947106,
              -0.915875353
            ],
            [
              120.03372395,
              -0.915952035
            ],
            [
              120.033443824,
              -0.916057452
            ],
            [
              120.033277708,
              -0.916191455
            ],
            [
              120.033116418,
              -0.91641629
            ],
            [
              120.033069025,
              -0.916535851
            ],
            [
              120.033012145,
              -0.91666976
            ],
            [
              120.033012285,
              -0.916837088
            ],
            [
              120.032979153,
              -0.916970979
            ],
            [
              120.03290336,
              -0.917205302
            ],
            [
              120.032799051,
              -0.917415746
            ],
            [
              120.032614025,
              -0.917654942
            ],
            [
              120.03246005,
              -0.917762684
            ],
            [
              120.032381442,
              -0.917817688
            ],
            [
              120.032139331,
              -0.917946976
            ],
            [
              120.031730988,
              -0.918071626
            ],
            [
              120.031374867,
              -0.918172326
            ],
            [
              120.031033019,
              -0.9183017
            ],
            [
              120.030771943,
              -0.918469251
            ],
            [
              120.030525106,
              -0.918627228
            ],
            [
              120.030292531,
              -0.918799536
            ],
            [
              120.030192886,
              -0.918909579
            ],
            [
              120.030069498,
              -0.919024423
            ],
            [
              120.029865443,
              -0.919225392
            ],
            [
              120.029670882,
              -0.919421571
            ],
            [
              120.029510181,
              -0.919576714
            ],
            [
              120.029447841,
              -0.919636897
            ],
            [
              120.029234262,
              -0.91980919
            ],
            [
              120.02900642,
              -0.919962369
            ],
            [
              120.028783298,
              -0.92008208
            ],
            [
              120.028579195,
              -0.920225679
            ],
            [
              120.028351327,
              -0.920350175
            ],
            [
              120.028080712,
              -0.920469926
            ],
            [
              120.027672426,
              -0.920666289
            ],
            [
              120.027216618,
              -0.920829227
            ],
            [
              120.027065039,
              -0.92085815
            ],
            [
              120.026964939,
              -0.92087725
            ],
            [
              120.026680022,
              -0.920934864
            ],
            [
              120.026333387,
              -0.921021215
            ],
            [
              120.026001003,
              -0.921112335
            ],
            [
              120.025787348,
              -0.921193792
            ],
            [
              120.02558794,
              -0.921275236
            ],
            [
              120.025581258,
              -0.921281973
            ],
            [
              120.025497777,
              -0.921366148
            ],
            [
              120.025288984,
              -0.921581464
            ],
            [
              120.025065926,
              -0.921777668
            ],
            [
              120.024847593,
              -0.921945184
            ],
            [
              120.024572308,
              -0.922160556
            ],
            [
              120.024436489,
              -0.922249747
            ],
            [
              120.024368195,
              -0.922294594
            ],
            [
              120.024159308,
              -0.922399951
            ],
            [
              120.02394568,
              -0.922514874
            ],
            [
              120.023722538,
              -0.922610681
            ],
            [
              120.023508922,
              -0.922739947
            ],
            [
              120.023323827,
              -0.922897872
            ],
            [
              120.023181477,
              -0.923055763
            ],
            [
              120.023072413,
              -0.923261431
            ],
            [
              120.023036706,
              -0.923324455
            ],
            [
              120.022958596,
              -0.923462324
            ],
            [
              120.022797349,
              -0.923739749
            ],
            [
              120.022598083,
              -0.923988524
            ],
            [
              120.022375008,
              -0.924165606
            ],
            [
              120.022166129,
              -0.924280525
            ],
            [
              120.022111459,
              -0.924300068
            ],
            [
              120.021938225,
              -0.924361995
            ],
            [
              120.021936106,
              -0.924362743
            ],
            [
              120.021748303,
              -0.924429089
            ],
            [
              120.021596405,
              -0.924529617
            ],
            [
              120.021449282,
              -0.924658826
            ],
            [
              120.021264222,
              -0.92485978
            ],
            [
              120.021121945,
              -0.925103724
            ],
            [
              120.02097023,
              -0.92541939
            ],
            [
              120.020913427,
              -0.925644138
            ],
            [
              120.020847153,
              -0.92590236
            ],
            [
              120.020766643,
              -0.926174937
            ],
            [
              120.020763059,
              -0.9261819
            ],
            [
              120.020638618,
              -0.926423651
            ],
            [
              120.020608989,
              -0.926469122
            ],
            [
              120.020529523,
              -0.926591075
            ],
            [
              120.020344468,
              -0.92679681
            ],
            [
              120.020145128,
              -0.926959529
            ],
            [
              120.019855561,
              -0.927136669
            ],
            [
              120.019504246,
              -0.927309082
            ],
            [
              120.019464126,
              -0.92732993
            ],
            [
              120.019190919,
              -0.9274719
            ],
            [
              120.018887091,
              -0.92763471
            ],
            [
              120.018502595,
              -0.927883644
            ],
            [
              120.018345975,
              -0.928017643
            ],
            [
              120.018189365,
              -0.928161203
            ],
            [
              120.017952077,
              -0.928381326
            ],
            [
              120.017724281,
              -0.928591879
            ],
            [
              120.017723748,
              -0.928592266
            ],
            [
              120.017434741,
              -0.928802486
            ],
            [
              120.017211641,
              -0.928950884
            ],
            [
              120.016945796,
              -0.92909932
            ],
            [
              120.016694175,
              -0.929219057
            ],
            [
              120.016490057,
              -0.929348317
            ],
            [
              120.016252721,
              -0.92951107
            ],
            [
              120.016029666,
              -0.929712058
            ],
            [
              120.015877844,
              -0.929903424
            ],
            [
              120.015749807,
              -0.930137795
            ],
            [
              120.015747671,
              -0.930143076
            ],
            [
              120.015655017,
              -0.930372139
            ],
            [
              120.015541248,
              -0.930630404
            ],
            [
              120.015422702,
              -0.930855207
            ],
            [
              120.015280401,
              -0.931070469
            ],
            [
              120.0150811,
              -0.931280998
            ],
            [
              120.014839051,
              -0.931486784
            ],
            [
              120.014706183,
              -0.931625543
            ],
            [
              120.014468907,
              -0.93186001
            ],
            [
              120.014231673,
              -0.932142286
            ],
            [
              120.014008666,
              -0.932400645
            ],
            [
              120.01377146,
              -0.932716388
            ],
            [
              120.01358172,
              -0.932998623
            ],
            [
              120.013491675,
              -0.933228182
            ],
            [
              120.013472799,
              -0.933371625
            ],
            [
              120.013496701,
              -0.933553277
            ],
            [
              120.013563341,
              -0.933725331
            ],
            [
              120.013653663,
              -0.93382087
            ],
            [
              120.013786764,
              -0.93395462
            ],
            [
              120.013976853,
              -0.93408354
            ],
            [
              120.013993794,
              -0.934091424
            ],
            [
              120.01417166,
              -0.934174207
            ],
            [
              120.014385511,
              -0.934317449
            ],
            [
              120.014556623,
              -0.934470288
            ],
            [
              120.014666009,
              -0.934642305
            ],
            [
              120.014699447,
              -0.934866976
            ],
            [
              120.014680604,
              -0.935048667
            ],
            [
              120.014657397,
              -0.935107211
            ],
            [
              120.014623732,
              -0.935192141
            ],
            [
              120.014471915,
              -0.935388289
            ],
            [
              120.014324791,
              -0.935517499
            ],
            [
              120.014215744,
              -0.935742294
            ],
            [
              120.014135158,
              -0.935924037
            ],
            [
              120.014083097,
              -0.936139222
            ],
            [
              120.014026357,
              -0.936435685
            ],
            [
              120.013998089,
              -0.936703438
            ],
            [
              120.013993576,
              -0.936980732
            ],
            [
              120.013946364,
              -0.937310653
            ],
            [
              120.013899028,
              -0.937497147
            ],
            [
              120.013785248,
              -0.937741072
            ],
            [
              120.01373888,
              -0.937911679
            ],
            [
              120.013718964,
              -0.937984953
            ],
            [
              120.01370492,
              -0.938224009
            ],
            [
              120.013657601,
              -0.938429627
            ],
            [
              120.013591276,
              -0.938625701
            ],
            [
              120.013501224,
              -0.938845698
            ],
            [
              120.013382585,
              -0.938960542
            ],
            [
              120.013273436,
              -0.939065817
            ],
            [
              120.013007553,
              -0.939171227
            ],
            [
              120.01298062,
              -0.939172202
            ],
            [
              120.01273684,
              -0.939181025
            ],
            [
              120.012523095,
              -0.939162086
            ],
            [
              120.012252319,
              -0.93910017
            ],
            [
              120.011963682,
              -0.938990907
            ],
            [
              120.011962504,
              -0.938990462
            ],
            [
              120.011601406,
              -0.938833005
            ],
            [
              120.011254536,
              -0.938651633
            ],
            [
              120.010983698,
              -0.938518003
            ],
            [
              120.010736613,
              -0.938389133
            ],
            [
              120.010603597,
              -0.938319146
            ],
            [
              120.010537043,
              -0.938284128
            ],
            [
              120.010332715,
              -0.938169562
            ],
            [
              120.010095186,
              -0.938107617
            ],
            [
              120.009914691,
              -0.93809343
            ],
            [
              120.009696234,
              -0.938117525
            ],
            [
              120.009553793,
              -0.938170238
            ],
            [
              120.009401874,
              -0.938246864
            ],
            [
              120.009297478,
              -0.938356914
            ],
            [
              120.009295807,
              -0.938363914
            ],
            [
              120.009267506,
              -0.938482439
            ],
            [
              120.009257277,
              -0.938670696
            ],
            [
              120.009255816,
              -0.938697589
            ],
            [
              120.009255949,
              -0.938852969
            ],
            [
              120.009279819,
              -0.938996374
            ],
            [
              120.009380925,
              -0.939205451
            ],
            [
              120.009505779,
              -0.939414506
            ],
            [
              120.00953703,
              -0.939451269
            ],
            [
              120.009749438,
              -0.939701148
            ],
            [
              120.01014756,
              -0.940107178
            ],
            [
              120.010426912,
              -0.940477454
            ],
            [
              120.010593381,
              -0.940752209
            ],
            [
              120.010688597,
              -0.941015076
            ],
            [
              120.010717338,
              -0.941183651
            ],
            [
              120.010730366,
              -0.94126006
            ],
            [
              120.010700907,
              -0.941523034
            ],
            [
              120.010624671,
              -0.941687847
            ],
            [
              120.010617945,
              -0.94170239
            ],
            [
              120.010445897,
              -0.941845966
            ],
            [
              120.010208549,
              -0.941995575
            ],
            [
              120.009959322,
              -0.942139219
            ],
            [
              120.0097576,
              -0.942294774
            ],
            [
              120.009710093,
              -0.942399347
            ],
            [
              120.009692418,
              -0.942438256
            ],
            [
              120.009691111,
              -0.942452868
            ],
            [
              120.009680657,
              -0.942569741
            ],
            [
              120.009686712,
              -0.942707187
            ],
            [
              120.009716493,
              -0.942820706
            ],
            [
              120.009865066,
              -0.942993884
            ],
            [
              120.010073002,
              -0.943161035
            ],
            [
              120.010310628,
              -0.943334134
            ],
            [
              120.010476999,
              -0.943495344
            ],
            [
              120.01064938,
              -0.943740214
            ],
            [
              120.010659762,
              -0.943786307
            ],
            [
              120.010691098,
              -0.943925437
            ],
            [
              120.010730003,
              -0.94421445
            ],
            [
              120.010732925,
              -0.944236159
            ],
            [
              120.010727286,
              -0.944582776
            ],
            [
              120.010709719,
              -0.944815291
            ],
            [
              120.010709676,
              -0.944815861
            ],
            [
              120.010644488,
              -0.944953368
            ],
            [
              120.010573353,
              -0.945078928
            ],
            [
              120.010431064,
              -0.945306144
            ],
            [
              120.010276853,
              -0.945479587
            ],
            [
              120.010075131,
              -0.945635141
            ],
            [
              120.009897076,
              -0.945695058
            ],
            [
              120.009594308,
              -0.945713251
            ],
            [
              120.009285589,
              -0.945713521
            ],
            [
              120.008941242,
              -0.945707845
            ],
            [
              120.008854016,
              -0.945734269
            ],
            [
              120.008822534,
              -0.945743805
            ],
            [
              120.008793057,
              -0.945806587
            ],
            [
              120.0087692,
              -0.945857398
            ],
            [
              120.00877523,
              -0.945964962
            ],
            [
              120.008840639,
              -0.946084428
            ],
            [
              120.008971416,
              -0.94627555
            ],
            [
              120.009015776,
              -0.946418992
            ],
            [
              120.009024997,
              -0.94644881
            ],
            [
              120.009019205,
              -0.946616146
            ],
            [
              120.009012935,
              -0.946663804
            ],
            [
              120.008995613,
              -0.94679545
            ],
            [
              120.008894829,
              -0.94696287
            ],
            [
              120.008675312,
              -0.94713637
            ],
            [
              120.008485449,
              -0.947273986
            ],
            [
              120.008259928,
              -0.947369801
            ],
            [
              120.007939463,
              -0.947519484
            ],
            [
              120.007654572,
              -0.947615351
            ],
            [
              120.007262802,
              -0.947693384
            ],
            [
              120.006894727,
              -0.947711634
            ],
            [
              120.006514789,
              -0.947741848
            ],
            [
              120.006312964,
              -0.94777788
            ],
            [
              120.00630514,
              -0.947780137
            ],
            [
              120.006105223,
              -0.947837822
            ],
            [
              120.00596875,
              -0.947927585
            ],
            [
              120.005808592,
              -0.94808908
            ],
            [
              120.005737478,
              -0.948238546
            ],
            [
              120.005708932,
              -0.948452578
            ],
            [
              120.005707983,
              -0.948459688
            ],
            [
              120.005690787,
              -0.949170863
            ],
            [
              120.005667204,
              -0.949362121
            ],
            [
              120.005619859,
              -0.94953547
            ],
            [
              120.005573093,
              -0.949771912
            ],
            [
              120.00557257,
              -0.949774556
            ],
            [
              120.005569049,
              -0.949921443
            ],
            [
              120.00556684,
              -0.950013607
            ],
            [
              120.005572999,
              -0.950270575
            ],
            [
              120.005626582,
              -0.950443837
            ],
            [
              120.005674207,
              -0.950593198
            ],
            [
              120.005822832,
              -0.950826136
            ],
            [
              120.005929925,
              -0.951088993
            ],
            [
              120.005983569,
              -0.951333966
            ],
            [
              120.006019377,
              -0.951549075
            ],
            [
              120.006052892,
              -0.951642533
            ],
            [
              120.006072939,
              -0.951698433
            ],
            [
              120.006162123,
              -0.951847757
            ],
            [
              120.006298803,
              -0.951997041
            ],
            [
              120.006423571,
              -0.952104501
            ],
            [
              120.006578067,
              -0.952259744
            ],
            [
              120.006685077,
              -0.952426982
            ],
            [
              120.006792145,
              -0.952659957
            ],
            [
              120.006861921,
              -0.952775415
            ],
            [
              120.006893218,
              -0.9528272
            ],
            [
              120.007000207,
              -0.952970532
            ],
            [
              120.007002501,
              -0.952972916
            ],
            [
              120.007172535,
              -0.953149665
            ],
            [
              120.007297371,
              -0.953334815
            ],
            [
              120.007428207,
              -0.953591673
            ],
            [
              120.007499532,
              -0.953839384
            ],
            [
              120.007505621,
              -0.95386053
            ],
            [
              120.007505725,
              -0.953980053
            ],
            [
              120.007505891,
              -0.954171289
            ],
            [
              120.007476461,
              -0.954464145
            ],
            [
              120.007429282,
              -0.95482873
            ],
            [
              120.007399795,
              -0.955055848
            ],
            [
              120.007334785,
              -0.955396544
            ],
            [
              120.007281561,
              -0.955635637
            ],
            [
              120.007234262,
              -0.955862771
            ],
            [
              120.007210682,
              -0.956054027
            ],
            [
              120.007098228,
              -0.956454527
            ],
            [
              120.007040842,
              -0.956612203
            ],
            [
              120.006991618,
              -0.956747452
            ],
            [
              120.006885014,
              -0.957046352
            ],
            [
              120.006719138,
              -0.957458851
            ],
            [
              120.006642466,
              -0.957667459
            ],
            [
              120.006582911,
              -0.957829491
            ],
            [
              120.006494018,
              -0.95801483
            ],
            [
              120.006449474,
              -0.958104703
            ],
            [
              120.006381414,
              -0.958242022
            ],
            [
              120.006185766,
              -0.958552954
            ],
            [
              120.005954459,
              -0.958822084
            ],
            [
              120.005687484,
              -0.959037462
            ],
            [
              120.005473826,
              -0.959121317
            ],
            [
              120.005328879,
              -0.959165228
            ],
            [
              120.005295764,
              -0.959175259
            ],
            [
              120.005058311,
              -0.959205351
            ],
            [
              120.00467836,
              -0.959223614
            ],
            [
              120.004606128,
              -0.959223679
            ],
            [
              120.004120286,
              -0.959224108
            ],
            [
              120.003793742,
              -0.959212445
            ],
            [
              120.003569269,
              -0.959190979
            ],
            [
              120.003360306,
              -0.959170995
            ],
            [
              120.003082402,
              -0.959110284
            ],
            [
              120.00299141,
              -0.959092921
            ],
            [
              120.002783128,
              -0.959053177
            ],
            [
              120.00265487,
              -0.959031777
            ],
            [
              120.002505208,
              -0.958974538
            ],
            [
              120.002465246,
              -0.958962657
            ],
            [
              120.002120392,
              -0.958860136
            ],
            [
              120.001792621,
              -0.958803054
            ],
            [
              120.001521876,
              -0.95878178
            ],
            [
              120.001265385,
              -0.958791748
            ],
            [
              120.001144296,
              -0.958796455
            ],
            [
              120.00070259,
              -0.958804017
            ],
            [
              120.000246628,
              -0.958804419
            ],
            [
              120.000082799,
              -0.958840421
            ],
            [
              119.999769431,
              -0.958962611
            ],
            [
              119.99956288,
              -0.959027336
            ],
            [
              119.999377645,
              -0.9590275
            ],
            [
              119.999014277,
              -0.958999135
            ],
            [
              119.99862954,
              -0.95897796
            ],
            [
              119.998337471,
              -0.959014076
            ],
            [
              119.998095309,
              -0.959093174
            ],
            [
              119.997910206,
              -0.959243937
            ],
            [
              119.997753581,
              -0.959373161
            ],
            [
              119.997611131,
              -0.959416315
            ],
            [
              119.997475742,
              -0.959387749
            ],
            [
              119.997347434,
              -0.959308977
            ],
            [
              119.997211945,
              -0.959165668
            ],
            [
              119.997196614,
              -0.959147998
            ],
            [
              119.996969471,
              -0.958886197
            ],
            [
              119.996755377,
              -0.958470443
            ],
            [
              119.996641187,
              -0.958241059
            ],
            [
              119.996562719,
              -0.958126385
            ],
            [
              119.996448578,
              -0.957954372
            ],
            [
              119.996431139,
              -0.957941229
            ],
            [
              119.996305996,
              -0.957846925
            ],
            [
              119.996113525,
              -0.957718009
            ],
            [
              119.995864058,
              -0.957589143
            ],
            [
              119.995671618,
              -0.957496084
            ],
            [
              119.99545768,
              -0.957259615
            ],
            [
              119.995413516,
              -0.957186409
            ],
            [
              119.995314986,
              -0.957023084
            ],
            [
              119.995172205,
              -0.956686152
            ],
            [
              119.994972497,
              -0.956428157
            ],
            [
              119.994912799,
              -0.956385817
            ],
            [
              119.994851307,
              -0.956342206
            ],
            [
              119.994666003,
              -0.956263483
            ],
            [
              119.994466476,
              -0.956213459
            ],
            [
              119.993974916,
              -0.956242576
            ],
            [
              119.993533239,
              -0.956285993
            ],
            [
              119.993319549,
              -0.956336381
            ],
            [
              119.992927817,
              -0.95646581
            ],
            [
              119.992664287,
              -0.956552099
            ],
            [
              119.992426449,
              -0.956589145
            ],
            [
              119.992386472,
              -0.956595373
            ],
            [
              119.992201211,
              -0.956566849
            ],
            [
              119.992001665,
              -0.95649531
            ],
            [
              119.991709401,
              -0.95630911
            ],
            [
              119.991521789,
              -0.956203792
            ],
            [
              119.991467051,
              -0.956173064
            ],
            [
              119.991238927,
              -0.956008321
            ],
            [
              119.991067859,
              -0.955915243
            ],
            [
              119.990828172,
              -0.955888648
            ],
            [
              119.990683102,
              -0.955872552
            ],
            [
              119.990490692,
              -0.955815348
            ],
            [
              119.990234094,
              -0.955679315
            ],
            [
              119.989877691,
              -0.955471656
            ],
            [
              119.989685263,
              -0.955392938
            ],
            [
              119.989400297,
              -0.955407532
            ],
            [
              119.989377367,
              -0.95541621
            ],
            [
              119.989286343,
              -0.955450659
            ],
            [
              119.989136866,
              -0.955608563
            ],
            [
              119.989088024,
              -0.955737957
            ],
            [
              119.98908,
              -0.955759214
            ],
            [
              119.98909451,
              -0.956060402
            ],
            [
              119.989165959,
              -0.956296998
            ],
            [
              119.98923026,
              -0.956504915
            ],
            [
              119.98926477,
              -0.956712232
            ],
            [
              119.989266068,
              -0.956720027
            ],
            [
              119.989266223,
              -0.956899314
            ],
            [
              119.989195178,
              -0.957128863
            ],
            [
              119.989074174,
              -0.957258056
            ],
            [
              119.988889025,
              -0.957358619
            ],
            [
              119.988829784,
              -0.957360282
            ],
            [
              119.988625426,
              -0.957366022
            ],
            [
              119.988205075,
              -0.957359219
            ],
            [
              119.987770446,
              -0.957316572
            ],
            [
              119.987563911,
              -0.957402811
            ],
            [
              119.98742867,
              -0.95754636
            ],
            [
              119.987350462,
              -0.957732887
            ],
            [
              119.987307871,
              -0.957912211
            ],
            [
              119.987179786,
              -0.95809161
            ],
            [
              119.986973244,
              -0.958170678
            ],
            [
              119.986681097,
              -0.958120734
            ],
            [
              119.986438847,
              -0.958099433
            ],
            [
              119.986289188,
              -0.958049364
            ],
            [
              119.986096728,
              -0.957934789
            ],
            [
              119.985832998,
              -0.957791591
            ],
            [
              119.985512296,
              -0.957677129
            ],
            [
              119.985298562,
              -0.957677316
            ],
            [
              119.985027887,
              -0.957742097
            ],
            [
              119.984807128,
              -0.957857035
            ],
            [
              119.984679526,
              -0.957963328
            ],
            [
              119.984643382,
              -0.957993437
            ],
            [
              119.984351371,
              -0.958101265
            ],
            [
              119.984052168,
              -0.958130214
            ],
            [
              119.983888309,
              -0.958137529
            ],
            [
              119.98365317,
              -0.958101878
            ],
            [
              119.983417987,
              -0.958016026
            ],
            [
              119.983161412,
              -0.957908679
            ],
            [
              119.982862071,
              -0.957779854
            ],
            [
              119.982584228,
              -0.95779444
            ],
            [
              119.982356312,
              -0.957873527
            ],
            [
              119.982121346,
              -0.958038678
            ],
            [
              119.981907778,
              -0.958232496
            ],
            [
              119.981701292,
              -0.958376107
            ],
            [
              119.981402167,
              -0.958498286
            ],
            [
              119.98133883,
              -0.958505425
            ],
            [
              119.981209824,
              -0.958519968
            ],
            [
              119.981024562,
              -0.958491445
            ],
            [
              119.980789322,
              -0.95834105
            ],
            [
              119.980660926,
              -0.958161874
            ],
            [
              119.980568127,
              -0.957953981
            ],
            [
              119.980496646,
              -0.957681526
            ],
            [
              119.980439514,
              -0.957523802
            ],
            [
              119.980368089,
              -0.95731589
            ],
            [
              119.980289534,
              -0.957100814
            ],
            [
              119.980203915,
              -0.956957458
            ],
            [
              119.980025449,
              -0.956548838
            ],
            [
              119.979934703,
              -0.956426443
            ],
            [
              119.979554673,
              -0.956361036
            ],
            [
              119.97919253,
              -0.956385258
            ],
            [
              119.978967028,
              -0.956510957
            ],
            [
              119.978694107,
              -0.956726341
            ],
            [
              119.978498384,
              -0.956959588
            ],
            [
              119.978338386,
              -0.957312329
            ],
            [
              119.978196133,
              -0.957587361
            ],
            [
              119.978160897,
              -0.957643897
            ],
            [
              119.978065697,
              -0.957796646
            ],
            [
              119.977911508,
              -0.957999974
            ],
            [
              119.977656403,
              -0.958221321
            ],
            [
              119.97739535,
              -0.958430719
            ],
            [
              119.977284733,
              -0.958527389
            ],
            [
              119.977217372,
              -0.958586258
            ],
            [
              119.976992014,
              -0.958879294
            ],
            [
              119.976808149,
              -0.959094602
            ],
            [
              119.976618424,
              -0.959399558
            ],
            [
              119.976587083,
              -0.959502409
            ],
            [
              119.976587072,
              -0.959502444
            ],
            [
              119.976549185,
              -0.959626774
            ],
            [
              119.976547381,
              -0.959632696
            ],
            [
              119.97654394,
              -0.959647651
            ],
            [
              119.976541203,
              -0.959646391
            ],
            [
              119.976404074,
              -0.959581235
            ],
            [
              119.976363149,
              -0.95956179
            ],
            [
              119.976167719,
              -0.95939616
            ],
            [
              119.976088388,
              -0.959359301
            ],
            [
              119.976088323,
              -0.95935927
            ],
            [
              119.976042344,
              -0.959337908
            ],
            [
              119.975916969,
              -0.959279656
            ],
            [
              119.97571397,
              -0.95923596
            ],
            [
              119.975554753,
              -0.959183854
            ],
            [
              119.975395535,
              -0.959131749
            ],
            [
              119.975218921,
              -0.9590517
            ],
            [
              119.975098095,
              -0.958976426
            ],
            [
              119.97497727,
              -0.958901153
            ],
            [
              119.974770594,
              -0.958736634
            ],
            [
              119.974603121,
              -0.958593061
            ],
            [
              119.974435647,
              -0.958449487
            ],
            [
              119.974290524,
              -0.958322049
            ],
            [
              119.974142239,
              -0.958182388
            ],
            [
              119.973946597,
              -0.958020318
            ],
            [
              119.973846223,
              -0.957923821
            ],
            [
              119.973745848,
              -0.957827324
            ],
            [
              119.973616207,
              -0.957687837
            ],
            [
              119.973507522,
              -0.957556807
            ],
            [
              119.973390175,
              -0.957362123
            ],
            [
              119.973335057,
              -0.957235161
            ],
            [
              119.97327994,
              -0.957108199
            ],
            [
              119.973208761,
              -0.956889596
            ],
            [
              119.973148164,
              -0.956625548
            ],
            [
              119.973117436,
              -0.956498287
            ],
            [
              119.972973279,
              -0.956325039
            ],
            [
              119.972829122,
              -0.956151792
            ],
            [
              119.972684965,
              -0.955978544
            ],
            [
              119.972588991,
              -0.955785558
            ],
            [
              119.972474701,
              -0.955556122
            ],
            [
              119.972303286,
              -0.95516566
            ],
            [
              119.972035601,
              -0.954758548
            ],
            [
              119.971902912,
              -0.954634052
            ],
            [
              119.97159928,
              -0.954323321
            ],
            [
              119.971336039,
              -0.953928791
            ],
            [
              119.971230027,
              -0.953693854
            ],
            [
              119.971212045,
              -0.953285384
            ],
            [
              119.971192177,
              -0.953016697
            ],
            [
              119.971163087,
              -0.952226403
            ],
            [
              119.971084291,
              -0.951601056
            ],
            [
              119.970854243,
              -0.951215572
            ],
            [
              119.970540599,
              -0.950899333
            ],
            [
              119.970505509,
              -0.950084016
            ],
            [
              119.970010966,
              -0.949415096
            ],
            [
              119.969748956,
              -0.948552849
            ],
            [
              119.969715551,
              -0.947789519
            ],
            [
              119.969710573,
              -0.94726689
            ],
            [
              119.969686546,
              -0.947089309
            ],
            [
              119.969600115,
              -0.946812395
            ],
            [
              119.969500325,
              -0.946710584
            ],
            [
              119.96893308,
              -0.946420072
            ],
            [
              119.968607421,
              -0.946259691
            ],
            [
              119.968248117,
              -0.945993918
            ],
            [
              119.968097271,
              -0.945847987
            ],
            [
              119.967961305,
              -0.945636945
            ],
            [
              119.967940021,
              -0.945443676
            ],
            [
              119.967934226,
              -0.945025673
            ],
            [
              119.967912294,
              -0.944879069
            ],
            [
              119.96770281,
              -0.944580515
            ],
            [
              119.967541889,
              -0.944418799
            ],
            [
              119.967442567,
              -0.944276293
            ],
            [
              119.967228799,
              -0.943905318
            ],
            [
              119.967146588,
              -0.943661312
            ],
            [
              119.967036052,
              -0.943155325
            ],
            [
              119.967021247,
              -0.942483064
            ],
            [
              119.966993858,
              -0.942140125
            ],
            [
              119.967018278,
              -0.941734181
            ],
            [
              119.96794948,
              -0.941558949
            ],
            [
              119.968421283,
              -0.941025309
            ],
            [
              119.968181521,
              -0.940962169
            ],
            [
              119.968051662,
              -0.940908102
            ],
            [
              119.967921804,
              -0.940854034
            ],
            [
              119.967725458,
              -0.940705702
            ],
            [
              119.967582991,
              -0.940490102
            ],
            [
              119.967415122,
              -0.940061089
            ],
            [
              119.967260212,
              -0.93958631
            ],
            [
              119.967161352,
              -0.939268143
            ],
            [
              119.967108169,
              -0.938969272
            ],
            [
              119.967080018,
              -0.938699725
            ],
            [
              119.967045698,
              -0.938555432
            ],
            [
              119.967011379,
              -0.93841114
            ],
            [
              119.966788176,
              -0.938005285
            ],
            [
              119.966696218,
              -0.937812207
            ],
            [
              119.966637283,
              -0.937653018
            ],
            [
              119.966595589,
              -0.937394635
            ],
            [
              119.966593002,
              -0.937255593
            ],
            [
              119.966609429,
              -0.937022112
            ],
            [
              119.966654029,
              -0.936839809
            ],
            [
              119.966709051,
              -0.936764632
            ],
            [
              119.966767041,
              -0.936666203
            ],
            [
              119.966842089,
              -0.936519021
            ],
            [
              119.96694638,
              -0.936296217
            ],
            [
              119.966985336,
              -0.936188912
            ],
            [
              119.967092865,
              -0.935879331
            ],
            [
              119.967117162,
              -0.935653812
            ],
            [
              119.967114172,
              -0.935600333
            ],
            [
              119.96710721,
              -0.935486609
            ],
            [
              119.967085068,
              -0.935444575
            ],
            [
              119.967012655,
              -0.935278638
            ],
            [
              119.966717328,
              -0.934963357
            ],
            [
              119.966911611,
              -0.93484719
            ],
            [
              119.967095792,
              -0.934684619
            ],
            [
              119.967255383,
              -0.934535702
            ],
            [
              119.967450651,
              -0.934396414
            ],
            [
              119.967661098,
              -0.934285242
            ],
            [
              119.967936688,
              -0.934147274
            ],
            [
              119.968063834,
              -0.934070507
            ],
            [
              119.968355987,
              -0.93388948
            ],
            [
              119.968803252,
              -0.93361803
            ],
            [
              119.968994742,
              -0.933489921
            ],
            [
              119.96948174,
              -0.933028646
            ],
            [
              119.969775343,
              -0.932573775
            ],
            [
              119.969994309,
              -0.932168985
            ],
            [
              119.970123857,
              -0.931971399
            ],
            [
              119.970250855,
              -0.931687728
            ],
            [
              119.97038398,
              -0.931395063
            ],
            [
              119.970466488,
              -0.931151562
            ],
            [
              119.970527552,
              -0.930966223
            ],
            [
              119.970588616,
              -0.930780885
            ],
            [
              119.970688323,
              -0.930120925
            ],
            [
              119.9706881,
              -0.929854111
            ],
            [
              119.970687897,
              -0.929610761
            ],
            [
              119.970682151,
              -0.929432784
            ],
            [
              119.970676406,
              -0.929254808
            ],
            [
              119.970678856,
              -0.929038922
            ],
            [
              119.970681305,
              -0.928823036
            ],
            [
              119.970704881,
              -0.928614776
            ],
            [
              119.970728457,
              -0.928406516
            ],
            [
              119.970745169,
              -0.928238004
            ],
            [
              119.970748702,
              -0.928202386
            ],
            [
              119.970768947,
              -0.927998256
            ],
            [
              119.970789192,
              -0.927794126
            ],
            [
              119.970809437,
              -0.927589995
            ],
            [
              119.970843852,
              -0.9274101
            ],
            [
              119.970878268,
              -0.927230206
            ],
            [
              119.970921387,
              -0.927101361
            ],
            [
              119.970964507,
              -0.926972517
            ],
            [
              119.971057802,
              -0.926816836
            ],
            [
              119.97111559,
              -0.925979385
            ],
            [
              119.971089382,
              -0.92591147
            ],
            [
              119.971007933,
              -0.925736132
            ],
            [
              119.970959527,
              -0.925585324
            ],
            [
              119.970909783,
              -0.925401954
            ],
            [
              119.970894206,
              -0.925299004
            ],
            [
              119.970872076,
              -0.92512152
            ],
            [
              119.970864329,
              -0.924979676
            ],
            [
              119.970864202,
              -0.924826947
            ],
            [
              119.970867385,
              -0.92470489
            ],
            [
              119.97089935,
              -0.924502767
            ],
            [
              119.970927569,
              -0.924372413
            ],
            [
              119.970995,
              -0.924211523
            ],
            [
              119.971062432,
              -0.924050633
            ],
            [
              119.971142889,
              -0.923854432
            ],
            [
              119.971215439,
              -0.923691822
            ],
            [
              119.971274023,
              -0.923561568
            ],
            [
              119.971353425,
              -0.923391832
            ],
            [
              119.971441029,
              -0.923284819
            ],
            [
              119.971560701,
              -0.923152509
            ],
            [
              119.971693194,
              -0.923046597
            ],
            [
              119.971806562,
              -0.923001008
            ],
            [
              119.971327172,
              -0.922947928
            ],
            [
              119.970933071,
              -0.92282807
            ],
            [
              119.970765937,
              -0.922493868
            ],
            [
              119.970828272,
              -0.922364979
            ],
            [
              119.970893199,
              -0.922133121
            ],
            [
              119.970908049,
              -0.922080089
            ],
            [
              119.970958125,
              -0.921901263
            ],
            [
              119.971016492,
              -0.921752195
            ],
            [
              119.971074859,
              -0.921603126
            ],
            [
              119.971190435,
              -0.921370385
            ],
            [
              119.971279274,
              -0.921253235
            ],
            [
              119.971368113,
              -0.921136084
            ],
            [
              119.971473763,
              -0.921023084
            ],
            [
              119.971645615,
              -0.920875198
            ],
            [
              119.971824619,
              -0.920724072
            ],
            [
              119.971986709,
              -0.920558125
            ],
            [
              119.972098227,
              -0.92032425
            ],
            [
              119.972151308,
              -0.92011686
            ],
            [
              119.972161577,
              -0.919933594
            ],
            [
              119.972154706,
              -0.919743086
            ],
            [
              119.972097808,
              -0.919557843
            ],
            [
              119.971940374,
              -0.919395706
            ],
            [
              119.971756277,
              -0.919271348
            ],
            [
              119.97161916,
              -0.919244268
            ],
            [
              119.971451099,
              -0.919267295
            ],
            [
              119.971313349,
              -0.919278912
            ],
            [
              119.971157049,
              -0.919282937
            ],
            [
              119.970943086,
              -0.919262444
            ],
            [
              119.970786827,
              -0.919239576
            ],
            [
              119.970630567,
              -0.919216708
            ],
            [
              119.970520414,
              -0.919181365
            ],
            [
              119.970315805,
              -0.919086018
            ],
            [
              119.970139034,
              -0.918951878
            ],
            [
              119.969999797,
              -0.918783717
            ],
            [
              119.969924845,
              -0.918642349
            ],
            [
              119.969849893,
              -0.918500981
            ],
            [
              119.969779858,
              -0.918373194
            ],
            [
              119.969709822,
              -0.918245406
            ],
            [
              119.969594193,
              -0.918056643
            ],
            [
              119.969400913,
              -0.917887226
            ],
            [
              119.969266426,
              -0.917832391
            ],
            [
              119.96862881,
              -0.917537344
            ],
            [
              119.968250986,
              -0.917265473
            ],
            [
              119.967968077,
              -0.917081648
            ],
            [
              119.967795333,
              -0.916920867
            ],
            [
              119.96766767,
              -0.916807453
            ],
            [
              119.967481601,
              -0.916681081
            ],
            [
              119.967335488,
              -0.916480163
            ],
            [
              119.96717237,
              -0.916170229
            ],
            [
              119.967088906,
              -0.916020997
            ],
            [
              119.967033936,
              -0.91585405
            ],
            [
              119.966978714,
              -0.915654164
            ],
            [
              119.968227927,
              -0.91515693
            ],
            [
              119.969560776,
              -0.914157484
            ],
            [
              119.970803383,
              -0.911648128
            ],
            [
              119.971742574,
              -0.910842876
            ],
            [
              119.971761215,
              -0.910826893
            ],
            [
              119.972326344,
              -0.910342357
            ],
            [
              119.973670482,
              -0.908663994
            ],
            [
              119.975700729,
              -0.908439852
            ],
            [
              119.976838797,
              -0.908029103
            ],
            [
              119.978013528,
              -0.907694334
            ],
            [
              119.978236299,
              -0.907291826
            ],
            [
              119.979832259,
              -0.907111496
            ],
            [
              119.982455204,
              -0.907066816
            ],
            [
              119.983057937,
              -0.906969294
            ],
            [
              119.9834711,
              -0.906838364
            ],
            [
              119.983573846,
              -0.90688582
            ],
            [
              119.984107023,
              -0.906799551
            ],
            [
              119.985089425,
              -0.906350317
            ],
            [
              119.985642681,
              -0.905537718
            ],
            [
              119.986849603,
              -0.902674316
            ],
            [
              119.987112156,
              -0.901777524
            ],
            [
              119.987305694,
              -0.901655883
            ],
            [
              119.987356829,
              -0.901544907
            ],
            [
              119.987508973,
              -0.901349018
            ],
            [
              119.987893687,
              -0.901339777
            ],
            [
              119.988171048,
              -0.901395474
            ],
            [
              119.988619927,
              -0.901367564
            ],
            [
              119.989508095,
              -0.901489746
            ],
            [
              119.990558164,
              -0.90131331
            ],
            [
              119.991699035,
              -0.901205607
            ],
            [
              119.992806274,
              -0.900812507
            ],
            [
              119.993376238,
              -0.900245191
            ],
            [
              119.994195949,
              -0.899729534
            ],
            [
              119.994759028,
              -0.89940729
            ],
            [
              119.995984904,
              -0.899322681
            ],
            [
              119.996688187,
              -0.899154605
            ],
            [
              119.99720827,
              -0.899140693
            ],
            [
              119.998562372,
              -0.899192015
            ],
            [
              119.999965765,
              -0.898758523
            ],
            [
              120.000242778,
              -0.898478756
            ],
            [
              120.000937858,
              -0.897911595
            ],
            [
              120.001407146,
              -0.897577317
            ],
            [
              120.002066308,
              -0.897374671
            ],
            [
              120.002479823,
              -0.897277907
            ],
            [
              120.002682564,
              -0.897176074
            ],
            [
              120.003579103,
              -0.896717037
            ],
            [
              120.003910503,
              -0.896412832
            ],
            [
              120.004587975,
              -0.895595847
            ],
            [
              120.005222661,
              -0.894829027
            ],
            [
              120.006166407,
              -0.893641734
            ],
            [
              120.006636978,
              -0.89319032
            ],
            [
              120.007029163,
              -0.892760354
            ],
            [
              120.007442842,
              -0.892179807
            ],
            [
              120.007735229,
              -0.891821474
            ],
            [
              120.008105954,
              -0.891499062
            ],
            [
              120.008640533,
              -0.891183955
            ],
            [
              120.009455729,
              -0.890867175
            ],
            [
              120.01074587,
              -0.89013173
            ],
            [
              120.01345761,
              -0.889660739
            ],
            [
              120.014015232,
              -0.889292207
            ],
            [
              120.014471381,
              -0.889055919
            ],
            [
              120.014891751,
              -0.889013233
            ],
            [
              120.015568536,
              -0.889049641
            ],
            [
              120.016444729,
              -0.889179442
            ],
            [
              120.017107221,
              -0.889273211
            ],
            [
              120.017370816,
              -0.889280597
            ],
            [
              120.017656137,
              -0.888850538
            ],
            [
              120.017836263,
              -0.888502978
            ],
            [
              120.017609929,
              -0.888085798
            ],
            [
              120.017967125,
              -0.88686693
            ],
            [
              120.01801369,
              -0.885804986
            ],
            [
              120.018890429,
              -0.88525349
            ],
            [
              120.019038738,
              -0.885220067
            ],
            [
              120.019534803,
              -0.885035858
            ],
            [
              120.02057412,
              -0.884853971
            ],
            [
              120.021718956,
              -0.884129822
            ],
            [
              120.021728365,
              -0.884135993
            ],
            [
              120.022052701,
              -0.883918717
            ],
            [
              120.022411133,
              -0.883678599
            ],
            [
              120.022585127,
              -0.882882698
            ],
            [
              120.022955646,
              -0.882818452
            ],
            [
              120.023322875,
              -0.882829502
            ],
            [
              120.022458081,
              -0.881226743
            ],
            [
              120.023456017,
              -0.880570154
            ],
            [
              120.025112292,
              -0.880756751
            ],
            [
              120.028858548,
              -0.880759761
            ],
            [
              120.031363936,
              -0.880809584
            ],
            [
              120.031503221,
              -0.880357884
            ],
            [
              120.03131955,
              -0.878378374
            ],
            [
              120.031363451,
              -0.876915402
            ],
            [
              120.03156401,
              -0.875552957
            ],
            [
              120.032058832,
              -0.874154888
            ],
            [
              120.032451176,
              -0.873483637
            ],
            [
              120.032454999,
              -0.873477095
            ],
            [
              120.032762723,
              -0.872950617
            ],
            [
              120.033589997,
              -0.871880312
            ],
            [
              120.034599884,
              -0.871128093
            ],
            [
              120.035538487,
              -0.870423626
            ],
            [
              120.037569798,
              -0.869349488
            ],
            [
              120.03818755,
              -0.868967488
            ],
            [
              120.038662895,
              -0.868477801
            ],
            [
              120.039684163,
              -0.868359079
            ],
            [
              120.041108938,
              -0.868515589
            ],
            [
              120.043055881,
              -0.869055
            ],
            [
              120.044420955,
              -0.869641764
            ],
            [
              120.045679841,
              -0.869355889
            ],
            [
              120.046736691,
              -0.869296957
            ],
            [
              120.047907355,
              -0.869469045
            ],
            [
              120.048455772,
              -0.8696918
            ],
            [
              120.049139666,
              -0.869771228
            ],
            [
              120.050436282,
              -0.869836794
            ],
            [
              120.051319654,
              -0.869930723
            ],
            [
              120.051875414,
              -0.869873786
            ],
            [
              120.052516779,
              -0.869673482
            ],
            [
              120.053365104,
              -0.869028691
            ],
            [
              120.053848973,
              -0.869803621
            ],
            [
              120.054239588,
              -0.871396058
            ],
            [
              120.054502744,
              -0.871979329
            ],
            [
              120.055214555,
              -0.872811814
            ],
            [
              120.055570382,
              -0.873328461
            ],
            [
              120.055712348,
              -0.874002719
            ],
            [
              120.055825749,
              -0.874763016
            ],
            [
              120.056067436,
              -0.87546604
            ],
            [
              120.057078648,
              -0.876083612
            ],
            [
              120.057805144,
              -0.876356715
            ],
            [
              120.058816839,
              -0.876357515
            ],
            [
              120.059515332,
              -0.875999478
            ],
            [
              120.060527296,
              -0.875656032
            ],
            [
              120.061166262,
              -0.875496952
            ],
            [
              120.061707744,
              -0.875483036
            ],
            [
              120.06219203,
              -0.87572726
            ],
            [
              120.062376924,
              -0.876172057
            ],
            [
              120.062604475,
              -0.876731638
            ],
            [
              120.06306024,
              -0.877004527
            ],
            [
              120.063744071,
              -0.877177191
            ],
            [
              120.064342318,
              -0.877464537
            ],
            [
              120.064755324,
              -0.877751736
            ],
            [
              120.064811986,
              -0.878182091
            ],
            [
              120.064711579,
              -0.879028286
            ],
            [
              120.064497256,
              -0.879773986
            ],
            [
              120.06391217,
              -0.880877982
            ],
            [
              120.063512696,
              -0.881508784
            ],
            [
              120.063212514,
              -0.88271341
            ],
            [
              120.062957171,
              -0.883901337
            ],
            [
              120.06291387,
              -0.88460414
            ],
            [
              120.063141532,
              -0.885020286
            ],
            [
              120.064038788,
              -0.885594747
            ],
            [
              120.064679692,
              -0.88599688
            ],
            [
              120.065206431,
              -0.886614078
            ],
            [
              120.06549091,
              -0.887259769
            ],
            [
              120.065689699,
              -0.888149235
            ],
            [
              120.065917349,
              -0.888579727
            ],
            [
              120.066316081,
              -0.888895606
            ],
            [
              120.066885819,
              -0.889197279
            ],
            [
              120.067355901,
              -0.889384123
            ],
            [
              120.067970618,
              -0.89061877
            ],
            [
              120.068254916,
              -0.891491572
            ],
            [
              120.068206916,
              -0.892125046
            ],
            [
              120.068004623,
              -0.892662773
            ],
            [
              120.067754832,
              -0.89320046
            ],
            [
              120.067663474,
              -0.893603803
            ],
            [
              120.067627557,
              -0.893974318
            ],
            [
              120.067437384,
              -0.894201274
            ],
            [
              120.067175945,
              -0.894452078
            ],
            [
              120.06689073,
              -0.894738721
            ],
            [
              120.066617226,
              -0.895228577
            ],
            [
              120.066415046,
              -0.895622865
            ],
            [
              120.066093855,
              -0.896351741
            ],
            [
              120.065832329,
              -0.896710121
            ],
            [
              120.065642071,
              -0.897044653
            ],
            [
              120.06521438,
              -0.897307275
            ],
            [
              120.064988526,
              -0.897605918
            ],
            [
              120.065047402,
              -0.898227524
            ],
            [
              120.064987553,
              -0.898825127
            ],
            [
              120.064878616,
              -0.899429066
            ],
            [
              120.064868795,
              -0.89983068
            ],
            [
              120.065210321,
              -0.900404703
            ],
            [
              120.065627745,
              -0.901103099
            ],
            [
              120.065922034,
              -0.901351962
            ],
            [
              120.066254375,
              -0.901533917
            ],
            [
              120.06650102,
              -0.901964428
            ],
            [
              120.066547966,
              -0.902652962
            ],
            [
              120.066708007,
              -0.904462784
            ],
            [
              120.066588435,
              -0.90549065
            ],
            [
              120.066267033,
              -0.906470538
            ],
            [
              120.065910326,
              -0.907055946
            ],
            [
              120.065964938,
              -0.908050086
            ],
            [
              120.066261243,
              -0.908743606
            ],
            [
              120.066747693,
              -0.909246032
            ],
            [
              120.067271777,
              -0.91093508
            ],
            [
              120.067223872,
              -0.911437069
            ],
            [
              120.066950418,
              -0.911855202
            ],
            [
              120.066500879,
              -0.912056481
            ]
          ]
        ]
      }
    }
  ]
}