{
  "type": "FeatureCollection",
  "features": [
    {
      "type": "Feature",
      "properties": {
        "idx": "638",
        "nama_kewilayahan": "Baa"
      },
      "geometry": {
        "type": "Polygon",
        "coordinates": [
          [
            [
              110.707353426,
              -0.399256143
            ],
            [
              110.707149258,
              -0.399225498
            ],
            [
              110.706644874,
              -0.399162147
            ],
            [
              110.706056521,
              -0.399035466
            ],
            [
              110.705541466,
              -0.398926881
            ],
            [
              110.705296294,
              -0.398899731
            ],
            [
              110.704804549,
              -0.398818289
            ],
            [
              110.704290892,
              -0.398890648
            ],
            [
              110.703763194,
              -0.398944911
            ],
            [
              110.703426751,
              -0.398899663
            ],
            [
              110.702921244,
              -0.398809173
            ],
            [
              110.702771278,
              -0.398756475
            ],
            [
              110.702586769,
              -0.398691549
            ],
            [
              110.702148384,
              -0.398573919
            ],
            [
              110.701898158,
              -0.39853772
            ],
            [
              110.701484765,
              -0.39849247
            ],
            [
              110.701288461,
              -0.398438179
            ],
            [
              110.700924499,
              -0.398257222
            ],
            [
              110.700617828,
              -0.398157692
            ],
            [
              110.700235596,
              -0.39798858
            ],
            [
              110.700072263,
              -0.3978447
            ],
            [
              110.699506945,
              -0.397338782
            ],
            [
              110.699229875,
              -0.396957774
            ],
            [
              110.698569467,
              -0.396049621
            ],
            [
              110.698277131,
              -0.395561065
            ],
            [
              110.697881166,
              -0.395090596
            ],
            [
              110.6975431,
              -0.394634309
            ],
            [
              110.697382421,
              -0.394393944
            ],
            [
              110.697233582,
              -0.394276328
            ],
            [
              110.696857548,
              -0.393995851
            ],
            [
              110.696588513,
              -0.393796802
            ],
            [
              110.69637958,
              -0.393498238
            ],
            [
              110.695926326,
              -0.392946343
            ],
            [
              110.695507614,
              -0.392466827
            ],
            [
              110.6952911,
              -0.392086837
            ],
            [
              110.69498809,
              -0.39168875
            ],
            [
              110.694662052,
              -0.391272569
            ],
            [
              110.694245308,
              -0.390729722
            ],
            [
              110.69415474,
              -0.390609777
            ],
            [
              110.693900096,
              -0.39027254
            ],
            [
              110.693890064,
              -0.390259255
            ],
            [
              110.693649401,
              -0.389824981
            ],
            [
              110.693427559,
              -0.389282142
            ],
            [
              110.693249244,
              -0.388820731
            ],
            [
              110.693176236,
              -0.388531218
            ],
            [
              110.693071778,
              -0.388115044
            ],
            [
              110.692965074,
              -0.387762201
            ],
            [
              110.692899944,
              -0.387038424
            ],
            [
              110.692787347,
              -0.386513683
            ],
            [
              110.692694969,
              -0.386043227
            ],
            [
              110.692491939,
              -0.385599907
            ],
            [
              110.692421454,
              -0.385446101
            ],
            [
              110.69220438,
              -0.38504802
            ],
            [
              110.691894913,
              -0.384586601
            ],
            [
              110.69142593,
              -0.384107084
            ],
            [
              110.691078262,
              -0.383853751
            ],
            [
              110.690769623,
              -0.383826598
            ],
            [
              110.69043851,
              -0.383953247
            ],
            [
              110.690353654,
              -0.383990981
            ],
            [
              110.690113013,
              -0.384097988
            ],
            [
              110.690054057,
              -0.384129143
            ],
            [
              110.689921758,
              -0.384199053
            ],
            [
              110.689921479,
              -0.384199198
            ],
            [
              110.689922257,
              -0.384199703
            ],
            [
              110.689877451,
              -0.384209426
            ],
            [
              110.689735046,
              -0.384292051
            ],
            [
              110.689667284,
              -0.384332813
            ],
            [
              110.689664376,
              -0.384334562
            ],
            [
              110.689467074,
              -0.384405568
            ],
            [
              110.689201121,
              -0.38444175
            ],
            [
              110.688898377,
              -0.384459832
            ],
            [
              110.688343438,
              -0.384514096
            ],
            [
              110.688171846,
              -0.384532184
            ],
            [
              110.687499518,
              -0.384595487
            ],
            [
              110.687007208,
              -0.384622612
            ],
            [
              110.686481764,
              -0.384477837
            ],
            [
              110.686058269,
              -0.384269737
            ],
            [
              110.685701609,
              -0.384161157
            ],
            [
              110.685317988,
              -0.384061624
            ],
            [
              110.684833548,
              -0.383916852
            ],
            [
              110.684389548,
              -0.383772081
            ],
            [
              110.683714982,
              -0.383636348
            ],
            [
              110.682985371,
              -0.38347347
            ],
            [
              110.682536598,
              -0.383319652
            ],
            [
              110.682145117,
              -0.3831206
            ],
            [
              110.681796047,
              -0.382831078
            ],
            [
              110.68160368,
              -0.382632032
            ],
            [
              110.681232437,
              -0.381944434
            ],
            [
              110.680960316,
              -0.381663962
            ],
            [
              110.680806984,
              -0.381537296
            ],
            [
              110.680675273,
              -0.381501102
            ],
            [
              110.680505648,
              -0.381473956
            ],
            [
              110.680355681,
              -0.381446807
            ],
            [
              110.679840908,
              -0.381356317
            ],
            [
              110.679512051,
              -0.381265833
            ],
            [
              110.679037441,
              -0.381148202
            ],
            [
              110.67860299,
              -0.381021525
            ],
            [
              110.678246611,
              -0.380912944
            ],
            [
              110.67759424,
              -0.380496751
            ],
            [
              110.677365085,
              -0.380279611
            ],
            [
              110.677001692,
              -0.379962945
            ],
            [
              110.676887393,
              -0.3799358
            ],
            [
              110.67657651,
              -0.37983627
            ],
            [
              110.67653327,
              -0.379564853
            ],
            [
              110.676399592,
              -0.379564849
            ],
            [
              110.676190368,
              -0.379582934
            ],
            [
              110.675946039,
              -0.379582925
            ],
            [
              110.67577164,
              -0.379564825
            ],
            [
              110.67561465,
              -0.379601008
            ],
            [
              110.675377905,
              -0.379591951
            ],
            [
              110.675020959,
              -0.379619079
            ],
            [
              110.674535953,
              -0.379591921
            ],
            [
              110.674012203,
              -0.379315713
            ],
            [
              110.673905193,
              -0.379564754
            ],
            [
              110.67379397,
              -0.379908542
            ],
            [
              110.673671513,
              -0.380216141
            ],
            [
              110.673636401,
              -0.380378989
            ],
            [
              110.673621227,
              -0.380650403
            ],
            [
              110.673654624,
              -0.381220374
            ],
            [
              110.673645339,
              -0.381672732
            ],
            [
              110.673675377,
              -0.382025574
            ],
            [
              110.67375793,
              -0.382360322
            ],
            [
              110.673805371,
              -0.382894107
            ],
            [
              110.673816587,
              -0.383364559
            ],
            [
              110.673726145,
              -0.383663112
            ],
            [
              110.673608183,
              -0.383952615
            ],
            [
              110.673443042,
              -0.384169741
            ],
            [
              110.673186631,
              -0.384350674
            ],
            [
              110.672960271,
              -0.384486374
            ],
            [
              110.672690944,
              -0.384585882
            ],
            [
              110.672572997,
              -0.384478125
            ],
            [
              110.672572943,
              -0.384478175
            ],
            [
              110.672031522,
              -0.384979125
            ],
            [
              110.672017181,
              -0.385461311
            ],
            [
              110.672139041,
              -0.386057649
            ],
            [
              110.672308656,
              -0.386385723
            ],
            [
              110.672418735,
              -0.386622614
            ],
            [
              110.672798402,
              -0.387247024
            ],
            [
              110.672431052,
              -0.38762805
            ],
            [
              110.672175481,
              -0.387886592
            ],
            [
              110.671789038,
              -0.388131097
            ],
            [
              110.671470557,
              -0.388416742
            ],
            [
              110.671491605,
              -0.388826233
            ],
            [
              110.671701659,
              -0.389122569
            ],
            [
              110.672114762,
              -0.389396793
            ],
            [
              110.672168667,
              -0.389777871
            ],
            [
              110.672190847,
              -0.389933866
            ],
            [
              110.671974019,
              -0.390510967
            ],
            [
              110.67179174,
              -0.39089709
            ],
            [
              110.671505832,
              -0.391292044
            ],
            [
              110.67128423,
              -0.391846386
            ],
            [
              110.671229446,
              -0.392364827
            ],
            [
              110.671191518,
              -0.392742332
            ],
            [
              110.67122323,
              -0.393329268
            ],
            [
              110.671254388,
              -0.39371116
            ],
            [
              110.672070488,
              -0.394058907
            ],
            [
              110.67267962,
              -0.39422086
            ],
            [
              110.673168273,
              -0.394336054
            ],
            [
              110.673895362,
              -0.394347392
            ],
            [
              110.674524431,
              -0.394531258
            ],
            [
              110.674881935,
              -0.394596052
            ],
            [
              110.675113619,
              -0.394806054
            ],
            [
              110.67538743,
              -0.394951174
            ],
            [
              110.675735101,
              -0.395135487
            ],
            [
              110.675934491,
              -0.395258939
            ],
            [
              110.676512719,
              -0.395708634
            ],
            [
              110.676697785,
              -0.395852688
            ],
            [
              110.677363364,
              -0.396059422
            ],
            [
              110.678397689,
              -0.396085332
            ],
            [
              110.678809114,
              -0.396145709
            ],
            [
              110.679196651,
              -0.396638229
            ],
            [
              110.679274417,
              -0.39733907
            ],
            [
              110.679105899,
              -0.397747988
            ],
            [
              110.679025831,
              -0.398507487
            ],
            [
              110.679126364,
              -0.398680659
            ],
            [
              110.679128599,
              -0.398983493
            ],
            [
              110.679131114,
              -0.3992994
            ],
            [
              110.679563308,
              -0.399705621
            ],
            [
              110.679908448,
              -0.399970548
            ],
            [
              110.680311166,
              -0.400076407
            ],
            [
              110.680934068,
              -0.400010062
            ],
            [
              110.681424141,
              -0.399734038
            ],
            [
              110.682001269,
              -0.399603866
            ],
            [
              110.682233523,
              -0.399591188
            ],
            [
              110.682317212,
              -0.399586632
            ],
            [
              110.682696626,
              -0.399583253
            ],
            [
              110.68303981,
              -0.399579733
            ],
            [
              110.683772232,
              -0.399704796
            ],
            [
              110.684164565,
              -0.399628653
            ],
            [
              110.684253871,
              -0.399683364
            ],
            [
              110.684582163,
              -0.399884676
            ],
            [
              110.684953425,
              -0.400017748
            ],
            [
              110.685477749,
              -0.400078483
            ],
            [
              110.685903773,
              -0.400279975
            ],
            [
              110.686018906,
              -0.400576025
            ],
            [
              110.686190197,
              -0.401108826
            ],
            [
              110.686328915,
              -0.401536877
            ],
            [
              110.68635839,
              -0.401864519
            ],
            [
              110.686450218,
              -0.40204225
            ],
            [
              110.686435323,
              -0.402299883
            ],
            [
              110.686440368,
              -0.402556279
            ],
            [
              110.686827091,
              -0.402325449
            ],
            [
              110.687241615,
              -0.402185657
            ],
            [
              110.687661749,
              -0.402214264
            ],
            [
              110.687938089,
              -0.402333373
            ],
            [
              110.688024585,
              -0.402396743
            ],
            [
              110.688156295,
              -0.402493262
            ],
            [
              110.688958356,
              -0.402859668
            ],
            [
              110.689424553,
              -0.402711822
            ],
            [
              110.689512456,
              -0.402683941
            ],
            [
              110.690012357,
              -0.402480752
            ],
            [
              110.690219338,
              -0.402404034
            ],
            [
              110.690999793,
              -0.402260829
            ],
            [
              110.691275297,
              -0.402266212
            ],
            [
              110.691970933,
              -0.402295642
            ],
            [
              110.692908639,
              -0.402680643
            ],
            [
              110.693515803,
              -0.402923594
            ],
            [
              110.6941137,
              -0.403152873
            ],
            [
              110.694465312,
              -0.403085702
            ],
            [
              110.69464505,
              -0.403083023
            ],
            [
              110.695476895,
              -0.403070616
            ],
            [
              110.696283449,
              -0.403437022
            ],
            [
              110.69646431,
              -0.403432999
            ],
            [
              110.696876014,
              -0.403557097
            ],
            [
              110.697278734,
              -0.403653872
            ],
            [
              110.697537661,
              -0.403836629
            ],
            [
              110.697975211,
              -0.403760628
            ],
            [
              110.698191738,
              -0.403761273
            ],
            [
              110.699062622,
              -0.403654753
            ],
            [
              110.699351048,
              -0.403564644
            ],
            [
              110.699633861,
              -0.403328935
            ],
            [
              110.69975561,
              -0.40331369
            ],
            [
              110.699756963,
              -0.403315858
            ],
            [
              110.699757985,
              -0.403313393
            ],
            [
              110.699760703,
              -0.403306828
            ],
            [
              110.70013692,
              -0.402807058
            ],
            [
              110.700141869,
              -0.402804289
            ],
            [
              110.700141764,
              -0.402804154
            ],
            [
              110.700192315,
              -0.402736384
            ],
            [
              110.700191628,
              -0.402733326
            ],
            [
              110.700195504,
              -0.402732106
            ],
            [
              110.700983884,
              -0.402484168
            ],
            [
              110.701279611,
              -0.40238314
            ],
            [
              110.701577583,
              -0.402361275
            ],
            [
              110.701819113,
              -0.402075415
            ],
            [
              110.701897194,
              -0.401910095
            ],
            [
              110.701943536,
              -0.401811921
            ],
            [
              110.702004488,
              -0.401489122
            ],
            [
              110.702128351,
              -0.401171025
            ],
            [
              110.702507765,
              -0.401158528
            ],
            [
              110.702747599,
              -0.401209322
            ],
            [
              110.702965803,
              -0.401410135
            ],
            [
              110.703233717,
              -0.401602043
            ],
            [
              110.703955477,
              -0.401504141
            ],
            [
              110.704506483,
              -0.401505824
            ],
            [
              110.704998235,
              -0.401411799
            ],
            [
              110.705553733,
              -0.401440763
            ],
            [
              110.705770263,
              -0.401377759
            ],
            [
              110.706108674,
              -0.40136512
            ],
            [
              110.706351319,
              -0.40137626
            ],
            [
              110.706533301,
              -0.401384608
            ],
            [
              110.707209009,
              -0.401145552
            ],
            [
              110.707645162,
              -0.400878465
            ],
            [
              110.707647698,
              -0.400619171
            ],
            [
              110.707514032,
              -0.400263922
            ],
            [
              110.707483436,
              -0.399817994
            ],
            [
              110.707353426,
              -0.399256143
            ]
          ]
        ]
      }
    }
  ]
}