{
  "type": "FeatureCollection",
  "features": [
    {
      "type": "Feature",
      "properties": {
        "idx": "639",
        "nama_kewilayahan": "Sungai Ma'ap Batu Koran"
      },
      "geometry": {
        "type": "Polygon",
        "coordinates": [
          [
            [
              110.868150071,
              -0.464649721
            ],
            [
              110.868149346,
              -0.464649083
            ],
            [
              110.867446117,
              -0.464368604
            ],
            [
              110.866850454,
              -0.463979559
            ],
            [
              110.866076174,
              -0.463590511
            ],
            [
              110.865153047,
              -0.46313813
            ],
            [
              110.863753326,
              -0.462749071
            ],
            [
              110.863127895,
              -0.462360025
            ],
            [
              110.862234537,
              -0.461998115
            ],
            [
              110.861519794,
              -0.46169954
            ],
            [
              110.860775281,
              -0.461455249
            ],
            [
              110.86012008,
              -0.461066204
            ],
            [
              110.859494644,
              -0.46080382
            ],
            [
              110.858139586,
              -0.460143342
            ],
            [
              110.857454618,
              -0.459627631
            ],
            [
              110.85671011,
              -0.459093828
            ],
            [
              110.8559656,
              -0.45870478
            ],
            [
              110.85525086,
              -0.458397158
            ],
            [
              110.854476572,
              -0.458397143
            ],
            [
              110.853642741,
              -0.458759016
            ],
            [
              110.852898218,
              -0.459030421
            ],
            [
              110.851677097,
              -0.459600373
            ],
            [
              110.851021884,
              -0.459808447
            ],
            [
              110.850247592,
              -0.460079848
            ],
            [
              110.84944353,
              -0.460324107
            ],
            [
              110.849056524,
              -0.460468857
            ],
            [
              110.848371542,
              -0.460649787
            ],
            [
              110.847627021,
              -0.460830717
            ],
            [
              110.846882503,
              -0.460857842
            ],
            [
              110.845319047,
              -0.460803526
            ],
            [
              110.844552062,
              -0.460812555
            ],
            [
              110.843800245,
              -0.460676829
            ],
            [
              110.843330678,
              -0.460559205
            ],
            [
              110.842996195,
              -0.460468725
            ],
            [
              110.842342672,
              -0.460441568
            ],
            [
              110.842322353,
              -0.460440581
            ],
            [
              110.842323855,
              -0.460432519
            ],
            [
              110.84159647,
              -0.460405363
            ],
            [
              110.840375362,
              -0.460405335
            ],
            [
              110.838767248,
              -0.460531961
            ],
            [
              110.838141805,
              -0.460712892
            ],
            [
              110.837802821,
              -0.460893828
            ],
            [
              110.837129351,
              -0.461246657
            ],
            [
              110.836086848,
              -0.461726138
            ],
            [
              110.83519348,
              -0.461879921
            ],
            [
              110.834523389,
              -0.461789433
            ],
            [
              110.834136381,
              -0.462060842
            ],
            [
              110.833630014,
              -0.462268916
            ],
            [
              110.832527981,
              -0.462359363
            ],
            [
              110.831664387,
              -0.462359344
            ],
            [
              110.830503098,
              -0.462386457
            ],
            [
              110.829699045,
              -0.462205493
            ],
            [
              110.829192689,
              -0.462024534
            ],
            [
              110.828626795,
              -0.461789293
            ],
            [
              110.827763212,
              -0.461336908
            ],
            [
              110.827019268,
              -0.460830243
            ],
            [
              110.826601663,
              -0.46046834
            ],
            [
              110.826368285,
              -0.460386911
            ],
            [
              110.825708308,
              -0.46014262
            ],
            [
              110.82517218,
              -0.460052132
            ],
            [
              110.824487484,
              -0.460015927
            ],
            [
              110.823772735,
              -0.460106383
            ],
            [
              110.822760001,
              -0.460622051
            ],
            [
              110.822134549,
              -0.461155823
            ],
            [
              110.821524269,
              -0.461427225
            ],
            [
              110.820719939,
              -0.46121912
            ],
            [
              110.820094788,
              -0.460947685
            ],
            [
              110.819558668,
              -0.460558639
            ],
            [
              110.819141619,
              -0.460404825
            ],
            [
              110.819074683,
              -0.460435792
            ],
            [
              110.818985187,
              -0.460477198
            ],
            [
              110.818983351,
              -0.460481751
            ],
            [
              110.818858518,
              -0.460542424
            ],
            [
              110.818724,
              -0.460603855
            ],
            [
              110.818724972,
              -0.460607334
            ],
            [
              110.818397094,
              -0.460766695
            ],
            [
              110.817831461,
              -0.461309517
            ],
            [
              110.817533468,
              -0.462024242
            ],
            [
              110.817115553,
              -0.462802297
            ],
            [
              110.816937771,
              -0.463137041
            ],
            [
              110.816781612,
              -0.463517021
            ],
            [
              110.816640057,
              -0.463860813
            ],
            [
              110.81654569,
              -0.464041756
            ],
            [
              110.816222984,
              -0.464666011
            ],
            [
              110.815240291,
              -0.465507379
            ],
            [
              110.814644606,
              -0.466104482
            ],
            [
              110.814583756,
              -0.466289272
            ],
            [
              110.814580848,
              -0.466294472
            ],
            [
              110.814406431,
              -0.466828257
            ],
            [
              110.814406413,
              -0.467542989
            ],
            [
              110.814547943,
              -0.468085831
            ],
            [
              110.814548188,
              -0.468085944
            ],
            [
              110.814555244,
              -0.468112972
            ],
            [
              110.814704079,
              -0.468619622
            ],
            [
              110.814763602,
              -0.469162459
            ],
            [
              110.81442123,
              -0.470058129
            ],
            [
              110.813974388,
              -0.470845228
            ],
            [
              110.813498067,
              -0.471234248
            ],
            [
              110.812723767,
              -0.471677544
            ],
            [
              110.812455547,
              -0.472247513
            ],
            [
              110.81183008,
              -0.473242694
            ],
            [
              110.811591912,
              -0.473749335
            ],
            [
              110.811264433,
              -0.474319302
            ],
            [
              110.811055752,
              -0.474798801
            ],
            [
              110.810698507,
              -0.475214965
            ],
            [
              110.810417099,
              -0.475350667
            ],
            [
              110.810187312,
              -0.475447861
            ],
            [
              110.810160635,
              -0.475459147
            ],
            [
              110.81013906,
              -0.475468271
            ],
            [
              110.809583838,
              -0.475450182
            ],
            [
              110.80958327,
              -0.475450163
            ],
            [
              110.809795863,
              -0.475649209
            ],
            [
              110.810008456,
              -0.475893491
            ],
            [
              110.810207849,
              -0.476065393
            ],
            [
              110.810021085,
              -0.476192049
            ],
            [
              110.809751184,
              -0.476599169
            ],
            [
              110.809731235,
              -0.476906775
            ],
            [
              110.809691066,
              -0.477232476
            ],
            [
              110.809550634,
              -0.477576268
            ],
            [
              110.809530684,
              -0.477938157
            ],
            [
              110.809410473,
              -0.478263854
            ],
            [
              110.809250098,
              -0.478725262
            ],
            [
              110.809170047,
              -0.479105244
            ],
            [
              110.809029616,
              -0.47946713
            ],
            [
              110.808909404,
              -0.479874251
            ],
            [
              110.808909394,
              -0.48021805
            ],
            [
              110.808829342,
              -0.48059803
            ],
            [
              110.80872907,
              -0.48102325
            ],
            [
              110.80870884,
              -0.48134895
            ],
            [
              110.808708827,
              -0.48181036
            ],
            [
              110.808648712,
              -0.482317004
            ],
            [
              110.808729018,
              -0.482877937
            ],
            [
              110.80870878,
              -0.483484103
            ],
            [
              110.808728993,
              -0.483791709
            ],
            [
              110.808909281,
              -0.484235031
            ],
            [
              110.809169896,
              -0.484596928
            ],
            [
              110.809630749,
              -0.485022163
            ],
            [
              110.810011564,
              -0.485384064
            ],
            [
              110.810532522,
              -0.48564645
            ],
            [
              110.81091334,
              -0.485926924
            ],
            [
              110.811254,
              -0.486089784
            ],
            [
              110.811634536,
              -0.486352166
            ],
            [
              110.811995413,
              -0.48663264
            ],
            [
              110.81231585,
              -0.486876925
            ],
            [
              110.812596405,
              -0.487175493
            ],
            [
              110.812876961,
              -0.487483108
            ],
            [
              110.813277717,
              -0.487781677
            ],
            [
              110.813598434,
              -0.488080247
            ],
            [
              110.813859047,
              -0.488469287
            ],
            [
              110.814139599,
              -0.48884928
            ],
            [
              110.814399931,
              -0.489292602
            ],
            [
              110.814580504,
              -0.489654498
            ],
            [
              110.814981255,
              -0.490124965
            ],
            [
              110.815261809,
              -0.490504959
            ],
            [
              110.815522141,
              -0.490930187
            ],
            [
              110.815802695,
              -0.491292086
            ],
            [
              110.816223672,
              -0.491617798
            ],
            [
              110.816624428,
              -0.491916369
            ],
            [
              110.816718914,
              -0.491966453
            ],
            [
              110.817085288,
              -0.492160658
            ],
            [
              110.81754615,
              -0.492323522
            ],
            [
              110.81812749,
              -0.492622097
            ],
            [
              110.818468148,
              -0.492884477
            ],
            [
              110.818968885,
              -0.493228286
            ],
            [
              110.819073824,
              -0.493326427
            ],
            [
              110.819249441,
              -0.493490666
            ],
            [
              110.819550219,
              -0.49379828
            ],
            [
              110.819910812,
              -0.494196369
            ],
            [
              110.820311571,
              -0.494476846
            ],
            [
              110.820612347,
              -0.494784459
            ],
            [
              110.821052986,
              -0.495028749
            ],
            [
              110.821493906,
              -0.495245896
            ],
            [
              110.822014873,
              -0.495245908
            ],
            [
              110.822616163,
              -0.495264019
            ],
            [
              110.823357596,
              -0.495182614
            ],
            [
              110.823858625,
              -0.495083108
            ],
            [
              110.824279615,
              -0.494983599
            ],
            [
              110.82498089,
              -0.494784578
            ],
            [
              110.825261457,
              -0.494685066
            ],
            [
              110.825702386,
              -0.494585557
            ],
            [
              110.82596301,
              -0.494585564
            ],
            [
              110.826203412,
              -0.49458557
            ],
            [
              110.826622439,
              -0.494404636
            ],
            [
              110.826788705,
              -0.494160365
            ],
            [
              110.82697463,
              -0.493925141
            ],
            [
              110.827129381,
              -0.49370801
            ],
            [
              110.827294524,
              -0.493499928
            ],
            [
              110.827439163,
              -0.493328033
            ],
            [
              110.827594195,
              -0.49311995
            ],
            [
              110.82776973,
              -0.492875678
            ],
            [
              110.82792448,
              -0.492703783
            ],
            [
              110.828136243,
              -0.492468561
            ],
            [
              110.828342669,
              -0.492224288
            ],
            [
              110.828476918,
              -0.492025253
            ],
            [
              110.828590669,
              -0.491717651
            ],
            [
              110.828652465,
              -0.491328619
            ],
            [
              110.828745432,
              -0.490984825
            ],
            [
              110.828776332,
              -0.49070436
            ],
            [
              110.828828021,
              -0.490215808
            ],
            [
              110.828797138,
              -0.489808682
            ],
            [
              110.828724971,
              -0.489428695
            ],
            [
              110.828730034,
              -0.489084898
            ],
            [
              110.828740432,
              -0.488804435
            ],
            [
              110.828606195,
              -0.488578247
            ],
            [
              110.828348102,
              -0.488469675
            ],
            [
              110.828089727,
              -0.488370148
            ],
            [
              110.827811131,
              -0.488279667
            ],
            [
              110.827614826,
              -0.48802634
            ],
            [
              110.827490984,
              -0.48768254
            ],
            [
              110.827398031,
              -0.487402072
            ],
            [
              110.827346364,
              -0.487040181
            ],
            [
              110.827305089,
              -0.48670543
            ],
            [
              110.82726887,
              -0.486325444
            ],
            [
              110.827227596,
              -0.485900224
            ],
            [
              110.827083251,
              -0.485556424
            ],
            [
              110.826959129,
              -0.485122151
            ],
            [
              110.826742327,
              -0.484705971
            ],
            [
              110.826505024,
              -0.484280743
            ],
            [
              110.826308723,
              -0.483945988
            ],
            [
              110.8260248,
              -0.483520761
            ],
            [
              110.825797605,
              -0.48314077
            ],
            [
              110.825549909,
              -0.482815062
            ],
            [
              110.825426065,
              -0.482489357
            ],
            [
              110.82538479,
              -0.482172702
            ],
            [
              110.825394908,
              -0.481847001
            ],
            [
              110.825549943,
              -0.48153035
            ],
            [
              110.825663407,
              -0.481367502
            ],
            [
              110.826024861,
              -0.481114187
            ],
            [
              110.826365529,
              -0.4809423
            ],
            [
              110.826572232,
              -0.480906115
            ],
            [
              110.826949126,
              -0.480851842
            ],
            [
              110.827320683,
              -0.480851852
            ],
            [
              110.82767174,
              -0.480806623
            ],
            [
              110.828074473,
              -0.480743301
            ],
            [
              110.828363745,
              -0.48064379
            ],
            [
              110.828673521,
              -0.480453804
            ],
            [
              110.828910838,
              -0.480272865
            ],
            [
              110.829107156,
              -0.480019548
            ],
            [
              110.829354869,
              -0.479621474
            ],
            [
              110.829530406,
              -0.479277682
            ],
            [
              110.829623375,
              -0.478924841
            ],
            [
              110.829788801,
              -0.47850867
            ],
            [
              110.829902271,
              -0.478210114
            ],
            [
              110.830093255,
              -0.477793943
            ],
            [
              110.830165444,
              -0.477296346
            ],
            [
              110.830217128,
              -0.476943504
            ],
            [
              110.830217138,
              -0.476554472
            ],
            [
              110.83022754,
              -0.47612925
            ],
            [
              110.830289614,
              -0.475776408
            ],
            [
              110.830361797,
              -0.475523087
            ],
            [
              110.830398033,
              -0.475233575
            ],
            [
              110.830398042,
              -0.474844542
            ],
            [
              110.830398055,
              -0.474337896
            ],
            [
              110.830366891,
              -0.473948861
            ],
            [
              110.830232657,
              -0.473532685
            ],
            [
              110.830232665,
              -0.473188888
            ],
            [
              110.830294744,
              -0.47275462
            ],
            [
              110.830382657,
              -0.472329401
            ],
            [
              110.830516904,
              -0.472229884
            ],
            [
              110.830682039,
              -0.472266078
            ],
            [
              110.830888457,
              -0.472401792
            ],
            [
              110.831136437,
              -0.472609887
            ],
            [
              110.831342854,
              -0.472736552
            ],
            [
              110.83167312,
              -0.472971788
            ],
            [
              110.832158416,
              -0.47310751
            ],
            [
              110.832416789,
              -0.473270367
            ],
            [
              110.832695382,
              -0.473442271
            ],
            [
              110.833036323,
              -0.473650367
            ],
            [
              110.833459552,
              -0.473758944
            ],
            [
              110.833748539,
              -0.47383133
            ],
            [
              110.834079091,
              -0.473885622
            ],
            [
              110.834703687,
              -0.473921825
            ],
            [
              110.835044633,
              -0.473903739
            ],
            [
              110.835292338,
              -0.47392184
            ],
            [
              110.835684677,
              -0.47392185
            ],
            [
              110.835994448,
              -0.473939952
            ],
            [
              110.836459245,
              -0.473958057
            ],
            [
              110.836727732,
              -0.473921873
            ],
            [
              110.836944547,
              -0.473822359
            ],
            [
              110.837192255,
              -0.473641419
            ],
            [
              110.837388572,
              -0.473388101
            ],
            [
              110.837543325,
              -0.473053355
            ],
            [
              110.837657071,
              -0.472854317
            ],
            [
              110.837873889,
              -0.472610048
            ],
            [
              110.83813199,
              -0.472320541
            ],
            [
              110.83840554,
              -0.472049129
            ],
            [
              110.838539787,
              -0.471859137
            ],
            [
              110.83862236,
              -0.471669149
            ],
            [
              110.838704934,
              -0.471433921
            ],
            [
              110.83880829,
              -0.471144411
            ],
            [
              110.838973431,
              -0.470963471
            ],
            [
              110.83914896,
              -0.470927284
            ],
            [
              110.839386552,
              -0.471035857
            ],
            [
              110.839634252,
              -0.471207761
            ],
            [
              110.83993391,
              -0.471343477
            ],
            [
              110.840140326,
              -0.471506331
            ],
            [
              110.840357133,
              -0.47169633
            ],
            [
              110.840625617,
              -0.471877281
            ],
            [
              110.840987061,
              -0.471949669
            ],
            [
              110.841276048,
              -0.472049195
            ],
            [
              110.84150325,
              -0.472094437
            ],
            [
              110.841771737,
              -0.472085396
            ],
            [
              110.841968049,
              -0.472040162
            ],
            [
              110.842122796,
              -0.471940647
            ],
            [
              110.842324166,
              -0.471723517
            ],
            [
              110.842448026,
              -0.471406866
            ],
            [
              110.842510099,
              -0.471081165
            ],
            [
              110.842551389,
              -0.470791654
            ],
            [
              110.842633966,
              -0.470447858
            ],
            [
              110.842737324,
              -0.470140253
            ],
            [
              110.842840402,
              -0.469778366
            ],
            [
              110.843005826,
              -0.469425526
            ],
            [
              110.843170972,
              -0.469018402
            ],
            [
              110.843413628,
              -0.468692705
            ],
            [
              110.843620059,
              -0.468249395
            ],
            [
              110.843836876,
              -0.468032264
            ],
            [
              110.844146652,
              -0.467787995
            ],
            [
              110.844373859,
              -0.46758896
            ],
            [
              110.844694027,
              -0.467326595
            ],
            [
              110.845695522,
              -0.467118531
            ],
            [
              110.845891833,
              -0.467055203
            ],
            [
              110.846108645,
              -0.467037116
            ],
            [
              110.846428809,
              -0.466964742
            ],
            [
              110.846656013,
              -0.466919511
            ],
            [
              110.847332286,
              -0.466892385
            ],
            [
              110.847755519,
              -0.466829063
            ],
            [
              110.848437128,
              -0.466783841
            ],
            [
              110.848716009,
              -0.466720516
            ],
            [
              110.849469794,
              -0.466702439
            ],
            [
              110.850006487,
              -0.46670245
            ],
            [
              110.850254474,
              -0.466684361
            ],
            [
              110.850848178,
              -0.466666279
            ],
            [
              110.851343868,
              -0.466720573
            ],
            [
              110.852056366,
              -0.46688344
            ],
            [
              110.852427919,
              -0.467046296
            ],
            [
              110.852861538,
              -0.467236299
            ],
            [
              110.853171304,
              -0.46746249
            ],
            [
              110.853491463,
              -0.467715818
            ],
            [
              110.853935471,
              -0.467969152
            ],
            [
              110.854131777,
              -0.468168197
            ],
            [
              110.854467379,
              -0.468521045
            ],
            [
              110.854921495,
              -0.469000562
            ],
            [
              110.855189978,
              -0.469217703
            ],
            [
              110.855510134,
              -0.469507222
            ],
            [
              110.855789006,
              -0.46983293
            ],
            [
              110.856150448,
              -0.470041024
            ],
            [
              110.856429044,
              -0.470158645
            ],
            [
              110.856893841,
              -0.470167702
            ],
            [
              110.857265399,
              -0.470086285
            ],
            [
              110.857606347,
              -0.469950582
            ],
            [
              110.857874837,
              -0.469842021
            ],
            [
              110.858225894,
              -0.469715366
            ],
            [
              110.859088091,
              -0.469507296
            ],
            [
              110.859976123,
              -0.469362557
            ],
            [
              110.860285897,
              -0.469253997
            ],
            [
              110.860574888,
              -0.469136387
            ],
            [
              110.860956838,
              -0.469054971
            ],
            [
              110.861586773,
              -0.468973557
            ],
            [
              110.862438576,
              -0.46891929
            ],
            [
              110.863068509,
              -0.469009775
            ],
            [
              110.863543694,
              -0.469118352
            ],
            [
              110.863946145,
              -0.469127407
            ],
            [
              110.864297199,
              -0.469163603
            ],
            [
              110.864854955,
              -0.469226945
            ],
            [
              110.865133832,
              -0.469326469
            ],
            [
              110.865423944,
              -0.469344572
            ],
            [
              110.866254119,
              -0.469398869
            ],
            [
              110.866718639,
              -0.469263168
            ],
            [
              110.86696663,
              -0.468919378
            ],
            [
              110.867121381,
              -0.468675104
            ],
            [
              110.867235128,
              -0.468340357
            ],
            [
              110.867317705,
              -0.467942278
            ],
            [
              110.867389889,
              -0.467553245
            ],
            [
              110.867493246,
              -0.467155168
            ],
            [
              110.867503365,
              -0.466757087
            ],
            [
              110.867808098,
              -0.465879506
            ],
            [
              110.867828884,
              -0.465671421
            ],
            [
              110.86785978,
              -0.465481426
            ],
            [
              110.867931962,
              -0.465255246
            ],
            [
              110.868014535,
              -0.464974781
            ],
            [
              110.868086996,
              -0.46482098
            ],
            [
              110.868150071,
              -0.464649721
            ]
          ]
        ]
      }
    }
  ]
}