{
  "type": "FeatureCollection",
  "features": [
    {
      "type": "Feature",
      "properties": {
        "idx": "666",
        "nama_kewilayahan": "Tapang Bira"
      },
      "geometry": {
        "type": "Polygon",
        "coordinates": [
          [
            [
              110.754472915,
              -0.350464062
            ],
            [
              110.755161221,
              -0.351597352
            ],
            [
              110.755542294,
              -0.35255817
            ],
            [
              110.754755634,
              -0.353758285
            ],
            [
              110.754506517,
              -0.354264782
            ],
            [
              110.753998733,
              -0.355297495
            ],
            [
              110.753939182,
              -0.35580071
            ],
            [
              110.753830192,
              -0.356719495
            ],
            [
              110.753771197,
              -0.357452107
            ],
            [
              110.753731585,
              -0.357943519
            ],
            [
              110.752987051,
              -0.359108859
            ],
            [
              110.751975758,
              -0.358843352
            ],
            [
              110.751904099,
              -0.360493055
            ],
            [
              110.751744569,
              -0.36099245
            ],
            [
              110.751591499,
              -0.361470818
            ],
            [
              110.7510166,
              -0.362287102
            ],
            [
              110.750887948,
              -0.363322688
            ],
            [
              110.751343158,
              -0.364377868
            ],
            [
              110.751627072,
              -0.364913535
            ],
            [
              110.751966588,
              -0.365554131
            ],
            [
              110.752328008,
              -0.366285835
            ],
            [
              110.752235873,
              -0.367001199
            ],
            [
              110.752176603,
              -0.367462005
            ],
            [
              110.751871034,
              -0.368078728
            ],
            [
              110.751633431,
              -0.368558083
            ],
            [
              110.751044757,
              -0.369807502
            ],
            [
              110.750694535,
              -0.370375311
            ],
            [
              110.749819963,
              -0.371793015
            ],
            [
              110.749730091,
              -0.37191257
            ],
            [
              110.748937009,
              -0.371633249
            ],
            [
              110.748451165,
              -0.371381185
            ],
            [
              110.747359279,
              -0.370814713
            ],
            [
              110.746887204,
              -0.370274764
            ],
            [
              110.746324685,
              -0.370221313
            ],
            [
              110.745866357,
              -0.37017776
            ],
            [
              110.745622034,
              -0.369962846
            ],
            [
              110.74436812,
              -0.368860321
            ],
            [
              110.743565225,
              -0.368046437
            ],
            [
              110.742897407,
              -0.367453825
            ],
            [
              110.742444414,
              -0.367470634
            ],
            [
              110.741770958,
              -0.367611589
            ],
            [
              110.740987978,
              -0.367668464
            ],
            [
              110.740449048,
              -0.367707606
            ],
            [
              110.739995215,
              -0.367628076
            ],
            [
              110.739646415,
              -0.367553638
            ],
            [
              110.739646176,
              -0.367553309
            ],
            [
              110.739645211,
              -0.367551978
            ],
            [
              110.739641136,
              -0.367554285
            ],
            [
              110.739073486,
              -0.367570026
            ],
            [
              110.73907137,
              -0.367575883
            ],
            [
              110.739071214,
              -0.367575679
            ],
            [
              110.739069853,
              -0.367573907
            ],
            [
              110.738439087,
              -0.367638173
            ],
            [
              110.737358708,
              -0.36741546
            ],
            [
              110.736030626,
              -0.367287487
            ],
            [
              110.735661046,
              -0.367139469
            ],
            [
              110.73530579,
              -0.366997283
            ],
            [
              110.734885669,
              -0.366532505
            ],
            [
              110.73421391,
              -0.366290154
            ],
            [
              110.733944316,
              -0.365934796
            ],
            [
              110.733597761,
              -0.365923052
            ],
            [
              110.733239126,
              -0.366083559
            ],
            [
              110.733033269,
              -0.366175615
            ],
            [
              110.732654129,
              -0.366420974
            ],
            [
              110.732329196,
              -0.366545505
            ],
            [
              110.731407465,
              -0.367164822
            ],
            [
              110.73118473,
              -0.368164567
            ],
            [
              110.731093168,
              -0.368471216
            ],
            [
              110.730296422,
              -0.368716774
            ],
            [
              110.729382004,
              -0.368966569
            ],
            [
              110.728677088,
              -0.369325467
            ],
            [
              110.728405796,
              -0.369408297
            ],
            [
              110.728081708,
              -0.369435464
            ],
            [
              110.7277711,
              -0.369436621
            ],
            [
              110.727761274,
              -0.36933339
            ],
            [
              110.727767174,
              -0.369239702
            ],
            [
              110.727767184,
              -0.368926195
            ],
            [
              110.727684062,
              -0.368718355
            ],
            [
              110.727653172,
              -0.368653574
            ],
            [
              110.727515849,
              -0.36840562
            ],
            [
              110.7274698,
              -0.368129961
            ],
            [
              110.727450706,
              -0.368038004
            ],
            [
              110.727385835,
              -0.367960995
            ],
            [
              110.727285017,
              -0.367867198
            ],
            [
              110.727165944,
              -0.367759229
            ],
            [
              110.727047153,
              -0.367658151
            ],
            [
              110.72693482,
              -0.36756407
            ],
            [
              110.726812657,
              -0.367520138
            ],
            [
              110.726630392,
              -0.36753434
            ],
            [
              110.726577594,
              -0.367567452
            ],
            [
              110.72638971,
              -0.367654773
            ],
            [
              110.726321185,
              -0.367687532
            ],
            [
              110.726149028,
              -0.367788919
            ],
            [
              110.725997653,
              -0.3678679
            ],
            [
              110.725862568,
              -0.367933489
            ],
            [
              110.725763993,
              -0.367972466
            ],
            [
              110.725404514,
              -0.368138273
            ],
            [
              110.725342729,
              -0.368157497
            ],
            [
              110.72487513,
              -0.368256754
            ],
            [
              110.724622657,
              -0.368255651
            ],
            [
              110.724531665,
              -0.368249004
            ],
            [
              110.724520432,
              -0.3682419
            ],
            [
              110.724462019,
              -0.368199383
            ],
            [
              110.724387317,
              -0.36817026
            ],
            [
              110.724299134,
              -0.368143081
            ],
            [
              110.724199437,
              -0.368124807
            ],
            [
              110.723927588,
              -0.368045458
            ],
            [
              110.723733251,
              -0.367960953
            ],
            [
              110.723552112,
              -0.367901964
            ],
            [
              110.723459999,
              -0.367828947
            ],
            [
              110.723361147,
              -0.367742041
            ],
            [
              110.723260892,
              -0.367607037
            ],
            [
              110.723169061,
              -0.367501966
            ],
            [
              110.723059819,
              -0.367353073
            ],
            [
              110.722966867,
              -0.367197642
            ],
            [
              110.722905649,
              -0.367015459
            ],
            [
              110.722679019,
              -0.366824966
            ],
            [
              110.72245632,
              -0.366646029
            ],
            [
              110.722296807,
              -0.366523427
            ],
            [
              110.722204132,
              -0.366487024
            ],
            [
              110.722068207,
              -0.366442738
            ],
            [
              110.721812929,
              -0.366331725
            ],
            [
              110.721643023,
              -0.366282101
            ],
            [
              110.721464694,
              -0.366193426
            ],
            [
              110.721233847,
              -0.36611726
            ],
            [
              110.721016762,
              -0.3660277
            ],
            [
              110.72090555,
              -0.36601144
            ],
            [
              110.720842363,
              -0.365987159
            ],
            [
              110.720758674,
              -0.365948635
            ],
            [
              110.720688747,
              -0.365903573
            ],
            [
              110.720589894,
              -0.365823559
            ],
            [
              110.720454532,
              -0.365761002
            ],
            [
              110.720450039,
              -0.365754004
            ],
            [
              110.720355398,
              -0.365692402
            ],
            [
              110.720281259,
              -0.365628928
            ],
            [
              110.720173701,
              -0.365532657
            ],
            [
              110.720032725,
              -0.365369308
            ],
            [
              110.719945106,
              -0.365287209
            ],
            [
              110.719857768,
              -0.36520974
            ],
            [
              110.719779698,
              -0.365100429
            ],
            [
              110.719717636,
              -0.364996031
            ],
            [
              110.7196508,
              -0.36490068
            ],
            [
              110.719598763,
              -0.364845545
            ],
            [
              110.719596567,
              -0.364847342
            ],
            [
              110.719596319,
              -0.364847596
            ],
            [
              110.719595684,
              -0.364848064
            ],
            [
              110.719562226,
              -0.364205613
            ],
            [
              110.719564604,
              -0.364204219
            ],
            [
              110.719582586,
              -0.363943547
            ],
            [
              110.719431223,
              -0.363643288
            ],
            [
              110.719280935,
              -0.363470366
            ],
            [
              110.719281961,
              -0.363469697
            ],
            [
              110.71964241,
              -0.363234914
            ],
            [
              110.719703922,
              -0.363150477
            ],
            [
              110.719884811,
              -0.36291834
            ],
            [
              110.719946075,
              -0.362839721
            ],
            [
              110.720179498,
              -0.362439826
            ],
            [
              110.720135427,
              -0.362017142
            ],
            [
              110.719926781,
              -0.361835538
            ],
            [
              110.71951609,
              -0.361676504
            ],
            [
              110.719399291,
              -0.361441317
            ],
            [
              110.719477073,
              -0.361270414
            ],
            [
              110.71962144,
              -0.360745681
            ],
            [
              110.719707564,
              -0.360476735
            ],
            [
              110.719832931,
              -0.360085242
            ],
            [
              110.719908395,
              -0.359754326
            ],
            [
              110.719946405,
              -0.359587649
            ],
            [
              110.720038818,
              -0.359008631
            ],
            [
              110.720056238,
              -0.358736827
            ],
            [
              110.720073658,
              -0.3584658
            ],
            [
              110.719784691,
              -0.357977242
            ],
            [
              110.719555819,
              -0.35760729
            ],
            [
              110.71944349,
              -0.357425565
            ],
            [
              110.71920535,
              -0.357052572
            ],
            [
              110.718766976,
              -0.356602037
            ],
            [
              110.718733004,
              -0.356285383
            ],
            [
              110.718941678,
              -0.355914455
            ],
            [
              110.719357613,
              -0.355468645
            ],
            [
              110.720109705,
              -0.35517262
            ],
            [
              110.720259676,
              -0.355064058
            ],
            [
              110.720333197,
              -0.354903421
            ],
            [
              110.72056609,
              -0.354394574
            ],
            [
              110.720293413,
              -0.353851734
            ],
            [
              110.720061308,
              -0.352693734
            ],
            [
              110.720012336,
              -0.352449409
            ],
            [
              110.720025824,
              -0.352196088
            ],
            [
              110.720199957,
              -0.35175278
            ],
            [
              110.720288137,
              -0.351550171
            ],
            [
              110.720400769,
              -0.351291379
            ],
            [
              110.720624326,
              -0.350956639
            ],
            [
              110.720790875,
              -0.350558568
            ],
            [
              110.719977018,
              -0.350196655
            ],
            [
              110.719411141,
              -0.349816656
            ],
            [
              110.719059823,
              -0.349481899
            ],
            [
              110.718888523,
              -0.349120005
            ],
            [
              110.718940207,
              -0.34878526
            ],
            [
              110.719173307,
              -0.348635211
            ],
            [
              110.719427185,
              -0.348588711
            ],
            [
              110.719635007,
              -0.34851899
            ],
            [
              110.719888887,
              -0.348426051
            ],
            [
              110.720303687,
              -0.348323894
            ],
            [
              110.720932483,
              -0.348314866
            ],
            [
              110.721421421,
              -0.348323927
            ],
            [
              110.721857841,
              -0.348378224
            ],
            [
              110.722465289,
              -0.348522997
            ],
            [
              110.723055324,
              -0.348703958
            ],
            [
              110.723615592,
              -0.348803494
            ],
            [
              110.724225015,
              -0.348640663
            ],
            [
              110.724349723,
              -0.348070692
            ],
            [
              110.723974535,
              -0.347699746
            ],
            [
              110.723380017,
              -0.347147849
            ],
            [
              110.723078127,
              -0.346813093
            ],
            [
              110.72265632,
              -0.346405957
            ],
            [
              110.722529393,
              -0.346016923
            ],
            [
              110.722608041,
              -0.345555518
            ],
            [
              110.722648773,
              -0.345184584
            ],
            [
              110.72261088,
              -0.344506043
            ],
            [
              110.722532538,
              -0.344080822
            ],
            [
              110.722604721,
              -0.343818455
            ],
            [
              110.722616016,
              -0.343617973
            ],
            [
              110.722927409,
              -0.343643811
            ],
            [
              110.723253185,
              -0.343492421
            ],
            [
              110.723553964,
              -0.343391497
            ],
            [
              110.72380701,
              -0.34300092
            ],
            [
              110.724280792,
              -0.342685059
            ],
            [
              110.724732104,
              -0.342483206
            ],
            [
              110.725300242,
              -0.342373278
            ],
            [
              110.725964421,
              -0.342432705
            ],
            [
              110.72646122,
              -0.342508489
            ],
            [
              110.726836423,
              -0.342377421
            ],
            [
              110.727087781,
              -0.342104811
            ],
            [
              110.727287466,
              -0.341765582
            ],
            [
              110.727413856,
              -0.341297428
            ],
            [
              110.727537452,
              -0.340329168
            ],
            [
              110.727866906,
              -0.339175729
            ],
            [
              110.728321047,
              -0.338243208
            ],
            [
              110.728585333,
              -0.337589166
            ],
            [
              110.728817028,
              -0.337449188
            ],
            [
              110.729234352,
              -0.337472525
            ],
            [
              110.729548322,
              -0.337709598
            ],
            [
              110.729883353,
              -0.338009191
            ],
            [
              110.730452324,
              -0.338208068
            ],
            [
              110.731042079,
              -0.338335877
            ],
            [
              110.731367277,
              -0.338775488
            ],
            [
              110.731621426,
              -0.339129185
            ],
            [
              110.732039026,
              -0.33930544
            ],
            [
              110.732245439,
              -0.339415532
            ],
            [
              110.732716116,
              -0.339666712
            ],
            [
              110.733081484,
              -0.339735848
            ],
            [
              110.733390969,
              -0.339680937
            ],
            [
              110.733730782,
              -0.339683951
            ],
            [
              110.7345146,
              -0.339690864
            ],
            [
              110.735005224,
              -0.339689252
            ],
            [
              110.735493886,
              -0.339535038
            ],
            [
              110.73600164,
              -0.339549259
            ],
            [
              110.736488888,
              -0.339740537
            ],
            [
              110.737256974,
              -0.339954899
            ],
            [
              110.737716705,
              -0.339969295
            ],
            [
              110.738473277,
              -0.339943705
            ],
            [
              110.738472708,
              -0.339944737
            ],
            [
              110.738472533,
              -0.339945055
            ],
            [
              110.73847725,
              -0.339943699
            ],
            [
              110.739187018,
              -0.340030926
            ],
            [
              110.739193559,
              -0.340036194
            ],
            [
              110.739194251,
              -0.340035418
            ],
            [
              110.739194924,
              -0.340034711
            ],
            [
              110.7391985,
              -0.340036087
            ],
            [
              110.73957079,
              -0.34017934
            ],
            [
              110.739872128,
              -0.340225998
            ],
            [
              110.740058036,
              -0.340499858
            ],
            [
              110.739974591,
              -0.341815837
            ],
            [
              110.739587018,
              -0.34245263
            ],
            [
              110.74124311,
              -0.342808733
            ],
            [
              110.742142362,
              -0.342471536
            ],
            [
              110.743186789,
              -0.342820625
            ],
            [
              110.744179252,
              -0.343523649
            ],
            [
              110.74484229,
              -0.344318055
            ],
            [
              110.745447194,
              -0.345091785
            ],
            [
              110.745575806,
              -0.345566132
            ],
            [
              110.745669877,
              -0.345913604
            ],
            [
              110.746273665,
              -0.346442034
            ],
            [
              110.746617122,
              -0.346742616
            ],
            [
              110.747067288,
              -0.347400355
            ],
            [
              110.747825238,
              -0.34862327
            ],
            [
              110.749202991,
              -0.350154867
            ],
            [
              110.750179168,
              -0.350797882
            ],
            [
              110.751034593,
              -0.35111629
            ],
            [
              110.752201197,
              -0.351059529
            ],
            [
              110.753700612,
              -0.35038191
            ],
            [
              110.754472915,
              -0.350464062
            ]
          ]
        ]
      }
    }
  ]
}