{
  "type": "FeatureCollection",
  "features": [
    {
      "type": "Feature",
      "properties": {
        "idx": "673",
        "nama_kewilayahan": "Suak Mansi"
      },
      "geometry": {
        "type": "Polygon",
        "coordinates": [
          [
            [
              110.82275021,
              -0.533144913
            ],
            [
              110.823022626,
              -0.533144921
            ],
            [
              110.82341216,
              -0.533144932
            ],
            [
              110.82393117,
              -0.532973049
            ],
            [
              110.824774561,
              -0.532647372
            ],
            [
              110.825444948,
              -0.532430256
            ],
            [
              110.82556824,
              -0.532403118
            ],
            [
              110.825985862,
              -0.532294563
            ],
            [
              110.826461616,
              -0.532294576
            ],
            [
              110.826829246,
              -0.532231256
            ],
            [
              110.827175254,
              -0.532077462
            ],
            [
              110.827651016,
              -0.53179701
            ],
            [
              110.827953774,
              -0.531597979
            ],
            [
              110.828386565,
              -0.531362762
            ],
            [
              110.82879745,
              -0.531118498
            ],
            [
              110.829165087,
              -0.530819948
            ],
            [
              110.829640842,
              -0.53075663
            ],
            [
              110.830094967,
              -0.530928541
            ],
            [
              110.830260754,
              -0.531075429
            ],
            [
              110.830462586,
              -0.531254253
            ],
            [
              110.830765609,
              -0.531625199
            ],
            [
              110.830918383,
              -0.531896621
            ],
            [
              110.831018816,
              -0.532081966
            ],
            [
              110.831089971,
              -0.53221328
            ],
            [
              110.831371089,
              -0.532557084
            ],
            [
              110.831587331,
              -0.53295517
            ],
            [
              110.831911695,
              -0.533470873
            ],
            [
              110.832257688,
              -0.533823726
            ],
            [
              110.832538806,
              -0.534194672
            ],
            [
              110.832755051,
              -0.534457048
            ],
            [
              110.833144294,
              -0.534846091
            ],
            [
              110.833555444,
              -0.535189899
            ],
            [
              110.833923062,
              -0.535587989
            ],
            [
              110.834247433,
              -0.535868463
            ],
            [
              110.834636678,
              -0.53617608
            ],
            [
              110.835307053,
              -0.536411328
            ],
            [
              110.835847963,
              -0.536456579
            ],
            [
              110.836410218,
              -0.53650183
            ],
            [
              110.836842722,
              -0.536501842
            ],
            [
              110.837426602,
              -0.536519952
            ],
            [
              110.837945607,
              -0.536547108
            ],
            [
              110.838443268,
              -0.536519979
            ],
            [
              110.838681146,
              -0.536519985
            ],
            [
              110.839178521,
              -0.536719038
            ],
            [
              110.839567769,
              -0.536918089
            ],
            [
              110.839978643,
              -0.537135234
            ],
            [
              110.840649015,
              -0.537524284
            ],
            [
              110.841298043,
              -0.537868098
            ],
            [
              110.84173054,
              -0.538175716
            ],
            [
              110.84218466,
              -0.538546666
            ],
            [
              110.842660403,
              -0.539008089
            ],
            [
              110.843157768,
              -0.539596175
            ],
            [
              110.843655411,
              -0.540310922
            ],
            [
              110.844131148,
              -0.541052811
            ],
            [
              110.844477128,
              -0.541966594
            ],
            [
              110.844628488,
              -0.542618002
            ],
            [
              110.844693347,
              -0.543269407
            ],
            [
              110.844671709,
              -0.543794148
            ],
            [
              110.844801445,
              -0.544382224
            ],
            [
              110.844801433,
              -0.54486173
            ],
            [
              110.844921832,
              -0.545236745
            ],
            [
              110.844996045,
              -0.545467902
            ],
            [
              110.845320407,
              -0.546128361
            ],
            [
              110.845536641,
              -0.546843101
            ],
            [
              110.845861287,
              -0.547385946
            ],
            [
              110.845969403,
              -0.547774982
            ],
            [
              110.846315391,
              -0.5484083
            ],
            [
              110.846618135,
              -0.548806387
            ],
            [
              110.847115492,
              -0.549756364
            ],
            [
              110.847310105,
              -0.550326347
            ],
            [
              110.847504714,
              -0.551041087
            ],
            [
              110.847569571,
              -0.551810107
            ],
            [
              110.847720933,
              -0.552371041
            ],
            [
              110.847829042,
              -0.55304959
            ],
            [
              110.848002025,
              -0.553809565
            ],
            [
              110.848088514,
              -0.554289073
            ],
            [
              110.848045238,
              -0.555293319
            ],
            [
              110.847915473,
              -0.55580901
            ],
            [
              110.847612695,
              -0.556731824
            ],
            [
              110.84739643,
              -0.557229418
            ],
            [
              110.847136912,
              -0.557790343
            ],
            [
              110.846985514,
              -0.558577451
            ],
            [
              110.846790876,
              -0.558966479
            ],
            [
              110.846617857,
              -0.559599784
            ],
            [
              110.846401593,
              -0.560015952
            ],
            [
              110.84614208,
              -0.560404978
            ],
            [
              110.845796067,
              -0.560712576
            ],
            [
              110.845514647,
              -0.561083507
            ],
            [
              110.845428133,
              -0.56156301
            ],
            [
              110.845363241,
              -0.562169176
            ],
            [
              110.845363227,
              -0.562712012
            ],
            [
              110.845298339,
              -0.563173421
            ],
            [
              110.845190198,
              -0.563716254
            ],
            [
              110.844930674,
              -0.564476218
            ],
            [
              110.844800909,
              -0.56495572
            ],
            [
              110.844714389,
              -0.5656795
            ],
            [
              110.84445487,
              -0.566222329
            ],
            [
              110.844368356,
              -0.566701832
            ],
            [
              110.844303463,
              -0.567335139
            ],
            [
              110.844260197,
              -0.567914163
            ],
            [
              110.844218809,
              -0.568502654
            ],
            [
              110.84421693,
              -0.568529377
            ],
            [
              110.844022287,
              -0.569090302
            ],
            [
              110.843827641,
              -0.569750748
            ],
            [
              110.843438369,
              -0.570356904
            ],
            [
              110.842940685,
              -0.571071625
            ],
            [
              110.842754499,
              -0.571208858
            ],
            [
              110.842486544,
              -0.571406361
            ],
            [
              110.842032399,
              -0.571858712
            ],
            [
              110.841535007,
              -0.5721844
            ],
            [
              110.840886239,
              -0.572464847
            ],
            [
              110.840302069,
              -0.572645776
            ],
            [
              110.839588421,
              -0.573052883
            ],
            [
              110.839091026,
              -0.573496186
            ],
            [
              110.838766631,
              -0.574011871
            ],
            [
              110.838312478,
              -0.574735639
            ],
            [
              110.837901297,
              -0.575405125
            ],
            [
              110.837598526,
              -0.575975095
            ],
            [
              110.837295758,
              -0.576409355
            ],
            [
              110.837014616,
              -0.576870757
            ],
            [
              110.836755093,
              -0.577522153
            ],
            [
              110.836668581,
              -0.577893089
            ],
            [
              110.83664694,
              -0.578408782
            ],
            [
              110.836646924,
              -0.578996855
            ],
            [
              110.836646912,
              -0.579394934
            ],
            [
              110.836582016,
              -0.580109667
            ],
            [
              110.836646882,
              -0.580462512
            ],
            [
              110.836668496,
              -0.58083345
            ],
            [
              110.836517098,
              -0.58154818
            ],
            [
              110.836473819,
              -0.582552426
            ],
            [
              110.836408915,
              -0.583511434
            ],
            [
              110.836408899,
              -0.58405427
            ],
            [
              110.83610612,
              -0.584859468
            ],
            [
              110.835889846,
              -0.585574196
            ],
            [
              110.835673274,
              -0.586840807
            ],
            [
              110.835392125,
              -0.587474107
            ],
            [
              110.835175853,
              -0.588080267
            ],
            [
              110.834959582,
              -0.588686428
            ],
            [
              110.834570303,
              -0.589410197
            ],
            [
              110.83437566,
              -0.589907791
            ],
            [
              110.834159393,
              -0.590342054
            ],
            [
              110.833683607,
              -0.591237719
            ],
            [
              110.833536613,
              -0.591504185
            ],
            [
              110.833359208,
              -0.591825781
            ],
            [
              110.833121034,
              -0.592278137
            ],
            [
              110.832537126,
              -0.593001901
            ],
            [
              110.832169476,
              -0.593589962
            ],
            [
              110.831758574,
              -0.594241352
            ],
            [
              110.831196293,
              -0.594892738
            ],
            [
              110.830828644,
              -0.595435562
            ],
            [
              110.830374219,
              -0.595788392
            ],
            [
              110.82981194,
              -0.596349304
            ],
            [
              110.829011772,
              -0.597226864
            ],
            [
              110.82825486,
              -0.597959669
            ],
            [
              110.827389546,
              -0.598439146
            ],
            [
              110.826870526,
              -0.598773878
            ],
            [
              110.82615688,
              -0.598963848
            ],
            [
              110.825464581,
              -0.599117629
            ],
            [
              110.824794187,
              -0.599271411
            ],
            [
              110.824210296,
              -0.599425196
            ],
            [
              110.823518278,
              -0.599533741
            ],
            [
              110.822761104,
              -0.599642283
            ],
            [
              110.822004211,
              -0.599723684
            ],
            [
              110.821398696,
              -0.599814137
            ],
            [
              110.820879679,
              -0.600013159
            ],
            [
              110.82044689,
              -0.599986003
            ],
            [
              110.820313634,
              -0.599894771
            ],
            [
              110.819971142,
              -0.599660286
            ],
            [
              110.819408893,
              -0.59928933
            ],
            [
              110.818889892,
              -0.598990753
            ],
            [
              110.818435768,
              -0.598701226
            ],
            [
              110.817938119,
              -0.598185515
            ],
            [
              110.817440753,
              -0.597633616
            ],
            [
              110.817051516,
              -0.597009342
            ],
            [
              110.816402775,
              -0.596348871
            ],
            [
              110.816056794,
              -0.595570795
            ],
            [
              110.815602401,
              -0.594937472
            ],
            [
              110.815234792,
              -0.594258915
            ],
            [
              110.814715819,
              -0.593155132
            ],
            [
              110.8140671,
              -0.591843258
            ],
            [
              110.813721121,
              -0.591038041
            ],
            [
              110.813504887,
              -0.590449962
            ],
            [
              110.81328866,
              -0.589644749
            ],
            [
              110.812899151,
              -0.588776199
            ],
            [
              110.812553173,
              -0.58794384
            ],
            [
              110.812077446,
              -0.586993862
            ],
            [
              110.811774717,
              -0.586206741
            ],
            [
              110.811623365,
              -0.585446766
            ],
            [
              110.811428756,
              -0.584876782
            ],
            [
              110.811423337,
              -0.584860913
            ],
            [
              110.811169277,
              -0.584116804
            ],
            [
              110.811009333,
              -0.583554651
            ],
            [
              110.810953049,
              -0.583356828
            ],
            [
              110.810628417,
              -0.582461138
            ],
            [
              110.810368934,
              -0.581827822
            ],
            [
              110.810217577,
              -0.581221651
            ],
            [
              110.810022974,
              -0.580479769
            ],
            [
              110.809893244,
              -0.579801221
            ],
            [
              110.80976352,
              -0.578959822
            ],
            [
              110.809763549,
              -0.57810938
            ],
            [
              110.809633808,
              -0.577756532
            ],
            [
              110.809309441,
              -0.57736749
            ],
            [
              110.809049953,
              -0.576887976
            ],
            [
              110.808703971,
              -0.576191326
            ],
            [
              110.808249868,
              -0.575322774
            ],
            [
              110.807795486,
              -0.574408986
            ],
            [
              110.807449509,
              -0.573576627
            ],
            [
              110.807233273,
              -0.573079021
            ],
            [
              110.806908918,
              -0.572319041
            ],
            [
              110.806757562,
              -0.571703823
            ],
            [
              110.806519702,
              -0.571142885
            ],
            [
              110.806433218,
              -0.570618141
            ],
            [
              110.806368369,
              -0.569831028
            ],
            [
              110.806217014,
              -0.569179621
            ],
            [
              110.806065664,
              -0.568356316
            ],
            [
              110.805784561,
              -0.567569195
            ],
            [
              110.805741334,
              -0.566872555
            ],
            [
              110.805524827,
              -0.566085437
            ],
            [
              110.805373475,
              -0.565325463
            ],
            [
              110.805113998,
              -0.564520249
            ],
            [
              110.804854522,
              -0.563715034
            ],
            [
              110.804486933,
              -0.562493643
            ],
            [
              110.804270694,
              -0.562086509
            ],
            [
              110.804252348,
              -0.5619432
            ],
            [
              110.804250469,
              -0.561928521
            ],
            [
              110.804249676,
              -0.561922326
            ],
            [
              110.804205835,
              -0.561579861
            ],
            [
              110.804205861,
              -0.560801797
            ],
            [
              110.804054509,
              -0.560032776
            ],
            [
              110.803903159,
              -0.559227565
            ],
            [
              110.803535552,
              -0.558576151
            ],
            [
              110.803016289,
              -0.557834259
            ],
            [
              110.802583809,
              -0.55709237
            ],
            [
              110.802376121,
              -0.556662997
            ],
            [
              110.802216205,
              -0.556332388
            ],
            [
              110.802064855,
              -0.555527178
            ],
            [
              110.80187026,
              -0.554568163
            ],
            [
              110.801675662,
              -0.553681525
            ],
            [
              110.80145943,
              -0.553093447
            ],
            [
              110.801351324,
              -0.552460136
            ],
            [
              110.801329733,
              -0.55145589
            ],
            [
              110.801221621,
              -0.551003524
            ],
            [
              110.801156769,
              -0.550306884
            ],
            [
              110.80117841,
              -0.54982738
            ],
            [
              110.801243302,
              -0.549320736
            ],
            [
              110.801156809,
              -0.549103599
            ],
            [
              110.801144467,
              -0.548642189
            ],
            [
              110.801143625,
              -0.548606
            ],
            [
              110.80114503,
              -0.548587906
            ],
            [
              110.801210227,
              -0.547348434
            ],
            [
              110.801221771,
              -0.546470851
            ],
            [
              110.801156918,
              -0.545774211
            ],
            [
              110.801092058,
              -0.545294705
            ],
            [
              110.801048826,
              -0.544751868
            ],
            [
              110.801048839,
              -0.544335695
            ],
            [
              110.800983999,
              -0.543268117
            ],
            [
              110.800875898,
              -0.542508144
            ],
            [
              110.800821382,
              -0.542105109
            ],
            [
              110.800811038,
              -0.542028638
            ],
            [
              110.800956615,
              -0.541792649
            ],
            [
              110.800984048,
              -0.541748179
            ],
            [
              110.801005685,
              -0.541395337
            ],
            [
              110.800962449,
              -0.540961067
            ],
            [
              110.800854342,
              -0.540372992
            ],
            [
              110.800854359,
              -0.539862342
            ],
            [
              110.800854359,
              -0.539848252
            ],
            [
              110.800915515,
              -0.5396777
            ],
            [
              110.800984122,
              -0.539486366
            ],
            [
              110.80113551,
              -0.539115434
            ],
            [
              110.801308522,
              -0.538789738
            ],
            [
              110.801632907,
              -0.538563568
            ],
            [
              110.80200054,
              -0.538436918
            ],
            [
              110.802454669,
              -0.538418839
            ],
            [
              110.803016927,
              -0.538328384
            ],
            [
              110.803557839,
              -0.538265071
            ],
            [
              110.804033594,
              -0.53821985
            ],
            [
              110.804357972,
              -0.538219861
            ],
            [
              110.804639097,
              -0.538310342
            ],
            [
              110.805093225,
              -0.538328452
            ],
            [
              110.805417605,
              -0.538265131
            ],
            [
              110.8057639,
              -0.537912299
            ],
            [
              110.806001785,
              -0.537631842
            ],
            [
              110.806196426,
              -0.53719758
            ],
            [
              110.806347816,
              -0.536763317
            ],
            [
              110.806564081,
              -0.536329056
            ],
            [
              110.806801974,
              -0.535822417
            ],
            [
              110.80698116,
              -0.535641478
            ],
            [
              110.807126362,
              -0.535496726
            ],
            [
              110.807299374,
              -0.535152936
            ],
            [
              110.807580516,
              -0.53467344
            ],
            [
              110.807840032,
              -0.53423918
            ],
            [
              110.808000999,
              -0.534020328
            ],
            [
              110.808000767,
              -0.53402008
            ],
            [
              110.808002455,
              -0.53402008
            ],
            [
              110.808076838,
              -0.533915254
            ],
            [
              110.808078867,
              -0.533915108
            ],
            [
              110.808078632,
              -0.533914779
            ],
            [
              110.808099545,
              -0.533886346
            ],
            [
              110.80834329,
              -0.533654251
            ],
            [
              110.80848909,
              -0.53351542
            ],
            [
              110.808595292,
              -0.533370018
            ],
            [
              110.808726977,
              -0.533189727
            ],
            [
              110.808943239,
              -0.532864032
            ],
            [
              110.809224367,
              -0.532818805
            ],
            [
              110.809440616,
              -0.532909284
            ],
            [
              110.809635234,
              -0.533189755
            ],
            [
              110.809981221,
              -0.533714507
            ],
            [
              110.810283965,
              -0.533976886
            ],
            [
              110.810521832,
              -0.534320689
            ],
            [
              110.810781605,
              -0.534646399
            ],
            [
              110.810976227,
              -0.534782114
            ],
            [
              110.811451981,
              -0.534782128
            ],
            [
              110.811862861,
              -0.53471881
            ],
            [
              110.812029406,
              -0.534619296
            ],
            [
              110.812295372,
              -0.534474548
            ],
            [
              110.812598132,
              -0.534239328
            ],
            [
              110.812922521,
              -0.533868401
            ],
            [
              110.813119683,
              -0.533596989
            ],
            [
              110.813268819,
              -0.533388907
            ],
            [
              110.813593209,
              -0.532990837
            ],
            [
              110.813874345,
              -0.532692286
            ],
            [
              110.814133854,
              -0.532448018
            ],
            [
              110.814414989,
              -0.532212798
            ],
            [
              110.814674499,
              -0.531950435
            ],
            [
              110.814955635,
              -0.531642837
            ],
            [
              110.815236776,
              -0.531190483
            ],
            [
              110.815539536,
              -0.530928121
            ],
            [
              110.815885826,
              -0.530710997
            ],
            [
              110.816275086,
              -0.530466733
            ],
            [
              110.816794137,
              -0.530365411
            ],
            [
              110.816923845,
              -0.530340091
            ],
            [
              110.817313101,
              -0.53024963
            ],
            [
              110.817680729,
              -0.530249641
            ],
            [
              110.817901404,
              -0.530336201
            ],
            [
              110.818026727,
              -0.53038536
            ],
            [
              110.818416256,
              -0.530575364
            ],
            [
              110.819072771,
              -0.530910135
            ],
            [
              110.819108251,
              -0.530928227
            ],
            [
              110.819389372,
              -0.531163464
            ],
            [
              110.819886742,
              -0.531452991
            ],
            [
              110.820254363,
              -0.531688231
            ],
            [
              110.820665232,
              -0.532013944
            ],
            [
              110.821011508,
              -0.53229442
            ],
            [
              110.821314255,
              -0.532493468
            ],
            [
              110.82179,
              -0.532801089
            ],
            [
              110.822114372,
              -0.533018233
            ],
            [
              110.822546872,
              -0.533144907
            ],
            [
              110.82275021,
              -0.533144913
            ]
          ]
        ]
      }
    }
  ]
}