{
  "type": "FeatureCollection",
  "features": [
    {
      "type": "Feature",
      "properties": {
        "idx": "712",
        "nama_kewilayahan": "Jawatn Tapang Birah"
      },
      "geometry": {
        "type": "Polygon",
        "coordinates": [
          [
            [
              111.001560329,
              -0.158108446
            ],
            [
              111.00192991,
              -0.15818572
            ],
            [
              111.002385709,
              -0.15842892
            ],
            [
              111.002634811,
              -0.158532328
            ],
            [
              111.002826623,
              -0.158529412
            ],
            [
              111.003156325,
              -0.158472546
            ],
            [
              111.003722773,
              -0.157985406
            ],
            [
              111.004275741,
              -0.15748434
            ],
            [
              111.004555456,
              -0.157192441
            ],
            [
              111.005502999,
              -0.156359115
            ],
            [
              111.006007663,
              -0.155756445
            ],
            [
              111.006354215,
              -0.155543321
            ],
            [
              111.007008003,
              -0.15503395
            ],
            [
              111.00737955,
              -0.154710685
            ],
            [
              111.007717115,
              -0.154253708
            ],
            [
              111.008016208,
              -0.15390678
            ],
            [
              111.00852733,
              -0.153442151
            ],
            [
              111.008754527,
              -0.153260182
            ],
            [
              111.009046598,
              -0.153041985
            ],
            [
              111.009159775,
              -0.152854412
            ],
            [
              111.009266773,
              -0.152514998
            ],
            [
              111.009370402,
              -0.152124954
            ],
            [
              111.009569796,
              -0.151749543
            ],
            [
              111.009637758,
              -0.151533981
            ],
            [
              111.009939095,
              -0.150846703
            ],
            [
              111.010011271,
              -0.150654165
            ],
            [
              111.01013203,
              -0.150324061
            ],
            [
              111.010393209,
              -0.150036597
            ],
            [
              111.010649051,
              -0.149799689
            ],
            [
              111.010798456,
              -0.149635423
            ],
            [
              111.010929888,
              -0.149452604
            ],
            [
              111.011146412,
              -0.149114144
            ],
            [
              111.011444942,
              -0.148560242
            ],
            [
              111.011444098,
              -0.14814168
            ],
            [
              111.01139102,
              -0.147837641
            ],
            [
              111.011308736,
              -0.147606942
            ],
            [
              111.01127026,
              -0.147247833
            ],
            [
              111.011257623,
              -0.146516388
            ],
            [
              111.011328674,
              -0.146158251
            ],
            [
              111.011207072,
              -0.145844405
            ],
            [
              111.011136301,
              -0.145737993
            ],
            [
              111.01083075,
              -0.145491517
            ],
            [
              111.009870569,
              -0.145128855
            ],
            [
              111.009111187,
              -0.144988753
            ],
            [
              111.008951109,
              -0.144780357
            ],
            [
              111.008671676,
              -0.144607698
            ],
            [
              111.008257162,
              -0.144576439
            ],
            [
              111.007933638,
              -0.144545975
            ],
            [
              111.007514067,
              -0.144533058
            ],
            [
              111.007106854,
              -0.144589251
            ],
            [
              111.006646281,
              -0.144571377
            ],
            [
              111.006214075,
              -0.144498565
            ],
            [
              111.005589774,
              -0.144451642
            ],
            [
              111.005101119,
              -0.144474923
            ],
            [
              111.004264225,
              -0.144564106
            ],
            [
              111.003879197,
              -0.144652698
            ],
            [
              111.002967321,
              -0.144603228
            ],
            [
              111.002385708,
              -0.14448769
            ],
            [
              111.001952376,
              -0.144470054
            ],
            [
              111.001674068,
              -0.144467599
            ],
            [
              111.001326954,
              -0.144252947
            ],
            [
              111.001333413,
              -0.144142064
            ],
            [
              111.001340995,
              -0.144013891
            ],
            [
              111.001210406,
              -0.143699974
            ],
            [
              111.00088267,
              -0.143416504
            ],
            [
              111.00053359,
              -0.143082237
            ],
            [
              110.999945798,
              -0.142575695
            ],
            [
              110.999584923,
              -0.142370124
            ],
            [
              110.999105534,
              -0.142149701
            ],
            [
              110.998678944,
              -0.142026336
            ],
            [
              110.998330145,
              -0.14212444
            ],
            [
              110.997945118,
              -0.142213025
            ],
            [
              110.997600249,
              -0.142347974
            ],
            [
              110.997452529,
              -0.142434039
            ],
            [
              110.997345531,
              -0.142525087
            ],
            [
              110.997156527,
              -0.14262921
            ],
            [
              110.996997855,
              -0.142797989
            ],
            [
              110.996889171,
              -0.142994804
            ],
            [
              110.996699606,
              -0.143108115
            ],
            [
              110.996523522,
              -0.143239948
            ],
            [
              110.996279194,
              -0.143375772
            ],
            [
              110.99612333,
              -0.143411183
            ],
            [
              110.995971397,
              -0.143469637
            ],
            [
              110.995783798,
              -0.143500172
            ],
            [
              110.995380516,
              -0.143588604
            ],
            [
              110.995050813,
              -0.143645476
            ],
            [
              110.994921068,
              -0.14373632
            ],
            [
              110.994726729,
              -0.143872587
            ],
            [
              110.994498688,
              -0.144100546
            ],
            [
              110.994381579,
              -0.144013217
            ],
            [
              110.994364729,
              -0.143953854
            ],
            [
              110.994314179,
              -0.143902972
            ],
            [
              110.994285253,
              -0.143868586
            ],
            [
              110.994234983,
              -0.143822235
            ],
            [
              110.994041487,
              -0.143673343
            ],
            [
              110.993973525,
              -0.143428969
            ],
            [
              110.993930275,
              -0.143304399
            ],
            [
              110.993822715,
              -0.143211453
            ],
            [
              110.993611526,
              -0.143048601
            ],
            [
              110.993132138,
              -0.143058161
            ],
            [
              110.992694593,
              -0.143252069
            ],
            [
              110.992561197,
              -0.143301483
            ],
            [
              110.992372755,
              -0.143373411
            ],
            [
              110.99226042,
              -0.143396728
            ],
            [
              110.992139098,
              -0.143421933
            ],
            [
              110.992009632,
              -0.143498978
            ],
            [
              110.991668416,
              -0.143449968
            ],
            [
              110.991328603,
              -0.14332738
            ],
            [
              110.991157294,
              -0.14322466
            ],
            [
              110.991051137,
              -0.143062736
            ],
            [
              110.990988791,
              -0.142744826
            ],
            [
              110.990970819,
              -0.142500885
            ],
            [
              110.991005081,
              -0.142390805
            ],
            [
              110.991016314,
              -0.142264091
            ],
            [
              110.991022773,
              -0.14219317
            ],
            [
              110.99107557,
              -0.142055658
            ],
            [
              110.991258114,
              -0.141827303
            ],
            [
              110.991362023,
              -0.141428045
            ],
            [
              110.991308104,
              -0.141151607
            ],
            [
              110.991401903,
              -0.140793682
            ],
            [
              110.991474359,
              -0.140601134
            ],
            [
              110.991553556,
              -0.140289063
            ],
            [
              110.991607757,
              -0.139857179
            ],
            [
              110.991681335,
              -0.139600257
            ],
            [
              110.991720653,
              -0.139458028
            ],
            [
              110.991738346,
              -0.139255797
            ],
            [
              110.991755196,
              -0.139108771
            ],
            [
              110.991785808,
              -0.138943452
            ],
            [
              110.991841975,
              -0.138649565
            ],
            [
              110.991902636,
              -0.138351137
            ],
            [
              110.991917521,
              -0.138282284
            ],
            [
              110.9918636,
              -0.138010424
            ],
            [
              110.991790021,
              -0.137816594
            ],
            [
              110.991745649,
              -0.137531021
            ],
            [
              110.991601018,
              -0.137230782
            ],
            [
              110.991411173,
              -0.136911731
            ],
            [
              110.9912525,
              -0.136625159
            ],
            [
              110.9910649,
              -0.13642572
            ],
            [
              110.990898365,
              -0.136300056
            ],
            [
              110.990587478,
              -0.136099531
            ],
            [
              110.990209472,
              -0.135838606
            ],
            [
              110.990006708,
              -0.135708029
            ],
            [
              110.989750024,
              -0.135535567
            ],
            [
              110.989237498,
              -0.135374658
            ],
            [
              110.988848538,
              -0.13520102
            ],
            [
              110.988130721,
              -0.135042885
            ],
            [
              110.987663969,
              -0.134873178
            ],
            [
              110.987344377,
              -0.13465877
            ],
            [
              110.986879594,
              -0.134387882
            ],
            [
              110.986442892,
              -0.134089648
            ],
            [
              110.985860719,
              -0.133771727
            ],
            [
              110.985381893,
              -0.133514515
            ],
            [
              110.984890708,
              -0.133441173
            ],
            [
              110.984393347,
              -0.133206799
            ],
            [
              110.983630596,
              -0.133016063
            ],
            [
              110.983046456,
              -0.132776327
            ],
            [
              110.982736973,
              -0.132506824
            ],
            [
              110.98263531,
              -0.132114944
            ],
            [
              110.982886379,
              -0.131652622
            ],
            [
              110.982984111,
              -0.131331523
            ],
            [
              110.982744557,
              -0.130763653
            ],
            [
              110.982645984,
              -0.130661596
            ],
            [
              110.982543759,
              -0.130536498
            ],
            [
              110.982467373,
              -0.130241453
            ],
            [
              110.982417945,
              -0.12997423
            ],
            [
              110.982453892,
              -0.129542203
            ],
            [
              110.982453051,
              -0.129132831
            ],
            [
              110.982424967,
              -0.128709427
            ],
            [
              110.982303646,
              -0.128386382
            ],
            [
              110.982061284,
              -0.12794728
            ],
            [
              110.98194586,
              -0.127785275
            ],
            [
              110.981724,
              -0.127479734
            ],
            [
              110.981179738,
              -0.126844795
            ],
            [
              110.981041286,
              -0.126691777
            ],
            [
              110.980602059,
              -0.126301532
            ],
            [
              110.980322626,
              -0.126119666
            ],
            [
              110.980080826,
              -0.125892149
            ],
            [
              110.979771907,
              -0.125595056
            ],
            [
              110.979228208,
              -0.125162489
            ],
            [
              110.978847955,
              -0.12501653
            ],
            [
              110.978466578,
              -0.124911974
            ],
            [
              110.978135473,
              -0.124817047
            ],
            [
              110.977948436,
              -0.12481079
            ],
            [
              110.977807175,
              -0.124804952
            ],
            [
              110.977578574,
              -0.124821313
            ],
            [
              110.977318238,
              -0.12483741
            ],
            [
              110.97710733,
              -0.124886138
            ],
            [
              110.976836323,
              -0.124961944
            ],
            [
              110.976659395,
              -0.124914384
            ],
            [
              110.976435008,
              -0.124949195
            ],
            [
              110.976063742,
              -0.125037899
            ],
            [
              110.975920233,
              -0.125133222
            ],
            [
              110.97574415,
              -0.125278836
            ],
            [
              110.975581544,
              -0.125419997
            ],
            [
              110.975451518,
              -0.125524634
            ],
            [
              110.974961238,
              -0.125806381
            ],
            [
              110.974961177,
              -0.125806415
            ],
            [
              110.974960054,
              -0.125839072
            ],
            [
              110.974807559,
              -0.126092395
            ],
            [
              110.9746399,
              -0.126300486
            ],
            [
              110.974298121,
              -0.126571904
            ],
            [
              110.973935561,
              -0.126997127
            ],
            [
              110.973544636,
              -0.127377113
            ],
            [
              110.97314332,
              -0.127856619
            ],
            [
              110.972761663,
              -0.128345175
            ],
            [
              110.972471558,
              -0.128625642
            ],
            [
              110.972050584,
              -0.129050863
            ],
            [
              110.971925892,
              -0.12940371
            ],
            [
              110.971900336,
              -0.129584655
            ],
            [
              110.971743348,
              -0.129847028
            ],
            [
              110.971584393,
              -0.130217967
            ],
            [
              110.971477114,
              -0.130607002
            ],
            [
              110.971327989,
              -0.130941751
            ],
            [
              110.9711842,
              -0.131068413
            ],
            [
              110.971002219,
              -0.131176982
            ],
            [
              110.970718574,
              -0.131321739
            ],
            [
              110.97057001,
              -0.131457448
            ],
            [
              110.970309114,
              -0.131719819
            ],
            [
              110.970472841,
              -0.131918861
            ],
            [
              110.970661281,
              -0.131982191
            ],
            [
              110.970844388,
              -0.132072666
            ],
            [
              110.97103339,
              -0.132244564
            ],
            [
              110.971094893,
              -0.132497889
            ],
            [
              110.970964866,
              -0.132760263
            ],
            [
              110.970793836,
              -0.133040728
            ],
            [
              110.970630669,
              -0.133239769
            ],
            [
              110.970482107,
              -0.133393573
            ],
            [
              110.969995135,
              -0.133556424
            ],
            [
              110.969708682,
              -0.133592613
            ],
            [
              110.969470814,
              -0.133683086
            ],
            [
              110.969334889,
              -0.133873079
            ],
            [
              110.969212444,
              -0.134072118
            ],
            [
              110.969047593,
              -0.134244018
            ],
            [
              110.968847075,
              -0.134406871
            ],
            [
              110.968518777,
              -0.134515436
            ],
            [
              110.968142456,
              -0.134660193
            ],
            [
              110.967847297,
              -0.13466924
            ],
            [
              110.96765717,
              -0.134587814
            ],
            [
              110.967034275,
              -0.134207826
            ],
            [
              110.96661948,
              -0.13379165
            ],
            [
              110.96638779,
              -0.133619749
            ],
            [
              110.966160032,
              -0.133637845
            ],
            [
              110.965937889,
              -0.13371927
            ],
            [
              110.96564947,
              -0.133796606
            ],
            [
              110.965611277,
              -0.133803434
            ],
            [
              110.965569713,
              -0.133816271
            ],
            [
              110.965523435,
              -0.133845427
            ],
            [
              110.965360208,
              -0.133945452
            ],
            [
              110.96535584,
              -0.133949237
            ],
            [
              110.965352906,
              -0.133951035
            ],
            [
              110.96527006,
              -0.13402162
            ],
            [
              110.965177665,
              -0.134101845
            ],
            [
              110.965066173,
              -0.134198106
            ],
            [
              110.964973777,
              -0.134255861
            ],
            [
              110.964792075,
              -0.13436495
            ],
            [
              110.964696591,
              -0.134425913
            ],
            [
              110.964647725,
              -0.134473076
            ],
            [
              110.964539604,
              -0.134569715
            ],
            [
              110.964446085,
              -0.134642094
            ],
            [
              110.964265506,
              -0.13482304
            ],
            [
              110.964097846,
              -0.13502208
            ],
            [
              110.963866717,
              -0.135275404
            ],
            [
              110.963765616,
              -0.135402067
            ],
            [
              110.96362941,
              -0.135610154
            ],
            [
              110.96346849,
              -0.135827289
            ],
            [
              110.963436756,
              -0.136134899
            ],
            [
              110.963412322,
              -0.136569169
            ],
            [
              110.963278925,
              -0.136885824
            ],
            [
              110.96319046,
              -0.137075818
            ],
            [
              110.963126711,
              -0.137274859
            ],
            [
              110.96314356,
              -0.137491994
            ],
            [
              110.963402771,
              -0.137781509
            ],
            [
              110.963673779,
              -0.138043882
            ],
            [
              110.96373837,
              -0.138233875
            ],
            [
              110.963724048,
              -0.138722431
            ],
            [
              110.963531674,
              -0.138939566
            ],
            [
              110.963472418,
              -0.139129559
            ],
            [
              110.963376371,
              -0.139382883
            ],
            [
              110.963312901,
              -0.139545735
            ],
            [
              110.963070538,
              -0.139934769
            ],
            [
              110.962899789,
              -0.140043335
            ],
            [
              110.962627658,
              -0.140179045
            ],
            [
              110.962412818,
              -0.140224283
            ],
            [
              110.962096878,
              -0.140106664
            ],
            [
              110.961773073,
              -0.140224281
            ],
            [
              110.961598392,
              -0.140450463
            ],
            [
              110.961517792,
              -0.140712835
            ],
            [
              110.961548964,
              -0.141038537
            ],
            [
              110.961594179,
              -0.141174248
            ],
            [
              110.961613556,
              -0.141391383
            ],
            [
              110.961538292,
              -0.141599473
            ],
            [
              110.961389167,
              -0.141925175
            ],
            [
              110.961332157,
              -0.142106121
            ],
            [
              110.961306318,
              -0.142332303
            ],
            [
              110.961530427,
              -0.142404682
            ],
            [
              110.961792167,
              -0.142377541
            ],
            [
              110.962099121,
              -0.142187548
            ],
            [
              110.962352716,
              -0.141952318
            ],
            [
              110.962643384,
              -0.141653756
            ],
            [
              110.962986005,
              -0.141499953
            ],
            [
              110.963346036,
              -0.141518048
            ],
            [
              110.963673492,
              -0.14161757
            ],
            [
              110.963788917,
              -0.141735185
            ],
            [
              110.963929615,
              -0.141952321
            ],
            [
              110.964149228,
              -0.142187551
            ],
            [
              110.964388783,
              -0.142431828
            ],
            [
              110.964501117,
              -0.142603728
            ],
            [
              110.964531727,
              -0.142811816
            ],
            [
              110.964482862,
              -0.143056094
            ],
            [
              110.964359573,
              -0.143309417
            ],
            [
              110.964130411,
              -0.143427033
            ],
            [
              110.963951237,
              -0.143653215
            ],
            [
              110.963916413,
              -0.143861303
            ],
            [
              110.963961627,
              -0.143997012
            ],
            [
              110.964086881,
              -0.144069392
            ],
            [
              110.964341037,
              -0.144096534
            ],
            [
              110.964690117,
              -0.144096535
            ],
            [
              110.965006902,
              -0.143997016
            ],
            [
              110.965306835,
              -0.143978921
            ],
            [
              110.965547793,
              -0.143987967
            ],
            [
              110.965776675,
              -0.143906543
            ],
            [
              110.965950232,
              -0.143888448
            ],
            [
              110.966148503,
              -0.144024157
            ],
            [
              110.966349862,
              -0.144277483
            ],
            [
              110.966414173,
              -0.144639375
            ],
            [
              110.966415857,
              -0.144974126
            ],
            [
              110.966415015,
              -0.145336018
            ],
            [
              110.966349579,
              -0.145634579
            ],
            [
              110.966197926,
              -0.14596933
            ],
            [
              110.96598421,
              -0.146249797
            ],
            [
              110.965874382,
              -0.146313071
            ],
            [
              110.965874411,
              -0.146313133
            ],
            [
              110.96637738,
              -0.147351997
            ],
            [
              110.966498139,
              -0.147941795
            ],
            [
              110.966580985,
              -0.148361089
            ],
            [
              110.966708484,
              -0.148835968
            ],
            [
              110.966905069,
              -0.149274675
            ],
            [
              110.967122998,
              -0.149547967
            ],
            [
              110.967310034,
              -0.149784205
            ],
            [
              110.967873674,
              -0.150124947
            ],
            [
              110.96805032,
              -0.150186317
            ],
            [
              110.968355871,
              -0.150202822
            ],
            [
              110.968829079,
              -0.150266807
            ],
            [
              110.969213545,
              -0.150219608
            ],
            [
              110.969499438,
              -0.150291123
            ],
            [
              110.969841496,
              -0.15052874
            ],
            [
              110.970129353,
              -0.151198205
            ],
            [
              110.96993389,
              -0.151624241
            ],
            [
              110.96976286,
              -0.151953903
            ],
            [
              110.969557006,
              -0.152218854
            ],
            [
              110.96932672,
              -0.152547968
            ],
            [
              110.968978763,
              -0.152839264
            ],
            [
              110.968533636,
              -0.153189495
            ],
            [
              110.968172198,
              -0.153462273
            ],
            [
              110.967705446,
              -0.153757107
            ],
            [
              110.967284472,
              -0.154033968
            ],
            [
              110.967007005,
              -0.15422928
            ],
            [
              110.966547275,
              -0.154616175
            ],
            [
              110.966236669,
              -0.155087182
            ],
            [
              110.966114223,
              -0.155518448
            ],
            [
              110.966078556,
              -0.155927505
            ],
            [
              110.966211952,
              -0.15655882
            ],
            [
              110.966344226,
              -0.157024543
            ],
            [
              110.966361918,
              -0.157507658
            ],
            [
              110.966360232,
              -0.157815811
            ],
            [
              110.966315578,
              -0.158233967
            ],
            [
              110.96616505,
              -0.158448824
            ],
            [
              110.966064509,
              -0.158549777
            ],
            [
              110.966421454,
              -0.158640356
            ],
            [
              110.966753684,
              -0.158454038
            ],
            [
              110.967003348,
              -0.158295252
            ],
            [
              110.967134218,
              -0.158144628
            ],
            [
              110.967384443,
              -0.157953662
            ],
            [
              110.967584399,
              -0.157762256
            ],
            [
              110.96782564,
              -0.157571201
            ],
            [
              110.968080358,
              -0.157380272
            ],
            [
              110.968470441,
              -0.15703416
            ],
            [
              110.968799864,
              -0.156770304
            ],
            [
              110.969244148,
              -0.156236089
            ],
            [
              110.969332893,
              -0.156131091
            ],
            [
              110.969712304,
              -0.155637695
            ],
            [
              110.969999601,
              -0.155189463
            ],
            [
              110.970175125,
              -0.154855263
            ],
            [
              110.970413274,
              -0.154356018
            ],
            [
              110.970531227,
              -0.154163886
            ],
            [
              110.970705345,
              -0.153898653
            ],
            [
              110.970833688,
              -0.153642201
            ],
            [
              110.970970175,
              -0.153206462
            ],
            [
              110.970995731,
              -0.153073296
            ],
            [
              110.971498431,
              -0.152806365
            ],
            [
              110.971675358,
              -0.152853936
            ],
            [
              110.97219322,
              -0.153198883
            ],
            [
              110.972365092,
              -0.153278595
            ],
            [
              110.972526854,
              -0.153408809
            ],
            [
              110.972873407,
              -0.153651054
            ],
            [
              110.973168846,
              -0.153708874
            ],
            [
              110.973367117,
              -0.153600234
            ],
            [
              110.973530002,
              -0.153449876
            ],
            [
              110.973855213,
              -0.153383773
            ],
            [
              110.974132398,
              -0.153220638
            ],
            [
              110.97475024,
              -0.153129512
            ],
            [
              110.9752608,
              -0.152927061
            ],
            [
              110.975854772,
              -0.152665538
            ],
            [
              110.976167623,
              -0.152539511
            ],
            [
              110.976651505,
              -0.152525393
            ],
            [
              110.97729041,
              -0.152526453
            ],
            [
              110.977754352,
              -0.152608747
            ],
            [
              110.978091355,
              -0.152639334
            ],
            [
              110.978527214,
              -0.152744387
            ],
            [
              110.97870358,
              -0.152837916
            ],
            [
              110.978838663,
              -0.152926517
            ],
            [
              110.979644945,
              -0.153448806
            ],
            [
              110.979860908,
              -0.153607099
            ],
            [
              110.980313054,
              -0.154043454
            ],
            [
              110.980725885,
              -0.15416669
            ],
            [
              110.980895791,
              -0.154117601
            ],
            [
              110.981157811,
              -0.154248698
            ],
            [
              110.981371247,
              -0.154320583
            ],
            [
              110.981452409,
              -0.154347902
            ],
            [
              110.981597322,
              -0.154404376
            ],
            [
              110.981980382,
              -0.154646941
            ],
            [
              110.982228923,
              -0.154777933
            ],
            [
              110.982725724,
              -0.155030691
            ],
            [
              110.982815871,
              -0.155055555
            ],
            [
              110.982898157,
              -0.155078226
            ],
            [
              110.983079016,
              -0.15517181
            ],
            [
              110.983354235,
              -0.155321444
            ],
            [
              110.983548014,
              -0.155447347
            ],
            [
              110.983708932,
              -0.155618945
            ],
            [
              110.984232974,
              -0.15588116
            ],
            [
              110.98456745,
              -0.156040512
            ],
            [
              110.984780044,
              -0.15636436
            ],
            [
              110.984966519,
              -0.156632776
            ],
            [
              110.985096547,
              -0.156748923
            ],
            [
              110.985594751,
              -0.15716729
            ],
            [
              110.985822229,
              -0.157426871
            ],
            [
              110.986130307,
              -0.157784383
            ],
            [
              110.986241519,
              -0.157913535
            ],
            [
              110.986453269,
              -0.158048786
            ],
            [
              110.986718098,
              -0.158267319
            ],
            [
              110.98691693,
              -0.158370267
            ],
            [
              110.987093015,
              -0.158454609
            ],
            [
              110.987218269,
              -0.158593711
            ],
            [
              110.987383963,
              -0.158751561
            ],
            [
              110.987605262,
              -0.158854703
            ],
            [
              110.987807183,
              -0.158810494
            ],
            [
              110.988136043,
              -0.158555826
            ],
            [
              110.988505064,
              -0.158361327
            ],
            [
              110.988833923,
              -0.158115848
            ],
            [
              110.989078813,
              -0.157966232
            ],
            [
              110.989353752,
              -0.157918062
            ],
            [
              110.989789611,
              -0.157333185
            ],
            [
              110.989957272,
              -0.157164485
            ],
            [
              110.990086737,
              -0.157087439
            ],
            [
              110.990571462,
              -0.156811163
            ],
            [
              110.990843032,
              -0.156684765
            ],
            [
              110.99110112,
              -0.156558261
            ],
            [
              110.991371286,
              -0.156289279
            ],
            [
              110.991638924,
              -0.156135265
            ],
            [
              110.991725422,
              -0.156085433
            ],
            [
              110.991874546,
              -0.15599936
            ],
            [
              110.991961886,
              -0.155958736
            ],
            [
              110.992126176,
              -0.155960185
            ],
            [
              110.992314056,
              -0.155925058
            ],
            [
              110.992534513,
              -0.155858014
            ],
            [
              110.992851859,
              -0.155732042
            ],
            [
              110.993081022,
              -0.155674277
            ],
            [
              110.993353994,
              -0.155718082
            ],
            [
              110.993505365,
              -0.155678022
            ],
            [
              110.993834507,
              -0.155657931
            ],
            [
              110.994249583,
              -0.155666219
            ],
            [
              110.994413031,
              -0.155699864
            ],
            [
              110.994826141,
              -0.155809298
            ],
            [
              110.995002506,
              -0.15589825
            ],
            [
              110.995197407,
              -0.15595978
            ],
            [
              110.995654891,
              -0.156359382
            ],
            [
              110.995766945,
              -0.156461554
            ],
            [
              110.995994422,
              -0.156495762
            ],
            [
              110.996246053,
              -0.156465794
            ],
            [
              110.996411746,
              -0.15640287
            ],
            [
              110.996649334,
              -0.156156593
            ],
            [
              110.996757176,
              -0.15601037
            ],
            [
              110.996990271,
              -0.155764043
            ],
            [
              110.997148101,
              -0.155622856
            ],
            [
              110.997352269,
              -0.15546368
            ],
            [
              110.997648834,
              -0.155236331
            ],
            [
              110.997931917,
              -0.154999651
            ],
            [
              110.998217528,
              -0.15486419
            ],
            [
              110.998485165,
              -0.154710191
            ],
            [
              110.998861206,
              -0.154391539
            ],
            [
              110.999217026,
              -0.154178501
            ],
            [
              110.999821106,
              -0.153750362
            ],
            [
              110.999835149,
              -0.154073593
            ],
            [
              110.999973039,
              -0.154244998
            ],
            [
              111.000034542,
              -0.154365121
            ],
            [
              111.000137048,
              -0.154490209
            ],
            [
              111.000301619,
              -0.154698651
            ],
            [
              111.000376883,
              -0.155048882
            ],
            [
              111.00043951,
              -0.155339208
            ],
            [
              111.00053359,
              -0.155652807
            ],
            [
              111.00064424,
              -0.155828577
            ],
            [
              111.000729895,
              -0.156114503
            ],
            [
              111.000843352,
              -0.156607652
            ],
            [
              111.001010451,
              -0.156912717
            ],
            [
              111.001081222,
              -0.157258299
            ],
            [
              111.001158733,
              -0.157484357
            ],
            [
              111.001155924,
              -0.157636115
            ],
            [
              111.001230065,
              -0.157797764
            ],
            [
              111.001306733,
              -0.157927075
            ],
            [
              111.001371046,
              -0.157973196
            ],
            [
              111.001448837,
              -0.158033152
            ],
            [
              111.001560329,
              -0.158108446
            ]
          ]
        ]
      }
    }
  ]
}