{
  "type": "FeatureCollection",
  "features": [
    {
      "type": "Feature",
      "properties": {
        "idx": "718",
        "nama_kewilayahan": "Jawatn Sungai Gontin"
      },
      "geometry": {
        "type": "Polygon",
        "coordinates": [
          [
            [
              111.00613124,
              -0.184295414
            ],
            [
              111.005774296,
              -0.183926615
            ],
            [
              111.005655782,
              -0.183686383
            ],
            [
              111.005518172,
              -0.183505791
            ],
            [
              111.005384774,
              -0.18332062
            ],
            [
              111.005255027,
              -0.182730727
            ],
            [
              111.005126964,
              -0.182292638
            ],
            [
              111.005036535,
              -0.182025071
            ],
            [
              111.00498093,
              -0.181835995
            ],
            [
              111.004830961,
              -0.181112547
            ],
            [
              111.004748676,
              -0.180665658
            ],
            [
              111.004714415,
              -0.180324989
            ],
            [
              111.004700091,
              -0.180122484
            ],
            [
              111.004618087,
              -0.179666408
            ],
            [
              111.004482443,
              -0.17938002
            ],
            [
              111.004191776,
              -0.179303862
            ],
            [
              111.003886506,
              -0.179278168
            ],
            [
              111.00360932,
              -0.179215915
            ],
            [
              111.003175988,
              -0.179207487
            ],
            [
              111.0029384,
              -0.17922378
            ],
            [
              111.002765966,
              -0.179171668
            ],
            [
              111.002296967,
              -0.179116926
            ],
            [
              111.002105997,
              -0.179087628
            ],
            [
              111.001708052,
              -0.179139297
            ],
            [
              111.001330888,
              -0.179287746
            ],
            [
              111.001166879,
              -0.179267902
            ],
            [
              111.000861046,
              -0.179241467
            ],
            [
              111.000574593,
              -0.179216676
            ],
            [
              111.00023478,
              -0.179328653
            ],
            [
              110.999987361,
              -0.179377053
            ],
            [
              110.999454332,
              -0.17955632
            ],
            [
              110.999138111,
              -0.179622515
            ],
            [
              110.998340252,
              -0.179587863
            ],
            [
              110.997805819,
              -0.179615323
            ],
            [
              110.997310141,
              -0.179532749
            ],
            [
              110.996908262,
              -0.179542998
            ],
            [
              110.996589232,
              -0.179526369
            ],
            [
              110.995973636,
              -0.179502531
            ],
            [
              110.9954583,
              -0.179714154
            ],
            [
              110.995254132,
              -0.17987333
            ],
            [
              110.994511316,
              -0.180289913
            ],
            [
              110.99399907,
              -0.180565961
            ],
            [
              110.993810066,
              -0.180670075
            ],
            [
              110.993314107,
              -0.180826673
            ],
            [
              110.992914756,
              -0.180938119
            ],
            [
              110.992122796,
              -0.181285275
            ],
            [
              110.991962156,
              -0.181329858
            ],
            [
              110.991567299,
              -0.181450549
            ],
            [
              110.991096896,
              -0.181699366
            ],
            [
              110.990220404,
              -0.181949191
            ],
            [
              110.989808415,
              -0.182009944
            ],
            [
              110.989401201,
              -0.182066115
            ],
            [
              110.988877721,
              -0.182231672
            ],
            [
              110.988255947,
              -0.182515937
            ],
            [
              110.987925682,
              -0.182595807
            ],
            [
              110.987707471,
              -0.18265769
            ],
            [
              110.987485047,
              -0.182720703
            ],
            [
              110.986781269,
              -0.18299965
            ],
            [
              110.986400735,
              -0.183097474
            ],
            [
              110.986055025,
              -0.183269196
            ],
            [
              110.985795811,
              -0.183450884
            ],
            [
              110.985382981,
              -0.18372877
            ],
            [
              110.985161962,
              -0.183877626
            ],
            [
              110.984634549,
              -0.184020138
            ],
            [
              110.984425887,
              -0.183953909
            ],
            [
              110.984122021,
              -0.183850042
            ],
            [
              110.983698238,
              -0.183602512
            ],
            [
              110.983472726,
              -0.183467138
            ],
            [
              110.983207335,
              -0.183332383
            ],
            [
              110.983020859,
              -0.183237738
            ],
            [
              110.982730473,
              -0.183156985
            ],
            [
              110.982181437,
              -0.182761164
            ],
            [
              110.981858755,
              -0.182698521
            ],
            [
              110.981318424,
              -0.182569545
            ],
            [
              110.98045822,
              -0.182221575
            ],
            [
              110.980188897,
              -0.182219188
            ],
            [
              110.97990497,
              -0.182727233
            ],
            [
              110.979345542,
              -0.182869465
            ],
            [
              110.978860534,
              -0.183154947
            ],
            [
              110.977995274,
              -0.183529049
            ],
            [
              110.977572614,
              -0.183663293
            ],
            [
              110.977307224,
              -0.183706938
            ],
            [
              110.976629001,
              -0.184068901
            ],
            [
              110.976208587,
              -0.184327367
            ],
            [
              110.975509582,
              -0.184601754
            ],
            [
              110.974681113,
              -0.184953183
            ],
            [
              110.974047543,
              -0.185149961
            ],
            [
              110.973451606,
              -0.185278073
            ],
            [
              110.972868307,
              -0.185470697
            ],
            [
              110.972172392,
              -0.1858049
            ],
            [
              110.971417781,
              -0.186120194
            ],
            [
              110.970835606,
              -0.186248427
            ],
            [
              110.970321954,
              -0.18661184
            ],
            [
              110.970003484,
              -0.186783808
            ],
            [
              110.969845372,
              -0.186929589
            ],
            [
              110.969547402,
              -0.187230535
            ],
            [
              110.96938873,
              -0.187413108
            ],
            [
              110.969051724,
              -0.187824088
            ],
            [
              110.967841874,
              -0.189460006
            ],
            [
              110.967598669,
              -0.189709867
            ],
            [
              110.967091755,
              -0.190230705
            ],
            [
              110.96664045,
              -0.190663668
            ],
            [
              110.966216385,
              -0.191096878
            ],
            [
              110.965767043,
              -0.191437865
            ],
            [
              110.965592082,
              -0.191509907
            ],
            [
              110.965059053,
              -0.191468396
            ],
            [
              110.964776249,
              -0.191691275
            ],
            [
              110.964465924,
              -0.191913904
            ],
            [
              110.964298544,
              -0.192077994
            ],
            [
              110.964190422,
              -0.19222883
            ],
            [
              110.964070503,
              -0.192522144
            ],
            [
              110.963956763,
              -0.192732704
            ],
            [
              110.963943563,
              -0.192939572
            ],
            [
              110.963966591,
              -0.193611299
            ],
            [
              110.963917443,
              -0.193794862
            ],
            [
              110.963638011,
              -0.194077554
            ],
            [
              110.963172101,
              -0.194321812
            ],
            [
              110.962713492,
              -0.194432747
            ],
            [
              110.962439396,
              -0.194448722
            ],
            [
              110.962110815,
              -0.1944504
            ],
            [
              110.961923497,
              -0.194462557
            ],
            [
              110.961576663,
              -0.194459482
            ],
            [
              110.961330088,
              -0.19447109
            ],
            [
              110.960776557,
              -0.194631324
            ],
            [
              110.960686127,
              -0.194778572
            ],
            [
              110.960771221,
              -0.194806511
            ],
            [
              110.960891418,
              -0.194954768
            ],
            [
              110.961688435,
              -0.195044604
            ],
            [
              110.961758363,
              -0.19519242
            ],
            [
              110.961929954,
              -0.195515897
            ],
            [
              110.962090873,
              -0.195908288
            ],
            [
              110.962353736,
              -0.196232578
            ],
            [
              110.962958659,
              -0.196785277
            ],
            [
              110.963142886,
              -0.197164065
            ],
            [
              110.963234159,
              -0.197385652
            ],
            [
              110.963398168,
              -0.19764009
            ],
            [
              110.963860424,
              -0.198025946
            ],
            [
              110.964349362,
              -0.198453415
            ],
            [
              110.964599026,
              -0.198745403
            ],
            [
              110.965058195,
              -0.199053049
            ],
            [
              110.965484786,
              -0.199401777
            ],
            [
              110.965725463,
              -0.199698289
            ],
            [
              110.966045899,
              -0.199875897
            ],
            [
              110.966456483,
              -0.200114115
            ],
            [
              110.966903294,
              -0.200357244
            ],
            [
              110.967523382,
              -0.200615693
            ],
            [
              110.968323771,
              -0.200526193
            ],
            [
              110.968592531,
              -0.20055157
            ],
            [
              110.968888534,
              -0.200577192
            ],
            [
              110.969471833,
              -0.20062835
            ],
            [
              110.969905165,
              -0.20063678
            ],
            [
              110.97016803,
              -0.200721899
            ],
            [
              110.970507282,
              -0.200872081
            ],
            [
              110.97076846,
              -0.201044582
            ],
            [
              110.97096645,
              -0.201193509
            ],
            [
              110.971290537,
              -0.20142176
            ],
            [
              110.971721341,
              -0.201558954
            ],
            [
              110.972318402,
              -0.201587246
            ],
            [
              110.972595307,
              -0.201658689
            ],
            [
              110.972938209,
              -0.20162492
            ],
            [
              110.973101658,
              -0.201667772
            ],
            [
              110.973239829,
              -0.201843771
            ],
            [
              110.973405242,
              -0.202010811
            ],
            [
              110.973624857,
              -0.20221054
            ],
            [
              110.973812737,
              -0.202400781
            ],
            [
              110.973967478,
              -0.202655132
            ],
            [
              110.974026734,
              -0.202785257
            ],
            [
              110.974344082,
              -0.202534265
            ],
            [
              110.97469204,
              -0.202242986
            ],
            [
              110.975282642,
              -0.201691665
            ],
            [
              110.975558144,
              -0.201376725
            ],
            [
              110.975700248,
              -0.201120415
            ],
            [
              110.97599232,
              -0.200658435
            ],
            [
              110.976644144,
              -0.200015671
            ],
            [
              110.976854492,
              -0.199764573
            ],
            [
              110.977082533,
              -0.199311219
            ],
            [
              110.977299058,
              -0.199046215
            ],
            [
              110.977358597,
              -0.198973306
            ],
            [
              110.977749523,
              -0.198621098
            ],
            [
              110.977818609,
              -0.198558808
            ],
            [
              110.978167691,
              -0.198207731
            ],
            [
              110.978274689,
              -0.198100878
            ],
            [
              110.978391237,
              -0.19798434
            ],
            [
              110.978740318,
              -0.197642469
            ],
            [
              110.979205106,
              -0.197448783
            ],
            [
              110.9796727,
              -0.197121754
            ],
            [
              110.979942867,
              -0.196848181
            ],
            [
              110.980276782,
              -0.19657056
            ],
            [
              110.980691299,
              -0.196381043
            ],
            [
              110.980977753,
              -0.196213402
            ],
            [
              110.981089807,
              -0.196076403
            ],
            [
              110.981498427,
              -0.195735062
            ],
            [
              110.981707932,
              -0.195520719
            ],
            [
              110.981989612,
              -0.195364547
            ],
            [
              110.982132558,
              -0.195285312
            ],
            [
              110.982705185,
              -0.194945403
            ],
            [
              110.983129813,
              -0.194696195
            ],
            [
              110.983415143,
              -0.194583722
            ],
            [
              110.983594037,
              -0.194534704
            ],
            [
              110.983888355,
              -0.19442232
            ],
            [
              110.984063596,
              -0.194331882
            ],
            [
              110.98439358,
              -0.194256625
            ],
            [
              110.984474744,
              -0.194158659
            ],
            [
              110.98465139,
              -0.19415311
            ],
            [
              110.985027992,
              -0.194023055
            ],
            [
              110.98528187,
              -0.193878105
            ],
            [
              110.985462167,
              -0.193773918
            ],
            [
              110.98564696,
              -0.193660563
            ],
            [
              110.985851408,
              -0.193469192
            ],
            [
              110.985953634,
              -0.193378118
            ],
            [
              110.986216217,
              -0.19325165
            ],
            [
              110.986430776,
              -0.193258134
            ],
            [
              110.986712176,
              -0.193329631
            ],
            [
              110.987067715,
              -0.193346577
            ],
            [
              110.987435894,
              -0.193423426
            ],
            [
              110.987709711,
              -0.193416641
            ],
            [
              110.987923989,
              -0.193432333
            ],
            [
              110.988137425,
              -0.193484813
            ],
            [
              110.988264926,
              -0.193504338
            ],
            [
              110.988487069,
              -0.193575306
            ],
            [
              110.988664277,
              -0.193618598
            ],
            [
              110.988936127,
              -0.193686064
            ],
            [
              110.990040661,
              -0.193929424
            ],
            [
              110.990359692,
              -0.193946033
            ],
            [
              110.990647831,
              -0.193920993
            ],
            [
              110.992166882,
              -0.194182801
            ],
            [
              110.992853809,
              -0.194285486
            ],
            [
              110.993359316,
              -0.194340548
            ],
            [
              110.993763162,
              -0.194449893
            ],
            [
              110.99412151,
              -0.194563462
            ],
            [
              110.994489688,
              -0.194640311
            ],
            [
              110.994703686,
              -0.194656003
            ],
            [
              110.995190097,
              -0.194752307
            ],
            [
              110.995381065,
              -0.194790795
            ],
            [
              110.995787157,
              -0.195024345
            ],
            [
              110.996119668,
              -0.195284862
            ],
            [
              110.996766436,
              -0.195796548
            ],
            [
              110.997024807,
              -0.195886226
            ],
            [
              110.997230661,
              -0.196095021
            ],
            [
              110.997348052,
              -0.196151266
            ],
            [
              110.997749086,
              -0.196412384
            ],
            [
              110.997928262,
              -0.196574953
            ],
            [
              110.998012232,
              -0.196713683
            ],
            [
              110.998231285,
              -0.19699613
            ],
            [
              110.998328174,
              -0.197121236
            ],
            [
              110.998453988,
              -0.197223549
            ],
            [
              110.998603114,
              -0.197289249
            ],
            [
              110.998764595,
              -0.197437858
            ],
            [
              110.998786782,
              -0.197470266
            ],
            [
              110.998965955,
              -0.197632835
            ],
            [
              110.999204106,
              -0.197814311
            ],
            [
              110.999433831,
              -0.197972726
            ],
            [
              110.999788528,
              -0.198261039
            ],
            [
              111.000098573,
              -0.198502967
            ],
            [
              111.00034908,
              -0.198758165
            ],
            [
              111.000765,
              -0.199184996
            ],
            [
              111.000984896,
              -0.199370926
            ],
            [
              111.001365432,
              -0.199707725
            ],
            [
              111.001630542,
              -0.199942371
            ],
            [
              111.002002371,
              -0.20006066
            ],
            [
              111.00225344,
              -0.20029285
            ],
            [
              111.002633413,
              -0.200682572
            ],
            [
              111.002800231,
              -0.200785239
            ],
            [
              111.003136394,
              -0.201091787
            ],
            [
              111.003484632,
              -0.201476633
            ],
            [
              111.003900272,
              -0.201691879
            ],
            [
              111.004445378,
              -0.202050873
            ],
            [
              111.005045809,
              -0.202143572
            ],
            [
              111.005613381,
              -0.202056616
            ],
            [
              111.006473586,
              -0.201944637
            ],
            [
              111.007250945,
              -0.201864111
            ],
            [
              111.007889569,
              -0.201874379
            ],
            [
              111.00877814,
              -0.20171204
            ],
            [
              111.009643401,
              -0.201811682
            ],
            [
              111.010159299,
              -0.201788657
            ],
            [
              111.010731928,
              -0.201678729
            ],
            [
              111.011405657,
              -0.2015421
            ],
            [
              111.011753052,
              -0.201508383
            ],
            [
              111.012168973,
              -0.201470674
            ],
            [
              111.012525918,
              -0.201427823
            ],
            [
              111.012765471,
              -0.201314962
            ],
            [
              111.013050521,
              -0.201300523
            ],
            [
              111.012996321,
              -0.201183617
            ],
            [
              111.012914035,
              -0.200736728
            ],
            [
              111.012832591,
              -0.200473827
            ],
            [
              111.012653416,
              -0.200067493
            ],
            [
              111.012398696,
              -0.199568496
            ],
            [
              111.012311918,
              -0.198882385
            ],
            [
              111.012169251,
              -0.198255593
            ],
            [
              111.011983897,
              -0.197481216
            ],
            [
              111.011886447,
              -0.196887008
            ],
            [
              111.011857802,
              -0.196256631
            ],
            [
              111.011740972,
              -0.19571745
            ],
            [
              111.011706991,
              -0.194673052
            ],
            [
              111.011722717,
              -0.194107435
            ],
            [
              111.011716538,
              -0.193500241
            ],
            [
              111.01166037,
              -0.192667233
            ],
            [
              111.011694351,
              -0.192106389
            ],
            [
              111.01166374,
              -0.191581768
            ],
            [
              111.01171092,
              -0.191034848
            ],
            [
              111.011410984,
              -0.189840902
            ],
            [
              111.011166656,
              -0.189507567
            ],
            [
              111.01069204,
              -0.189048027
            ],
            [
              111.010312347,
              -0.18863991
            ],
            [
              111.010086836,
              -0.188495329
            ],
            [
              111.009483878,
              -0.188071413
            ],
            [
              111.009060655,
              -0.187782518
            ],
            [
              111.008826718,
              -0.187610264
            ],
            [
              111.008274029,
              -0.187177603
            ],
            [
              111.008179949,
              -0.187093985
            ],
            [
              111.007887036,
              -0.186912015
            ],
            [
              111.007582889,
              -0.186605749
            ],
            [
              111.007349513,
              -0.186405894
            ],
            [
              111.006841196,
              -0.186038047
            ],
            [
              111.006524693,
              -0.185662673
            ],
            [
              111.006205381,
              -0.185190709
            ],
            [
              111.00608771,
              -0.184922879
            ],
            [
              111.006054851,
              -0.184508627
            ],
            [
              111.00613124,
              -0.184295414
            ]
          ]
        ]
      }
    }
  ]
}