{
  "type": "FeatureCollection",
  "features": [
    {
      "type": "Feature",
      "properties": {
        "idx": "767",
        "nama_kewilayahan": "Uri, Gantanna Tasik"
      },
      "geometry": {
        "type": "MultiPolygon",
        "coordinates": [
          [
            [
              [
                119.943504425,
                -2.568886091
              ],
              [
                119.943781983,
                -2.569457533
              ],
              [
                119.944143661,
                -2.570009569
              ],
              [
                119.944581482,
                -2.570295104
              ],
              [
                119.945419052,
                -2.570809069
              ],
              [
                119.946142409,
                -2.571151711
              ],
              [
                119.946808657,
                -2.571475317
              ],
              [
                119.947608156,
                -2.571856031
              ],
              [
                119.948674154,
                -2.57252228
              ],
              [
                119.949302333,
                -2.57309335
              ],
              [
                119.949525042,
                -2.573330907
              ],
              [
                119.949873404,
                -2.573702493
              ],
              [
                119.95036833,
                -2.574406813
              ],
              [
                119.950652966,
                -2.574740243
              ],
              [
                119.951399827,
                -2.574948139
              ],
              [
                119.952161256,
                -2.57481489
              ],
              [
                119.952973371,
                -2.574415457
              ],
              [
                119.953228591,
                -2.574438209
              ],
              [
                119.95403746,
                -2.574510319
              ],
              [
                119.954798887,
                -2.574719712
              ],
              [
                119.955769708,
                -2.57481489
              ],
              [
                119.956431915,
                -2.575030329
              ],
              [
                119.956854742,
                -2.575271747
              ],
              [
                119.957108155,
                -2.575421652
              ],
              [
                119.957146226,
                -2.575495417
              ],
              [
                119.957181918,
                -2.575645322
              ],
              [
                119.957160502,
                -2.575845197
              ],
              [
                119.956910659,
                -2.576194978
              ],
              [
                119.956699604,
                -2.576368776
              ],
              [
                119.95611116,
                -2.57671608
              ],
              [
                119.955461567,
                -2.57702303
              ],
              [
                119.954969019,
                -2.577429919
              ],
              [
                119.9546121,
                -2.577679762
              ],
              [
                119.954269457,
                -2.577879637
              ],
              [
                119.953790351,
                -2.578057057
              ],
              [
                119.953586276,
                -2.578113931
              ],
              [
                119.953315552,
                -2.578189378
              ],
              [
                119.952501776,
                -2.578517744
              ],
              [
                119.95173248,
                -2.578718494
              ],
              [
                119.951573787,
                -2.57888894
              ],
              [
                119.951516679,
                -2.579160199
              ],
              [
                119.951502403,
                -2.579502842
              ],
              [
                119.951630894,
                -2.57990259
              ],
              [
                119.951830768,
                -2.580473662
              ],
              [
                119.952273348,
                -2.581087562
              ],
              [
                119.952618828,
                -2.581446548
              ],
              [
                119.952801588,
                -2.581858508
              ],
              [
                119.952758758,
                -2.582101213
              ],
              [
                119.952715928,
                -2.582386747
              ],
              [
                119.952406255,
                -2.582699844
              ],
              [
                119.952177961,
                -2.582922252
              ],
              [
                119.952151169,
                -2.58296818
              ],
              [
                119.952028054,
                -2.583179234
              ],
              [
                119.951863872,
                -2.583557569
              ],
              [
                119.951749658,
                -2.583893073
              ],
              [
                119.951628304,
                -2.584185747
              ],
              [
                119.951557224,
                -2.584306275
              ],
              [
                119.951535813,
                -2.584342581
              ],
              [
                119.95136371,
                -2.584535269
              ],
              [
                119.951289778,
                -2.584587637
              ],
              [
                119.951121479,
                -2.584706848
              ],
              [
                119.95080739,
                -2.584956691
              ],
              [
                119.950507579,
                -2.585292196
              ],
              [
                119.950036446,
                -2.585749052
              ],
              [
                119.949715218,
                -2.58602031
              ],
              [
                119.949593865,
                -2.586105973
              ],
              [
                119.94949493,
                -2.586187614
              ],
              [
                119.949469704,
                -2.58627907
              ],
              [
                119.949469704,
                -2.586472401
              ],
              [
                119.949436985,
                -2.586951267
              ],
              [
                119.949395345,
                -2.587578851
              ],
              [
                119.949374525,
                -2.587897103
              ],
              [
                119.94932991,
                -2.588057717
              ],
              [
                119.949282915,
                -2.588196913
              ],
              [
                119.949192496,
                -2.588311129
              ],
              [
                119.949054487,
                -2.588415826
              ],
              [
                119.948830818,
                -2.588530039
              ],
              [
                119.948611908,
                -2.588639493
              ],
              [
                119.948445345,
                -2.588748951
              ],
              [
                119.948326372,
                -2.588853646
              ],
              [
                119.948212158,
                -2.588972618
              ],
              [
                119.948126498,
                -2.589105868
              ],
              [
                119.94806939,
                -2.589215326
              ],
              [
                119.948002765,
                -2.5894152
              ],
              [
                119.947955176,
                -2.589738806
              ],
              [
                119.947917105,
                -2.59016235
              ],
              [
                119.947855239,
                -2.590557341
              ],
              [
                119.947802891,
                -2.590852394
              ],
              [
                119.947743999,
                -2.591043227
              ],
              [
                119.947708307,
                -2.591191943
              ],
              [
                119.947702359,
                -2.591328761
              ],
              [
                119.947735076,
                -2.591504247
              ],
              [
                119.947791588,
                -2.591670809
              ],
              [
                119.947887798,
                -2.592006292
              ],
              [
                119.947921863,
                -2.592227722
              ],
              [
                119.947964694,
                -2.592556088
              ],
              [
                119.94798916,
                -2.593047601
              ],
              [
                119.947967849,
                -2.593209134
              ],
              [
                119.948305797,
                -2.593490028
              ],
              [
                119.948630155,
                -2.593957815
              ],
              [
                119.949107196,
                -2.594664298
              ],
              [
                119.949184347,
                -2.595132663
              ],
              [
                119.94918561,
                -2.595677705
              ],
              [
                119.949462674,
                -2.596250785
              ],
              [
                119.949920545,
                -2.596890377
              ],
              [
                119.950245216,
                -2.597492031
              ],
              [
                119.95036049,
                -2.597998555
              ],
              [
                119.950371708,
                -2.598734816
              ],
              [
                119.95030593,
                -2.599069646
              ],
              [
                119.95031646,
                -2.599509482
              ],
              [
                119.950412185,
                -2.59978656
              ],
              [
                119.950726816,
                -2.600158745
              ],
              [
                119.951440719,
                -2.600501304
              ],
              [
                119.95258177,
                -2.600536867
              ],
              [
                119.953656174,
                -2.600534338
              ],
              [
                119.954245826,
                -2.600599884
              ],
              [
                119.954750084,
                -2.600742129
              ],
              [
                119.955283288,
                -2.601065985
              ],
              [
                119.955741053,
                -2.601657759
              ],
              [
                119.956017943,
                -2.602154336
              ],
              [
                119.956123624,
                -2.60262263
              ],
              [
                119.956601098,
                -2.603510782
              ],
              [
                119.957192445,
                -2.604303042
              ],
              [
                119.957878986,
                -2.605142885
              ],
              [
                119.958698864,
                -2.606078034
              ],
              [
                119.958764643,
                -2.606147751
              ],
              [
                119.959347016,
                -2.606764973
              ],
              [
                119.960214659,
                -2.607795626
              ],
              [
                119.960652765,
                -2.608110138
              ],
              [
                119.961262061,
                -2.608443369
              ],
              [
                119.961852474,
                -2.608834016
              ],
              [
                119.96268126,
                -2.609510958
              ],
              [
                119.964212134,
                -2.609545577
              ],
              [
                119.966703266,
                -2.609558793
              ],
              [
                119.967221435,
                -2.609591891
              ],
              [
                119.967784882,
                -2.609633582
              ],
              [
                119.968569355,
                -2.609660406
              ],
              [
                119.969111594,
                -2.609781033
              ],
              [
                119.969689588,
                -2.609944605
              ],
              [
                119.970060919,
                -2.610166038
              ],
              [
                119.970446547,
                -2.610401782
              ],
              [
                119.970854005,
                -2.610823932
              ],
              [
                119.971168593,
                -2.611174586
              ],
              [
                119.971340629,
                -2.611554268
              ],
              [
                119.971356629,
                -2.612292893
              ],
              [
                119.971307572,
                -2.612658756
              ],
              [
                119.971137425,
                -2.613082278
              ],
              [
                119.971024123,
                -2.613419608
              ],
              [
                119.970875115,
                -2.613735508
              ],
              [
                119.970704732,
                -2.614058631
              ],
              [
                119.970570442,
                -2.614568127
              ],
              [
                119.970471334,
                -2.614876736
              ],
              [
                119.970379661,
                -2.615314415
              ],
              [
                119.970330504,
                -2.615637251
              ],
              [
                119.970210223,
                -2.616039141
              ],
              [
                119.969983282,
                -2.616570373
              ],
              [
                119.969784611,
                -2.616993964
              ],
              [
                119.969514765,
                -2.617475098
              ],
              [
                119.96933725,
                -2.617798238
              ],
              [
                119.969081599,
                -2.618250651
              ],
              [
                119.968811499,
                -2.618624214
              ],
              [
                119.968605528,
                -2.61897611
              ],
              [
                119.9684283,
                -2.619421166
              ],
              [
                119.968236777,
                -2.619851913
              ],
              [
                119.968023962,
                -2.620325739
              ],
              [
                119.967889132,
                -2.62060575
              ],
              [
                119.967854796,
                -2.621165209
              ],
              [
                119.967941061,
                -2.621459036
              ],
              [
                119.967998887,
                -2.621788787
              ],
              [
                119.968000342,
                -2.622405534
              ],
              [
                119.967980403,
                -2.623022332
              ],
              [
                119.967184808,
                -2.623671056
              ],
              [
                119.965835246,
                -2.624228511
              ],
              [
                119.965255807,
                -2.624239444
              ],
              [
                119.96401325,
                -2.624323417
              ],
              [
                119.962424248,
                -2.624501186
              ],
              [
                119.961210723,
                -2.624429801
              ],
              [
                119.960682005,
                -2.624513774
              ],
              [
                119.959783046,
                -2.624881897
              ],
              [
                119.958783672,
                -2.625500559
              ],
              [
                119.957808093,
                -2.626047834
              ],
              [
                119.957065225,
                -2.626417342
              ],
              [
                119.955809346,
                -2.627023413
              ],
              [
                119.954400228,
                -2.627749842
              ],
              [
                119.953120555,
                -2.628260733
              ],
              [
                119.952382922,
                -2.628641448
              ],
              [
                119.951735232,
                -2.628987161
              ],
              [
                119.951145603,
                -2.628926982
              ],
              [
                119.950407969,
                -2.628617652
              ],
              [
                119.949670337,
                -2.628308324
              ],
              [
                119.949099266,
                -2.628189349
              ],
              [
                119.948504401,
                -2.628022787
              ],
              [
                119.947928095,
                -2.628035378
              ],
              [
                119.947552616,
                -2.628260733
              ],
              [
                119.947029135,
                -2.628474884
              ],
              [
                119.946957751,
                -2.62906975
              ],
              [
                119.947029135,
                -2.629569436
              ],
              [
                119.947338465,
                -2.630259481
              ],
              [
                119.947832915,
                -2.630890729
              ],
              [
                119.948314043,
                -2.631734746
              ],
              [
                119.949027882,
                -2.632853092
              ],
              [
                119.949165414,
                -2.633365369
              ],
              [
                119.949598953,
                -2.633757288
              ],
              [
                119.950074845,
                -2.634209386
              ],
              [
                119.950812479,
                -2.634780456
              ],
              [
                119.951883236,
                -2.635375322
              ],
              [
                119.952496659,
                -2.635554473
              ],
              [
                119.953506027,
                -2.635553782
              ],
              [
                119.954100893,
                -2.635696549
              ],
              [
                119.95429125,
                -2.63595829
              ],
              [
                119.954338839,
                -2.636362798
              ],
              [
                119.954360037,
                -2.636808894
              ],
              [
                119.953412102,
                -2.638036306
              ],
              [
                119.953077767,
                -2.638882697
              ],
              [
                119.95293951,
                -2.639232703
              ],
              [
                119.952011742,
                -2.641450649
              ],
              [
                119.951541693,
                -2.643722783
              ],
              [
                119.951307943,
                -2.64539672
              ],
              [
                119.951669883,
                -2.647666865
              ],
              [
                119.952745525,
                -2.650174352
              ],
              [
                119.953582614,
                -2.652323824
              ],
              [
                119.953825718,
                -2.654594246
              ],
              [
                119.953478248,
                -2.658419938
              ],
              [
                119.953067968,
                -2.661465102
              ],
              [
                119.953011078,
                -2.661887339
              ],
              [
                119.952718903,
                -2.662594452
              ],
              [
                119.952490474,
                -2.663008479
              ],
              [
                119.952361983,
                -2.663179798
              ],
              [
                119.952161178,
                -2.663642648
              ],
              [
                119.952147832,
                -2.663993576
              ],
              [
                119.952147832,
                -2.664393326
              ],
              [
                119.952233492,
                -2.665050056
              ],
              [
                119.952304877,
                -2.665564019
              ],
              [
                119.952458611,
                -2.666010211
              ],
              [
                119.952433366,
                -2.666363519
              ],
              [
                119.952262045,
                -2.666763268
              ],
              [
                119.951990787,
                -2.667291508
              ],
              [
                119.951748082,
                -2.667548489
              ],
              [
                119.951362609,
                -2.667662704
              ],
              [
                119.950720154,
                -2.667676982
              ],
              [
                119.949706504,
                -2.667662704
              ],
              [
                119.948992666,
                -2.667619874
              ],
              [
                119.947807695,
                -2.66754849
              ],
              [
                119.946622723,
                -2.667177294
              ],
              [
                119.946127183,
                -2.667021649
              ],
              [
                119.945252154,
                -2.66702025
              ],
              [
                119.94425278,
                -2.667191571
              ],
              [
                119.943481834,
                -2.667362892
              ],
              [
                119.942417016,
                -2.667692729
              ],
              [
                119.939679455,
                -2.667795956
              ],
              [
                119.939127421,
                -2.667795954
              ],
              [
                119.938265503,
                -2.667859172
              ],
              [
                119.937566495,
                -2.667795956
              ],
              [
                119.936938317,
                -2.66764367
              ],
              [
                119.936310139,
                -2.66754849
              ],
              [
                119.935891354,
                -2.667472347
              ],
              [
                119.934977641,
                -2.667358133
              ],
              [
                119.93440657,
                -2.667301025
              ],
              [
                119.933683214,
                -2.667243918
              ],
              [
                119.933207322,
                -2.667262955
              ],
              [
                119.932693359,
                -2.667320062
              ],
              [
                119.931927164,
                -2.667532549
              ],
              [
                119.930884968,
                -2.667662705
              ],
              [
                119.930218719,
                -2.667662705
              ],
              [
                119.929324042,
                -2.667738847
              ],
              [
                119.928600685,
                -2.668062453
              ],
              [
                119.928239001,
                -2.66836536
              ],
              [
                119.927648901,
                -2.668443167
              ],
              [
                119.926830366,
                -2.668728703
              ],
              [
                119.926202188,
                -2.668938095
              ],
              [
                119.925764369,
                -2.669109416
              ],
              [
                119.925554976,
                -2.669318808
              ],
              [
                119.925459797,
                -2.669585309
              ],
              [
                119.925459797,
                -2.669927951
              ],
              [
                119.925688226,
                -2.670327701
              ],
              [
                119.925859546,
                -2.670879736
              ],
              [
                119.925821475,
                -2.671374663
              ],
              [
                119.925631118,
                -2.671926698
              ],
              [
                119.925231368,
                -2.672497769
              ],
              [
                119.924950593,
                -2.672859446
              ],
              [
                119.924922038,
                -2.673102153
              ],
              [
                119.925036253,
                -2.673430518
              ],
              [
                119.925378895,
                -2.674001588
              ],
              [
                119.925607324,
                -2.674329954
              ],
              [
                119.926035627,
                -2.674872471
              ],
              [
                119.926335432,
                -2.6754046
              ],
              [
                119.926620974,
                -2.675900398
              ],
              [
                119.926749464,
                -2.676357254
              ],
              [
                119.926849402,
                -2.676647548
              ],
              [
                119.926544832,
                -2.677180548
              ],
              [
                119.926240253,
                -2.677784061
              ],
              [
                119.925897618,
                -2.678284618
              ],
              [
                119.925459797,
                -2.678665332
              ],
              [
                119.92513619,
                -2.679046047
              ],
              [
                119.92483162,
                -2.679407722
              ],
              [
                119.924622226,
                -2.679769402
              ],
              [
                119.924222477,
                -2.680530829
              ],
              [
                119.923765621,
                -2.681139971
              ],
              [
                119.92346105,
                -2.68167297
              ],
              [
                119.923309756,
                -2.681967153
              ],
              [
                119.923118407,
                -2.68233922
              ],
              [
                119.922909008,
                -2.682828518
              ],
              [
                119.92262348,
                -2.683576539
              ],
              [
                119.922509266,
                -2.683976288
              ],
              [
                119.922452158,
                -2.684509288
              ],
              [
                119.922414086,
                -2.684947109
              ],
              [
                119.922490229,
                -2.685651429
              ],
              [
                119.922604444,
                -2.68608925
              ],
              [
                119.922794801,
                -2.686546105
              ],
              [
                119.923070497,
                -2.686959651
              ],
              [
                119.923099372,
                -2.687002964
              ],
              [
                119.923666707,
                -2.687680517
              ],
              [
                119.923878612,
                -2.687951708
              ],
              [
                119.924089227,
                -2.688221248
              ],
              [
                119.92429862,
                -2.688716176
              ],
              [
                119.924374763,
                -2.689325317
              ],
              [
                119.924469941,
                -2.689877351
              ],
              [
                119.924469941,
                -2.690334208
              ],
              [
                119.924508012,
                -2.690962386
              ],
              [
                119.924736441,
                -2.691495386
              ],
              [
                119.925079083,
                -2.691895135
              ],
              [
                119.925650155,
                -2.69231392
              ],
              [
                119.925878582,
                -2.69244717
              ],
              [
                119.926030867,
                -2.692694634
              ],
              [
                119.926202189,
                -2.693132454
              ],
              [
                119.926183153,
                -2.693665453
              ],
              [
                119.926049902,
                -2.694179419
              ],
              [
                119.925574011,
                -2.694579166
              ],
              [
                119.924907762,
                -2.695055059
              ],
              [
                119.923556228,
                -2.696044915
              ],
              [
                119.922832872,
                -2.696444664
              ],
              [
                119.922333403,
                -2.696791915
              ],
              [
                119.921000687,
                -2.697986554
              ],
              [
                119.920334437,
                -2.698176911
              ],
              [
                119.919858546,
                -2.698391062
              ],
              [
                119.919644394,
                -2.698581421
              ],
              [
                119.918930556,
                -2.698914544
              ],
              [
                119.918454664,
                -2.699342847
              ],
              [
                119.918145334,
                -2.699913919
              ],
              [
                119.918002566,
                -2.700580167
              ],
              [
                119.917845812,
                -2.701394164
              ],
              [
                119.917598058,
                -2.701841282
              ],
              [
                119.917098371,
                -2.702483736
              ],
              [
                119.916693863,
                -2.703078601
              ],
              [
                119.916270975,
                -2.703469868
              ],
              [
                119.915575516,
                -2.704363509
              ],
              [
                119.915398507,
                -2.704938193
              ],
              [
                119.915504132,
                -2.705410473
              ],
              [
                119.915908641,
                -2.705696009
              ],
              [
                119.916598683,
                -2.705624624
              ],
              [
                119.91714596,
                -2.705577036
              ],
              [
                119.917598058,
                -2.705505651
              ],
              [
                119.917978772,
                -2.705196322
              ],
              [
                119.918716405,
                -2.704696635
              ],
              [
                119.918978145,
                -2.704482484
              ],
              [
                119.919382653,
                -2.704458688
              ],
              [
                119.919787162,
                -2.70467284
              ],
              [
                119.920239259,
                -2.704958375
              ],
              [
                119.920786536,
                -2.705481856
              ],
              [
                119.921379311,
                -2.706379134
              ],
              [
                119.921524169,
                -2.706790561
              ],
              [
                119.921762115,
                -2.707623372
              ],
              [
                119.922023855,
                -2.708170648
              ],
              [
                119.92261872,
                -2.708622746
              ],
              [
                119.923380148,
                -2.709051049
              ],
              [
                119.923900335,
                -2.709348298
              ],
              [
                119.924189711,
                -2.709638854
              ],
              [
                119.92464856,
                -2.710556147
              ],
              [
                119.924983219,
                -2.711191824
              ],
              [
                119.926081477,
                -2.713277939
              ],
              [
                119.926267614,
                -2.715060392
              ],
              [
                119.926302795,
                -2.715397298
              ],
              [
                119.926373485,
                -2.716074219
              ],
              [
                119.926277539,
                -2.717042072
              ],
              [
                119.92604911,
                -2.717708321
              ],
              [
                119.925972967,
                -2.718412642
              ],
              [
                119.925858753,
                -2.718926605
              ],
              [
                119.925625605,
                -2.719224516
              ],
              [
                119.925269901,
                -2.719507387
              ],
              [
                119.924945039,
                -2.719840319
              ],
              [
                119.92437397,
                -2.720525603
              ],
              [
                119.924203483,
                -2.72085237
              ],
              [
                119.924183627,
                -2.721191932
              ],
              [
                119.924202648,
                -2.721306066
              ],
              [
                119.924393006,
                -2.721896172
              ],
              [
                119.924526255,
                -2.722486279
              ],
              [
                119.924826893,
                -2.722920887
              ],
              [
                119.925000433,
                -2.723435054
              ],
              [
                119.925200833,
                -2.723739066
              ],
              [
                119.925505403,
                -2.724424349
              ],
              [
                119.925951793,
                -2.72529698
              ],
              [
                119.925924188,
                -2.726213704
              ],
              [
                119.925771903,
                -2.727108381
              ],
              [
                119.925467331,
                -2.72760331
              ],
              [
                119.925193376,
                -2.72800914
              ],
              [
                119.925165832,
                -2.728097828
              ],
              [
                119.925154213,
                -2.728135238
              ],
              [
                119.9251458,
                -2.72813378
              ],
              [
                119.925054503,
                -2.72811687
              ],
              [
                119.924740415,
                -2.72803121
              ],
              [
                119.924378736,
                -2.727864648
              ],
              [
                119.923794641,
                -2.727627007
              ],
              [
                119.92315407,
                -2.727092866
              ],
              [
                119.920752382,
                -2.725277315
              ],
              [
                119.919098589,
                -2.724317069
              ],
              [
                119.917498717,
                -2.723624542
              ],
              [
                119.915739279,
                -2.723039542
              ],
              [
                119.915005777,
                -2.722974286
              ],
              [
                119.913041786,
                -2.722963361
              ],
              [
                119.911521071,
                -2.722820353
              ],
              [
                119.910100773,
                -2.722820594
              ],
              [
                119.909358381,
                -2.722891976
              ],
              [
                119.908473221,
                -2.723091852
              ],
              [
                119.907345357,
                -2.723306003
              ],
              [
                119.906474474,
                -2.723577262
              ],
              [
                119.905889126,
                -2.72380569
              ],
              [
                119.904775539,
                -2.724276824
              ],
              [
                119.903562014,
                -2.724933554
              ],
              [
                119.902648301,
                -2.725561733
              ],
              [
                119.901905909,
                -2.72610425
              ],
              [
                119.901265239,
                -2.726772402
              ],
              [
                119.900651338,
                -2.727657561
              ],
              [
                119.900194481,
                -2.72832857
              ],
              [
                119.899680518,
                -2.729213728
              ],
              [
                119.899267912,
                -2.730552928
              ],
              [
                119.899189524,
                -2.7307405
              ],
              [
                119.89905018,
                -2.731242825
              ],
              [
                119.89901497,
                -2.731823888
              ],
              [
                119.899072893,
                -2.732947784
              ],
              [
                119.899054119,
                -2.733303088
              ],
              [
                119.898809635,
                -2.733382545
              ],
              [
                119.898238564,
                -2.733511035
              ],
              [
                119.897524726,
                -2.73366808
              ],
              [
                119.895925728,
                -2.733939339
              ],
              [
                119.894383838,
                -2.734239151
              ],
              [
                119.892884778,
                -2.734496132
              ],
              [
                119.891428547,
                -2.734667454
              ],
              [
                119.89044345,
                -2.734767391
              ],
              [
                119.889415523,
                -2.73503865
              ],
              [
                119.888159168,
                -2.735238524
              ],
              [
                119.886645831,
                -2.735566891
              ],
              [
                119.885242079,
                -2.735995055
              ],
              [
                119.884486648,
                -2.736165783
              ],
              [
                119.882248587,
                -2.736423495
              ],
              [
                119.88126349,
                -2.73662337
              ],
              [
                119.880064241,
                -2.736766139
              ],
              [
                119.878378744,
                -2.737049447
              ],
              [
                119.877026859,
                -2.737086324
              ],
              [
                119.876420098,
                -2.737264784
              ],
              [
                119.875682465,
                -2.737490832
              ],
              [
                119.875313647,
                -2.737574113
              ],
              [
                119.875123291,
                -2.737586012
              ],
              [
                119.875028112,
                -2.737359962
              ],
              [
                119.874718783,
                -2.736765097
              ],
              [
                119.874195301,
                -2.736098848
              ],
              [
                119.873683717,
                -2.735301728
              ],
              [
                119.873172132,
                -2.734445122
              ],
              [
                119.872767624,
                -2.733648003
              ],
              [
                119.872446397,
                -2.7327795
              ],
              [
                119.872244142,
                -2.732244121
              ],
              [
                119.871748676,
                -2.730762279
              ],
              [
                119.871598058,
                -2.730669259
              ],
              [
                119.871518407,
                -2.730507115
              ],
              [
                119.871244769,
                -2.729840865
              ],
              [
                119.870816466,
                -2.729103233
              ],
              [
                119.870435752,
                -2.728222832
              ],
              [
                119.870102627,
                -2.727461405
              ],
              [
                119.869971757,
                -2.726973613
              ],
              [
                119.869936066,
                -2.726604799
              ],
              [
                119.869912271,
                -2.726259777
              ],
              [
                119.869948934,
                -2.725799306
              ],
              [
                119.869963211,
                -2.725528048
              ],
              [
                119.870019921,
                -2.725240529
              ],
              [
                119.870116816,
                -2.724974322
              ],
              [
                119.870280825,
                -2.724735915
              ],
              [
                119.870391012,
                -2.724611995
              ],
              [
                119.870862327,
                -2.72408194
              ],
              [
                119.871447598,
                -2.723119835
              ],
              [
                119.871780722,
                -2.722596353
              ],
              [
                119.871992571,
                -2.7220594
              ],
              [
                119.87203128,
                -2.721516017
              ],
              [
                119.872098111,
                -2.721281126
              ],
              [
                119.872518356,
                -2.720692784
              ],
              [
                119.873182302,
                -2.720096345
              ],
              [
                119.873565318,
                -2.719788588
              ],
              [
                119.873993621,
                -2.719550643
              ],
              [
                119.874874022,
                -2.71916993
              ],
              [
                119.876573034,
                -2.718549695
              ],
              [
                119.877229688,
                -2.718289529
              ],
              [
                119.877491428,
                -2.717956403
              ],
              [
                119.877657991,
                -2.717409127
              ],
              [
                119.87776617,
                -2.716979634
              ],
              [
                119.877586607,
                -2.716481139
              ],
              [
                119.877182099,
                -2.715862478
              ],
              [
                119.876872769,
                -2.715267612
              ],
              [
                119.876743002,
                -2.71474294
              ],
              [
                119.876896563,
                -2.713935115
              ],
              [
                119.877099863,
                -2.713315441
              ],
              [
                119.877727885,
                -2.712849613
              ],
              [
                119.878060446,
                -2.712734064
              ],
              [
                119.878478004,
                -2.712369679
              ],
              [
                119.878731215,
                -2.712113837
              ],
              [
                119.878823531,
                -2.712020561
              ],
              [
                119.878952347,
                -2.711890406
              ],
              [
                119.879626163,
                -2.711315028
              ],
              [
                119.880565202,
                -2.71029913
              ],
              [
                119.88086835,
                -2.709810703
              ],
              [
                119.881171205,
                -2.709197963
              ],
              [
                119.88149335,
                -2.70869993
              ],
              [
                119.881778068,
                -2.70846018
              ],
              [
                119.882129351,
                -2.708220272
              ],
              [
                119.882499857,
                -2.708066381
              ],
              [
                119.883039487,
                -2.70780782
              ],
              [
                119.882796167,
                -2.707456971
              ],
              [
                119.882750929,
                -2.707374041
              ],
              [
                119.882624251,
                -2.707141813
              ],
              [
                119.882659114,
                -2.706804643
              ],
              [
                119.882850543,
                -2.706323658
              ],
              [
                119.882871261,
                -2.706036727
              ],
              [
                119.882784455,
                -2.705520546
              ],
              [
                119.882776221,
                -2.705428655
              ],
              [
                119.882747829,
                -2.705111826
              ],
              [
                119.882882541,
                -2.704774419
              ],
              [
                119.883117357,
                -2.704544352
              ],
              [
                119.883308543,
                -2.704292598
              ],
              [
                119.883351986,
                -2.704235393
              ],
              [
                119.883401333,
                -2.703991426
              ],
              [
                119.883350545,
                -2.703625772
              ],
              [
                119.88319325,
                -2.703461191
              ],
              [
                119.883092656,
                -2.703145861
              ],
              [
                119.88309377,
                -2.702966196
              ],
              [
                119.883188949,
                -2.702728251
              ],
              [
                119.883319819,
                -2.702621174
              ],
              [
                119.883438793,
                -2.702525996
              ],
              [
                119.883736225,
                -2.70241892
              ],
              [
                119.883997966,
                -2.702347537
              ],
              [
                119.884319193,
                -2.702240461
              ],
              [
                119.884533344,
                -2.702145282
              ],
              [
                119.884676112,
                -2.701943028
              ],
              [
                119.884699907,
                -2.701764568
              ],
              [
                119.884699907,
                -2.701502828
              ],
              [
                119.884652318,
                -2.701217293
              ],
              [
                119.884521447,
                -2.70096745
              ],
              [
                119.884450063,
                -2.700765194
              ],
              [
                119.884426268,
                -2.700598633
              ],
              [
                119.884461961,
                -2.700491557
              ],
              [
                119.884688009,
                -2.700396379
              ],
              [
                119.884937853,
                -2.700372584
              ],
              [
                119.88512821,
                -2.7003012
              ],
              [
                119.885223388,
                -2.700217919
              ],
              [
                119.885330464,
                -2.699979971
              ],
              [
                119.885461334,
                -2.699587362
              ],
              [
                119.885592204,
                -2.699313724
              ],
              [
                119.885758767,
                -2.699075777
              ],
              [
                119.885972919,
                -2.698968702
              ],
              [
                119.886163274,
                -2.698897319
              ],
              [
                119.886258453,
                -2.698766448
              ],
              [
                119.886353632,
                -2.69862368
              ],
              [
                119.886436913,
                -2.69836194
              ],
              [
                119.886543989,
                -2.697850355
              ],
              [
                119.886615373,
                -2.697374463
              ],
              [
                119.886674859,
                -2.696978283
              ],
              [
                119.886817627,
                -2.696050293
              ],
              [
                119.886746244,
                -2.695074713
              ],
              [
                119.886246556,
                -2.694146724
              ],
              [
                119.885485129,
                -2.693218734
              ],
              [
                119.884699907,
                -2.692171771
              ],
              [
                119.884267933,
                -2.691456927
              ],
              [
                119.884142189,
                -2.688942039
              ],
              [
                119.883679838,
                -2.686694498
              ],
              [
                119.883367408,
                -2.686008967
              ],
              [
                119.883081873,
                -2.685390307
              ],
              [
                119.883034284,
                -2.684509907
              ],
              [
                119.883200846,
                -2.683843658
              ],
              [
                119.883748123,
                -2.683153613
              ],
              [
                119.884461961,
                -2.682653928
              ],
              [
                119.885366156,
                -2.682082856
              ],
              [
                119.885869313,
                -2.681275624
              ],
              [
                119.885883589,
                -2.680804491
              ],
              [
                119.88596925,
                -2.680347635
              ],
              [
                119.886226231,
                -2.679633796
              ],
              [
                119.886394756,
                -2.679237826
              ],
              [
                119.886640258,
                -2.678720083
              ],
              [
                119.886997177,
                -2.678177567
              ],
              [
                119.887439757,
                -2.677392344
              ],
              [
                119.887782399,
                -2.676906934
              ],
              [
                119.888067935,
                -2.676564292
              ],
              [
                119.888838881,
                -2.675779068
              ],
              [
                119.889409951,
                -2.675393598
              ],
              [
                119.890566369,
                -2.674908186
              ],
              [
                119.891501579,
                -2.67453582
              ],
              [
                119.891851278,
                -2.674337115
              ],
              [
                119.892550839,
                -2.673766046
              ],
              [
                119.892936312,
                -2.673280636
              ],
              [
                119.893116439,
                -2.673050838
              ],
              [
                119.893136186,
                -2.672638181
              ],
              [
                119.893093356,
                -2.672281262
              ],
              [
                119.893021972,
                -2.671581699
              ],
              [
                119.892999846,
                -2.6710973
              ],
              [
                119.893136187,
                -2.67048239
              ],
              [
                119.893336061,
                -2.670011256
              ],
              [
                119.893621597,
                -2.669825659
              ],
              [
                119.893850025,
                -2.669725721
              ],
              [
                119.894221221,
                -2.669797104
              ],
              [
                119.894749462,
                -2.669982701
              ],
              [
                119.895420469,
                -2.670196853
              ],
              [
                119.89599154,
                -2.670339621
              ],
              [
                119.896748209,
                -2.670411006
              ],
              [
                119.89744777,
                -2.670553773
              ],
              [
                119.898075947,
                -2.670653711
              ],
              [
                119.898461421,
                -2.670710816
              ],
              [
                119.898875446,
                -2.670625158
              ],
              [
                119.899275196,
                -2.670582328
              ],
              [
                119.899803437,
                -2.670482389
              ],
              [
                119.900088971,
                -2.670411005
              ],
              [
                119.900174632,
                -2.670054087
              ],
              [
                119.900288846,
                -2.669454462
              ],
              [
                119.900388784,
                -2.66866924
              ],
              [
                119.900445891,
                -2.668069617
              ],
              [
                119.900574381,
                -2.667612759
              ],
              [
                119.900674319,
                -2.667241563
              ],
              [
                119.900688596,
                -2.666798985
              ],
              [
                119.900702872,
                -2.666313573
              ],
              [
                119.900617213,
                -2.66575678
              ],
              [
                119.900617212,
                -2.665357031
              ],
              [
                119.900639581,
                -2.665055334
              ],
              [
                119.900774257,
                -2.664843067
              ],
              [
                119.901031238,
                -2.664586085
              ],
              [
                119.901373881,
                -2.664186336
              ],
              [
                119.901559478,
                -2.663915077
              ],
              [
                119.901830737,
                -2.663543881
              ],
              [
                119.902173379,
                -2.662987087
              ],
              [
                119.902401807,
                -2.662501678
              ],
              [
                119.902630236,
                -2.662201866
              ],
              [
                119.902858664,
                -2.661859222
              ],
              [
                119.903386905,
                -2.661345259
              ],
              [
                119.903843761,
                -2.660874125
              ],
              [
                119.904272065,
                -2.660517206
              ],
              [
                119.904885965,
                -2.660174564
              ],
              [
                119.905471312,
                -2.660017519
              ],
              [
                119.90618515,
                -2.659946136
              ],
              [
                119.907255908,
                -2.659946136
              ],
              [
                119.908126791,
                -2.659846199
              ],
              [
                119.908612201,
                -2.65974626
              ],
              [
                119.909641318,
                -2.659552335
              ],
              [
                119.910491322,
                -2.659253214
              ],
              [
                119.911005285,
                -2.659234178
              ],
              [
                119.911405035,
                -2.659043821
              ],
              [
                119.91169057,
                -2.658720213
              ],
              [
                119.91195707,
                -2.6583395
              ],
              [
                119.912223569,
                -2.657520966
              ],
              [
                119.912394891,
                -2.656987966
              ],
              [
                119.91266139,
                -2.656797609
              ],
              [
                119.913441853,
                -2.65656918
              ],
              [
                119.914317495,
                -2.65653111
              ],
              [
                119.915745172,
                -2.656702431
              ],
              [
                119.916906349,
                -2.656987966
              ],
              [
                119.917991382,
                -2.657102181
              ],
              [
                119.918581489,
                -2.657216395
              ],
              [
                119.919209666,
                -2.657102181
              ],
              [
                119.919609097,
                -2.65683303
              ],
              [
                119.919590381,
                -2.656493038
              ],
              [
                119.91941906,
                -2.656093288
              ],
              [
                119.919152559,
                -2.655236683
              ],
              [
                119.919000274,
                -2.654208755
              ],
              [
                119.919057381,
                -2.6534854
              ],
              [
                119.919323881,
                -2.65278108
              ],
              [
                119.919742665,
                -2.652076759
              ],
              [
                119.92012338,
                -2.651505688
              ],
              [
                119.920408915,
                -2.650630046
              ],
              [
                119.920618307,
                -2.650287405
              ],
              [
                119.920732521,
                -2.649792476
              ],
              [
                119.920579465,
                -2.649346133
              ],
              [
                119.920009166,
                -2.64893587
              ],
              [
                119.919323881,
                -2.648498049
              ],
              [
                119.918714739,
                -2.648117335
              ],
              [
                119.918124632,
                -2.647603371
              ],
              [
                119.918105596,
                -2.647203623
              ],
              [
                119.918181739,
                -2.646613516
              ],
              [
                119.918295182,
                -2.646148136
              ],
              [
                119.918257882,
                -2.645585589
              ],
              [
                119.917972347,
                -2.644881269
              ],
              [
                119.917609897,
                -2.644149389
              ],
              [
                119.917420312,
                -2.643586842
              ],
              [
                119.91724899,
                -2.642558915
              ],
              [
                119.917210149,
                -2.64140825
              ],
              [
                119.917153813,
                -2.640807632
              ],
              [
                119.917077669,
                -2.639874883
              ],
              [
                119.917095935,
                -2.638838431
              ],
              [
                119.916830206,
                -2.637799993
              ],
              [
                119.916525634,
                -2.637076636
              ],
              [
                119.916353542,
                -2.636611257
              ],
              [
                119.916049743,
                -2.636124851
              ],
              [
                119.915649993,
                -2.635230175
              ],
              [
                119.915440601,
                -2.634792354
              ],
              [
                119.915397047,
                -2.634625399
              ],
              [
                119.915390009,
                -2.634421604
              ],
              [
                119.915482693,
                -2.634135704
              ],
              [
                119.915611922,
                -2.633954783
              ],
              [
                119.915859386,
                -2.633459857
              ],
              [
                119.9160109,
                -2.633013511
              ],
              [
                119.916030707,
                -2.632260607
              ],
              [
                119.9160109,
                -2.631585834
              ],
              [
                119.915821314,
                -2.630242825
              ],
              [
                119.915478672,
                -2.62902454
              ],
              [
                119.915325615,
                -2.628216518
              ],
              [
                119.914722003,
                -2.627587821
              ],
              [
                119.913484684,
                -2.627183314
              ],
              [
                119.912604282,
                -2.626921573
              ],
              [
                119.912223569,
                -2.626445681
              ],
              [
                119.912009417,
                -2.625922199
              ],
              [
                119.911842856,
                -2.62516077
              ],
              [
                119.911617468,
                -2.623422559
              ],
              [
                119.911659072,
                -2.62221292
              ],
              [
                119.911390758,
                -2.620425645
              ],
              [
                119.911319374,
                -2.619021762
              ],
              [
                119.911319373,
                -2.618188951
              ],
              [
                119.911414553,
                -2.617165783
              ],
              [
                119.911858211,
                -2.616422949
              ],
              [
                119.91261618,
                -2.615464468
              ],
              [
                119.913044483,
                -2.614179561
              ],
              [
                119.913258634,
                -2.613001726
              ],
              [
                119.91372263,
                -2.611716815
              ],
              [
                119.914008165,
                -2.61100298
              ],
              [
                119.914400776,
                -2.610217756
              ],
              [
                119.915185998,
                -2.609432535
              ],
              [
                119.915757069,
                -2.608647313
              ],
              [
                119.915899836,
                -2.607897782
              ],
              [
                119.916006912,
                -2.606684256
              ],
              [
                119.916221063,
                -2.605756267
              ],
              [
                119.916256756,
                -2.604721203
              ],
              [
                119.915971221,
                -2.604043055
              ],
              [
                119.915435842,
                -2.603293524
              ],
              [
                119.915043231,
                -2.602472611
              ],
              [
                119.914936154,
                -2.601687389
              ],
              [
                119.915114614,
                -2.600830783
              ],
              [
                119.915435842,
                -2.599831409
              ],
              [
                119.91579276,
                -2.598760652
              ],
              [
                119.916363832,
                -2.597547126
              ],
              [
                119.916613675,
                -2.596369293
              ],
              [
                119.916629615,
                -2.595191258
              ],
              [
                119.916631862,
                -2.595025255
              ],
              [
                119.916328139,
                -2.594299162
              ],
              [
                119.915721377,
                -2.593835167
              ],
              [
                119.914971847,
                -2.593549632
              ],
              [
                119.914161605,
                -2.59259656
              ],
              [
                119.913804686,
                -2.592168256
              ],
              [
                119.913550389,
                -2.591737908
              ],
              [
                119.913525212,
                -2.591532812
              ],
              [
                119.913590535,
                -2.591287856
              ],
              [
                119.914114016,
                -2.590764373
              ],
              [
                119.914946827,
                -2.590002946
              ],
              [
                119.916065174,
                -2.588789421
              ],
              [
                119.916541066,
                -2.588361119
              ],
              [
                119.917278699,
                -2.587932815
              ],
              [
                119.917752217,
                -2.587342483
              ],
              [
                119.91782602,
                -2.587226854
              ],
              [
                119.918025685,
                -2.586448754
              ],
              [
                119.918482993,
                -2.584832218
              ],
              [
                119.918639856,
                -2.584452407
              ],
              [
                119.91864009,
                -2.584289905
              ],
              [
                119.918720651,
                -2.583579407
              ],
              [
                119.918755899,
                -2.583530708
              ],
              [
                119.918770176,
                -2.583266588
              ],
              [
                119.918770176,
                -2.582616995
              ],
              [
                119.918784452,
                -2.581860326
              ],
              [
                119.918884389,
                -2.581567653
              ],
              [
                119.918962911,
                -2.58109652
              ],
              [
                119.919034296,
                -2.580818123
              ],
              [
                119.919127094,
                -2.580646802
              ],
              [
                119.919284138,
                -2.580396958
              ],
              [
                119.919405491,
                -2.580268467
              ],
              [
                119.919641058,
                -2.580161392
              ],
              [
                119.919878158,
                -2.580050095
              ],
              [
                119.920032241,
                -2.57999007
              ],
              [
                119.92016906,
                -2.579942481
              ],
              [
                119.920359417,
                -2.57990084
              ],
              [
                119.920716336,
                -2.579912737
              ],
              [
                119.920912642,
                -2.579912737
              ],
              [
                119.921144639,
                -2.57990084
              ],
              [
                119.921346894,
                -2.57990084
              ],
              [
                119.921513456,
                -2.579853252
              ],
              [
                119.921739505,
                -2.579740227
              ],
              [
                119.921995296,
                -2.579585561
              ],
              [
                119.922138064,
                -2.57946064
              ],
              [
                119.922274884,
                -2.579276232
              ],
              [
                119.922429547,
                -2.579050183
              ],
              [
                119.922584213,
                -2.578752751
              ],
              [
                119.922721032,
                -2.578496959
              ],
              [
                119.92281621,
                -2.578247115
              ],
              [
                119.922917338,
                -2.577949684
              ],
              [
                119.923000619,
                -2.577568969
              ],
              [
                119.923046577,
                -2.577396833
              ],
              [
                119.923242342,
                -2.577530526
              ],
              [
                119.923499323,
                -2.577578115
              ],
              [
                119.923680163,
                -2.577616186
              ],
              [
                119.92400377,
                -2.57764474
              ],
              [
                119.924270269,
                -2.577720883
              ],
              [
                119.924552719,
                -2.577781081
              ],
              [
                119.92481446,
                -2.578042821
              ],
              [
                119.925218968,
                -2.578256973
              ],
              [
                119.925647271,
                -2.578364049
              ],
              [
                119.926206444,
                -2.578435432
              ],
              [
                119.926503877,
                -2.578471124
              ],
              [
                119.926734796,
                -2.578545366
              ],
              [
                119.926913256,
                -2.578609612
              ],
              [
                119.927148822,
                -2.578716687
              ],
              [
                119.927305867,
                -2.578859456
              ],
              [
                119.927548572,
                -2.579087883
              ],
              [
                119.92773417,
                -2.579194959
              ],
              [
                119.92786266,
                -2.579230651
              ],
              [
                119.928133919,
                -2.579237789
              ],
              [
                119.928826342,
                -2.579230651
              ],
              [
                119.929668672,
                -2.579273481
              ],
              [
                119.930211189,
                -2.579309173
              ],
              [
                119.930446755,
                -2.579366281
              ],
              [
                119.930472294,
                -2.579378539
              ],
              [
                119.930625215,
                -2.57945194
              ],
              [
                119.93073229,
                -2.579537601
              ],
              [
                119.930803675,
                -2.579673231
              ],
              [
                119.930846505,
                -2.579815996
              ],
              [
                119.930839367,
                -2.580087257
              ],
              [
                119.930832228,
                -2.580358515
              ],
              [
                119.93086792,
                -2.580501284
              ],
              [
                119.930974996,
                -2.580594083
              ],
              [
                119.9311368,
                -2.580613118
              ],
              [
                119.931355709,
                -2.580632153
              ],
              [
                119.931745941,
                -2.580603599
              ],
              [
                119.932031477,
                -2.580594083
              ],
              [
                119.932355083,
                -2.580679742
              ],
              [
                119.932745315,
                -2.5808701
              ],
              [
                119.933043082,
                -2.581038945
              ],
              [
                119.933354457,
                -2.581136599
              ],
              [
                119.933868421,
                -2.581365027
              ],
              [
                119.934211062,
                -2.581517312
              ],
              [
                119.934591776,
                -2.581650563
              ],
              [
                119.934756294,
                -2.581645708
              ],
              [
                119.934810687,
                -2.581336473
              ],
              [
                119.934820204,
                -2.581041421
              ],
              [
                119.93488683,
                -2.580889135
              ],
              [
                119.935001044,
                -2.580727332
              ],
              [
                119.935058151,
                -2.580527457
              ],
              [
                119.935088607,
                -2.580375175
              ],
              [
                119.935096222,
                -2.580337101
              ],
              [
                119.935134294,
                -2.580039667
              ],
              [
                119.935198539,
                -2.579340105
              ],
              [
                119.935255646,
                -2.579090262
              ],
              [
                119.935398748,
                -2.578683279
              ],
              [
                119.935519766,
                -2.578383563
              ],
              [
                119.935598289,
                -2.578048058
              ],
              [
                119.935733917,
                -2.577584064
              ],
              [
                119.935933793,
                -2.5770701
              ],
              [
                119.93598614,
                -2.576618002
              ],
              [
                119.935990347,
                -2.576366408
              ],
              [
                119.936091982,
                -2.576273053
              ],
              [
                119.936240973,
                -2.5761362
              ],
              [
                119.93658247,
                -2.575791167
              ],
              [
                119.936745622,
                -2.575269503
              ],
              [
                119.93682788,
                -2.575006491
              ],
              [
                119.936883525,
                -2.574394375
              ],
              [
                119.936882298,
                -2.573858889
              ],
              [
                119.936710191,
                -2.573438548
              ],
              [
                119.936708658,
                -2.57276919
              ],
              [
                119.936783015,
                -2.57202316
              ],
              [
                119.937104927,
                -2.571429552
              ],
              [
                119.937445899,
                -2.570855026
              ],
              [
                119.938427731,
                -2.570291128
              ],
              [
                119.939317949,
                -2.569787048
              ],
              [
                119.940457828,
                -2.569318248
              ],
              [
                119.941166403,
                -2.568650101
              ],
              [
                119.941563211,
                -2.56869175
              ],
              [
                119.942326578,
                -2.568771873
              ],
              [
                119.943504425,
                -2.568886091
              ]
            ]
          ]
        ]
      }
    }
  ]
}