{
  "type": "FeatureCollection",
  "features": [
    {
      "type": "Feature",
      "properties": {
        "idx": "809",
        "nama_kewilayahan": "Simpakng Lalang"
      },
      "geometry": {
        "type": "Polygon",
        "coordinates": [
          [
            [
              110.466315393,
              -0.649847616
            ],
            [
              110.466219967,
              -0.649286696
            ],
            [
              110.465832776,
              -0.648418155
            ],
            [
              110.46511896,
              -0.647640043
            ],
            [
              110.464512681,
              -0.647079071
            ],
            [
              110.463950742,
              -0.646861885
            ],
            [
              110.463328423,
              -0.646617553
            ],
            [
              110.46273166,
              -0.64638227
            ],
            [
              110.462286539,
              -0.646255567
            ],
            [
              110.462019188,
              -0.646174114
            ],
            [
              110.46176363,
              -0.646101712
            ],
            [
              110.461488133,
              -0.64602931
            ],
            [
              110.461311489,
              -0.645984054
            ],
            [
              110.461073621,
              -0.645938796
            ],
            [
              110.460733511,
              -0.646047322
            ],
            [
              110.460013123,
              -0.646327699
            ],
            [
              110.459400298,
              -0.646608087
            ],
            [
              110.459046695,
              -0.646843267
            ],
            [
              110.458608269,
              -0.647159862
            ],
            [
              110.45724218,
              -0.647901561
            ],
            [
              110.456488954,
              -0.647982902
            ],
            [
              110.455937102,
              -0.647991889
            ],
            [
              110.455775341,
              -0.647955684
            ],
            [
              110.455746419,
              -0.647910446
            ],
            [
              110.455626498,
              -0.647919481
            ],
            [
              110.455320103,
              -0.6479104
            ],
            [
              110.454845481,
              -0.647910348
            ],
            [
              110.454843797,
              -0.647910348
            ],
            [
              110.454314951,
              -0.648109323
            ],
            [
              110.453888885,
              -0.648407824
            ],
            [
              110.453556353,
              -0.648552538
            ],
            [
              110.453128337,
              -0.648679147
            ],
            [
              110.452451498,
              -0.648805732
            ],
            [
              110.451521065,
              -0.648868956
            ],
            [
              110.451406752,
              -0.648977507
            ],
            [
              110.450651564,
              -0.649040753
            ],
            [
              110.450132573,
              -0.649004508
            ],
            [
              110.449392838,
              -0.649013473
            ],
            [
              110.448980821,
              -0.649239602
            ],
            [
              110.448591828,
              -0.64950192
            ],
            [
              110.44799668,
              -0.649936103
            ],
            [
              110.447729853,
              -0.650198434
            ],
            [
              110.447378763,
              -0.650551224
            ],
            [
              110.447004923,
              -0.650922104
            ],
            [
              110.446697079,
              -0.651320132
            ],
            [
              110.446590056,
              -0.651519151
            ],
            [
              110.446585563,
              -0.651528198
            ],
            [
              110.446459438,
              -0.651781496
            ],
            [
              110.44581318,
              -0.65217044
            ],
            [
              110.445532045,
              -0.652297066
            ],
            [
              110.444235922,
              -0.652694984
            ],
            [
              110.443640801,
              -0.652875856
            ],
            [
              110.443183842,
              -0.653156257
            ],
            [
              110.442629698,
              -0.653563305
            ],
            [
              110.442260088,
              -0.653789436
            ],
            [
              110.44182531,
              -0.654115073
            ],
            [
              110.441347265,
              -0.654603552
            ],
            [
              110.441053756,
              -0.654874925
            ],
            [
              110.440787771,
              -0.6551463
            ],
            [
              110.44026058,
              -0.655625724
            ],
            [
              110.440140906,
              -0.6559514
            ],
            [
              110.43992347,
              -0.656539422
            ],
            [
              110.43977121,
              -0.656937466
            ],
            [
              110.439662489,
              -0.657245048
            ],
            [
              110.439368671,
              -0.657769732
            ],
            [
              110.438665674,
              -0.658249136
            ],
            [
              110.438165183,
              -0.65853858
            ],
            [
              110.437678474,
              -0.658656133
            ],
            [
              110.436843821,
              -0.658601757
            ],
            [
              110.436172622,
              -0.658511212
            ],
            [
              110.435420822,
              -0.658411611
            ],
            [
              110.434947608,
              -0.658402511
            ],
            [
              110.434595987,
              -0.658483891
            ],
            [
              110.434109273,
              -0.658628586
            ],
            [
              110.43370372,
              -0.658809477
            ],
            [
              110.433406276,
              -0.659107988
            ],
            [
              110.432662554,
              -0.659596435
            ],
            [
              110.432266807,
              -0.659985403
            ],
            [
              110.431864879,
              -0.660374372
            ],
            [
              110.431488518,
              -0.660681922
            ],
            [
              110.431290225,
              -0.660862836
            ],
            [
              110.431023398,
              -0.661098024
            ],
            [
              110.430679896,
              -0.66139653
            ],
            [
              110.430443666,
              -0.66177647
            ],
            [
              110.43001954,
              -0.662273998
            ],
            [
              110.429736414,
              -0.662626793
            ],
            [
              110.429618421,
              -0.662970559
            ],
            [
              110.429382468,
              -0.663386687
            ],
            [
              110.429135012,
              -0.663685204
            ],
            [
              110.428816504,
              -0.664001807
            ],
            [
              110.428462589,
              -0.664472202
            ],
            [
              110.428250527,
              -0.664716442
            ],
            [
              110.427720256,
              -0.665096348
            ],
            [
              110.427094796,
              -0.665349586
            ],
            [
              110.426599381,
              -0.665458092
            ],
            [
              110.426057063,
              -0.665575636
            ],
            [
              110.425597033,
              -0.665693193
            ],
            [
              110.425101889,
              -0.665883117
            ],
            [
              110.424712626,
              -0.666045914
            ],
            [
              110.424276455,
              -0.666272034
            ],
            [
              110.423934364,
              -0.666498165
            ],
            [
              110.423568676,
              -0.666787621
            ],
            [
              110.423156088,
              -0.667077072
            ],
            [
              110.422802184,
              -0.667456997
            ],
            [
              110.422483668,
              -0.667827878
            ],
            [
              110.422067403,
              -0.668343501
            ],
            [
              110.421716565,
              -0.668931503
            ],
            [
              110.421464852,
              -0.669609985
            ],
            [
              110.421149708,
              -0.669962773
            ],
            [
              110.421031727,
              -0.670197978
            ],
            [
              110.42091345,
              -0.670568885
            ],
            [
              110.420795127,
              -0.671328805
            ],
            [
              110.42061027,
              -0.671871594
            ],
            [
              110.420499565,
              -0.672323922
            ],
            [
              110.420425671,
              -0.672604365
            ],
            [
              110.420292798,
              -0.672902895
            ],
            [
              110.42014504,
              -0.673201421
            ],
            [
              110.42004165,
              -0.67354519
            ],
            [
              110.419953156,
              -0.67379849
            ],
            [
              110.419775634,
              -0.674060827
            ],
            [
              110.419539405,
              -0.674404579
            ],
            [
              110.41903721,
              -0.674838764
            ],
            [
              110.418420995,
              -0.67527294
            ],
            [
              110.418047428,
              -0.675680002
            ],
            [
              110.417633992,
              -0.676005638
            ],
            [
              110.417264642,
              -0.67638556
            ],
            [
              110.416865807,
              -0.676720244
            ],
            [
              110.416466967,
              -0.677109211
            ],
            [
              110.416038639,
              -0.677498171
            ],
            [
              110.415766467,
              -0.677814777
            ],
            [
              110.415407785,
              -0.678212795
            ],
            [
              110.414995184,
              -0.678601757
            ],
            [
              110.414690435,
              -0.678909313
            ],
            [
              110.414313798,
              -0.679144486
            ],
            [
              110.414062695,
              -0.679415859
            ],
            [
              110.41397308,
              -0.679632972
            ],
            [
              110.413704008,
              -0.679850063
            ],
            [
              110.413398986,
              -0.680085242
            ],
            [
              110.41313019,
              -0.680356613
            ],
            [
              110.41284311,
              -0.6808632
            ],
            [
              110.412394824,
              -0.681387863
            ],
            [
              110.412089763,
              -0.681948727
            ],
            [
              110.411784982,
              -0.682518639
            ],
            [
              110.411444242,
              -0.683169969
            ],
            [
              110.411228759,
              -0.683821313
            ],
            [
              110.41088804,
              -0.684291705
            ],
            [
              110.410601259,
              -0.684653543
            ],
            [
              110.410296217,
              -0.685051566
            ],
            [
              110.410081043,
              -0.685449598
            ],
            [
              110.409919525,
              -0.685739076
            ],
            [
              110.409596779,
              -0.686227565
            ],
            [
              110.409367287,
              -0.686598456
            ],
            [
              110.409220934,
              -0.68687889
            ],
            [
              110.409147825,
              -0.687611672
            ],
            [
              110.409257278,
              -0.688217822
            ],
            [
              110.409385283,
              -0.68869732
            ],
            [
              110.40978738,
              -0.689249226
            ],
            [
              110.409915401,
              -0.689583973
            ],
            [
              110.410025121,
              -0.690316779
            ],
            [
              110.409842179,
              -0.691239533
            ],
            [
              110.409714031,
              -0.691918028
            ],
            [
              110.40958591,
              -0.6923794
            ],
            [
              110.40951285,
              -0.692714123
            ],
            [
              110.409311425,
              -0.693211672
            ],
            [
              110.409139212,
              -0.693682085
            ],
            [
              110.409068941,
              -0.694170604
            ],
            [
              110.409010447,
              -0.694803874
            ],
            [
              110.408869991,
              -0.695084307
            ],
            [
              110.408787944,
              -0.695428074
            ],
            [
              110.408717669,
              -0.695943736
            ],
            [
              110.408693983,
              -0.696712712
            ],
            [
              110.408717487,
              -0.697400271
            ],
            [
              110.408933318,
              -0.698485919
            ],
            [
              110.4089097,
              -0.698712086
            ],
            [
              110.408736377,
              -0.69906489
            ],
            [
              110.408634076,
              -0.699661966
            ],
            [
              110.408657617,
              -0.700060028
            ],
            [
              110.408822954,
              -0.70068428
            ],
            [
              110.409083596,
              -0.700512424
            ],
            [
              110.409620573,
              -0.700458211
            ],
            [
              110.409889341,
              -0.700440152
            ],
            [
              110.410128347,
              -0.700349713
            ],
            [
              110.410657723,
              -0.700440249
            ],
            [
              110.410794767,
              -0.700503595
            ],
            [
              110.410976171,
              -0.700657413
            ],
            [
              110.410995828,
              -0.70067551
            ],
            [
              110.411162347,
              -0.700829326
            ],
            [
              110.411381382,
              -0.70101029
            ],
            [
              110.411468154,
              -0.701073629
            ],
            [
              110.411538631,
              -0.701191248
            ],
            [
              110.411611638,
              -0.701281724
            ],
            [
              110.411711598,
              -0.701435532
            ],
            [
              110.411841326,
              -0.701598391
            ],
            [
              110.412154685,
              -0.702096007
            ],
            [
              110.41238073,
              -0.702358393
            ],
            [
              110.412539391,
              -0.702476022
            ],
            [
              110.412730087,
              -0.702439857
            ],
            [
              110.41287502,
              -0.702295129
            ],
            [
              110.413050573,
              -0.702078027
            ],
            [
              110.413187925,
              -0.701906154
            ],
            [
              110.413348024,
              -0.701761425
            ],
            [
              110.413439591,
              -0.701661921
            ],
            [
              110.413515992,
              -0.701562416
            ],
            [
              110.413653076,
              -0.701300077
            ],
            [
              110.413836202,
              -0.701164395
            ],
            [
              110.413950792,
              -0.70111013
            ],
            [
              110.414171818,
              -0.701083017
            ],
            [
              110.414255792,
              -0.701064933
            ],
            [
              110.414446492,
              -0.701001629
            ],
            [
              110.414616696,
              -0.700884043
            ],
            [
              110.414625122,
              -0.700884044
            ],
            [
              110.414721172,
              -0.700856916
            ],
            [
              110.414881257,
              -0.700820748
            ],
            [
              110.415270526,
              -0.700639861
            ],
            [
              110.415537335,
              -0.700576566
            ],
            [
              110.415781394,
              -0.700513271
            ],
            [
              110.416040919,
              -0.700296178
            ],
            [
              110.416330787,
              -0.699979576
            ],
            [
              110.416452708,
              -0.699690092
            ],
            [
              110.41659767,
              -0.699310144
            ],
            [
              110.416788399,
              -0.699002575
            ],
            [
              110.416925752,
              -0.698821655
            ],
            [
              110.417047938,
              -0.698676922
            ],
            [
              110.417208033,
              -0.698550286
            ],
            [
              110.417169854,
              -0.698414578
            ],
            [
              110.417299624,
              -0.698251752
            ],
            [
              110.417421536,
              -0.698034643
            ],
            [
              110.417612266,
              -0.697727074
            ],
            [
              110.417749647,
              -0.697329031
            ],
            [
              110.417940382,
              -0.696976229
            ],
            [
              110.418268444,
              -0.696650585
            ],
            [
              110.418428551,
              -0.696433481
            ],
            [
              110.418520115,
              -0.696352069
            ],
            [
              110.418611681,
              -0.696261613
            ],
            [
              110.418642297,
              -0.69622543
            ],
            [
              110.41871083,
              -0.696171155
            ],
            [
              110.418863348,
              -0.695999286
            ],
            [
              110.418985526,
              -0.69589074
            ],
            [
              110.419099841,
              -0.695800285
            ],
            [
              110.419168662,
              -0.695673638
            ],
            [
              110.419260224,
              -0.695610321
            ],
            [
              110.419328756,
              -0.695565095
            ],
            [
              110.419466098,
              -0.695483691
            ],
            [
              110.419565242,
              -0.695420375
            ],
            [
              110.419679832,
              -0.695366109
            ],
            [
              110.419755944,
              -0.695338978
            ],
            [
              110.419832338,
              -0.6953028
            ],
            [
              110.419878118,
              -0.695275665
            ],
            [
              110.420030616,
              -0.695266636
            ],
            [
              110.420190697,
              -0.695257611
            ],
            [
              110.420267086,
              -0.695248572
            ],
            [
              110.420389253,
              -0.695257634
            ],
            [
              110.420503559,
              -0.695230509
            ],
            [
              110.420686666,
              -0.695239578
            ],
            [
              110.420793387,
              -0.695230544
            ],
            [
              110.420938305,
              -0.695203421
            ],
            [
              110.421007115,
              -0.695176289
            ],
            [
              110.421091092,
              -0.695131065
            ],
            [
              110.421182648,
              -0.695112983
            ],
            [
              110.421289374,
              -0.695058717
            ],
            [
              110.421480071,
              -0.695022552
            ],
            [
              110.421556185,
              -0.694977326
            ],
            [
              110.421769908,
              -0.694950212
            ],
            [
              110.421876631,
              -0.694932132
            ],
            [
              110.422021557,
              -0.694841681
            ],
            [
              110.422090366,
              -0.694805503
            ],
            [
              110.422158897,
              -0.694769324
            ],
            [
              110.422220126,
              -0.694724097
            ],
            [
              110.42217182,
              -0.694733138
            ],
            [
              110.422219864,
              -0.694570299
            ],
            [
              110.422261998,
              -0.694497931
            ],
            [
              110.422272393,
              -0.694479838
            ],
            [
              110.422403011,
              -0.694253684
            ],
            [
              110.422654679,
              -0.693973263
            ],
            [
              110.422959989,
              -0.693683802
            ],
            [
              110.423295629,
              -0.693412437
            ],
            [
              110.423623682,
              -0.693168212
            ],
            [
              110.423692238,
              -0.692905863
            ],
            [
              110.423730462,
              -0.692670651
            ],
            [
              110.42375323,
              -0.692498763
            ],
            [
              110.423776267,
              -0.692444485
            ],
            [
              110.4241499,
              -0.691503659
            ],
            [
              110.424233892,
              -0.691331779
            ],
            [
              110.424340672,
              -0.690834215
            ],
            [
              110.424256719,
              -0.69068041
            ],
            [
              110.424119399,
              -0.690580878
            ],
            [
              110.423982075,
              -0.690517532
            ],
            [
              110.423798975,
              -0.69043609
            ],
            [
              110.423654092,
              -0.69018276
            ],
            [
              110.42373807,
              -0.690137536
            ],
            [
              110.423814468,
              -0.690056123
            ],
            [
              110.423791466,
              -0.68982995
            ],
            [
              110.423715105,
              -0.68960377
            ],
            [
              110.423646613,
              -0.689323309
            ],
            [
              110.423684561,
              -0.689042862
            ],
            [
              110.423692166,
              -0.688852877
            ],
            [
              110.423722801,
              -0.6886629
            ],
            [
              110.423821952,
              -0.688545301
            ],
            [
              110.423944128,
              -0.688454848
            ],
            [
              110.424050848,
              -0.688463909
            ],
            [
              110.424005081,
              -0.688364387
            ],
            [
              110.424218793,
              -0.688445833
            ],
            [
              110.424333103,
              -0.68838252
            ],
            [
              110.424523798,
              -0.688355404
            ],
            [
              110.42463051,
              -0.688418745
            ],
            [
              110.424706903,
              -0.688391613
            ],
            [
              110.424866988,
              -0.688337352
            ],
            [
              110.424966127,
              -0.688328316
            ],
            [
              110.425095867,
              -0.688400709
            ],
            [
              110.425202854,
              -0.688518329
            ],
            [
              110.425256199,
              -0.688635945
            ],
            [
              110.425324717,
              -0.688708326
            ],
            [
              110.425462055,
              -0.688645016
            ],
            [
              110.425500272,
              -0.688464084
            ],
            [
              110.425584276,
              -0.68819269
            ],
            [
              110.425683438,
              -0.687984623
            ],
            [
              110.425775014,
              -0.687803696
            ],
            [
              110.425851133,
              -0.687713239
            ],
            [
              110.426034222,
              -0.687876105
            ],
            [
              110.426186722,
              -0.687858029
            ],
            [
              110.426301313,
              -0.687794714
            ],
            [
              110.42627072,
              -0.687622821
            ],
            [
              110.426247724,
              -0.687351414
            ],
            [
              110.426164054,
              -0.687179514
            ],
            [
              110.426108734,
              -0.687125226
            ],
            [
              110.426063246,
              -0.687061892
            ],
            [
              110.426048931,
              -0.686989516
            ],
            [
              110.426026751,
              -0.686935231
            ],
            [
              110.425996155,
              -0.686808572
            ],
            [
              110.425996162,
              -0.68675429
            ],
            [
              110.425851299,
              -0.686320025
            ],
            [
              110.425965639,
              -0.686012446
            ],
            [
              110.42605721,
              -0.685867707
            ],
            [
              110.42628612,
              -0.685659659
            ],
            [
              110.426468983,
              -0.685370181
            ],
            [
              110.426667297,
              -0.685035472
            ],
            [
              110.426751292,
              -0.684845497
            ],
            [
              110.4268277,
              -0.684682664
            ],
            [
              110.426888658,
              -0.684556015
            ],
            [
              110.426888662,
              -0.684519828
            ],
            [
              110.427170938,
              -0.684266551
            ],
            [
              110.427384412,
              -0.683977077
            ],
            [
              110.427483557,
              -0.683904714
            ],
            [
              110.427628493,
              -0.683714747
            ],
            [
              110.427849821,
              -0.683515744
            ],
            [
              110.427933799,
              -0.683452426
            ],
            [
              110.428086322,
              -0.683244367
            ],
            [
              110.428154867,
              -0.683072485
            ],
            [
              110.428269471,
              -0.682900609
            ],
            [
              110.428307398,
              -0.682783005
            ],
            [
              110.428299831,
              -0.682647301
            ],
            [
              110.428277094,
              -0.682547782
            ],
            [
              110.42826952,
              -0.682484453
            ],
            [
              110.428307424,
              -0.682565879
            ],
            [
              110.428330496,
              -0.682204008
            ],
            [
              110.42833052,
              -0.681995932
            ],
            [
              110.428353305,
              -0.681679294
            ],
            [
              110.428322724,
              -0.681425978
            ],
            [
              110.428460085,
              -0.681163638
            ],
            [
              110.428528631,
              -0.681000801
            ],
            [
              110.428612611,
              -0.680919389
            ],
            [
              110.428719341,
              -0.680837981
            ],
            [
              110.428818766,
              -0.680783711
            ],
            [
              110.428826349,
              -0.680783713
            ],
            [
              110.429017068,
              -0.680548517
            ],
            [
              110.429024664,
              -0.680430909
            ],
            [
              110.429024693,
              -0.680186643
            ],
            [
              110.429055061,
              -0.679870007
            ],
            [
              110.429039916,
              -0.679698116
            ],
            [
              110.429009321,
              -0.679553364
            ],
            [
              110.42899417,
              -0.679426706
            ],
            [
              110.428986596,
              -0.679345282
            ],
            [
              110.428987164,
              -0.679300049
            ],
            [
              110.428987165,
              -0.679291001
            ],
            [
              110.428986884,
              -0.679291001
            ],
            [
              110.428986042,
              -0.679291001
            ],
            [
              110.428987166,
              -0.679281955
            ],
            [
              110.428986604,
              -0.679281955
            ],
            [
              110.429123667,
              -0.679173409
            ],
            [
              110.429238253,
              -0.679155328
            ],
            [
              110.429323912,
              -0.679137245
            ],
            [
              110.429089996,
              -0.678929139
            ],
            [
              110.428975715,
              -0.678739143
            ],
            [
              110.429067294,
              -0.678531076
            ],
            [
              110.429151009,
              -0.678323009
            ],
            [
              110.42943328,
              -0.678105917
            ],
            [
              110.429738589,
              -0.677807408
            ],
            [
              110.430234586,
              -0.67753606
            ],
            [
              110.430539593,
              -0.67743658
            ],
            [
              110.430905837,
              -0.677201408
            ],
            [
              110.431028025,
              -0.677020484
            ],
            [
              110.431371259,
              -0.676613416
            ],
            [
              110.431699323,
              -0.676269675
            ],
            [
              110.432241118,
              -0.675817396
            ],
            [
              110.432645283,
              -0.675527944
            ],
            [
              110.432904808,
              -0.675283709
            ],
            [
              110.433286215,
              -0.67506663
            ],
            [
              110.433568486,
              -0.674858586
            ],
            [
              110.43392716,
              -0.674514847
            ],
            [
              110.434100736,
              -0.674370117
            ],
            [
              110.434191176,
              -0.674288706
            ],
            [
              110.434578153,
              -0.674487782
            ],
            [
              110.434766606,
              -0.674424476
            ],
            [
              110.434852273,
              -0.674324971
            ],
            [
              110.435108671,
              -0.674415469
            ],
            [
              110.435163147,
              -0.674478805
            ],
            [
              110.435286138,
              -0.674632613
            ],
            [
              110.435370374,
              -0.674777375
            ],
            [
              110.435497861,
              -0.674904044
            ],
            [
              110.435548125,
              -0.674958332
            ],
            [
              110.435739638,
              -0.675148339
            ],
            [
              110.435851682,
              -0.67523882
            ],
            [
              110.435949685,
              -0.675338347
            ],
            [
              110.436090643,
              -0.675546442
            ],
            [
              110.436213632,
              -0.675718346
            ],
            [
              110.43639559,
              -0.675962634
            ],
            [
              110.436559292,
              -0.676206917
            ],
            [
              110.436832511,
              -0.676550729
            ],
            [
              110.436993965,
              -0.676813107
            ],
            [
              110.437080164,
              -0.676975962
            ],
            [
              110.437228982,
              -0.677229291
            ],
            [
              110.437297494,
              -0.677346908
            ],
            [
              110.437303108,
              -0.677355954
            ],
            [
              110.43731406,
              -0.67737405
            ],
            [
              110.437411773,
              -0.677545952
            ],
            [
              110.437497972,
              -0.677717852
            ],
            [
              110.437639504,
              -0.677817384
            ],
            [
              110.437790015,
              -0.677998339
            ],
            [
              110.437890265,
              -0.67808882
            ],
            [
              110.438073079,
              -0.678206449
            ],
            [
              110.438157889,
              -0.678242648
            ],
            [
              110.438317963,
              -0.678296946
            ],
            [
              110.438569867,
              -0.678396492
            ],
            [
              110.43885379,
              -0.6784689
            ],
            [
              110.438986339,
              -0.678541291
            ],
            [
              110.439128153,
              -0.678631775
            ],
            [
              110.439308721,
              -0.678749407
            ],
            [
              110.439448003,
              -0.678876078
            ],
            [
              110.439518486,
              -0.678957508
            ],
            [
              110.439602727,
              -0.679057034
            ],
            [
              110.439732454,
              -0.679247033
            ],
            [
              110.43979366,
              -0.679391791
            ],
            [
              110.439888557,
              -0.679645114
            ],
            [
              110.440028944,
              -0.679934629
            ],
            [
              110.440183373,
              -0.680224148
            ],
            [
              110.440242051,
              -0.680386998
            ],
            [
              110.440304647,
              -0.680667457
            ],
            [
              110.440322329,
              -0.680757929
            ],
            [
              110.440382966,
              -0.680966014
            ],
            [
              110.440463811,
              -0.681300757
            ],
            [
              110.440459559,
              -0.681644538
            ],
            [
              110.440378619,
              -0.682142106
            ],
            [
              110.440394046,
              -0.682304951
            ],
            [
              110.440444018,
              -0.682449706
            ],
            [
              110.440497362,
              -0.682603508
            ],
            [
              110.440628763,
              -0.682883978
            ],
            [
              110.440721983,
              -0.683055879
            ],
            [
              110.440806224,
              -0.683155404
            ],
            [
              110.440928929,
              -0.68335445
            ],
            [
              110.440997159,
              -0.683481114
            ],
            [
              110.441131097,
              -0.683689209
            ],
            [
              110.4412086,
              -0.683761592
            ],
            [
              110.441267276,
              -0.683942537
            ],
            [
              110.44135123,
              -0.684087297
            ],
            [
              110.441455965,
              -0.684259199
            ],
            [
              110.441503414,
              -0.684376814
            ],
            [
              110.441555355,
              -0.684512523
            ],
            [
              110.441623301,
              -0.684657281
            ],
            [
              110.441684511,
              -0.684783943
            ],
            [
              110.441720728,
              -0.684874417
            ],
            [
              110.442090575,
              -0.685064445
            ],
            [
              110.442252893,
              -0.685154933
            ],
            [
              110.442197555,
              -0.685254442
            ],
            [
              110.441884668,
              -0.685507717
            ],
            [
              110.441457472,
              -0.685797166
            ],
            [
              110.441365913,
              -0.685833345
            ],
            [
              110.441339229,
              -0.685878575
            ],
            [
              110.441320123,
              -0.685950947
            ],
            [
              110.441197934,
              -0.686140918
            ],
            [
              110.441098771,
              -0.686367076
            ],
            [
              110.441091157,
              -0.686638483
            ],
            [
              110.441045353,
              -0.68686465
            ],
            [
              110.441014986,
              -0.687172239
            ],
            [
              110.440793623,
              -0.687678837
            ],
            [
              110.440725068,
              -0.687932142
            ],
            [
              110.44062591,
              -0.688113067
            ],
            [
              110.440580119,
              -0.688221624
            ],
            [
              110.440869933,
              -0.688366407
            ],
            [
              110.441220984,
              -0.688384544
            ],
            [
              110.441488058,
              -0.688438856
            ],
            [
              110.441701496,
              -0.688456973
            ],
            [
              110.442067713,
              -0.688475112
            ],
            [
              110.442433938,
              -0.688420874
            ],
            [
              110.442884147,
              -0.688258083
            ],
            [
              110.443380149,
              -0.687968641
            ],
            [
              110.443730943,
              -0.6877787
            ],
            [
              110.444097191,
              -0.687534474
            ],
            [
              110.444661715,
              -0.687272182
            ],
            [
              110.444867861,
              -0.687208879
            ],
            [
              110.44528745,
              -0.687118459
            ],
            [
              110.445653656,
              -0.687227063
            ],
            [
              110.445897696,
              -0.687344703
            ],
            [
              110.446340278,
              -0.687570925
            ],
            [
              110.446698888,
              -0.68779714
            ],
            [
              110.446927762,
              -0.687896681
            ],
            [
              110.447194834,
              -0.687978135
            ],
            [
              110.447423721,
              -0.687978162
            ],
            [
              110.447759337,
              -0.687914872
            ],
            [
              110.448270478,
              -0.687851604
            ],
            [
              110.448590921,
              -0.687833548
            ],
            [
              110.448743423,
              -0.687806425
            ],
            [
              110.449079317,
              -0.687743134
            ],
            [
              110.449254846,
              -0.687725062
            ],
            [
              110.44962869,
              -0.687354183
            ],
            [
              110.449842222,
              -0.686558083
            ],
            [
              110.449926234,
              -0.686214311
            ],
            [
              110.449987219,
              -0.685843396
            ],
            [
              110.450055782,
              -0.685517715
            ],
            [
              110.450284718,
              -0.685092539
            ],
            [
              110.450635576,
              -0.684341687
            ],
            [
              110.450734744,
              -0.684061245
            ],
            [
              110.450772988,
              -0.683627
            ],
            [
              110.451055289,
              -0.683156595
            ],
            [
              110.451284215,
              -0.682803793
            ],
            [
              110.451597104,
              -0.682550516
            ],
            [
              110.452062506,
              -0.682143459
            ],
            [
              110.452283547,
              -0.681989686
            ],
            [
              110.45270342,
              -0.681872127
            ],
            [
              110.453160928,
              -0.681736476
            ],
            [
              110.453496818,
              -0.681718419
            ],
            [
              110.453756042,
              -0.681664168
            ],
            [
              110.453908817,
              -0.681691327
            ],
            [
              110.454038564,
              -0.681718482
            ],
            [
              110.454012999,
              -0.681790854
            ],
            [
              110.454072818,
              -0.681790861
            ],
            [
              110.454160445,
              -0.681754683
            ],
            [
              110.454259592,
              -0.681673273
            ],
            [
              110.454458163,
              -0.681537591
            ],
            [
              110.45459551,
              -0.68141095
            ],
            [
              110.454717407,
              -0.681302402
            ],
            [
              110.454984506,
              -0.681139589
            ],
            [
              110.455579656,
              -0.680750641
            ],
            [
              110.455838904,
              -0.68048831
            ],
            [
              110.455800741,
              -0.680207853
            ],
            [
              110.455655858,
              -0.679918335
            ],
            [
              110.45535821,
              -0.679520237
            ],
            [
              110.454961728,
              -0.678914052
            ],
            [
              110.454832018,
              -0.67855216
            ],
            [
              110.454824181,
              -0.678325987
            ],
            [
              110.45474785,
              -0.677801261
            ],
            [
              110.454610574,
              -0.677294619
            ],
            [
              110.45465641,
              -0.676778951
            ],
            [
              110.454961467,
              -0.676218079
            ],
            [
              110.455266798,
              -0.675720534
            ],
            [
              110.455449944,
              -0.675385821
            ],
            [
              110.455381176,
              -0.675051077
            ],
            [
              110.455167497,
              -0.674671084
            ],
            [
              110.454954091,
              -0.674363466
            ],
            [
              110.45477074,
              -0.674001571
            ],
            [
              110.454442784,
              -0.673395392
            ],
            [
              110.45425214,
              -0.672970166
            ],
            [
              110.454130002,
              -0.672716838
            ],
            [
              110.45398512,
              -0.672427323
            ],
            [
              110.453878181,
              -0.671857356
            ],
            [
              110.453900999,
              -0.671233124
            ],
            [
              110.453954396,
              -0.670907442
            ],
            [
              110.453977465,
              -0.670536522
            ],
            [
              110.454168198,
              -0.670165621
            ],
            [
              110.454320736,
              -0.669794715
            ],
            [
              110.454496302,
              -0.66943286
            ],
            [
              110.454557266,
              -0.669251928
            ],
            [
              110.454641253,
              -0.669116235
            ],
            [
              110.454778608,
              -0.668899125
            ],
            [
              110.455060887,
              -0.668609654
            ],
            [
              110.455526283,
              -0.668238785
            ],
            [
              110.455892541,
              -0.667867905
            ],
            [
              110.456220601,
              -0.667533205
            ],
            [
              110.456487442,
              -0.667162312
            ],
            [
              110.456846097,
              -0.666990462
            ],
            [
              110.457708322,
              -0.666628683
            ],
            [
              110.458608467,
              -0.666203578
            ],
            [
              110.459180572,
              -0.665932235
            ],
            [
              110.459508893,
              -0.665778472
            ],
            [
              110.45989032,
              -0.665380451
            ],
            [
              110.460225958,
              -0.66508194
            ],
            [
              110.460882054,
              -0.664638715
            ],
            [
              110.461156742,
              -0.664412573
            ],
            [
              110.461553613,
              -0.664032647
            ],
            [
              110.462056929,
              -0.66359845
            ],
            [
              110.462499569,
              -0.663299951
            ],
            [
              110.463048954,
              -0.662757197
            ],
            [
              110.463636258,
              -0.662169212
            ],
            [
              110.463949178,
              -0.661599291
            ],
            [
              110.464300045,
              -0.660694639
            ],
            [
              110.46439922,
              -0.660350868
            ],
            [
              110.464544183,
              -0.659898539
            ],
            [
              110.464712174,
              -0.659455258
            ],
            [
              110.464933269,
              -0.658767717
            ],
            [
              110.465352924,
              -0.65804401
            ],
            [
              110.465329977,
              -0.657284069
            ],
            [
              110.46542916,
              -0.656858873
            ],
            [
              110.46557412,
              -0.656424638
            ],
            [
              110.465742138,
              -0.65570995
            ],
            [
              110.466169395,
              -0.654814352
            ],
            [
              110.466222823,
              -0.654153933
            ],
            [
              110.466207408,
              -0.653873476
            ],
            [
              110.466245665,
              -0.65326734
            ],
            [
              110.466291244,
              -0.652498355
            ],
            [
              110.466390458,
              -0.651765569
            ],
            [
              110.466238026,
              -0.651132268
            ],
            [
              110.466199845,
              -0.651014655
            ],
            [
              110.466161694,
              -0.650598493
            ],
            [
              110.46625328,
              -0.650290908
            ],
            [
              110.466315393,
              -0.649847616
            ]
          ]
        ]
      }
    }
  ]
}