{
  "type": "FeatureCollection",
  "features": [
    {
      "type": "Feature",
      "properties": {
        "idx": "814",
        "nama_kewilayahan": "Simpakng Paser"
      },
      "geometry": {
        "type": "Polygon",
        "coordinates": [
          [
            [
              110.458625702,
              -0.636981714
            ],
            [
              110.458379117,
              -0.636330704
            ],
            [
              110.458058678,
              -0.636339717
            ],
            [
              110.457555125,
              -0.636402993
            ],
            [
              110.457036404,
              -0.636484358
            ],
            [
              110.456319418,
              -0.636493331
            ],
            [
              110.455953218,
              -0.636339493
            ],
            [
              110.455731954,
              -0.635977596
            ],
            [
              110.45558709,
              -0.635507139
            ],
            [
              110.455396452,
              -0.635000495
            ],
            [
              110.455365885,
              -0.634575287
            ],
            [
              110.455342904,
              -0.634104846
            ],
            [
              110.455258976,
              -0.633697728
            ],
            [
              110.455205672,
              -0.633163956
            ],
            [
              110.454885306,
              -0.632476358
            ],
            [
              110.454633433,
              -0.632087315
            ],
            [
              110.454493897,
              -0.631689237
            ],
            [
              110.454450406,
              -0.631318311
            ],
            [
              110.454590321,
              -0.630766466
            ],
            [
              110.454717564,
              -0.630549353
            ],
            [
              110.454967554,
              -0.630133222
            ],
            [
              110.455216422,
              -0.629717091
            ],
            [
              110.455232455,
              -0.629481873
            ],
            [
              110.45521648,
              -0.629165229
            ],
            [
              110.4552165,
              -0.628975245
            ],
            [
              110.455216517,
              -0.628812403
            ],
            [
              110.455192377,
              -0.628685743
            ],
            [
              110.455184245,
              -0.628568132
            ],
            [
              110.455168254,
              -0.628396241
            ],
            [
              110.455175859,
              -0.628188163
            ],
            [
              110.455175954,
              -0.62726538
            ],
            [
              110.455335548,
              -0.626532598
            ],
            [
              110.455294051,
              -0.625863124
            ],
            [
              110.454885203,
              -0.625347409
            ],
            [
              110.454802076,
              -0.625320259
            ],
            [
              110.454725656,
              -0.625636891
            ],
            [
              110.45467705,
              -0.625835918
            ],
            [
              110.454427613,
              -0.626333472
            ],
            [
              110.454268022,
              -0.627057206
            ],
            [
              110.454164059,
              -0.627545727
            ],
            [
              110.454094934,
              -0.627925687
            ],
            [
              110.454008113,
              -0.628323743
            ],
            [
              110.453946866,
              -0.628558956
            ],
            [
              110.453890399,
              -0.628730841
            ],
            [
              110.453804706,
              -0.629074613
            ],
            [
              110.453693448,
              -0.629526947
            ],
            [
              110.453572641,
              -0.629961183
            ],
            [
              110.453437507,
              -0.630440654
            ],
            [
              110.453349297,
              -0.63069396
            ],
            [
              110.45319507,
              -0.631128192
            ],
            [
              110.453099836,
              -0.631417683
            ],
            [
              110.452981562,
              -0.631797639
            ],
            [
              110.452917225,
              -0.632041899
            ],
            [
              110.452848433,
              -0.63190619
            ],
            [
              110.452734723,
              -0.631616676
            ],
            [
              110.452593777,
              -0.631263833
            ],
            [
              110.452535675,
              -0.630974327
            ],
            [
              110.452443037,
              -0.630585299
            ],
            [
              110.452283568,
              -0.630141986
            ],
            [
              110.452095453,
              -0.629671529
            ],
            [
              110.451925294,
              -0.629391055
            ],
            [
              110.45160154,
              -0.62887535
            ],
            [
              110.451571776,
              -0.628830111
            ],
            [
              110.451429421,
              -0.62853155
            ],
            [
              110.451139668,
              -0.627816813
            ],
            [
              110.451009961,
              -0.627427785
            ],
            [
              110.450765956,
              -0.627002556
            ],
            [
              110.450209132,
              -0.626224465
            ],
            [
              110.450016493,
              -0.626061601
            ],
            [
              110.449849164,
              -0.625582098
            ],
            [
              110.449317843,
              -0.625319681
            ],
            [
              110.448721387,
              -0.624858228
            ],
            [
              110.448507405,
              -0.624695362
            ],
            [
              110.448269553,
              -0.6245144
            ],
            [
              110.447958698,
              -0.624188679
            ],
            [
              110.447680977,
              -0.623899149
            ],
            [
              110.447295428,
              -0.623491998
            ],
            [
              110.446948346,
              -0.62314818
            ],
            [
              110.446341763,
              -0.622876711
            ],
            [
              110.44599128,
              -0.622831438
            ],
            [
              110.445578431,
              -0.622985193
            ],
            [
              110.445377344,
              -0.623039453
            ],
            [
              110.444688953,
              -0.623546005
            ],
            [
              110.444548536,
              -0.623536944
            ],
            [
              110.443903728,
              -0.623545921
            ],
            [
              110.443387543,
              -0.623563959
            ],
            [
              110.443193202,
              -0.623582033
            ],
            [
              110.442804228,
              -0.623690553
            ],
            [
              110.442482623,
              -0.624115722
            ],
            [
              110.442198384,
              -0.624396143
            ],
            [
              110.442048678,
              -0.624577066
            ],
            [
              110.441173555,
              -0.624839333
            ],
            [
              110.440732363,
              -0.62479405
            ],
            [
              110.440285562,
              -0.624658301
            ],
            [
              110.439714341,
              -0.624613003
            ],
            [
              110.439308259,
              -0.624495351
            ],
            [
              110.438926575,
              -0.624721481
            ],
            [
              110.43839359,
              -0.624745359
            ],
            [
              110.438322207,
              -0.624748558
            ],
            [
              110.438290469,
              -0.624784741
            ],
            [
              110.438248061,
              -0.624793784
            ],
            [
              110.437965251,
              -0.624838986
            ],
            [
              110.43785851,
              -0.625056102
            ],
            [
              110.437713582,
              -0.625200834
            ],
            [
              110.437492258,
              -0.625417936
            ],
            [
              110.437095682,
              -0.62571644
            ],
            [
              110.436851617,
              -0.625861162
            ],
            [
              110.436675499,
              -0.626150644
            ],
            [
              110.436668482,
              -0.626123503
            ],
            [
              110.436248888,
              -0.626322489
            ],
            [
              110.436073355,
              -0.626403891
            ],
            [
              110.435524,
              -0.626711424
            ],
            [
              110.434967343,
              -0.62703705
            ],
            [
              110.434524693,
              -0.627489347
            ],
            [
              110.43454011,
              -0.627760754
            ],
            [
              110.434593404,
              -0.628357851
            ],
            [
              110.43463914,
              -0.628737825
            ],
            [
              110.434547559,
              -0.629000173
            ],
            [
              110.434036663,
              -0.629470555
            ],
            [
              110.43357128,
              -0.629778097
            ],
            [
              110.433273862,
              -0.629868532
            ],
            [
              110.433090753,
              -0.629877559
            ],
            [
              110.432617541,
              -0.629868461
            ],
            [
              110.432091236,
              -0.629986013
            ],
            [
              110.431259663,
              -0.630076389
            ],
            [
              110.430794588,
              -0.630130619
            ],
            [
              110.43025285,
              -0.630130561
            ],
            [
              110.429635,
              -0.630166679
            ],
            [
              110.429047485,
              -0.630175662
            ],
            [
              110.428429645,
              -0.630121313
            ],
            [
              110.428223776,
              -0.630266038
            ],
            [
              110.428330478,
              -0.630410801
            ],
            [
              110.428589938,
              -0.630736517
            ],
            [
              110.428894881,
              -0.6311708
            ],
            [
              110.428894843,
              -0.631523626
            ],
            [
              110.428604986,
              -0.631813091
            ],
            [
              110.428284819,
              -0.631912573
            ],
            [
              110.427994702,
              -0.632003009
            ],
            [
              110.427468402,
              -0.632075326
            ],
            [
              110.427239502,
              -0.632220049
            ],
            [
              110.427277644,
              -0.632708583
            ],
            [
              110.427483741,
              -0.633061433
            ],
            [
              110.427720168,
              -0.633405239
            ],
            [
              110.428147288,
              -0.633740021
            ],
            [
              110.42866622,
              -0.634273842
            ],
            [
              110.428521235,
              -0.634934245
            ],
            [
              110.428395089,
              -0.635377528
            ],
            [
              110.428330471,
              -0.635603692
            ],
            [
              110.428132149,
              -0.636046965
            ],
            [
              110.427834665,
              -0.63674354
            ],
            [
              110.427598143,
              -0.637250137
            ],
            [
              110.427376776,
              -0.637847204
            ],
            [
              110.427163264,
              -0.638516646
            ],
            [
              110.426919117,
              -0.639403211
            ],
            [
              110.426728338,
              -0.640208358
            ],
            [
              110.426613959,
              -0.640904952
            ],
            [
              110.426453803,
              -0.641592495
            ],
            [
              110.426438589,
              -0.642035788
            ],
            [
              110.426553104,
              -0.64264194
            ],
            [
              110.426629393,
              -0.643519493
            ],
            [
              110.426514724,
              -0.644297509
            ],
            [
              110.426438563,
              -0.644776981
            ],
            [
              110.426293611,
              -0.645120746
            ],
            [
              110.426018896,
              -0.645618292
            ],
            [
              110.42581301,
              -0.645880626
            ],
            [
              110.425515563,
              -0.646224374
            ],
            [
              110.425402657,
              -0.646305781
            ],
            [
              110.425265881,
              -0.646369096
            ],
            [
              110.425611272,
              -0.646740055
            ],
            [
              110.425757,
              -0.646984335
            ],
            [
              110.425847684,
              -0.647228612
            ],
            [
              110.42594145,
              -0.64751812
            ],
            [
              110.426081788,
              -0.648259976
            ],
            [
              110.426133433,
              -0.648522342
            ],
            [
              110.426265355,
              -0.649164684
            ],
            [
              110.42629789,
              -0.649535608
            ],
            [
              110.426329601,
              -0.649743688
            ],
            [
              110.426490197,
              -0.650141769
            ],
            [
              110.426523585,
              -0.650422225
            ],
            [
              110.426430332,
              -0.650548869
            ],
            [
              110.426275299,
              -0.650630274
            ],
            [
              110.425995248,
              -0.651109723
            ],
            [
              110.425858409,
              -0.65173394
            ],
            [
              110.42566177,
              -0.652177214
            ],
            [
              110.425541822,
              -0.652430511
            ],
            [
              110.42518171,
              -0.653108984
            ],
            [
              110.42476521,
              -0.653235591
            ],
            [
              110.42427458,
              -0.653253629
            ],
            [
              110.423653912,
              -0.653371166
            ],
            [
              110.42294477,
              -0.653561067
            ],
            [
              110.422286721,
              -0.653922865
            ],
            [
              110.421509338,
              -0.654094665
            ],
            [
              110.421051854,
              -0.654058424
            ],
            [
              110.420256243,
              -0.653995005
            ],
            [
              110.419380863,
              -0.654022043
            ],
            [
              110.419028693,
              -0.653994861
            ],
            [
              110.418255545,
              -0.653958584
            ],
            [
              110.417811258,
              -0.653958532
            ],
            [
              110.417276239,
              -0.654130359
            ],
            [
              110.41656059,
              -0.654736413
            ],
            [
              110.416329709,
              -0.654998743
            ],
            [
              110.416185054,
              -0.655197755
            ],
            [
              110.416112853,
              -0.655414872
            ],
            [
              110.416018481,
              -0.65550533
            ],
            [
              110.415990672,
              -0.655559608
            ],
            [
              110.415424161,
              -0.656057117
            ],
            [
              110.415207613,
              -0.656238027
            ],
            [
              110.415266818,
              -0.656690375
            ],
            [
              110.415418147,
              -0.657052266
            ],
            [
              110.415463874,
              -0.657477473
            ],
            [
              110.415349805,
              -0.657893615
            ],
            [
              110.414933822,
              -0.658418281
            ],
            [
              110.414528814,
              -0.658734872
            ],
            [
              110.414156957,
              -0.658951952
            ],
            [
              110.413729199,
              -0.659286634
            ],
            [
              110.413470225,
              -0.659621335
            ],
            [
              110.413305031,
              -0.660136985
            ],
            [
              110.413410818,
              -0.660915023
            ],
            [
              110.413564369,
              -0.661494038
            ],
            [
              110.413585078,
              -0.662118273
            ],
            [
              110.413425229,
              -0.662552501
            ],
            [
              110.412992643,
              -0.663339524
            ],
            [
              110.412631936,
              -0.664253209
            ],
            [
              110.412194242,
              -0.665492572
            ],
            [
              110.411859977,
              -0.66603534
            ],
            [
              110.411599017,
              -0.666550978
            ],
            [
              110.411422046,
              -0.666903783
            ],
            [
              110.411171774,
              -0.667274672
            ],
            [
              110.410698521,
              -0.667591253
            ],
            [
              110.410335597,
              -0.668251627
            ],
            [
              110.409666835,
              -0.668939104
            ],
            [
              110.409320541,
              -0.669092858
            ],
            [
              110.408787487,
              -0.669255636
            ],
            [
              110.40849596,
              -0.669391304
            ],
            [
              110.408479667,
              -0.66942749
            ],
            [
              110.408370409,
              -0.669517944
            ],
            [
              110.408124921,
              -0.669798366
            ],
            [
              110.408128796,
              -0.670277847
            ],
            [
              110.408428384,
              -0.670847832
            ],
            [
              110.408698225,
              -0.671227832
            ],
            [
              110.40883915,
              -0.671698283
            ],
            [
              110.408625103,
              -0.672087271
            ],
            [
              110.408494478,
              -0.672376753
            ],
            [
              110.408252055,
              -0.672856204
            ],
            [
              110.407854042,
              -0.673380872
            ],
            [
              110.407413087,
              -0.673679364
            ],
            [
              110.407087293,
              -0.673842166
            ],
            [
              110.406926923,
              -0.673923567
            ],
            [
              110.406145277,
              -0.674493419
            ],
            [
              110.405927872,
              -0.674773844
            ],
            [
              110.405818578,
              -0.675162842
            ],
            [
              110.405708998,
              -0.675597077
            ],
            [
              110.405483742,
              -0.675768939
            ],
            [
              110.405280953,
              -0.675967943
            ],
            [
              110.405071683,
              -0.676329791
            ],
            [
              110.405178598,
              -0.677017362
            ],
            [
              110.405784309,
              -0.677533104
            ],
            [
              110.406087533,
              -0.678211653
            ],
            [
              110.406073433,
              -0.678682085
            ],
            [
              110.405996155,
              -0.679071089
            ],
            [
              110.405741955,
              -0.679387696
            ],
            [
              110.405673378,
              -0.679821933
            ],
            [
              110.405701415,
              -0.680210949
            ],
            [
              110.405826072,
              -0.680500464
            ],
            [
              110.405992869,
              -0.680681421
            ],
            [
              110.4062473,
              -0.680771919
            ],
            [
              110.40648319,
              -0.680898605
            ],
            [
              110.406632584,
              -0.680998137
            ],
            [
              110.406722435,
              -0.681151945
            ],
            [
              110.406606425,
              -0.681332867
            ],
            [
              110.406362634,
              -0.681513773
            ],
            [
              110.405907349,
              -0.681857495
            ],
            [
              110.405641934,
              -0.682029351
            ],
            [
              110.405539419,
              -0.682101713
            ],
            [
              110.405484651,
              -0.682137894
            ],
            [
              110.405335489,
              -0.682427373
            ],
            [
              110.405314959,
              -0.682662588
            ],
            [
              110.405473853,
              -0.683160182
            ],
            [
              110.405428873,
              -0.683531096
            ],
            [
              110.404941856,
              -0.683847674
            ],
            [
              110.404708469,
              -0.683920019
            ],
            [
              110.404365839,
              -0.683956162
            ],
            [
              110.404169531,
              -0.683965185
            ],
            [
              110.403786466,
              -0.683956091
            ],
            [
              110.403557571,
              -0.684028436
            ],
            [
              110.403305363,
              -0.684146014
            ],
            [
              110.403002596,
              -0.684308818
            ],
            [
              110.401042808,
              -0.684987083
            ],
            [
              110.400609189,
              -0.685005122
            ],
            [
              110.400285097,
              -0.685023175
            ],
            [
              110.40012052,
              -0.685059341
            ],
            [
              110.399720853,
              -0.685303554
            ],
            [
              110.399359359,
              -0.685728708
            ],
            [
              110.399184931,
              -0.685936763
            ],
            [
              110.398673178,
              -0.686434272
            ],
            [
              110.39743072,
              -0.686596957
            ],
            [
              110.396984475,
              -0.686515478
            ],
            [
              110.396487391,
              -0.686497321
            ],
            [
              110.396084934,
              -0.686596786
            ],
            [
              110.395754361,
              -0.686786727
            ],
            [
              110.3952943,
              -0.687139494
            ],
            [
              110.394943481,
              -0.687528459
            ],
            [
              110.394518509,
              -0.68802598
            ],
            [
              110.39402444,
              -0.688586818
            ],
            [
              110.393567448,
              -0.689093379
            ],
            [
              110.393255361,
              -0.689672333
            ],
            [
              110.393208386,
              -0.690260369
            ],
            [
              110.393349594,
              -0.690694633
            ],
            [
              110.39360175,
              -0.691002256
            ],
            [
              110.394045721,
              -0.691291811
            ],
            [
              110.394206034,
              -0.691671797
            ],
            [
              110.394271719,
              -0.69191607
            ],
            [
              110.394154287,
              -0.692241738
            ],
            [
              110.394073646,
              -0.692549318
            ],
            [
              110.394255573,
              -0.693010727
            ],
            [
              110.394458875,
              -0.693209783
            ],
            [
              110.394579891,
              -0.693426921
            ],
            [
              110.394548959,
              -0.693734509
            ],
            [
              110.394378468,
              -0.69389733
            ],
            [
              110.3939221,
              -0.693915364
            ],
            [
              110.393691269,
              -0.693761539
            ],
            [
              110.393361602,
              -0.693444859
            ],
            [
              110.393302342,
              -0.693471992
            ],
            [
              110.39327622,
              -0.693490081
            ],
            [
              110.393049568,
              -0.693607661
            ],
            [
              110.392726272,
              -0.693978539
            ],
            [
              110.392622036,
              -0.694331348
            ],
            [
              110.392533778,
              -0.694919378
            ],
            [
              110.392490161,
              -0.695597882
            ],
            [
              110.392532814,
              -0.695869291
            ],
            [
              110.392577685,
              -0.696357822
            ],
            [
              110.392563014,
              -0.696891582
            ],
            [
              110.392535435,
              -0.697325825
            ],
            [
              110.392450017,
              -0.697660545
            ],
            [
              110.39234521,
              -0.698067637
            ],
            [
              110.392110915,
              -0.6986466
            ],
            [
              110.392038411,
              -0.699017509
            ],
            [
              110.3919808,
              -0.699316047
            ],
            [
              110.391925698,
              -0.699759331
            ],
            [
              110.391885207,
              -0.700148338
            ],
            [
              110.391931214,
              -0.700546403
            ],
            [
              110.391777785,
              -0.701233938
            ],
            [
              110.391580001,
              -0.70180386
            ],
            [
              110.391539167,
              -0.702663297
            ],
            [
              110.391319145,
              -0.703622229
            ],
            [
              110.391039923,
              -0.704128813
            ],
            [
              110.390638035,
              -0.704164947
            ],
            [
              110.390396516,
              -0.704137775
            ],
            [
              110.390233361,
              -0.704029192
            ],
            [
              110.3899969,
              -0.703974879
            ],
            [
              110.389645569,
              -0.703965787
            ],
            [
              110.389430152,
              -0.704065273
            ],
            [
              110.389213596,
              -0.70427332
            ],
            [
              110.389192213,
              -0.704571861
            ],
            [
              110.389247208,
              -0.704960881
            ],
            [
              110.389282296,
              -0.70508754
            ],
            [
              110.389811342,
              -0.70553995
            ],
            [
              110.390358131,
              -0.705603348
            ],
            [
              110.390984648,
              -0.705901975
            ],
            [
              110.391283435,
              -0.706119139
            ],
            [
              110.391133416,
              -0.706490036
            ],
            [
              110.390555123,
              -0.706806597
            ],
            [
              110.389953001,
              -0.70679747
            ],
            [
              110.389673835,
              -0.706887902
            ],
            [
              110.389003411,
              -0.707313012
            ],
            [
              110.389071315,
              -0.707774407
            ],
            [
              110.389326822,
              -0.708217732
            ],
            [
              110.389285479,
              -0.708661019
            ],
            [
              110.389100656,
              -0.708896212
            ],
            [
              110.388631037,
              -0.709294208
            ],
            [
              110.388245643,
              -0.709909338
            ],
            [
              110.388054619,
              -0.710298324
            ],
            [
              110.387704936,
              -0.710569681
            ],
            [
              110.387383627,
              -0.710768667
            ],
            [
              110.387200172,
              -0.711275262
            ],
            [
              110.387055216,
              -0.711591879
            ],
            [
              110.386768143,
              -0.711989898
            ],
            [
              110.386616189,
              -0.712134627
            ],
            [
              110.385821966,
              -0.712170709
            ],
            [
              110.385353258,
              -0.712053037
            ],
            [
              110.385029163,
              -0.712080134
            ],
            [
              110.384855037,
              -0.712116299
            ],
            [
              110.384947086,
              -0.712613883
            ],
            [
              110.38514554,
              -0.713382884
            ],
            [
              110.385496474,
              -0.71426047
            ],
            [
              110.385824415,
              -0.714875696
            ],
            [
              110.386251483,
              -0.715563308
            ],
            [
              110.386861957,
              -0.716133337
            ],
            [
              110.387182345,
              -0.716522391
            ],
            [
              110.38775441,
              -0.716594843
            ],
            [
              110.388265543,
              -0.716576817
            ],
            [
              110.388562923,
              -0.716821121
            ],
            [
              110.388868165,
              -0.717065425
            ],
            [
              110.38918098,
              -0.717382104
            ],
            [
              110.389394647,
              -0.717789237
            ],
            [
              110.389737778,
              -0.71822353
            ],
            [
              110.390134563,
              -0.718558313
            ],
            [
              110.390645643,
              -0.718956441
            ],
            [
              110.390996663,
              -0.719200752
            ],
            [
              110.391484731,
              -0.719463174
            ],
            [
              110.392072218,
              -0.719725608
            ],
            [
              110.392758594,
              -0.719734748
            ],
            [
              110.393285194,
              -0.719581024
            ],
            [
              110.393506244,
              -0.719363929
            ],
            [
              110.393877547,
              -0.719146856
            ],
            [
              110.393899753,
              -0.71900211
            ],
            [
              110.393923085,
              -0.718830225
            ],
            [
              110.393962713,
              -0.718604059
            ],
            [
              110.394040847,
              -0.718142685
            ],
            [
              110.394126854,
              -0.717636076
            ],
            [
              110.394174622,
              -0.717428007
            ],
            [
              110.394446,
              -0.716794768
            ],
            [
              110.394695159,
              -0.716396742
            ],
            [
              110.394826341,
              -0.71617059
            ],
            [
              110.395166777,
              -0.715745435
            ],
            [
              110.395589494,
              -0.715365527
            ],
            [
              110.395688363,
              -0.715275072
            ],
            [
              110.396248447,
              -0.71461473
            ],
            [
              110.396668658,
              -0.71406293
            ],
            [
              110.397628121,
              -0.713248846
            ],
            [
              110.398049152,
              -0.712859888
            ],
            [
              110.398426932,
              -0.712498066
            ],
            [
              110.399101587,
              -0.711937255
            ],
            [
              110.399580471,
              -0.711566398
            ],
            [
              110.400099807,
              -0.711105079
            ],
            [
              110.400534886,
              -0.710679937
            ],
            [
              110.401176697,
              -0.71000151
            ],
            [
              110.401794328,
              -0.709531156
            ],
            [
              110.402213688,
              -0.709033636
            ],
            [
              110.40228054,
              -0.708952223
            ],
            [
              110.403149852,
              -0.70812003
            ],
            [
              110.404197777,
              -0.707305954
            ],
            [
              110.404799401,
              -0.706826551
            ],
            [
              110.405444577,
              -0.706184311
            ],
            [
              110.405949297,
              -0.705804409
            ],
            [
              110.40624562,
              -0.705533043
            ],
            [
              110.406659879,
              -0.705397394
            ],
            [
              110.40704267,
              -0.705370303
            ],
            [
              110.407387822,
              -0.705379394
            ],
            [
              110.407526562,
              -0.705361318
            ],
            [
              110.407605478,
              -0.70535228
            ],
            [
              110.40785432,
              -0.705225659
            ],
            [
              110.407964997,
              -0.705026641
            ],
            [
              110.407970054,
              -0.705017596
            ],
            [
              110.407904376,
              -0.704709995
            ],
            [
              110.407855264,
              -0.704429537
            ],
            [
              110.407737915,
              -0.70409479
            ],
            [
              110.407743031,
              -0.703606264
            ],
            [
              110.408014089,
              -0.703244426
            ],
            [
              110.408663218,
              -0.702421249
            ],
            [
              110.408882875,
              -0.702104638
            ],
            [
              110.408950585,
              -0.70189657
            ],
            [
              110.408980104,
              -0.701643262
            ],
            [
              110.408909387,
              -0.701209005
            ],
            [
              110.408911358,
              -0.70117282
            ],
            [
              110.408923438,
              -0.701136632
            ],
            [
              110.408930747,
              -0.7010914
            ],
            [
              110.408822954,
              -0.70068428
            ],
            [
              110.408657617,
              -0.700060028
            ],
            [
              110.408634076,
              -0.699661966
            ],
            [
              110.408736377,
              -0.69906489
            ],
            [
              110.4089097,
              -0.698712086
            ],
            [
              110.408933318,
              -0.698485919
            ],
            [
              110.408717487,
              -0.697400271
            ],
            [
              110.408693983,
              -0.696712712
            ],
            [
              110.408717669,
              -0.695943736
            ],
            [
              110.408787944,
              -0.695428074
            ],
            [
              110.408869991,
              -0.695084307
            ],
            [
              110.409010447,
              -0.694803874
            ],
            [
              110.409068941,
              -0.694170604
            ],
            [
              110.409139212,
              -0.693682085
            ],
            [
              110.409311425,
              -0.693211672
            ],
            [
              110.40951285,
              -0.692714123
            ],
            [
              110.40958591,
              -0.6923794
            ],
            [
              110.409714031,
              -0.691918028
            ],
            [
              110.409842179,
              -0.691239533
            ],
            [
              110.410025121,
              -0.690316779
            ],
            [
              110.409915401,
              -0.689583973
            ],
            [
              110.40978738,
              -0.689249226
            ],
            [
              110.409385283,
              -0.68869732
            ],
            [
              110.409257278,
              -0.688217822
            ],
            [
              110.409147825,
              -0.687611672
            ],
            [
              110.409220934,
              -0.68687889
            ],
            [
              110.409367287,
              -0.686598456
            ],
            [
              110.409596779,
              -0.686227565
            ],
            [
              110.409919525,
              -0.685739076
            ],
            [
              110.410081043,
              -0.685449598
            ],
            [
              110.410296217,
              -0.685051566
            ],
            [
              110.410601259,
              -0.684653543
            ],
            [
              110.41088804,
              -0.684291705
            ],
            [
              110.411228759,
              -0.683821313
            ],
            [
              110.411444242,
              -0.683169969
            ],
            [
              110.411784982,
              -0.682518639
            ],
            [
              110.412089763,
              -0.681948727
            ],
            [
              110.412394824,
              -0.681387863
            ],
            [
              110.41284311,
              -0.6808632
            ],
            [
              110.41313019,
              -0.680356613
            ],
            [
              110.413398986,
              -0.680085242
            ],
            [
              110.413704008,
              -0.679850063
            ],
            [
              110.41397308,
              -0.679632972
            ],
            [
              110.414062695,
              -0.679415859
            ],
            [
              110.414313798,
              -0.679144486
            ],
            [
              110.414690435,
              -0.678909313
            ],
            [
              110.414995184,
              -0.678601757
            ],
            [
              110.415407785,
              -0.678212795
            ],
            [
              110.415766467,
              -0.677814777
            ],
            [
              110.416038639,
              -0.677498171
            ],
            [
              110.416466967,
              -0.677109211
            ],
            [
              110.416865807,
              -0.676720244
            ],
            [
              110.417264642,
              -0.67638556
            ],
            [
              110.417633992,
              -0.676005638
            ],
            [
              110.418047428,
              -0.675680002
            ],
            [
              110.418420995,
              -0.67527294
            ],
            [
              110.41903721,
              -0.674838764
            ],
            [
              110.419539405,
              -0.674404579
            ],
            [
              110.419775634,
              -0.674060827
            ],
            [
              110.419953156,
              -0.67379849
            ],
            [
              110.42004165,
              -0.67354519
            ],
            [
              110.42014504,
              -0.673201421
            ],
            [
              110.420292798,
              -0.672902895
            ],
            [
              110.420425671,
              -0.672604365
            ],
            [
              110.420499565,
              -0.672323922
            ],
            [
              110.42061027,
              -0.671871594
            ],
            [
              110.420795127,
              -0.671328805
            ],
            [
              110.42091345,
              -0.670568885
            ],
            [
              110.421031727,
              -0.670197978
            ],
            [
              110.421149708,
              -0.669962773
            ],
            [
              110.421464852,
              -0.669609985
            ],
            [
              110.421716565,
              -0.668931503
            ],
            [
              110.422067403,
              -0.668343501
            ],
            [
              110.422483668,
              -0.667827878
            ],
            [
              110.422802184,
              -0.667456997
            ],
            [
              110.423156088,
              -0.667077072
            ],
            [
              110.423568676,
              -0.666787621
            ],
            [
              110.423934364,
              -0.666498165
            ],
            [
              110.424276455,
              -0.666272034
            ],
            [
              110.424712626,
              -0.666045914
            ],
            [
              110.425101889,
              -0.665883117
            ],
            [
              110.425597033,
              -0.665693193
            ],
            [
              110.426057063,
              -0.665575636
            ],
            [
              110.426599381,
              -0.665458092
            ],
            [
              110.427094796,
              -0.665349586
            ],
            [
              110.427720256,
              -0.665096348
            ],
            [
              110.428250527,
              -0.664716442
            ],
            [
              110.428462589,
              -0.664472202
            ],
            [
              110.428816504,
              -0.664001807
            ],
            [
              110.429135012,
              -0.663685204
            ],
            [
              110.429382468,
              -0.663386687
            ],
            [
              110.429618421,
              -0.662970559
            ],
            [
              110.429736414,
              -0.662626793
            ],
            [
              110.43001954,
              -0.662273998
            ],
            [
              110.430443666,
              -0.66177647
            ],
            [
              110.430679896,
              -0.66139653
            ],
            [
              110.431023398,
              -0.661098024
            ],
            [
              110.431290225,
              -0.660862836
            ],
            [
              110.431488518,
              -0.660681922
            ],
            [
              110.431864879,
              -0.660374372
            ],
            [
              110.432266807,
              -0.659985403
            ],
            [
              110.432662554,
              -0.659596435
            ],
            [
              110.433406276,
              -0.659107988
            ],
            [
              110.43370372,
              -0.658809477
            ],
            [
              110.434109273,
              -0.658628586
            ],
            [
              110.434595987,
              -0.658483891
            ],
            [
              110.434947608,
              -0.658402511
            ],
            [
              110.435420822,
              -0.658411611
            ],
            [
              110.436172622,
              -0.658511212
            ],
            [
              110.436843821,
              -0.658601757
            ],
            [
              110.437678474,
              -0.658656133
            ],
            [
              110.438165183,
              -0.65853858
            ],
            [
              110.438665674,
              -0.658249136
            ],
            [
              110.439368671,
              -0.657769732
            ],
            [
              110.439662489,
              -0.657245048
            ],
            [
              110.43977121,
              -0.656937466
            ],
            [
              110.43992347,
              -0.656539422
            ],
            [
              110.440140906,
              -0.6559514
            ],
            [
              110.44026058,
              -0.655625724
            ],
            [
              110.440787771,
              -0.6551463
            ],
            [
              110.441053756,
              -0.654874925
            ],
            [
              110.441347265,
              -0.654603552
            ],
            [
              110.44182531,
              -0.654115073
            ],
            [
              110.442260088,
              -0.653789436
            ],
            [
              110.442629698,
              -0.653563305
            ],
            [
              110.443183842,
              -0.653156257
            ],
            [
              110.443640801,
              -0.652875856
            ],
            [
              110.444235922,
              -0.652694984
            ],
            [
              110.445532045,
              -0.652297066
            ],
            [
              110.44581318,
              -0.65217044
            ],
            [
              110.446459438,
              -0.651781496
            ],
            [
              110.446585563,
              -0.651528198
            ],
            [
              110.446590056,
              -0.651519151
            ],
            [
              110.446697079,
              -0.651320132
            ],
            [
              110.447004923,
              -0.650922104
            ],
            [
              110.447378763,
              -0.650551224
            ],
            [
              110.447729853,
              -0.650198434
            ],
            [
              110.44799668,
              -0.649936103
            ],
            [
              110.448591828,
              -0.64950192
            ],
            [
              110.448980821,
              -0.649239602
            ],
            [
              110.449392838,
              -0.649013473
            ],
            [
              110.450132573,
              -0.649004508
            ],
            [
              110.450651564,
              -0.649040753
            ],
            [
              110.451406752,
              -0.648977507
            ],
            [
              110.451521065,
              -0.648868956
            ],
            [
              110.452451498,
              -0.648805732
            ],
            [
              110.453128337,
              -0.648679147
            ],
            [
              110.453556353,
              -0.648552538
            ],
            [
              110.453888885,
              -0.648407824
            ],
            [
              110.454314951,
              -0.648109323
            ],
            [
              110.454843797,
              -0.647910348
            ],
            [
              110.454845481,
              -0.647910348
            ],
            [
              110.455320103,
              -0.6479104
            ],
            [
              110.455626498,
              -0.647919481
            ],
            [
              110.455746419,
              -0.647910446
            ],
            [
              110.455709073,
              -0.647847113
            ],
            [
              110.455717256,
              -0.647494285
            ],
            [
              110.455717538,
              -0.647485239
            ],
            [
              110.455745064,
              -0.647458101
            ],
            [
              110.455930485,
              -0.646824839
            ],
            [
              110.455983884,
              -0.646462968
            ],
            [
              110.456006669,
              -0.646119189
            ],
            [
              110.456044905,
              -0.64572113
            ],
            [
              110.456148567,
              -0.645422595
            ],
            [
              110.456342406,
              -0.644870756
            ],
            [
              110.456487346,
              -0.644617457
            ],
            [
              110.456761782,
              -0.644101814
            ],
            [
              110.456906741,
              -0.643685674
            ],
            [
              110.457021369,
              -0.643260481
            ],
            [
              110.457280645,
              -0.642690554
            ],
            [
              110.457524763,
              -0.642057297
            ],
            [
              110.457825036,
              -0.641541656
            ],
            [
              110.457858519,
              -0.640944565
            ],
            [
              110.4578914,
              -0.640718397
            ],
            [
              110.457992295,
              -0.640494902
            ],
            [
              110.457993089,
              -0.640492234
            ],
            [
              110.45799409,
              -0.640490928
            ],
            [
              110.457997582,
              -0.640483188
            ],
            [
              110.458346154,
              -0.64003088
            ],
            [
              110.458447051,
              -0.639316187
            ],
            [
              110.458350221,
              -0.638737175
            ],
            [
              110.458550853,
              -0.637669663
            ],
            [
              110.458630962,
              -0.637000202
            ],
            [
              110.458628535,
              -0.636993684
            ],
            [
              110.458625702,
              -0.636981714
            ]
          ]
        ]
      }
    }
  ]
}