{
  "type": "FeatureCollection",
  "features": [
    {
      "type": "Feature",
      "properties": {
        "idx": "818",
        "nama_kewilayahan": "Laur Kampung A"
      },
      "geometry": {
        "type": "Polygon",
        "coordinates": [
          [
            [
              110.527951856,
              -0.777823474
            ],
            [
              110.525321992,
              -0.777524625
            ],
            [
              110.522786777,
              -0.777216742
            ],
            [
              110.518767853,
              -0.77665537
            ],
            [
              110.516201831,
              -0.775623719
            ],
            [
              110.514408737,
              -0.774384079
            ],
            [
              110.513295844,
              -0.773325454
            ],
            [
              110.511688367,
              -0.772321056
            ],
            [
              110.510328227,
              -0.772139959
            ],
            [
              110.509709829,
              -0.771823242
            ],
            [
              110.50870184,
              -0.77195883
            ],
            [
              110.507360196,
              -0.772139614
            ],
            [
              110.505319442,
              -0.772944555
            ],
            [
              110.503835569,
              -0.774129531
            ],
            [
              110.501794757,
              -0.77543205
            ],
            [
              110.499197641,
              -0.776182639
            ],
            [
              110.496971967,
              -0.775621464
            ],
            [
              110.494993242,
              -0.774381794
            ],
            [
              110.493385721,
              -0.773820691
            ],
            [
              110.491334998,
              -0.773431426
            ],
            [
              110.491195967,
              -0.773521879
            ],
            [
              110.490498326,
              -0.773603217
            ],
            [
              110.488978603,
              -0.773955864
            ],
            [
              110.488537411,
              -0.773765823
            ],
            [
              110.486367986,
              -0.772598505
            ],
            [
              110.482596382,
              -0.770861035
            ],
            [
              110.480803287,
              -0.769802326
            ],
            [
              110.479319353,
              -0.769177907
            ],
            [
              110.47867205,
              -0.768734527
            ],
            [
              110.477217371,
              -0.767748235
            ],
            [
              110.475671827,
              -0.765694394
            ],
            [
              110.473940696,
              -0.763206279
            ],
            [
              110.473648157,
              -0.762346787
            ],
            [
              110.473137195,
              -0.76083589
            ],
            [
              110.47214838,
              -0.758094553
            ],
            [
              110.471715728,
              -0.75698173
            ],
            [
              110.471318707,
              -0.75616746
            ],
            [
              110.470386521,
              -0.754267494
            ],
            [
              110.470386746,
              -0.752403832
            ],
            [
              110.470386941,
              -0.750784434
            ],
            [
              110.470139738,
              -0.74892074
            ],
            [
              110.469089098,
              -0.746486995
            ],
            [
              110.467110525,
              -0.744188841
            ],
            [
              110.464822931,
              -0.742632495
            ],
            [
              110.462659133,
              -0.741573744
            ],
            [
              110.460742385,
              -0.741320195
            ],
            [
              110.458516364,
              -0.741573233
            ],
            [
              110.456105022,
              -0.741509609
            ],
            [
              110.454002789,
              -0.740016614
            ],
            [
              110.451808133,
              -0.736433775
            ],
            [
              110.450462719,
              -0.733428195
            ],
            [
              110.45042195,
              -0.733556696
            ],
            [
              110.450147469,
              -0.734325647
            ],
            [
              110.449987041,
              -0.734859393
            ],
            [
              110.449666744,
              -0.735944978
            ],
            [
              110.449338601,
              -0.736885813
            ],
            [
              110.449140206,
              -0.737835711
            ],
            [
              110.448896086,
              -0.738360399
            ],
            [
              110.448407894,
              -0.739029806
            ],
            [
              110.448079789,
              -0.739653999
            ],
            [
              110.447843263,
              -0.740079174
            ],
            [
              110.447621911,
              -0.740450068
            ],
            [
              110.447408424,
              -0.740802868
            ],
            [
              110.447271056,
              -0.741083305
            ],
            [
              110.447133682,
              -0.741408973
            ],
            [
              110.446828594,
              -0.742132688
            ],
            [
              110.44652349,
              -0.742964961
            ],
            [
              110.446248723,
              -0.743770097
            ],
            [
              110.445943601,
              -0.744765215
            ],
            [
              110.445760398,
              -0.74548894
            ],
            [
              110.445493502,
              -0.746221703
            ],
            [
              110.44505864,
              -0.74711729
            ],
            [
              110.444341232,
              -0.748121401
            ],
            [
              110.443128369,
              -0.749469229
            ],
            [
              110.442670549,
              -0.749776765
            ],
            [
              110.442243346,
              -0.75006621
            ],
            [
              110.441754915,
              -0.750364693
            ],
            [
              110.440908107,
              -0.750816927
            ],
            [
              110.440198612,
              -0.751413929
            ],
            [
              110.439717756,
              -0.75178479
            ],
            [
              110.439008271,
              -0.752318461
            ],
            [
              110.438527714,
              -0.752535523
            ],
            [
              110.438039277,
              -0.752897335
            ],
            [
              110.43744437,
              -0.753467208
            ],
            [
              110.436917736,
              -0.753838063
            ],
            [
              110.436315249,
              -0.75439889
            ],
            [
              110.435895624,
              -0.754706428
            ],
            [
              110.435231656,
              -0.755086307
            ],
            [
              110.434667117,
              -0.755366688
            ],
            [
              110.434140782,
              -0.75559279
            ],
            [
              110.433675374,
              -0.755945557
            ],
            [
              110.433019278,
              -0.756253063
            ],
            [
              110.432149456,
              -0.756560542
            ],
            [
              110.43161526,
              -0.756768549
            ],
            [
              110.431157718,
              -0.75710322
            ],
            [
              110.430768411,
              -0.757519326
            ],
            [
              110.430524286,
              -0.758044011
            ],
            [
              110.430241984,
              -0.758442033
            ],
            [
              110.429601305,
              -0.758957619
            ],
            [
              110.428830626,
              -0.759247015
            ],
            [
              110.428159118,
              -0.759274067
            ],
            [
              110.42721324,
              -0.759183472
            ],
            [
              110.426358667,
              -0.758866719
            ],
            [
              110.425877911,
              -0.758468595
            ],
            [
              110.425122774,
              -0.758025198
            ],
            [
              110.424458922,
              -0.757518485
            ],
            [
              110.423955443,
              -0.756921327
            ],
            [
              110.423627191,
              -0.756487036
            ],
            [
              110.4235862,
              -0.756423952
            ],
            [
              110.423482762,
              -0.75704792
            ],
            [
              110.423107382,
              -0.758341568
            ],
            [
              110.422667343,
              -0.760096595
            ],
            [
              110.42294631,
              -0.761571267
            ],
            [
              110.422666952,
              -0.763045863
            ],
            [
              110.422094786,
              -0.763660971
            ],
            [
              110.421487457,
              -0.764701273
            ],
            [
              110.42129082,
              -0.765035978
            ],
            [
              110.421847042,
              -0.766031209
            ],
            [
              110.423330827,
              -0.767587465
            ],
            [
              110.424690684,
              -0.769704607
            ],
            [
              110.425123592,
              -0.770880756
            ],
            [
              110.425367277,
              -0.771559303
            ],
            [
              110.425617979,
              -0.772255943
            ],
            [
              110.425803146,
              -0.773685369
            ],
            [
              110.425679332,
              -0.775485675
            ],
            [
              110.425060629,
              -0.777539221
            ],
            [
              110.424442349,
              -0.778534289
            ],
            [
              110.423823837,
              -0.779158436
            ],
            [
              110.423620158,
              -0.779646937
            ],
            [
              110.423329104,
              -0.780343504
            ],
            [
              110.423374104,
              -0.781935753
            ],
            [
              110.423390594,
              -0.782523799
            ],
            [
              110.424070612,
              -0.783953293
            ],
            [
              110.425554441,
              -0.785201962
            ],
            [
              110.427347162,
              -0.786758267
            ],
            [
              110.427646205,
              -0.787201602
            ],
            [
              110.428398164,
              -0.788314469
            ],
            [
              110.429201689,
              -0.790241557
            ],
            [
              110.430252641,
              -0.79216868
            ],
            [
              110.431396134,
              -0.795127158
            ],
            [
              110.431766913,
              -0.796746595
            ],
            [
              110.431890129,
              -0.799361153
            ],
            [
              110.432137241,
              -0.801659086
            ],
            [
              110.432693336,
              -0.803595189
            ],
            [
              110.433380062,
              -0.805268953
            ],
            [
              110.435151861,
              -0.805866293
            ],
            [
              110.436639461,
              -0.806309796
            ],
            [
              110.438064987,
              -0.806807569
            ],
            [
              110.439198474,
              -0.806979617
            ],
            [
              110.439986537,
              -0.806997822
            ],
            [
              110.441660131,
              -0.806934725
            ],
            [
              110.443333716,
              -0.806934957
            ],
            [
              110.445565062,
              -0.806998591
            ],
            [
              110.448725866,
              -0.808238444
            ],
            [
              110.4512671,
              -0.809613917
            ],
            [
              110.45411823,
              -0.810111883
            ],
            [
              110.45585398,
              -0.809433603
            ],
            [
              110.457153868,
              -0.808601462
            ],
            [
              110.45740356,
              -0.808492935
            ],
            [
              110.45889135,
              -0.807561304
            ],
            [
              110.461556776,
              -0.806430798
            ],
            [
              110.463726069,
              -0.806431088
            ],
            [
              110.46570972,
              -0.806431351
            ],
            [
              110.467941084,
              -0.806431644
            ],
            [
              110.470606313,
              -0.806811962
            ],
            [
              110.472279861,
              -0.807183106
            ],
            [
              110.475316804,
              -0.808621961
            ],
            [
              110.478742355,
              -0.808631452
            ],
            [
              110.479014484,
              -0.808468666
            ],
            [
              110.47901452,
              -0.808468642
            ],
            [
              110.481887197,
              -0.807500992
            ],
            [
              110.483777655,
              -0.807157451
            ],
            [
              110.485007563,
              -0.806714307
            ],
            [
              110.485067105,
              -0.806705269
            ],
            [
              110.486939067,
              -0.806036033
            ],
            [
              110.488674446,
              -0.806099582
            ],
            [
              110.4914638,
              -0.806660844
            ],
            [
              110.494191098,
              -0.807158768
            ],
            [
              110.496050248,
              -0.807909897
            ],
            [
              110.497413955,
              -0.808841903
            ],
            [
              110.498839342,
              -0.81065147
            ],
            [
              110.50010974,
              -0.812117232
            ],
            [
              110.502217263,
              -0.812117495
            ],
            [
              110.504882621,
              -0.811620242
            ],
            [
              110.507300017,
              -0.810869641
            ],
            [
              110.510275453,
              -0.810245764
            ],
            [
              110.512568909,
              -0.810182715
            ],
            [
              110.51492405,
              -0.810997226
            ],
            [
              110.516938508,
              -0.811902165
            ],
            [
              110.519603767,
              -0.812273411
            ],
            [
              110.522021121,
              -0.811902773
            ],
            [
              110.523632741,
              -0.811215394
            ],
            [
              110.525120535,
              -0.810283731
            ],
            [
              110.52642238,
              -0.809532985
            ],
            [
              110.526873169,
              -0.809370192
            ],
            [
              110.52834379,
              -0.808782311
            ],
            [
              110.529645642,
              -0.807968232
            ],
            [
              110.531257305,
              -0.806909924
            ],
            [
              110.532559255,
              -0.805227333
            ],
            [
              110.533573476,
              -0.804729865
            ],
            [
              110.533799016,
              -0.804603233
            ],
            [
              110.534294836,
              -0.803608121
            ],
            [
              110.534109065,
              -0.802232956
            ],
            [
              110.533675267,
              -0.801174408
            ],
            [
              110.533923471,
              -0.799301709
            ],
            [
              110.53386158,
              -0.797736572
            ],
            [
              110.533211153,
              -0.79495907
            ],
            [
              110.532281977,
              -0.790969239
            ],
            [
              110.530918511,
              -0.787784545
            ],
            [
              110.530113164,
              -0.784038999
            ],
            [
              110.529586489,
              -0.782202401
            ],
            [
              110.528718948,
              -0.779578675
            ],
            [
              110.527951856,
              -0.777823474
            ]
          ]
        ]
      }
    }
  ]
}