{
  "type": "FeatureCollection",
  "features": [
    {
      "type": "Feature",
      "properties": {
        "idx": "819",
        "nama_kewilayahan": "Joka' Sungai Daka"
      },
      "geometry": {
        "type": "Polygon",
        "coordinates": [
          [
            [
              110.470987824,
              -0.968118308
            ],
            [
              110.470486266,
              -0.967702073
            ],
            [
              110.469842463,
              -0.968109081
            ],
            [
              110.468998181,
              -0.968154184
            ],
            [
              110.468314841,
              -0.968145029
            ],
            [
              110.46747114,
              -0.968063474
            ],
            [
              110.466546844,
              -0.967891435
            ],
            [
              110.465983963,
              -0.968099425
            ],
            [
              110.465902429,
              -0.968633181
            ],
            [
              110.466061861,
              -0.96925744
            ],
            [
              110.466338972,
              -0.969899814
            ],
            [
              110.466138865,
              -0.970741143
            ],
            [
              110.466057613,
              -0.971274896
            ],
            [
              110.465815437,
              -0.971727202
            ],
            [
              110.465533111,
              -0.97209808
            ],
            [
              110.465414583,
              -0.972116155
            ],
            [
              110.464849749,
              -0.972224629
            ],
            [
              110.464448447,
              -0.971889827
            ],
            [
              110.464289016,
              -0.971265568
            ],
            [
              110.464089111,
              -0.97081319
            ],
            [
              110.463245125,
              -0.970767823
            ],
            [
              110.462521619,
              -0.970767705
            ],
            [
              110.462010174,
              -0.970731436
            ],
            [
              110.46171841,
              -0.970387609
            ],
            [
              110.461397415,
              -0.970188527
            ],
            [
              110.461318003,
              -0.969727122
            ],
            [
              110.461278761,
              -0.969238585
            ],
            [
              110.461239806,
              -0.968695765
            ],
            [
              110.46099976,
              -0.968116726
            ],
            [
              110.460559503,
              -0.967248155
            ],
            [
              110.460198652,
              -0.966877173
            ],
            [
              110.459797345,
              -0.966587611
            ],
            [
              110.459354981,
              -0.966623727
            ],
            [
              110.458992915,
              -0.966831745
            ],
            [
              110.458951837,
              -0.967284084
            ],
            [
              110.458950329,
              -0.967944506
            ],
            [
              110.459110055,
              -0.968478298
            ],
            [
              110.459309643,
              -0.9691478
            ],
            [
              110.459228115,
              -0.969636317
            ],
            [
              110.459065658,
              -0.970378135
            ],
            [
              110.45870207,
              -0.971327998
            ],
            [
              110.4585399,
              -0.972033631
            ],
            [
              110.458256351,
              -0.973019695
            ],
            [
              110.458014475,
              -0.973345343
            ],
            [
              110.457780106,
              -0.974150478
            ],
            [
              110.457208212,
              -0.974503213
            ],
            [
              110.456845526,
              -0.975073108
            ],
            [
              110.456120231,
              -0.975733411
            ],
            [
              110.455555842,
              -0.976556586
            ],
            [
              110.45523273,
              -0.977298378
            ],
            [
              110.454708198,
              -0.978293448
            ],
            [
              110.454183972,
              -0.979116629
            ],
            [
              110.453217073,
              -0.980138767
            ],
            [
              110.452290644,
              -0.981007114
            ],
            [
              110.451766726,
              -0.981667448
            ],
            [
              110.451443906,
              -0.982318769
            ],
            [
              110.45144238,
              -0.983069659
            ],
            [
              110.451518766,
              -0.984842858
            ],
            [
              110.451476468,
              -0.985874196
            ],
            [
              110.451594829,
              -0.98686937
            ],
            [
              110.451592395,
              -0.988018321
            ],
            [
              110.451630717,
              -0.988968251
            ],
            [
              110.451428084,
              -0.989755293
            ],
            [
              110.45134656,
              -0.990207624
            ],
            [
              110.451587528,
              -0.990289084
            ],
            [
              110.451950185,
              -0.989918222
            ],
            [
              110.452714458,
              -0.989674086
            ],
            [
              110.453035439,
              -0.989963638
            ],
            [
              110.453396286,
              -0.990343666
            ],
            [
              110.453395671,
              -0.990669356
            ],
            [
              110.453394166,
              -0.991293588
            ],
            [
              110.453312306,
              -0.992071606
            ],
            [
              110.452908876,
              -0.99273196
            ],
            [
              110.452344482,
              -0.993555133
            ],
            [
              110.451700907,
              -0.994242586
            ],
            [
              110.45137757,
              -0.9946225
            ],
            [
              110.450974741,
              -0.995038589
            ],
            [
              110.450350262,
              -0.995735095
            ],
            [
              110.45010778,
              -0.996314052
            ],
            [
              110.450105965,
              -0.997101129
            ],
            [
              110.450104738,
              -0.997716315
            ],
            [
              110.449741155,
              -0.998584754
            ],
            [
              110.449618547,
              -0.999489419
            ],
            [
              110.449777654,
              -1.000357946
            ],
            [
              110.449817657,
              -1.001316921
            ],
            [
              110.449652912,
              -1.002257767
            ],
            [
              110.449651701,
              -1.002791533
            ],
            [
              110.449570448,
              -1.003289095
            ],
            [
              110.449527863,
              -1.004320431
            ],
            [
              110.44960665,
              -1.005143709
            ],
            [
              110.450046292,
              -1.006301783
            ],
            [
              110.450325894,
              -1.007134142
            ],
            [
              110.450324667,
              -1.007749328
            ],
            [
              110.450162217,
              -1.008409722
            ],
            [
              110.44988046,
              -1.008699173
            ],
            [
              110.449317604,
              -1.008699078
            ],
            [
              110.448915987,
              -1.008572355
            ],
            [
              110.448514671,
              -1.008318972
            ],
            [
              110.448113664,
              -1.007911796
            ],
            [
              110.447632049,
              -1.007495558
            ],
            [
              110.447311067,
              -1.007206003
            ],
            [
              110.447069791,
              -1.007287384
            ],
            [
              110.446828507,
              -1.007404951
            ],
            [
              110.446425381,
              -1.00790246
            ],
            [
              110.446102869,
              -1.008354748
            ],
            [
              110.44553909,
              -1.008843182
            ],
            [
              110.445135949,
              -1.00942211
            ],
            [
              110.444612625,
              -1.009838177
            ],
            [
              110.444089016,
              -1.010281384
            ],
            [
              110.443686486,
              -1.010570812
            ],
            [
              110.441727188,
              -1.012081301
            ],
            [
              110.442337617,
              -1.013103699
            ],
            [
              110.442903778,
              -1.013483765
            ],
            [
              110.443395494,
              -1.013945241
            ],
            [
              110.443903206,
              -1.014506233
            ],
            [
              110.444213722,
              -1.01522099
            ],
            [
              110.444519206,
              -1.01580004
            ],
            [
              110.444749142,
              -1.016342892
            ],
            [
              110.445054625,
              -1.01693099
            ],
            [
              110.445285939,
              -1.017627639
            ],
            [
              110.445592526,
              -1.018324299
            ],
            [
              110.44582302,
              -1.01890334
            ],
            [
              110.446148974,
              -1.019681425
            ],
            [
              110.446415442,
              -1.020106673
            ],
            [
              110.446719544,
              -1.020568115
            ],
            [
              110.447359874,
              -1.020839633
            ],
            [
              110.447774949,
              -1.021102064
            ],
            [
              110.44830155,
              -1.021255951
            ],
            [
              110.44909498,
              -1.02136465
            ],
            [
              110.449672126,
              -1.021581874
            ],
            [
              110.450073457,
              -1.021744787
            ],
            [
              110.450595252,
              -1.022079609
            ],
            [
              110.450795741,
              -1.022369145
            ],
            [
              110.45099593,
              -1.022785335
            ],
            [
              110.451115194,
              -1.023400543
            ],
            [
              110.451554541,
              -1.024640041
            ],
            [
              110.451754131,
              -1.025264308
            ],
            [
              110.452034036,
              -1.025970012
            ],
            [
              110.452434132,
              -1.026793346
            ],
            [
              110.453035624,
              -1.02754434
            ],
            [
              110.453415793,
              -1.02828625
            ],
            [
              110.453615068,
              -1.029109549
            ],
            [
              110.453693879,
              -1.029769984
            ],
            [
              110.453974087,
              -1.030349031
            ],
            [
              110.454295084,
              -1.030557165
            ],
            [
              110.454576212,
              -1.03068387
            ],
            [
              110.454857333,
              -1.030846762
            ],
            [
              110.455258658,
              -1.031054908
            ],
            [
              110.45570043,
              -1.031263062
            ],
            [
              110.456061576,
              -1.031561671
            ],
            [
              110.456583071,
              -1.032014107
            ],
            [
              110.457023973,
              -1.032376055
            ],
            [
              110.457119964,
              -1.032765089
            ],
            [
              110.456982821,
              -1.033235502
            ],
            [
              110.45679906,
              -1.033660673
            ],
            [
              110.456691674,
              -1.034212513
            ],
            [
              110.456421,
              -1.035379514
            ],
            [
              110.456424029,
              -1.035732343
            ],
            [
              110.456230043,
              -1.036826982
            ],
            [
              110.456142252,
              -1.037758795
            ],
            [
              110.455707185,
              -1.039405249
            ],
            [
              110.455417136,
              -1.040536059
            ],
            [
              110.455122402,
              -1.041124055
            ],
            [
              110.454755434,
              -1.042019631
            ],
            [
              110.453888668,
              -1.04366601
            ],
            [
              110.453333803,
              -1.044525366
            ],
            [
              110.452744608,
              -1.045746589
            ],
            [
              110.452301815,
              -1.046569777
            ],
            [
              110.451711519,
              -1.047664345
            ],
            [
              110.451048435,
              -1.048994116
            ],
            [
              110.450035538,
              -1.051065668
            ],
            [
              110.449815794,
              -1.051653676
            ],
            [
              110.449933932,
              -1.052277931
            ],
            [
              110.449714743,
              -1.052902124
            ],
            [
              110.449571644,
              -1.05368013
            ],
            [
              110.449501338,
              -1.054186741
            ],
            [
              110.449281868,
              -1.054819985
            ],
            [
              110.44921211,
              -1.05539897
            ],
            [
              110.44910527,
              -1.056023184
            ],
            [
              110.449073421,
              -1.056647412
            ],
            [
              110.449006142,
              -1.057506853
            ],
            [
              110.448700854,
              -1.058990483
            ],
            [
              110.448594287,
              -1.059650883
            ],
            [
              110.448450639,
              -1.060356515
            ],
            [
              110.448270729,
              -1.061215934
            ],
            [
              110.448054841,
              -1.062229143
            ],
            [
              110.447873281,
              -1.062889531
            ],
            [
              110.447730732,
              -1.06371277
            ],
            [
              110.44740001,
              -1.06449074
            ],
            [
              110.447070943,
              -1.065431553
            ],
            [
              110.446852299,
              -1.066137171
            ],
            [
              110.446558109,
              -1.066797537
            ],
            [
              110.446376,
              -1.067385549
            ],
            [
              110.445857105,
              -1.068091111
            ],
            [
              110.445300024,
              -1.068724289
            ],
            [
              110.444891832,
              -1.069194651
            ],
            [
              110.444523197,
              -1.069936427
            ],
            [
              110.444304552,
              -1.070642041
            ],
            [
              110.444197434,
              -1.071230067
            ],
            [
              110.444305966,
              -1.072143818
            ],
            [
              110.443610982,
              -1.072749831
            ],
            [
              110.442865727,
              -1.073310599
            ],
            [
              110.442493791,
              -1.073663358
            ],
            [
              110.441973516,
              -1.074215121
            ],
            [
              110.441677948,
              -1.07472169
            ],
            [
              110.441532644,
              -1.075228287
            ],
            [
              110.441649951,
              -1.075771118
            ],
            [
              110.441877687,
              -1.076042566
            ],
            [
              110.442405115,
              -1.07631407
            ],
            [
              110.442819375,
              -1.076458896
            ],
            [
              110.443571509,
              -1.076685206
            ],
            [
              110.444359081,
              -1.076640115
            ],
            [
              110.444884587,
              -1.076676399
            ],
            [
              110.445558701,
              -1.076549867
            ],
            [
              110.446495431,
              -1.076423381
            ],
            [
              110.447617581,
              -1.076061711
            ],
            [
              110.448141711,
              -1.075935152
            ],
            [
              110.449078167,
              -1.075772477
            ],
            [
              110.449601194,
              -1.075528308
            ],
            [
              110.45076291,
              -1.075365674
            ],
            [
              110.452109208,
              -1.074922623
            ],
            [
              110.453904375,
              -1.074280618
            ],
            [
              110.454877088,
              -1.073991294
            ],
            [
              110.455552031,
              -1.073946179
            ],
            [
              110.456489864,
              -1.0739373
            ],
            [
              110.456976083,
              -1.073774543
            ],
            [
              110.457763101,
              -1.073693263
            ],
            [
              110.458660545,
              -1.073367735
            ],
            [
              110.459372571,
              -1.07328644
            ],
            [
              110.460009605,
              -1.073196083
            ],
            [
              110.460723008,
              -1.073268587
            ],
            [
              110.461285878,
              -1.07325964
            ],
            [
              110.461883621,
              -1.072988339
            ],
            [
              110.462407751,
              -1.072861776
            ],
            [
              110.463811881,
              -1.072572525
            ],
            [
              110.464710428,
              -1.07237365
            ],
            [
              110.465761996,
              -1.072473351
            ],
            [
              110.466962997,
              -1.07253689
            ],
            [
              110.467976927,
              -1.072645629
            ],
            [
              110.468992237,
              -1.072908169
            ],
            [
              110.470269333,
              -1.073089328
            ],
            [
              110.47105939,
              -1.073315639
            ],
            [
              110.47207718,
              -1.073849581
            ],
            [
              110.472754882,
              -1.074112059
            ],
            [
              110.473358138,
              -1.074455947
            ],
            [
              110.474356015,
              -1.074836089
            ],
            [
              110.47532983,
              -1.074673413
            ],
            [
              110.47634266,
              -1.07466454
            ],
            [
              110.477279667,
              -1.074574234
            ],
            [
              110.478404856,
              -1.074520146
            ],
            [
              110.481481995,
              -1.073489325
            ],
            [
              110.48216338,
              -1.073570863
            ],
            [
              110.483221704,
              -1.073607232
            ],
            [
              110.484786444,
              -1.073643685
            ],
            [
              110.485383061,
              -1.073399519
            ],
            [
              110.486484983,
              -1.073064968
            ],
            [
              110.487173999,
              -1.072866054
            ],
            [
              110.487908804,
              -1.072621912
            ],
            [
              110.488275384,
              -1.072377707
            ],
            [
              110.489009636,
              -1.072088329
            ],
            [
              110.489560189,
              -1.071844153
            ],
            [
              110.490246465,
              -1.071220032
            ],
            [
              110.490658016,
              -1.070794895
            ],
            [
              110.491435873,
              -1.07007127
            ],
            [
              110.492487909,
              -1.069067237
            ],
            [
              110.493217783,
              -1.06806315
            ],
            [
              110.494224028,
              -1.067095296
            ],
            [
              110.495277156,
              -1.066281247
            ],
            [
              110.496424328,
              -1.065747667
            ],
            [
              110.497617828,
              -1.065313609
            ],
            [
              110.498627085,
              -1.064825241
            ],
            [
              110.499223153,
              -1.064490601
            ],
            [
              110.500047881,
              -1.063966013
            ],
            [
              110.501011346,
              -1.063522871
            ],
            [
              110.502022248,
              -1.063278767
            ],
            [
              110.502987081,
              -1.063079891
            ],
            [
              110.503767939,
              -1.062890033
            ],
            [
              110.504593493,
              -1.062455913
            ],
            [
              110.504959252,
              -1.062066953
            ],
            [
              110.505552306,
              -1.061252823
            ],
            [
              110.50596002,
              -1.060203444
            ],
            [
              110.506277518,
              -1.059488787
            ],
            [
              110.506822868,
              -1.058385147
            ],
            [
              110.507278557,
              -1.05767051
            ],
            [
              110.507687089,
              -1.056765881
            ],
            [
              110.508485229,
              -1.055617046
            ],
            [
              110.509261705,
              -1.054703428
            ],
            [
              110.510129213,
              -1.053599836
            ],
            [
              110.510444796,
              -1.052550442
            ],
            [
              110.510579697,
              -1.052025737
            ],
            [
              110.510619183,
              -1.050976298
            ],
            [
              110.510570112,
              -1.050451567
            ],
            [
              110.510519938,
              -1.049791133
            ],
            [
              110.510330482,
              -1.048931641
            ],
            [
              110.510142402,
              -1.048262139
            ],
            [
              110.510000111,
              -1.047547406
            ],
            [
              110.509764317,
              -1.046651723
            ],
            [
              110.509458892,
              -1.045602226
            ],
            [
              110.5092667,
              -1.044272297
            ],
            [
              110.5094929,
              -1.043648092
            ],
            [
              110.509995468,
              -1.043069166
            ],
            [
              110.510471997,
              -1.041974559
            ],
            [
              110.510720397,
              -1.041259889
            ],
            [
              110.510529026,
              -1.040065662
            ],
            [
              110.51043225,
              -1.039260468
            ],
            [
              110.510472554,
              -1.038355779
            ],
            [
              110.510838308,
              -1.037966817
            ],
            [
              110.511433547,
              -1.037487421
            ],
            [
              110.511800123,
              -1.03724321
            ],
            [
              110.512212212,
              -1.036908537
            ],
            [
              110.512486386,
              -1.036619075
            ],
            [
              110.512915474,
              -1.035334475
            ],
            [
              110.513049551,
              -1.034665022
            ],
            [
              110.51355458,
              -1.034520348
            ],
            [
              110.514518582,
              -1.034176713
            ],
            [
              110.515252283,
              -1.033742572
            ],
            [
              110.515890286,
              -1.032783691
            ],
            [
              110.516254397,
              -1.032114272
            ],
            [
              110.516665656,
              -1.031689128
            ],
            [
              110.517073631,
              -1.030684978
            ],
            [
              110.517115309,
              -1.029970274
            ],
            [
              110.517109827,
              -1.029065578
            ],
            [
              110.517010262,
              -1.028106583
            ],
            [
              110.517606356,
              -1.027536717
            ],
            [
              110.518064779,
              -1.027247282
            ],
            [
              110.518706627,
              -1.026858361
            ],
            [
              110.518979705,
              -1.026378914
            ],
            [
              110.519365196,
              -1.025474277
            ],
            [
              110.519217958,
              -1.023999598
            ],
            [
              110.519030422,
              -1.02342961
            ],
            [
              110.518657819,
              -1.02266961
            ],
            [
              110.518606548,
              -1.021810141
            ],
            [
              110.519063322,
              -1.021285486
            ],
            [
              110.519520368,
              -1.020806063
            ],
            [
              110.520343989,
              -1.020082432
            ],
            [
              110.52089316,
              -1.019603025
            ],
            [
              110.521258362,
              -1.019123591
            ],
            [
              110.52120956,
              -1.018644093
            ],
            [
              110.520929899,
              -1.018074093
            ],
            [
              110.520605823,
              -1.017748353
            ],
            [
              110.52028202,
              -1.017467847
            ],
            [
              110.519635239,
              -1.017042543
            ],
            [
              110.518830864,
              -1.016798156
            ],
            [
              110.5186357,
              -1.016535765
            ],
            [
              110.51842181,
              -1.015631038
            ],
            [
              110.518208508,
              -1.014554414
            ],
            [
              110.517908138,
              -1.013468735
            ],
            [
              110.517300177,
              -1.012654416
            ],
            [
              110.516515778,
              -1.012192905
            ],
            [
              110.515906371,
              -1.011649994
            ],
            [
              110.515020048,
              -1.010971342
            ],
            [
              110.514326386,
              -1.010410325
            ],
            [
              110.51349674,
              -1.010129744
            ],
            [
              110.512760034,
              -1.010039164
            ],
            [
              110.512114626,
              -1.00984908
            ],
            [
              110.511377646,
              -1.009713265
            ],
            [
              110.510825464,
              -1.009667945
            ],
            [
              110.510456697,
              -1.00957742
            ],
            [
              110.509628319,
              -1.008337863
            ],
            [
              110.509587097,
              -1.007894556
            ],
            [
              110.510020932,
              -1.006736611
            ],
            [
              110.511284251,
              -1.005035975
            ],
            [
              110.51176915,
              -1.004230868
            ],
            [
              110.512168436,
              -1.003063873
            ],
            [
              110.512437139,
              -1.001770198
            ],
            [
              110.512529991,
              -1.000648388
            ],
            [
              110.512708446,
              -0.999933705
            ],
            [
              110.513323641,
              -0.999309557
            ],
            [
              110.513698972,
              -0.998685372
            ],
            [
              110.514381078,
              -0.997608886
            ],
            [
              110.515021939,
              -0.996224797
            ],
            [
              110.51511507,
              -0.995102986
            ],
            [
              110.514537473,
              -0.994372659
            ],
            [
              110.514520862,
              -0.994370095
            ],
            [
              110.513767404,
              -0.99361004
            ],
            [
              110.512850108,
              -0.993501338
            ],
            [
              110.511671929,
              -0.993085005
            ],
            [
              110.511147269,
              -0.993084926
            ],
            [
              110.510142629,
              -0.992930979
            ],
            [
              110.508525972,
              -0.992822174
            ],
            [
              110.507608098,
              -0.992812989
            ],
            [
              110.506952268,
              -0.992849078
            ],
            [
              110.506468529,
              -0.99342801
            ],
            [
              110.506072714,
              -0.993916486
            ],
            [
              110.506028324,
              -0.99400695
            ],
            [
              110.505670445,
              -0.994368773
            ],
            [
              110.505064026,
              -0.994540573
            ],
            [
              110.504406456,
              -0.994938541
            ],
            [
              110.503286347,
              -0.995010747
            ],
            [
              110.502652157,
              -0.994956369
            ],
            [
              110.502089051,
              -0.994739156
            ],
            [
              110.501476279,
              -0.994205293
            ],
            [
              110.501017141,
              -0.993671454
            ],
            [
              110.500660512,
              -0.993191912
            ],
            [
              110.499844159,
              -0.992341376
            ],
            [
              110.499640325,
              -0.991843763
            ],
            [
              110.499079503,
              -0.991382283
            ],
            [
              110.498517265,
              -0.991002227
            ],
            [
              110.497698024,
              -0.990676411
            ],
            [
              110.496618999,
              -0.990251041
            ],
            [
              110.496009288,
              -0.989925259
            ],
            [
              110.495087244,
              -0.989644662
            ],
            [
              110.494165202,
              -0.989373113
            ],
            [
              110.492987306,
              -0.988992961
            ],
            [
              110.492118684,
              -0.988350497
            ],
            [
              110.491351712,
              -0.987861843
            ],
            [
              110.490481654,
              -0.987427455
            ],
            [
              110.489458252,
              -0.986947811
            ],
            [
              110.488429252,
              -0.986341508
            ],
            [
              110.487187873,
              -0.986024674
            ],
            [
              110.4862243,
              -0.985517897
            ],
            [
              110.485260718,
              -0.985065401
            ],
            [
              110.483975561,
              -0.984522386
            ],
            [
              110.483172636,
              -0.984060867
            ],
            [
              110.481927931,
              -0.983481671
            ],
            [
              110.481165465,
              -0.982938738
            ],
            [
              110.480202193,
              -0.98231435
            ],
            [
              110.479399569,
              -0.981735221
            ],
            [
              110.478556491,
              -0.981237508
            ],
            [
              110.478057484,
              -0.980649382
            ],
            [
              110.47855801,
              -0.980495662
            ],
            [
              110.478799572,
              -0.980369044
            ],
            [
              110.479000998,
              -0.980079574
            ],
            [
              110.479202702,
              -0.979799152
            ],
            [
              110.479444571,
              -0.979509688
            ],
            [
              110.479767075,
              -0.979057393
            ],
            [
              110.479969699,
              -0.978270343
            ],
            [
              110.479890284,
              -0.977817985
            ],
            [
              110.479610076,
              -0.977193704
            ],
            [
              110.479329844,
              -0.976741316
            ],
            [
              110.479049337,
              -0.976243692
            ],
            [
              110.478769109,
              -0.975746068
            ],
            [
              110.478568903,
              -0.975420347
            ],
            [
              110.478328848,
              -0.974877496
            ],
            [
              110.478008171,
              -0.9744251
            ],
            [
              110.477687781,
              -0.97392747
            ],
            [
              110.477367411,
              -0.973303184
            ],
            [
              110.477127041,
              -0.972977457
            ],
            [
              110.476766794,
              -0.97230793
            ],
            [
              110.476325639,
              -0.971774094
            ],
            [
              110.475804146,
              -0.971312619
            ],
            [
              110.47462687,
              -0.970615823
            ],
            [
              110.474078408,
              -0.970199581
            ],
            [
              110.473636654,
              -0.969900963
            ],
            [
              110.472874186,
              -0.969403265
            ],
            [
              110.472111738,
              -0.968778909
            ],
            [
              110.471589938,
              -0.968489325
            ],
            [
              110.470987824,
              -0.968118308
            ]
          ]
        ]
      }
    }
  ]
}