{
  "type": "FeatureCollection",
  "features": [
    {
      "type": "Feature",
      "properties": {
        "idx": "821",
        "nama_kewilayahan": "Kendawangan Rangkong"
      },
      "geometry": {
        "type": "Polygon",
        "coordinates": [
          [
            [
              110.587876395,
              -2.12026336
            ],
            [
              110.587427641,
              -2.120136581
            ],
            [
              110.586309243,
              -2.119910107
            ],
            [
              110.584807346,
              -2.119339745
            ],
            [
              110.58452074,
              -2.119213009
            ],
            [
              110.58330547,
              -2.118687959
            ],
            [
              110.582216682,
              -2.118090564
            ],
            [
              110.58058757,
              -2.117212568
            ],
            [
              110.580280168,
              -2.117085827
            ],
            [
              110.578833924,
              -2.11649738
            ],
            [
              110.577519444,
              -2.116035629
            ],
            [
              110.57645732,
              -2.115564896
            ],
            [
              110.575257798,
              -2.115030797
            ],
            [
              110.574045388,
              -2.11436099
            ],
            [
              110.573835797,
              -2.114179991
            ],
            [
              110.573546967,
              -2.113971833
            ],
            [
              110.572808823,
              -2.114668243
            ],
            [
              110.572638764,
              -2.114831041
            ],
            [
              110.572115538,
              -2.115744635
            ],
            [
              110.570954133,
              -2.117635124
            ],
            [
              110.570813579,
              -2.117797928
            ],
            [
              110.569998932,
              -2.118720489
            ],
            [
              110.568932405,
              -2.11995962
            ],
            [
              110.568299307,
              -2.120836995
            ],
            [
              110.56708519,
              -2.122257023
            ],
            [
              110.565695052,
              -2.124038875
            ],
            [
              110.564128002,
              -2.125350237
            ],
            [
              110.562898284,
              -2.126263626
            ],
            [
              110.561904162,
              -2.12680616
            ],
            [
              110.559855996,
              -2.127140309
            ],
            [
              110.557289335,
              -2.127510494
            ],
            [
              110.55620928,
              -2.127844918
            ],
            [
              110.554367477,
              -2.127844383
            ],
            [
              110.553755578,
              -2.128260364
            ],
            [
              110.552449291,
              -2.128630906
            ],
            [
              110.550861783,
              -2.128720911
            ],
            [
              110.549801341,
              -2.129254368
            ],
            [
              110.549537688,
              -2.130412296
            ],
            [
              110.549206297,
              -2.130647417
            ],
            [
              110.548853288,
              -2.130810156
            ],
            [
              110.548120851,
              -2.131153724
            ],
            [
              110.547650906,
              -2.131424992
            ],
            [
              110.547044083,
              -2.131768595
            ],
            [
              110.547003089,
              -2.132609945
            ],
            [
              110.54757579,
              -2.133632415
            ],
            [
              110.548212841,
              -2.134672996
            ],
            [
              110.548839426,
              -2.135948796
            ],
            [
              110.549344161,
              -2.136844588
            ],
            [
              110.549673188,
              -2.137975549
            ],
            [
              110.54955138,
              -2.139368736
            ],
            [
              110.549569128,
              -2.140182963
            ],
            [
              110.549224423,
              -2.14077091
            ],
            [
              110.548974478,
              -2.141168899
            ],
            [
              110.548474748,
              -2.141422066
            ],
            [
              110.547642658,
              -2.141367536
            ],
            [
              110.54678419,
              -2.141177297
            ],
            [
              110.546130871,
              -2.140987119
            ],
            [
              110.545428094,
              -2.140787876
            ],
            [
              110.543952853,
              -2.140371278
            ],
            [
              110.542000449,
              -2.13991835
            ],
            [
              110.541452783,
              -2.139764386
            ],
            [
              110.540795248,
              -2.139583251
            ],
            [
              110.539696596,
              -2.139103435
            ],
            [
              110.538550616,
              -2.139021665
            ],
            [
              110.538451292,
              -2.139437794
            ],
            [
              110.538041783,
              -2.140577576
            ],
            [
              110.537968032,
              -2.140993711
            ],
            [
              110.537743956,
              -2.142269257
            ],
            [
              110.53741351,
              -2.144024252
            ],
            [
              110.537217162,
              -2.145607397
            ],
            [
              110.536798388,
              -2.147642821
            ],
            [
              110.536005126,
              -2.149289114
            ],
            [
              110.535974401,
              -2.149596698
            ],
            [
              110.53587856,
              -2.150564686
            ],
            [
              110.535840506,
              -2.150953691
            ],
            [
              110.535654602,
              -2.152364947
            ],
            [
              110.535558553,
              -2.153097717
            ],
            [
              110.535196941,
              -2.154735091
            ],
            [
              110.534926054,
              -2.156517245
            ],
            [
              110.534759845,
              -2.156924304
            ],
            [
              110.534163907,
              -2.158398761
            ],
            [
              110.533638563,
              -2.15967421
            ],
            [
              110.53265009,
              -2.160949517
            ],
            [
              110.531414951,
              -2.161980479
            ],
            [
              110.530252544,
              -2.163174303
            ],
            [
              110.528681816,
              -2.164340863
            ],
            [
              110.527526907,
              -2.165815141
            ],
            [
              110.526376783,
              -2.167253234
            ],
            [
              110.525246992,
              -2.168374691
            ],
            [
              110.523573581,
              -2.168953161
            ],
            [
              110.522455467,
              -2.169567993
            ],
            [
              110.521940868,
              -2.170590127
            ],
            [
              110.521570568,
              -2.172082742
            ],
            [
              110.521333178,
              -2.173620633
            ],
            [
              110.521463112,
              -2.174199673
            ],
            [
              110.521516611,
              -2.174760598
            ],
            [
              110.521525958,
              -2.17542102
            ],
            [
              110.521562893,
              -2.175927657
            ],
            [
              110.521847889,
              -2.176714825
            ],
            [
              110.522084473,
              -2.177737196
            ],
            [
              110.522447721,
              -2.179012921
            ],
            [
              110.522873116,
              -2.180162009
            ],
            [
              110.523099749,
              -2.181555299
            ],
            [
              110.523594894,
              -2.182532518
            ],
            [
              110.524152307,
              -2.184785366
            ],
            [
              110.52443851,
              -2.186205814
            ],
            [
              110.524621372,
              -2.187381967
            ],
            [
              110.524701317,
              -2.187852429
            ],
            [
              110.524822784,
              -2.188549076
            ],
            [
              110.525030897,
              -2.189851892
            ],
            [
              110.525418158,
              -2.190738609
            ],
            [
              110.525544598,
              -2.191706663
            ],
            [
              110.525579395,
              -2.192765158
            ],
            [
              110.525627954,
              -2.193841752
            ],
            [
              110.525850144,
              -2.195072196
            ],
            [
              110.525981069,
              -2.196076441
            ],
            [
              110.526322515,
              -2.196990285
            ],
            [
              110.526659169,
              -2.197949359
            ],
            [
              110.527100557,
              -2.199197968
            ],
            [
              110.52737309,
              -2.20031082
            ],
            [
              110.527682192,
              -2.201306074
            ],
            [
              110.527913396,
              -2.202473194
            ],
            [
              110.528135623,
              -2.203586029
            ],
            [
              110.528303049,
              -2.204698849
            ],
            [
              110.528251004,
              -2.205766364
            ],
            [
              110.528207898,
              -2.206996722
            ],
            [
              110.528055538,
              -2.208018971
            ],
            [
              110.527902852,
              -2.209176921
            ],
            [
              110.527983439,
              -2.210289712
            ],
            [
              110.527866927,
              -2.21169194
            ],
            [
              110.527650128,
              -2.212967479
            ],
            [
              110.527552573,
              -2.213971649
            ],
            [
              110.527386128,
              -2.215084363
            ],
            [
              110.527256485,
              -2.216242321
            ],
            [
              110.527135877,
              -2.217264577
            ],
            [
              110.527038321,
              -2.218268749
            ],
            [
              110.526986267,
              -2.21934531
            ],
            [
              110.526860773,
              -2.220711344
            ],
            [
              110.526694639,
              -2.221724542
            ],
            [
              110.526592265,
              -2.22284632
            ],
            [
              110.526476775,
              -2.223678595
            ],
            [
              110.526374718,
              -2.224691811
            ],
            [
              110.526364357,
              -2.225451745
            ],
            [
              110.526225818,
              -2.226293058
            ],
            [
              110.52609988,
              -2.227279125
            ],
            [
              110.526183855,
              -2.227451044
            ],
            [
              110.526319487,
              -2.227794868
            ],
            [
              110.526501428,
              -2.228328691
            ],
            [
              110.52659579,
              -2.229414347
            ],
            [
              110.526567568,
              -2.229785259
            ],
            [
              110.526553404,
              -2.230138081
            ],
            [
              110.526278413,
              -2.230563196
            ],
            [
              110.526117454,
              -2.231205472
            ],
            [
              110.5261991,
              -2.2316307
            ],
            [
              110.52707885,
              -2.233069438
            ],
            [
              110.527644643,
              -2.233757182
            ],
            [
              110.527722156,
              -2.233920051
            ],
            [
              110.527821731,
              -2.234526223
            ],
            [
              110.527976431,
              -2.235005758
            ],
            [
              110.528372725,
              -2.235792962
            ],
            [
              110.528440577,
              -2.236290562
            ],
            [
              110.528773095,
              -2.237023467
            ],
            [
              110.528996734,
              -2.237231615
            ],
            [
              110.529328879,
              -2.238254018
            ],
            [
              110.529588053,
              -2.238959759
            ],
            [
              110.529641752,
              -2.239773995
            ],
            [
              110.529476323,
              -2.240334846
            ],
            [
              110.530313047,
              -2.240117992
            ],
            [
              110.53101708,
              -2.240027749
            ],
            [
              110.532046032,
              -2.239820002
            ],
            [
              110.533111219,
              -2.239675593
            ],
            [
              110.533696383,
              -2.239549125
            ],
            [
              110.535062736,
              -2.239748592
            ],
            [
              110.535962832,
              -2.239984099
            ],
            [
              110.536899122,
              -2.240418647
            ],
            [
              110.537420124,
              -2.240563562
            ],
            [
              110.53777168,
              -2.240645095
            ],
            [
              110.538210321,
              -2.240844266
            ],
            [
              110.538859201,
              -2.240980175
            ],
            [
              110.53979618,
              -2.241007611
            ],
            [
              110.540472976,
              -2.240844982
            ],
            [
              110.541076437,
              -2.240628047
            ],
            [
              110.541996157,
              -2.24012171
            ],
            [
              110.542623008,
              -2.239696704
            ],
            [
              110.543610694,
              -2.239344185
            ],
            [
              110.544607635,
              -2.23904595
            ],
            [
              110.545746173,
              -2.238901555
            ],
            [
              110.546729039,
              -2.238675687
            ],
            [
              110.549220155,
              -2.238757881
            ],
            [
              110.550294274,
              -2.238812496
            ],
            [
              110.551322614,
              -2.238767577
            ],
            [
              110.551971836,
              -2.238704448
            ],
            [
              110.55234676,
              -2.238650281
            ],
            [
              110.552913332,
              -2.23866855
            ],
            [
              110.553827199,
              -2.238922144
            ],
            [
              110.555020529,
              -2.238813945
            ],
            [
              110.556286638,
              -2.238741956
            ],
            [
              110.557777033,
              -2.238615753
            ],
            [
              110.558956307,
              -2.238525641
            ],
            [
              110.559916362,
              -2.238453556
            ],
            [
              110.560867142,
              -2.238390514
            ],
            [
              110.561580151,
              -2.23835454
            ],
            [
              110.562517143,
              -2.238345774
            ],
            [
              110.563168,
              -2.23846358
            ],
            [
              110.563626387,
              -2.238427529
            ],
            [
              110.56387313,
              -2.238463791
            ],
            [
              110.564320343,
              -2.238201564
            ],
            [
              110.564222908,
              -2.237912033
            ],
            [
              110.564164673,
              -2.237161124
            ],
            [
              110.564216358,
              -2.236301682
            ],
            [
              110.564442457,
              -2.234863289
            ],
            [
              110.56442107,
              -2.234003828
            ],
            [
              110.564258122,
              -2.232863866
            ],
            [
              110.56398933,
              -2.232311923
            ],
            [
              110.563821877,
              -2.231199105
            ],
            [
              110.563809141,
              -2.230547725
            ],
            [
              110.563896993,
              -2.229977793
            ],
            [
              110.564062404,
              -2.229435028
            ],
            [
              110.564305018,
              -2.229172742
            ],
            [
              110.564324335,
              -2.228467086
            ],
            [
              110.564198205,
              -2.227318089
            ],
            [
              110.564287484,
              -2.225716812
            ],
            [
              110.564211307,
              -2.2248121
            ],
            [
              110.564058328,
              -2.223219799
            ],
            [
              110.564045554,
              -2.222695072
            ],
            [
              110.564026293,
              -2.222251769
            ],
            [
              110.564043216,
              -2.222043694
            ],
            [
              110.564102014,
              -2.221835633
            ],
            [
              110.564327995,
              -2.221745229
            ],
            [
              110.564528957,
              -2.221672915
            ],
            [
              110.564964325,
              -2.22153734
            ],
            [
              110.565674543,
              -2.221410894
            ],
            [
              110.566515686,
              -2.221420188
            ],
            [
              110.567205911,
              -2.221429438
            ],
            [
              110.568138111,
              -2.221438761
            ],
            [
              110.568650161,
              -2.221438911
            ],
            [
              110.569157405,
              -2.221538576
            ],
            [
              110.569490984,
              -2.221583908
            ],
            [
              110.569737726,
              -2.221611121
            ],
            [
              110.569889004,
              -2.221339757
            ],
            [
              110.569839355,
              -2.221014053
            ],
            [
              110.569830741,
              -2.220670269
            ],
            [
              110.570010463,
              -2.220190834
            ],
            [
              110.570056413,
              -2.219702314
            ],
            [
              110.570065177,
              -2.219521377
            ],
            [
              110.570096443,
              -2.219277119
            ],
            [
              110.57014123,
              -2.218924303
            ],
            [
              110.570154471,
              -2.218815744
            ],
            [
              110.570130946,
              -2.218526235
            ],
            [
              110.570075144,
              -2.218101014
            ],
            [
              110.569905718,
              -2.217965261
            ],
            [
              110.569796121,
              -2.217938088
            ],
            [
              110.569626448,
              -2.217684725
            ],
            [
              110.569580129,
              -2.217503773
            ],
            [
              110.569035098,
              -2.216879375
            ],
            [
              110.568668717,
              -2.216562625
            ],
            [
              110.568146193,
              -2.215856813
            ],
            [
              110.5680721,
              -2.215513009
            ],
            [
              110.568099144,
              -2.215286843
            ],
            [
              110.568212473,
              -2.21504261
            ],
            [
              110.568358108,
              -2.21484362
            ],
            [
              110.568572895,
              -2.214581321
            ],
            [
              110.568645148,
              -2.214490875
            ],
            [
              110.568845569,
              -2.214346183
            ],
            [
              110.569032755,
              -2.214291956
            ],
            [
              110.569361588,
              -2.214219677
            ],
            [
              110.569516717,
              -2.214228769
            ],
            [
              110.569790743,
              -2.214174565
            ],
            [
              110.569964163,
              -2.214102242
            ],
            [
              110.57029249,
              -2.213839976
            ],
            [
              110.570474653,
              -2.213659092
            ],
            [
              110.570505929,
              -2.213378645
            ],
            [
              110.570147787,
              -2.212754305
            ],
            [
              110.570055704,
              -2.212419541
            ],
            [
              110.570009406,
              -2.212166214
            ],
            [
              110.569995131,
              -2.211967178
            ],
            [
              110.57010423,
              -2.211768176
            ],
            [
              110.570309164,
              -2.211560158
            ],
            [
              110.570414845,
              -2.211524001
            ],
            [
              110.570519118,
              -2.211487843
            ],
            [
              110.570647254,
              -2.211551209
            ],
            [
              110.570748093,
              -2.211732177
            ],
            [
              110.570748869,
              -2.211967397
            ],
            [
              110.570900276,
              -2.212211708
            ],
            [
              110.571096708,
              -2.212256999
            ],
            [
              110.571279121,
              -2.212184677
            ],
            [
              110.571420518,
              -2.212058062
            ],
            [
              110.571525119,
              -2.211868107
            ],
            [
              110.571597413,
              -2.211632908
            ],
            [
              110.571752315,
              -2.211452012
            ],
            [
              110.571976048,
              -2.211352563
            ],
            [
              110.572304844,
              -2.21140694
            ],
            [
              110.572501283,
              -2.211425091
            ],
            [
              110.573369383,
              -2.211497716
            ],
            [
              110.573886646,
              -2.211932119
            ],
            [
              110.574101619,
              -2.212004555
            ],
            [
              110.574791286,
              -2.211986661
            ],
            [
              110.575051288,
              -2.211832939
            ],
            [
              110.575174143,
              -2.211679175
            ],
            [
              110.575424888,
              -2.21147117
            ],
            [
              110.575671133,
              -2.211263161
            ],
            [
              110.575799003,
              -2.211272244
            ],
            [
              110.576475423,
              -2.211390047
            ],
            [
              110.576726898,
              -2.21157106
            ],
            [
              110.576900822,
              -2.211706812
            ],
            [
              110.577102547,
              -2.211914949
            ],
            [
              110.577262702,
              -2.212041653
            ],
            [
              110.57736356,
              -2.212159292
            ],
            [
              110.577541728,
              -2.212195531
            ],
            [
              110.577836999,
              -2.211544235
            ],
            [
              110.578179327,
              -2.211453865
            ],
            [
              110.578357755,
              -2.211562478
            ],
            [
              110.578481109,
              -2.21163489
            ],
            [
              110.579015649,
              -2.211598855
            ],
            [
              110.579105969,
              -2.211218908
            ],
            [
              110.579164497,
              -2.210965612
            ],
            [
              110.579209028,
              -2.210513278
            ],
            [
              110.579463773,
              -2.210061003
            ],
            [
              110.579746019,
              -2.209753488
            ],
            [
              110.580074344,
              -2.20949122
            ],
            [
              110.58019994,
              -2.208586562
            ],
            [
              110.580084814,
              -2.208233699
            ],
            [
              110.58004276,
              -2.20787181
            ],
            [
              110.580178868,
              -2.207564253
            ],
            [
              110.580333496,
              -2.207356216
            ],
            [
              110.580497419,
              -2.207066762
            ],
            [
              110.580665567,
              -2.206750165
            ],
            [
              110.580518648,
              -2.206532999
            ],
            [
              110.580550172,
              -2.206361115
            ],
            [
              110.580572693,
              -2.206225418
            ],
            [
              110.580617987,
              -2.206053539
            ],
            [
              110.580439566,
              -2.205926832
            ],
            [
              110.580234121,
              -2.205953914
            ],
            [
              110.580100966,
              -2.205754844
            ],
            [
              110.580091472,
              -2.205537715
            ],
            [
              110.579884982,
              -2.205284342
            ],
            [
              110.579509868,
              -2.205039968
            ],
            [
              110.579331435,
              -2.204958495
            ],
            [
              110.579135018,
              -2.204858923
            ],
            [
              110.578563201,
              -2.204542118
            ],
            [
              110.578389026,
              -2.204306848
            ],
            [
              110.578347203,
              -2.204125897
            ],
            [
              110.578442813,
              -2.203917844
            ],
            [
              110.578491821,
              -2.203537888
            ],
            [
              110.578441025,
              -2.203284559
            ],
            [
              110.578285383,
              -2.203103575
            ],
            [
              110.578111434,
              -2.203058292
            ],
            [
              110.577988076,
              -2.203003975
            ],
            [
              110.577754587,
              -2.20282297
            ],
            [
              110.577648995,
              -2.20255153
            ],
            [
              110.577543387,
              -2.202334375
            ],
            [
              110.577355435,
              -2.202117195
            ],
            [
              110.577126455,
              -2.201900004
            ],
            [
              110.576815134,
              -2.201664693
            ],
            [
              110.576261102,
              -2.201076486
            ],
            [
              110.575935518,
              -2.200596904
            ],
            [
              110.575824625,
              -2.200189761
            ],
            [
              110.57589694,
              -2.19987314
            ],
            [
              110.575973264,
              -2.199294158
            ],
            [
              110.576537761,
              -2.198651987
            ],
            [
              110.576719422,
              -2.198244927
            ],
            [
              110.576667357,
              -2.197512111
            ],
            [
              110.576607279,
              -2.19728592
            ],
            [
              110.576286199,
              -2.196788247
            ],
            [
              110.576276705,
              -2.196571118
            ],
            [
              110.576349267,
              -2.196372107
            ],
            [
              110.576275411,
              -2.196173052
            ],
            [
              110.576068459,
              -2.195575896
            ],
            [
              110.575687814,
              -2.195023924
            ],
            [
              110.575229597,
              -2.194499071
            ],
            [
              110.574885493,
              -2.193929017
            ],
            [
              110.574696815,
              -2.193304725
            ],
            [
              110.57503837,
              -2.192951991
            ],
            [
              110.575297344,
              -2.192445438
            ],
            [
              110.575470258,
              -2.192165033
            ],
            [
              110.575377915,
              -2.191748848
            ],
            [
              110.575129636,
              -2.19120596
            ],
            [
              110.574937193,
              -2.190979734
            ],
            [
              110.574639411,
              -2.190581583
            ],
            [
              110.574460486,
              -2.190255841
            ],
            [
              110.57415765,
              -2.189839596
            ],
            [
              110.57411586,
              -2.189541035
            ],
            [
              110.574115368,
              -2.189296769
            ],
            [
              110.57418315,
              -2.189106803
            ],
            [
              110.574319777,
              -2.188943996
            ],
            [
              110.574273738,
              -2.188763045
            ],
            [
              110.57409031,
              -2.188464445
            ],
            [
              110.573806275,
              -2.18814772
            ],
            [
              110.57374646,
              -2.187993907
            ],
            [
              110.573722922,
              -2.187749632
            ],
            [
              110.573603556,
              -2.187496283
            ],
            [
              110.573433888,
              -2.187224828
            ],
            [
              110.573127081,
              -2.186944284
            ],
            [
              110.57249971,
              -2.186337961
            ],
            [
              110.572456744,
              -2.186229384
            ],
            [
              110.572334298,
              -2.185930802
            ],
            [
              110.572196637,
              -2.185776966
            ],
            [
              110.571981188,
              -2.185415025
            ],
            [
              110.571989162,
              -2.185044103
            ],
            [
              110.57217083,
              -2.184609904
            ],
            [
              110.572407553,
              -2.184275234
            ],
            [
              110.57265828,
              -2.184112462
            ],
            [
              110.572849449,
              -2.183868249
            ],
            [
              110.572903742,
              -2.183678279
            ],
            [
              110.573013106,
              -2.183524513
            ],
            [
              110.573066888,
              -2.183153604
            ],
            [
              110.572988802,
              -2.183008831
            ],
            [
              110.572832124,
              -2.182520253
            ],
            [
              110.572809114,
              -2.182402635
            ],
            [
              110.57265772,
              -2.182113089
            ],
            [
              110.572511072,
              -2.18193211
            ],
            [
              110.572364165,
              -2.181678754
            ],
            [
              110.57223051,
              -2.181271604
            ],
            [
              110.571987522,
              -2.180909658
            ],
            [
              110.571894164,
              -2.1801135
            ],
            [
              110.57191112,
              -2.179778769
            ],
            [
              110.572033713,
              -2.179552631
            ],
            [
              110.572294224,
              -2.179561752
            ],
            [
              110.572587081,
              -2.179480414
            ],
            [
              110.573041344,
              -2.179055336
            ],
            [
              110.573380321,
              -2.178865448
            ],
            [
              110.573591123,
              -2.178756944
            ],
            [
              110.573810321,
              -2.178775101
            ],
            [
              110.574353816,
              -2.178838583
            ],
            [
              110.574705063,
              -2.178983435
            ],
            [
              110.575010805,
              -2.179046852
            ],
            [
              110.575247967,
              -2.179146434
            ],
            [
              110.575810335,
              -2.179047077
            ],
            [
              110.575865726,
              -2.178947578
            ],
            [
              110.575857935,
              -2.178667118
            ],
            [
              110.575839981,
              -2.178558551
            ],
            [
              110.57579116,
              -2.178278082
            ],
            [
              110.575792354,
              -2.178024769
            ],
            [
              110.576004054,
              -2.177726281
            ],
            [
              110.576174151,
              -2.17745492
            ],
            [
              110.576285235,
              -2.177183543
            ],
            [
              110.576272961,
              -2.17685785
            ],
            [
              110.576100525,
              -2.176441642
            ],
            [
              110.576038779,
              -2.176152122
            ],
            [
              110.575930679,
              -2.175808308
            ],
            [
              110.575777292,
              -2.175609232
            ],
            [
              110.575640509,
              -2.175328738
            ],
            [
              110.57561444,
              -2.175093511
            ],
            [
              110.575579404,
              -2.174758765
            ],
            [
              110.57554348,
              -2.174586861
            ],
            [
              110.575471313,
              -2.174378764
            ],
            [
              110.575413515,
              -2.174044011
            ],
            [
              110.575346989,
              -2.173763537
            ],
            [
              110.575173942,
              -2.173528267
            ],
            [
              110.575059639,
              -2.173256827
            ],
            [
              110.574988033,
              -2.173057775
            ],
            [
              110.574798726,
              -2.172677749
            ],
            [
              110.574781066,
              -2.1725149
            ],
            [
              110.574786444,
              -2.172379199
            ],
            [
              110.574851128,
              -2.172207324
            ],
            [
              110.574902334,
              -2.171999259
            ],
            [
              110.574958018,
              -2.171854524
            ],
            [
              110.575118523,
              -2.171718865
            ],
            [
              110.575383833,
              -2.171646565
            ],
            [
              110.575823127,
              -2.171483843
            ],
            [
              110.575992603,
              -2.17142961
            ],
            [
              110.576120172,
              -2.171492975
            ],
            [
              110.576357338,
              -2.171574464
            ],
            [
              110.576548983,
              -2.171628799
            ],
            [
              110.576759187,
              -2.171646951
            ],
            [
              110.576914601,
              -2.171628903
            ],
            [
              110.57704951,
              -2.171574659
            ],
            [
              110.577162445,
              -2.170706184
            ],
            [
              110.577520408,
              -2.169937295
            ],
            [
              110.577663055,
              -2.169340237
            ],
            [
              110.577473077,
              -2.168335975
            ],
            [
              110.577585644,
              -2.166761839
            ],
            [
              110.578138398,
              -2.166861511
            ],
            [
              110.578974746,
              -2.166825556
            ],
            [
              110.579492321,
              -2.166092899
            ],
            [
              110.580386336,
              -2.166871186
            ],
            [
              110.581024943,
              -2.167486554
            ],
            [
              110.581464969,
              -2.166699594
            ],
            [
              110.581681333,
              -2.165776866
            ],
            [
              110.581399004,
              -2.165396815
            ],
            [
              110.580782815,
              -2.165016673
            ],
            [
              110.58015283,
              -2.164726997
            ],
            [
              110.580144842,
              -2.164138942
            ],
            [
              110.580520121,
              -2.163750028
            ],
            [
              110.580493511,
              -2.163433377
            ],
            [
              110.580238149,
              -2.163098569
            ],
            [
              110.579813549,
              -2.162980841
            ],
            [
              110.579256646,
              -2.162645949
            ],
            [
              110.57882758,
              -2.162419657
            ],
            [
              110.578399138,
              -2.161967189
            ],
            [
              110.578501101,
              -2.161125853
            ],
            [
              110.579030799,
              -2.161261705
            ],
            [
              110.579248973,
              -2.161931237
            ],
            [
              110.57989341,
              -2.161777621
            ],
            [
              110.580661873,
              -2.161289299
            ],
            [
              110.581205664,
              -2.161271358
            ],
            [
              110.581885971,
              -2.161488672
            ],
            [
              110.58200935,
              -2.161461565
            ],
            [
              110.58254,
              -2.161199351
            ],
            [
              110.582847663,
              -2.160394257
            ],
            [
              110.583173582,
              -2.159625357
            ],
            [
              110.583882115,
              -2.159390332
            ],
            [
              110.584472054,
              -2.159155274
            ],
            [
              110.5844913,
              -2.158648649
            ],
            [
              110.583975083,
              -2.158548993
            ],
            [
              110.583472605,
              -2.158557899
            ],
            [
              110.583381966,
              -2.15806934
            ],
            [
              110.583721028,
              -2.157535663
            ],
            [
              110.584087305,
              -2.157173887
            ],
            [
              110.583905937,
              -2.156531503
            ],
            [
              110.584294354,
              -2.156386858
            ],
            [
              110.584450412,
              -2.156061211
            ],
            [
              110.583935494,
              -2.155310174
            ],
            [
              110.583739717,
              -2.154948241
            ],
            [
              110.583786538,
              -2.154324016
            ],
            [
              110.583431176,
              -2.153826337
            ],
            [
              110.583121295,
              -2.153491512
            ],
            [
              110.58310883,
              -2.152822037
            ],
            [
              110.583342787,
              -2.152297378
            ],
            [
              110.583732799,
              -2.151447073
            ],
            [
              110.583596967,
              -2.150768515
            ],
            [
              110.583160225,
              -2.149836559
            ],
            [
              110.583349011,
              -2.149031433
            ],
            [
              110.583574324,
              -2.148253456
            ],
            [
              110.583538756,
              -2.147801099
            ],
            [
              110.583260656,
              -2.147375818
            ],
            [
              110.582868775,
              -2.146832893
            ],
            [
              110.583217753,
              -2.145991623
            ],
            [
              110.583241518,
              -2.145412625
            ],
            [
              110.582690037,
              -2.144779187
            ],
            [
              110.582334355,
              -2.144435305
            ],
            [
              110.582097906,
              -2.143792907
            ],
            [
              110.582639186,
              -2.142653143
            ],
            [
              110.582987876,
              -2.14183901
            ],
            [
              110.582752032,
              -2.141042817
            ],
            [
              110.582661713,
              -2.140409505
            ],
            [
              110.582402804,
              -2.139694725
            ],
            [
              110.582381032,
              -2.139142857
            ],
            [
              110.582861725,
              -2.138609218
            ],
            [
              110.583360363,
              -2.13822938
            ],
            [
              110.584243837,
              -2.137415398
            ],
            [
              110.584628385,
              -2.137008387
            ],
            [
              110.584716901,
              -2.135986108
            ],
            [
              110.584576548,
              -2.135398018
            ],
            [
              110.58475538,
              -2.135018094
            ],
            [
              110.585010444,
              -2.135407181
            ],
            [
              110.585110387,
              -2.135778135
            ],
            [
              110.585352341,
              -2.135805341
            ],
            [
              110.585586285,
              -2.135307823
            ],
            [
              110.585948389,
              -2.134756057
            ],
            [
              110.586273971,
              -2.134168094
            ],
            [
              110.586443828,
              -2.13371579
            ],
            [
              110.586208016,
              -2.132792939
            ],
            [
              110.586085957,
              -2.13209629
            ],
            [
              110.585475895,
              -2.130910975
            ],
            [
              110.585595768,
              -2.130322956
            ],
            [
              110.586067792,
              -2.129617421
            ],
            [
              110.585621424,
              -2.128956871
            ],
            [
              110.586078727,
              -2.128658447
            ],
            [
              110.586504259,
              -2.128405247
            ],
            [
              110.586285748,
              -2.127943795
            ],
            [
              110.585277346,
              -2.127265
            ],
            [
              110.585099532,
              -2.126993542
            ],
            [
              110.585498493,
              -2.126269896
            ],
            [
              110.586372701,
              -2.125392577
            ],
            [
              110.586452869,
              -2.124044602
            ],
            [
              110.586476581,
              -2.123646544
            ],
            [
              110.586139813,
              -2.122986025
            ],
            [
              110.586307071,
              -2.122796084
            ],
            [
              110.586799,
              -2.122253399
            ],
            [
              110.587366188,
              -2.121918814
            ],
            [
              110.587987861,
              -2.121701853
            ],
            [
              110.588189715,
              -2.121394312
            ],
            [
              110.588054205,
              -2.120552909
            ],
            [
              110.587876395,
              -2.12026336
            ]
          ]
        ]
      }
    }
  ]
}