{
  "type": "FeatureCollection",
  "features": [
    {
      "type": "Feature",
      "properties": {
        "idx": "828",
        "nama_kewilayahan": "Jalai Lamboi"
      },
      "geometry": {
        "type": "Polygon",
        "coordinates": [
          [
            [
              110.775018832,
              -1.904970234
            ],
            [
              110.774998884,
              -1.904952137
            ],
            [
              110.774885927,
              -1.904943076
            ],
            [
              110.774414163,
              -1.904843495
            ],
            [
              110.774180663,
              -1.904834417
            ],
            [
              110.773985665,
              -1.904771061
            ],
            [
              110.773461361,
              -1.904626238
            ],
            [
              110.772930848,
              -1.904689497
            ],
            [
              110.772376755,
              -1.904571812
            ],
            [
              110.771727961,
              -1.904517442
            ],
            [
              110.771246652,
              -1.904345482
            ],
            [
              110.770835018,
              -1.904236862
            ],
            [
              110.770080273,
              -1.904336278
            ],
            [
              110.769901257,
              -1.904535292
            ],
            [
              110.769639583,
              -1.905096181
            ],
            [
              110.769663441,
              -1.905295218
            ],
            [
              110.769896334,
              -1.905639043
            ],
            [
              110.770129224,
              -1.906010007
            ],
            [
              110.770276685,
              -1.906444289
            ],
            [
              110.770365727,
              -1.906679526
            ],
            [
              110.77040357,
              -1.907358067
            ],
            [
              110.770518691,
              -1.908000431
            ],
            [
              110.770587207,
              -1.908335184
            ],
            [
              110.770721741,
              -1.908787558
            ],
            [
              110.770802581,
              -1.909420869
            ],
            [
              110.770937114,
              -1.909882292
            ],
            [
              110.770975008,
              -1.910171805
            ],
            [
              110.771139057,
              -1.910551806
            ],
            [
              110.771224715,
              -1.910868468
            ],
            [
              110.77130954,
              -1.911121798
            ],
            [
              110.771381165,
              -1.91133894
            ],
            [
              110.771517363,
              -1.911945117
            ],
            [
              110.77172496,
              -1.912361313
            ],
            [
              110.771952198,
              -1.912976549
            ],
            [
              110.772119908,
              -1.913284174
            ],
            [
              110.772217384,
              -1.913501318
            ],
            [
              110.772331949,
              -1.914089397
            ],
            [
              110.772492892,
              -1.914577965
            ],
            [
              110.772630257,
              -1.914876537
            ],
            [
              110.772720131,
              -1.9151932
            ],
            [
              110.772692561,
              -1.915446517
            ],
            [
              110.772682135,
              -1.915672694
            ],
            [
              110.772645251,
              -1.916233611
            ],
            [
              110.772688749,
              -1.916658835
            ],
            [
              110.772650755,
              -1.917111185
            ],
            [
              110.772607104,
              -1.917843997
            ],
            [
              110.77219426,
              -1.918377724
            ],
            [
              110.771749348,
              -1.919164766
            ],
            [
              110.771298835,
              -1.919816099
            ],
            [
              110.77102845,
              -1.920358891
            ],
            [
              110.77094609,
              -1.920585059
            ],
            [
              110.770896031,
              -1.920901703
            ],
            [
              110.770733016,
              -1.921209283
            ],
            [
              110.770670857,
              -1.921661632
            ],
            [
              110.770867515,
              -1.921914977
            ],
            [
              110.771084702,
              -1.92205976
            ],
            [
              110.771403287,
              -1.922494068
            ],
            [
              110.771505553,
              -1.922602646
            ],
            [
              110.771632836,
              -1.922656946
            ],
            [
              110.771746349,
              -1.922711244
            ],
            [
              110.77187082,
              -1.922774589
            ],
            [
              110.772095861,
              -1.923009847
            ],
            [
              110.772159071,
              -1.923109374
            ],
            [
              110.772222562,
              -1.923208901
            ],
            [
              110.772336903,
              -1.923371763
            ],
            [
              110.772422017,
              -1.923579859
            ],
            [
              110.772603507,
              -1.923806062
            ],
            [
              110.772687472,
              -1.924186054
            ],
            [
              110.772639395,
              -1.924394132
            ],
            [
              110.772537096,
              -1.924538872
            ],
            [
              110.772310051,
              -1.924565983
            ],
            [
              110.772229639,
              -1.924927858
            ],
            [
              110.772024182,
              -1.925334951
            ],
            [
              110.771795413,
              -1.925651571
            ],
            [
              110.771747313,
              -1.926031544
            ],
            [
              110.771794458,
              -1.926483908
            ],
            [
              110.771783429,
              -1.927017686
            ],
            [
              110.771774433,
              -1.927053875
            ],
            [
              110.771632171,
              -1.927650967
            ],
            [
              110.77159022,
              -1.928275213
            ],
            [
              110.771587687,
              -1.928311401
            ],
            [
              110.771551353,
              -1.928953744
            ],
            [
              110.771554591,
              -1.929957976
            ],
            [
              110.771539921,
              -1.930392236
            ],
            [
              110.771576996,
              -1.930509854
            ],
            [
              110.771642451,
              -1.930627477
            ],
            [
              110.771703127,
              -1.930772239
            ],
            [
              110.771734052,
              -1.930871065
            ],
            [
              110.771768047,
              -1.930979701
            ],
            [
              110.771773907,
              -1.930998426
            ],
            [
              110.771930371,
              -1.931360333
            ],
            [
              110.771998295,
              -1.931939359
            ],
            [
              110.7720269,
              -1.932346485
            ],
            [
              110.772043477,
              -1.93236458
            ],
            [
              110.772668338,
              -1.932862258
            ],
            [
              110.772628093,
              -1.933332704
            ],
            [
              110.772402627,
              -1.934155962
            ],
            [
              110.772421884,
              -1.935142104
            ],
            [
              110.77297499,
              -1.936417825
            ],
            [
              110.773721147,
              -1.937630241
            ],
            [
              110.773754297,
              -1.937684529
            ],
            [
              110.774275429,
              -1.938507888
            ],
            [
              110.77425341,
              -1.93928594
            ],
            [
              110.774241602,
              -1.939322127
            ],
            [
              110.774023458,
              -1.940027774
            ],
            [
              110.773680535,
              -1.940869112
            ],
            [
              110.773581261,
              -1.941493351
            ],
            [
              110.773545544,
              -1.941719524
            ],
            [
              110.773754973,
              -1.943167094
            ],
            [
              110.77389343,
              -1.943718989
            ],
            [
              110.773922919,
              -1.943836606
            ],
            [
              110.773906168,
              -1.945130344
            ],
            [
              110.773843412,
              -1.945836013
            ],
            [
              110.773599966,
              -1.946614033
            ],
            [
              110.773365256,
              -1.947211113
            ],
            [
              110.773211756,
              -1.94779011
            ],
            [
              110.773465695,
              -1.948387255
            ],
            [
              110.774032583,
              -1.9495906
            ],
            [
              110.774279452,
              -1.950531537
            ],
            [
              110.774286755,
              -1.950558678
            ],
            [
              110.774531438,
              -1.95103821
            ],
            [
              110.774780638,
              -1.951354895
            ],
            [
              110.775115568,
              -1.951481598
            ],
            [
              110.776074375,
              -1.951110794
            ],
            [
              110.776231457,
              -1.95106558
            ],
            [
              110.776960952,
              -1.950839499
            ],
            [
              110.777802529,
              -1.950866751
            ],
            [
              110.778159952,
              -1.950884894
            ],
            [
              110.778580863,
              -1.951047798
            ],
            [
              110.779382209,
              -1.951455025
            ],
            [
              110.780101796,
              -1.951780816
            ],
            [
              110.780536205,
              -1.951871346
            ],
            [
              110.781306133,
              -1.951871446
            ],
            [
              110.781332547,
              -1.95187145
            ],
            [
              110.782056424,
              -1.951618223
            ],
            [
              110.782232624,
              -1.951491587
            ],
            [
              110.782870264,
              -1.951030266
            ],
            [
              110.78354838,
              -1.950451337
            ],
            [
              110.784113248,
              -1.949917629
            ],
            [
              110.784538165,
              -1.949519609
            ],
            [
              110.784895355,
              -1.949166815
            ],
            [
              110.78533403,
              -1.948832127
            ],
            [
              110.785677438,
              -1.948578851
            ],
            [
              110.786401306,
              -1.948388956
            ],
            [
              110.786903437,
              -1.948452348
            ],
            [
              110.787442328,
              -1.948922869
            ],
            [
              110.78799497,
              -1.949520049
            ],
            [
              110.788343885,
              -1.950180536
            ],
            [
              110.78854784,
              -1.950551494
            ],
            [
              110.789050749,
              -1.951139622
            ],
            [
              110.789480917,
              -1.951447279
            ],
            [
              110.790308472,
              -1.95126644
            ],
            [
              110.790900855,
              -1.950913677
            ],
            [
              110.791470746,
              -1.950651379
            ],
            [
              110.791809927,
              -1.950497619
            ],
            [
              110.79206789,
              -1.950425274
            ],
            [
              110.792334833,
              -1.95045245
            ],
            [
              110.792352815,
              -1.950452453
            ],
            [
              110.792719238,
              -1.950425357
            ],
            [
              110.793384348,
              -1.950479722
            ],
            [
              110.794574125,
              -1.950145124
            ],
            [
              110.795184744,
              -1.950018538
            ],
            [
              110.795674813,
              -1.949910032
            ],
            [
              110.795863367,
              -1.94986482
            ],
            [
              110.796623471,
              -1.949774441
            ],
            [
              110.797212167,
              -1.949684041
            ],
            [
              110.797600512,
              -1.949620758
            ],
            [
              110.798188642,
              -1.949566545
            ],
            [
              110.798720884,
              -1.949249959
            ],
            [
              110.79871611,
              -1.949240912
            ],
            [
              110.798601475,
              -1.94914138
            ],
            [
              110.798240973,
              -1.949014676
            ],
            [
              110.79799033,
              -1.948969409
            ],
            [
              110.797896496,
              -1.948806548
            ],
            [
              110.797773471,
              -1.948390366
            ],
            [
              110.797952491,
              -1.948173255
            ],
            [
              110.798205127,
              -1.947992344
            ],
            [
              110.798502152,
              -1.947883814
            ],
            [
              110.798725554,
              -1.947793369
            ],
            [
              110.798928711,
              -1.947811489
            ],
            [
              110.799119223,
              -1.947838652
            ],
            [
              110.799288374,
              -1.947902002
            ],
            [
              110.799453034,
              -1.94793821
            ],
            [
              110.799631451,
              -1.948064891
            ],
            [
              110.799779246,
              -1.948137287
            ],
            [
              110.799949788,
              -1.948327297
            ],
            [
              110.800155495,
              -1.94817352
            ],
            [
              110.80015463,
              -1.948363511
            ],
            [
              110.800089983,
              -1.948508256
            ],
            [
              110.800108795,
              -1.948625873
            ],
            [
              110.800204605,
              -1.948716356
            ],
            [
              110.800417309,
              -1.948797806
            ],
            [
              110.800655305,
              -1.948852116
            ],
            [
              110.80066795,
              -1.948861166
            ],
            [
              110.800851165,
              -1.948806905
            ],
            [
              110.801257487,
              -1.948788858
            ],
            [
              110.801307503,
              -1.948788864
            ],
            [
              110.80166353,
              -1.948752718
            ],
            [
              110.802032757,
              -1.94875276
            ],
            [
              110.80223594,
              -1.948553746
            ],
            [
              110.802262919,
              -1.948535657
            ],
            [
              110.802642285,
              -1.948345711
            ],
            [
              110.802937628,
              -1.948200991
            ],
            [
              110.802968257,
              -1.948191947
            ],
            [
              110.803214699,
              -1.948119601
            ],
            [
              110.803399324,
              -1.94802915
            ],
            [
              110.803473239,
              -1.947902497
            ],
            [
              110.803676134,
              -1.947766815
            ],
            [
              110.803860763,
              -1.947640176
            ],
            [
              110.804027137,
              -1.947432111
            ],
            [
              110.80421181,
              -1.946916446
            ],
            [
              110.80443327,
              -1.946617913
            ],
            [
              110.804654999,
              -1.946400808
            ],
            [
              110.80496887,
              -1.946400844
            ],
            [
              110.805282748,
              -1.946355645
            ],
            [
              110.805504175,
              -1.946319482
            ],
            [
              110.806076605,
              -1.945948616
            ],
            [
              110.807031184,
              -1.945623028
            ],
            [
              110.807035962,
              -1.94561398
            ],
            [
              110.806847157,
              -1.945405875
            ],
            [
              110.806499015,
              -1.945306316
            ],
            [
              110.805879995,
              -1.945197678
            ],
            [
              110.805638059,
              -1.94519765
            ],
            [
              110.805345573,
              -1.944926201
            ],
            [
              110.804943196,
              -1.944853777
            ],
            [
              110.80454559,
              -1.944835636
            ],
            [
              110.804178052,
              -1.944808453
            ],
            [
              110.803797589,
              -1.944772221
            ],
            [
              110.803381729,
              -1.944672652
            ],
            [
              110.80306029,
              -1.944509765
            ],
            [
              110.802839156,
              -1.944428316
            ],
            [
              110.802481483,
              -1.944138765
            ],
            [
              110.802376405,
              -1.944012093
            ],
            [
              110.802331187,
              -1.943831145
            ],
            [
              110.802112878,
              -1.943623034
            ],
            [
              110.801928298,
              -1.943333503
            ],
            [
              110.801869598,
              -1.94309827
            ],
            [
              110.801744597,
              -1.942727322
            ],
            [
              110.801608059,
              -1.942519222
            ],
            [
              110.801340918,
              -1.941795418
            ],
            [
              110.801043384,
              -1.941451591
            ],
            [
              110.800666626,
              -1.940990141
            ],
            [
              110.800526707,
              -1.94084537
            ],
            [
              110.800367145,
              -1.940474416
            ],
            [
              110.800290736,
              -1.940293466
            ],
            [
              110.800229777,
              -1.940157751
            ],
            [
              110.800128359,
              -1.939976796
            ],
            [
              110.799869371,
              -1.939225851
            ],
            [
              110.799596577,
              -1.938791555
            ],
            [
              110.799455548,
              -1.93852917
            ],
            [
              110.7991822,
              -1.938040591
            ],
            [
              110.798706294,
              -1.937208197
            ],
            [
              110.798342465,
              -1.936719607
            ],
            [
              110.797990449,
              -1.936140547
            ],
            [
              110.797410856,
              -1.935317187
            ],
            [
              110.797069498,
              -1.93491907
            ],
            [
              110.79677308,
              -1.934656668
            ],
            [
              110.79635166,
              -1.9340776
            ],
            [
              110.795866447,
              -1.933561853
            ],
            [
              110.795613301,
              -1.933317549
            ],
            [
              110.795297515,
              -1.93290134
            ],
            [
              110.795091301,
              -1.932611807
            ],
            [
              110.7949152,
              -1.931924203
            ],
            [
              110.794639863,
              -1.931625614
            ],
            [
              110.794495729,
              -1.931498935
            ],
            [
              110.794324635,
              -1.931254641
            ],
            [
              110.794554801,
              -1.930983254
            ],
            [
              110.794773431,
              -1.930829481
            ],
            [
              110.794892866,
              -1.930720928
            ],
            [
              110.79507777,
              -1.930621433
            ],
            [
              110.795788423,
              -1.930431529
            ],
            [
              110.796064085,
              -1.930368232
            ],
            [
              110.796567641,
              -1.930223537
            ],
            [
              110.796834592,
              -1.930142146
            ],
            [
              110.797520229,
              -1.930024615
            ],
            [
              110.797920377,
              -1.929898003
            ],
            [
              110.798706636,
              -1.929527163
            ],
            [
              110.799068611,
              -1.929056753
            ],
            [
              110.799286729,
              -1.928477761
            ],
            [
              110.799273293,
              -1.92803445
            ],
            [
              110.799198884,
              -1.927563988
            ],
            [
              110.799163253,
              -1.927093532
            ],
            [
              110.799244515,
              -1.926623092
            ],
            [
              110.799432842,
              -1.92608933
            ],
            [
              110.799575629,
              -1.925727461
            ],
            [
              110.799502056,
              -1.925329377
            ],
            [
              110.79934949,
              -1.925211747
            ],
            [
              110.79922588,
              -1.924985553
            ],
            [
              110.799090227,
              -1.924433659
            ],
            [
              110.798936873,
              -1.923854625
            ],
            [
              110.798833512,
              -1.923483679
            ],
            [
              110.798709069,
              -1.92317606
            ],
            [
              110.798626508,
              -1.922732739
            ],
            [
              110.798580453,
              -1.922497509
            ],
            [
              110.798521197,
              -1.922226087
            ],
            [
              110.798396756,
              -1.921900375
            ],
            [
              110.798299275,
              -1.921692279
            ],
            [
              110.79824002,
              -1.92141181
            ],
            [
              110.798173445,
              -1.921248953
            ],
            [
              110.798154077,
              -1.921058961
            ],
            [
              110.798155514,
              -1.920796593
            ],
            [
              110.798149952,
              -1.920298999
            ],
            [
              110.798173301,
              -1.920072823
            ],
            [
              110.798152822,
              -1.919792358
            ],
            [
              110.798149484,
              -1.919502849
            ],
            [
              110.798092775,
              -1.919059531
            ],
            [
              110.797993073,
              -1.91864335
            ],
            [
              110.79774331,
              -1.91832667
            ],
            [
              110.797563226,
              -1.918055234
            ],
            [
              110.79695691,
              -1.917539475
            ],
            [
              110.796665544,
              -1.917349451
            ],
            [
              110.796507097,
              -1.91709611
            ],
            [
              110.79633855,
              -1.916698016
            ],
            [
              110.796202294,
              -1.916480868
            ],
            [
              110.796124782,
              -1.916137066
            ],
            [
              110.796036573,
              -1.915956112
            ],
            [
              110.795889381,
              -1.915548973
            ],
            [
              110.795734593,
              -1.915232304
            ],
            [
              110.795528103,
              -1.914924675
            ],
            [
              110.795314017,
              -1.914689424
            ],
            [
              110.795033906,
              -1.914381788
            ],
            [
              110.794731608,
              -1.913983676
            ],
            [
              110.794476796,
              -1.913603666
            ],
            [
              110.794342812,
              -1.913205574
            ],
            [
              110.794101525,
              -1.912499866
            ],
            [
              110.793993946,
              -1.91216511
            ],
            [
              110.79391616,
              -1.911767025
            ],
            [
              110.793825726,
              -1.911396082
            ],
            [
              110.793728247,
              -1.911187985
            ],
            [
              110.793613352,
              -1.910943698
            ],
            [
              110.793464171,
              -1.910735594
            ],
            [
              110.793375401,
              -1.910536547
            ],
            [
              110.793307438,
              -1.91024703
            ],
            [
              110.793201249,
              -1.910029885
            ],
            [
              110.793003748,
              -1.909740353
            ],
            [
              110.792969512,
              -1.909378462
            ],
            [
              110.792838074,
              -1.908835615
            ],
            [
              110.79281702,
              -1.908663718
            ],
            [
              110.792811123,
              -1.908627529
            ],
            [
              110.791990643,
              -1.908573147
            ],
            [
              110.791673178,
              -1.908138844
            ],
            [
              110.791327141,
              -1.906962673
            ],
            [
              110.791168443,
              -1.906456012
            ],
            [
              110.790805508,
              -1.905614582
            ],
            [
              110.79058162,
              -1.90512601
            ],
            [
              110.790094418,
              -1.904863583
            ],
            [
              110.789505474,
              -1.904800181
            ],
            [
              110.788688946,
              -1.904610089
            ],
            [
              110.788067946,
              -1.904736674
            ],
            [
              110.787839158,
              -1.905252332
            ],
            [
              110.787624424,
              -1.905740852
            ],
            [
              110.786833944,
              -1.906220252
            ],
            [
              110.786263264,
              -1.906165898
            ],
            [
              110.78566533,
              -1.906093447
            ],
            [
              110.785046259,
              -1.90652763
            ],
            [
              110.784193929,
              -1.907269391
            ],
            [
              110.783728823,
              -1.907821208
            ],
            [
              110.783049054,
              -1.908291572
            ],
            [
              110.782448809,
              -1.908716713
            ],
            [
              110.781557481,
              -1.908960873
            ],
            [
              110.780775195,
              -1.909069339
            ],
            [
              110.780257608,
              -1.909114507
            ],
            [
              110.779598386,
              -1.909295365
            ],
            [
              110.77904399,
              -1.909340529
            ],
            [
              110.778350218,
              -1.909412816
            ],
            [
              110.777639596,
              -1.909430819
            ],
            [
              110.777219234,
              -1.909457906
            ],
            [
              110.776693272,
              -1.90906881
            ],
            [
              110.775941988,
              -1.908462552
            ],
            [
              110.775386,
              -1.907774898
            ],
            [
              110.775118833,
              -1.907376788
            ],
            [
              110.775059316,
              -1.906969659
            ],
            [
              110.775013079,
              -1.905992561
            ],
            [
              110.775013944,
              -1.905829712
            ],
            [
              110.775018832,
              -1.904970234
            ]
          ]
        ]
      }
    }
  ]
}