{
  "type": "FeatureCollection",
  "features": [
    {
      "type": "Feature",
      "properties": {
        "idx": "831",
        "nama_kewilayahan": "Kanayatn Air Dua"
      },
      "geometry": {
        "type": "Polygon",
        "coordinates": [
          [
            [
              110.852865738,
              -1.903359243
            ],
            [
              110.85289327,
              -1.90341353
            ],
            [
              110.853511398,
              -1.90396546
            ],
            [
              110.854445636,
              -1.9045717
            ],
            [
              110.855276208,
              -1.9049608
            ],
            [
              110.856357709,
              -1.905268496
            ],
            [
              110.856891009,
              -1.905503768
            ],
            [
              110.85730827,
              -1.905603323
            ],
            [
              110.858170094,
              -1.905241505
            ],
            [
              110.858697538,
              -1.904906802
            ],
            [
              110.859156981,
              -1.904581142
            ],
            [
              110.859582145,
              -1.904255478
            ],
            [
              110.860654431,
              -1.903857489
            ],
            [
              110.861217802,
              -1.904011338
            ],
            [
              110.861735088,
              -1.90420137
            ],
            [
              110.862552751,
              -1.90438238
            ],
            [
              110.863346267,
              -1.904346254
            ],
            [
              110.863721935,
              -1.904545323
            ],
            [
              110.865636881,
              -1.904500238
            ],
            [
              110.866246902,
              -1.904581712
            ],
            [
              110.866913661,
              -1.904961744
            ],
            [
              110.867649549,
              -1.905260358
            ],
            [
              110.868207018,
              -1.905423251
            ],
            [
              110.86898563,
              -1.905568066
            ],
            [
              110.869237949,
              -1.905703791
            ],
            [
              110.869805811,
              -1.905930016
            ],
            [
              110.870220275,
              -1.905866718
            ],
            [
              110.870605275,
              -1.905278679
            ],
            [
              110.871236928,
              -1.905423482
            ],
            [
              110.871684265,
              -1.905414468
            ],
            [
              110.872003737,
              -1.90558639
            ],
            [
              110.872602237,
              -1.905676904
            ],
            [
              110.873287288,
              -1.90569505
            ],
            [
              110.873960558,
              -1.905432731
            ],
            [
              110.874623718,
              -1.905107081
            ],
            [
              110.874915981,
              -1.904627602
            ],
            [
              110.875503004,
              -1.904139094
            ],
            [
              110.875774741,
              -1.903840559
            ],
            [
              110.876433711,
              -1.903134924
            ],
            [
              110.877695328,
              -1.903496903
            ],
            [
              110.878362371,
              -1.903858838
            ],
            [
              110.878524775,
              -1.903949322
            ],
            [
              110.880127801,
              -1.904229898
            ],
            [
              110.880433799,
              -1.90422087
            ],
            [
              110.881119979,
              -1.904166637
            ],
            [
              110.881698256,
              -1.904130488
            ],
            [
              110.88263456,
              -1.903442964
            ],
            [
              110.883005496,
              -1.902999677
            ],
            [
              110.88331798,
              -1.902646859
            ],
            [
              110.883600955,
              -1.902357367
            ],
            [
              110.884087364,
              -1.902104079
            ],
            [
              110.88448104,
              -1.901950304
            ],
            [
              110.884860094,
              -1.901959376
            ],
            [
              110.885562003,
              -1.901986565
            ],
            [
              110.886114983,
              -1.902077073
            ],
            [
              110.88726761,
              -1.901923347
            ],
            [
              110.887483976,
              -1.901850982
            ],
            [
              110.888120424,
              -1.901742459
            ],
            [
              110.88865038,
              -1.901570596
            ],
            [
              110.889268278,
              -1.901534447
            ],
            [
              110.889796542,
              -1.901462105
            ],
            [
              110.891375715,
              -1.901199835
            ],
            [
              110.891923376,
              -1.900991787
            ],
            [
              110.892474682,
              -1.900892301
            ],
            [
              110.89316509,
              -1.900620928
            ],
            [
              110.894281216,
              -1.89999674
            ],
            [
              110.894455161,
              -1.899788667
            ],
            [
              110.894638954,
              -1.899354412
            ],
            [
              110.894445702,
              -1.898205404
            ],
            [
              110.89433923,
              -1.897852558
            ],
            [
              110.894336183,
              -1.897128782
            ],
            [
              110.894667813,
              -1.896079327
            ],
            [
              110.894902463,
              -1.895645076
            ],
            [
              110.895180134,
              -1.894758467
            ],
            [
              110.895348211,
              -1.893962324
            ],
            [
              110.895440117,
              -1.893591395
            ],
            [
              110.896094018,
              -1.892867657
            ],
            [
              110.896442753,
              -1.892397224
            ],
            [
              110.896675148,
              -1.892089634
            ],
            [
              110.897166661,
              -1.890967811
            ],
            [
              110.897719127,
              -1.890207879
            ],
            [
              110.898168748,
              -1.889502223
            ],
            [
              110.898559933,
              -1.888597526
            ],
            [
              110.89861532,
              -1.888063744
            ],
            [
              110.898254008,
              -1.887412325
            ],
            [
              110.897921358,
              -1.886751861
            ],
            [
              110.897814603,
              -1.88640806
            ],
            [
              110.897750585,
              -1.885611903
            ],
            [
              110.897770561,
              -1.885150496
            ],
            [
              110.89795828,
              -1.884824808
            ],
            [
              110.898720444,
              -1.8825721
            ],
            [
              110.898956503,
              -1.88206547
            ],
            [
              110.899104319,
              -1.881748826
            ],
            [
              110.89972115,
              -1.880581775
            ],
            [
              110.899903266,
              -1.879939432
            ],
            [
              110.900102538,
              -1.878998535
            ],
            [
              110.900247569,
              -1.878238579
            ],
            [
              110.900331615,
              -1.877695751
            ],
            [
              110.900425773,
              -1.877207208
            ],
            [
              110.900501098,
              -1.87682723
            ],
            [
              110.901084721,
              -1.876519658
            ],
            [
              110.902190121,
              -1.87645639
            ],
            [
              110.902852401,
              -1.876474522
            ],
            [
              110.903762225,
              -1.876565044
            ],
            [
              110.904897132,
              -1.876438446
            ],
            [
              110.905796579,
              -1.876194219
            ],
            [
              110.906409427,
              -1.875832365
            ],
            [
              110.907089442,
              -1.875217191
            ],
            [
              110.907886077,
              -1.87442108
            ],
            [
              110.908543332,
              -1.873805905
            ],
            [
              110.909154488,
              -1.873543567
            ],
            [
              110.90975946,
              -1.873299325
            ],
            [
              110.910525443,
              -1.872928428
            ],
            [
              110.911406071,
              -1.872476114
            ],
            [
              110.91179357,
              -1.872050915
            ],
            [
              110.912036947,
              -1.871164301
            ],
            [
              110.912192649,
              -1.870431484
            ],
            [
              110.912272761,
              -1.869798184
            ],
            [
              110.912425645,
              -1.869201076
            ],
            [
              110.912930072,
              -1.867997822
            ],
            [
              110.913143406,
              -1.866622658
            ],
            [
              110.913174053,
              -1.86619744
            ],
            [
              110.913684927,
              -1.865256555
            ],
            [
              110.913933627,
              -1.864677548
            ],
            [
              110.914510539,
              -1.863537628
            ],
            [
              110.914720479,
              -1.86262387
            ],
            [
              110.915332785,
              -1.861692039
            ],
            [
              110.916876075,
              -1.85887843
            ],
            [
              110.917967716,
              -1.858344695
            ],
            [
              110.918980401,
              -1.857810957
            ],
            [
              110.919636225,
              -1.857566713
            ],
            [
              110.920295441,
              -1.856861061
            ],
            [
              110.920725087,
              -1.856300153
            ],
            [
              110.921242151,
              -1.855024519
            ],
            [
              110.921587798,
              -1.854137909
            ],
            [
              110.921972513,
              -1.852961788
            ],
            [
              110.92229737,
              -1.85196661
            ],
            [
              110.92325813,
              -1.850003407
            ],
            [
              110.923680747,
              -1.849505829
            ],
            [
              110.924093545,
              -1.848655409
            ],
            [
              110.924489202,
              -1.847804989
            ],
            [
              110.925202674,
              -1.846330323
            ],
            [
              110.925539037,
              -1.845615608
            ],
            [
              110.925855737,
              -1.844747087
            ],
            [
              110.926453204,
              -1.842231988
            ],
            [
              110.926325377,
              -1.84181581
            ],
            [
              110.925999752,
              -1.841073926
            ],
            [
              110.925815729,
              -1.840621558
            ],
            [
              110.925488976,
              -1.83995205
            ],
            [
              110.925131043,
              -1.839110643
            ],
            [
              110.924935807,
              -1.838079254
            ],
            [
              110.924524506,
              -1.836785485
            ],
            [
              110.923425929,
              -1.835591206
            ],
            [
              110.922830277,
              -1.835066442
            ],
            [
              110.922609723,
              -1.83474978
            ],
            [
              110.92159064,
              -1.834143572
            ],
            [
              110.920261641,
              -1.833464972
            ],
            [
              110.919250418,
              -1.833039707
            ],
            [
              110.918532548,
              -1.832379228
            ],
            [
              110.917818595,
              -1.832116827
            ],
            [
              110.91598606,
              -1.831999127
            ],
            [
              110.915345159,
              -1.831763869
            ],
            [
              110.915012767,
              -1.831673383
            ],
            [
              110.915052975,
              -1.831049126
            ],
            [
              110.915576191,
              -1.830334421
            ],
            [
              110.916435205,
              -1.828941191
            ],
            [
              110.917194461,
              -1.827746993
            ],
            [
              110.917668788,
              -1.826914673
            ],
            [
              110.91857863,
              -1.826127606
            ],
            [
              110.918908219,
              -1.826073339
            ],
            [
              110.91960224,
              -1.825910519
            ],
            [
              110.919956841,
              -1.825720545
            ],
            [
              110.920215925,
              -1.825204865
            ],
            [
              110.920478375,
              -1.824806801
            ],
            [
              110.92044946,
              -1.824245872
            ],
            [
              110.920578719,
              -1.823992555
            ],
            [
              110.920812497,
              -1.823911139
            ],
            [
              110.921221627,
              -1.823250712
            ],
            [
              110.920959217,
              -1.82276215
            ],
            [
              110.920152861,
              -1.821685497
            ],
            [
              110.919867689,
              -1.821205981
            ],
            [
              110.919896658,
              -1.820572678
            ],
            [
              110.920172037,
              -1.820102233
            ],
            [
              110.920445726,
              -1.819695124
            ],
            [
              110.920763242,
              -1.819378483
            ],
            [
              110.921177134,
              -1.819070897
            ],
            [
              110.921448006,
              -1.818817587
            ],
            [
              110.922539621,
              -1.818292895
            ],
            [
              110.922865854,
              -1.817822454
            ],
            [
              110.923249701,
              -1.816999175
            ],
            [
              110.923768428,
              -1.815913531
            ],
            [
              110.924381007,
              -1.814692183
            ],
            [
              110.925032934,
              -1.813163231
            ],
            [
              110.925477747,
              -1.812421378
            ],
            [
              110.92559016,
              -1.811869503
            ],
            [
              110.926059975,
              -1.811281451
            ],
            [
              110.926297997,
              -1.810376741
            ],
            [
              110.926179156,
              -1.810087227
            ],
            [
              110.926223328,
              -1.808657767
            ],
            [
              110.926395336,
              -1.807373069
            ],
            [
              110.926876728,
              -1.805301276
            ],
            [
              110.927564874,
              -1.80424278
            ],
            [
              110.928114471,
              -1.803944244
            ],
            [
              110.930146981,
              -1.805428067
            ],
            [
              110.931306265,
              -1.80581714
            ],
            [
              110.932326193,
              -1.80607955
            ],
            [
              110.932533007,
              -1.805618148
            ],
            [
              110.932573479,
              -1.805283403
            ],
            [
              110.932291677,
              -1.804912457
            ],
            [
              110.93190594,
              -1.803772494
            ],
            [
              110.931643541,
              -1.802985376
            ],
            [
              110.93135248,
              -1.802207304
            ],
            [
              110.930893684,
              -1.801329707
            ],
            [
              110.930570034,
              -1.800479256
            ],
            [
              110.930306498,
              -1.800054026
            ],
            [
              110.929944908,
              -1.799429755
            ],
            [
              110.929454932,
              -1.798389307
            ],
            [
              110.928880652,
              -1.797629317
            ],
            [
              110.929058242,
              -1.797222198
            ],
            [
              110.930412792,
              -1.797756038
            ],
            [
              110.930790687,
              -1.798126988
            ],
            [
              110.931241645,
              -1.798235571
            ],
            [
              110.931803865,
              -1.798443679
            ],
            [
              110.932387435,
              -1.79873321
            ],
            [
              110.932697931,
              -1.798190389
            ],
            [
              110.932649901,
              -1.79772898
            ],
            [
              110.932681701,
              -1.796371899
            ],
            [
              110.93247804,
              -1.795177658
            ],
            [
              110.932349379,
              -1.794508158
            ],
            [
              110.93239325,
              -1.793395353
            ],
            [
              110.932879927,
              -1.792517791
            ],
            [
              110.932840332,
              -1.791920672
            ],
            [
              110.9324414,
              -1.790581669
            ],
            [
              110.932175916,
              -1.789658844
            ],
            [
              110.932170025,
              -1.78937838
            ],
            [
              110.93226614,
              -1.788781267
            ],
            [
              110.932998365,
              -1.788401312
            ],
            [
              110.933828373,
              -1.787939933
            ],
            [
              110.934192797,
              -1.787822332
            ],
            [
              110.934787072,
              -1.787243331
            ],
            [
              110.935206594,
              -1.786329577
            ],
            [
              110.93596974,
              -1.785515353
            ],
            [
              110.936993045,
              -1.785307303
            ],
            [
              110.937572973,
              -1.785180662
            ],
            [
              110.938237756,
              -1.785063071
            ],
            [
              110.939565067,
              -1.784945503
            ],
            [
              110.94105535,
              -1.784583663
            ],
            [
              110.942564459,
              -1.784149442
            ],
            [
              110.943673459,
              -1.783896155
            ],
            [
              110.944536052,
              -1.783498104
            ],
            [
              110.944995729,
              -1.783154323
            ],
            [
              110.944704659,
              -1.782683859
            ],
            [
              110.94423769,
              -1.782520994
            ],
            [
              110.943606352,
              -1.78237622
            ],
            [
              110.943176468,
              -1.782349065
            ],
            [
              110.942555808,
              -1.782222384
            ],
            [
              110.941878391,
              -1.782122844
            ],
            [
              110.940684277,
              -1.78177901
            ],
            [
              110.940180778,
              -1.7817609
            ],
            [
              110.939450253,
              -1.781769924
            ],
            [
              110.93884055,
              -1.781679431
            ],
            [
              110.937665827,
              -1.781208935
            ],
            [
              110.937209253,
              -1.7811094
            ],
            [
              110.936832488,
              -1.78067512
            ],
            [
              110.936450946,
              -1.780195606
            ],
            [
              110.936369189,
              -1.780023705
            ],
            [
              110.935686738,
              -1.779290857
            ],
            [
              110.935047553,
              -1.778657528
            ],
            [
              110.93461796,
              -1.778331814
            ],
            [
              110.934547183,
              -1.777589937
            ],
            [
              110.934872018,
              -1.776594756
            ],
            [
              110.935151348,
              -1.775310061
            ],
            [
              110.935375869,
              -1.774522961
            ],
            [
              110.93554475,
              -1.773989181
            ],
            [
              110.935756344,
              -1.773283504
            ],
            [
              110.935517269,
              -1.772451151
            ],
            [
              110.933184414,
              -1.771555392
            ],
            [
              110.932707617,
              -1.771338244
            ],
            [
              110.932313713,
              -1.770903961
            ],
            [
              110.932244323,
              -1.770677779
            ],
            [
              110.932680126,
              -1.770098773
            ],
            [
              110.933167619,
              -1.769782137
            ],
            [
              110.933828756,
              -1.769257423
            ],
            [
              110.934143782,
              -1.767592745
            ],
            [
              110.933457968,
              -1.766742282
            ],
            [
              110.932906174,
              -1.765973248
            ],
            [
              110.932569037,
              -1.765249458
            ],
            [
              110.932469038,
              -1.764561867
            ],
            [
              110.931852066,
              -1.763657121
            ],
            [
              110.931413231,
              -1.762616676
            ],
            [
              110.931074418,
              -1.761684798
            ],
            [
              110.931176723,
              -1.760780079
            ],
            [
              110.931122231,
              -1.760363906
            ],
            [
              110.930835952,
              -1.759640118
            ],
            [
              110.930370127,
              -1.759124407
            ],
            [
              110.930022297,
              -1.758961545
            ],
            [
              110.928973724,
              -1.759024835
            ],
            [
              110.92857138,
              -1.759033868
            ],
            [
              110.928085871,
              -1.758961471
            ],
            [
              110.926539426,
              -1.758988552
            ],
            [
              110.925651842,
              -1.759214697
            ],
            [
              110.924787863,
              -1.759377513
            ],
            [
              110.92395789,
              -1.759250819
            ],
            [
              110.922679787,
              -1.758870782
            ],
            [
              110.921858238,
              -1.758888841
            ],
            [
              110.921040068,
              -1.758753099
            ],
            [
              110.920097711,
              -1.758581161
            ],
            [
              110.919200591,
              -1.758418271
            ],
            [
              110.918262164,
              -1.758327759
            ],
            [
              110.917208832,
              -1.758047249
            ],
            [
              110.916618544,
              -1.757513435
            ],
            [
              110.916383408,
              -1.756780602
            ],
            [
              110.916117627,
              -1.756472984
            ],
            [
              110.915477959,
              -1.754392094
            ],
            [
              110.915284973,
              -1.753523554
            ],
            [
              110.915057429,
              -1.752691197
            ],
            [
              110.913607106,
              -1.752139251
            ],
            [
              110.91187439,
              -1.75213917
            ],
            [
              110.91073452,
              -1.751940077
            ],
            [
              110.909876739,
              -1.751777186
            ],
            [
              110.909422709,
              -1.751550982
            ],
            [
              110.909273525,
              -1.751351935
            ],
            [
              110.908541945,
              -1.750220999
            ],
            [
              110.908195272,
              -1.749397686
            ],
            [
              110.907443724,
              -1.748719107
            ],
            [
              110.906454714,
              -1.748918096
            ],
            [
              110.905465707,
              -1.749126132
            ],
            [
              110.904689381,
              -1.749451793
            ],
            [
              110.904061692,
              -1.749696034
            ],
            [
              110.903072669,
              -1.750184534
            ],
            [
              110.902538517,
              -1.750881141
            ],
            [
              110.901931864,
              -1.751812973
            ],
            [
              110.901015606,
              -1.75234671
            ],
            [
              110.900263181,
              -1.752310481
            ],
            [
              110.899714456,
              -1.752283309
            ],
            [
              110.899175827,
              -1.752608981
            ],
            [
              110.898648983,
              -1.753224163
            ],
            [
              110.897920958,
              -1.753984089
            ],
            [
              110.896582646,
              -1.755268717
            ],
            [
              110.895847062,
              -1.755531047
            ],
            [
              110.894617566,
              -1.755268609
            ],
            [
              110.89397978,
              -1.755160006
            ],
            [
              110.8932858,
              -1.755033306
            ],
            [
              110.891092853,
              -1.755114603
            ],
            [
              110.890441009,
              -1.755150753
            ],
            [
              110.889747576,
              -1.755286421
            ],
            [
              110.888827967,
              -1.755403979
            ],
            [
              110.888154475,
              -1.755684402
            ],
            [
              110.887616405,
              -1.755982929
            ],
            [
              110.887164844,
              -1.756806197
            ],
            [
              110.886901569,
              -1.75694189
            ],
            [
              110.886539406,
              -1.756923773
            ],
            [
              110.886097708,
              -1.757231351
            ],
            [
              110.886082505,
              -1.757728946
            ],
            [
              110.886298536,
              -1.758271793
            ],
            [
              110.886288688,
              -1.758497972
            ],
            [
              110.885097046,
              -1.759511186
            ],
            [
              110.884318742,
              -1.759936356
            ],
            [
              110.882695263,
              -1.760750504
            ],
            [
              110.882201884,
              -1.760777614
            ],
            [
              110.881475296,
              -1.760877086
            ],
            [
              110.880498947,
              -1.760705127
            ],
            [
              110.879626261,
              -1.760750307
            ],
            [
              110.878987908,
              -1.760668839
            ],
            [
              110.877890173,
              -1.760623531
            ],
            [
              110.875968069,
              -1.760759113
            ],
            [
              110.875541537,
              -1.761139067
            ],
            [
              110.875343677,
              -1.762016632
            ],
            [
              110.875033415,
              -1.763138464
            ],
            [
              110.874891184,
              -1.76406127
            ],
            [
              110.874147619,
              -1.765924945
            ],
            [
              110.873750228,
              -1.767453895
            ],
            [
              110.873064241,
              -1.769561846
            ],
            [
              110.872634322,
              -1.770131791
            ],
            [
              110.871075442,
              -1.771099734
            ],
            [
              110.870245709,
              -1.771570129
            ],
            [
              110.869567457,
              -1.771497703
            ],
            [
              110.869347482,
              -1.771153895
            ],
            [
              110.869065717,
              -1.770493429
            ],
            [
              110.86878367,
              -1.769851058
            ],
            [
              110.868314236,
              -1.768937256
            ],
            [
              110.867903231,
              -1.768222497
            ],
            [
              110.867094151,
              -1.766702511
            ],
            [
              110.866749447,
              -1.766078229
            ],
            [
              110.866148498,
              -1.765526306
            ],
            [
              110.866020906,
              -1.765978656
            ],
            [
              110.865304689,
              -1.76641287
            ],
            [
              110.864524988,
              -1.766620899
            ],
            [
              110.863214827,
              -1.766729368
            ],
            [
              110.862532909,
              -1.76685598
            ],
            [
              110.862206389,
              -1.767353549
            ],
            [
              110.861257787,
              -1.768086303
            ],
            [
              110.860326625,
              -1.768529545
            ],
            [
              110.859503359,
              -1.768936607
            ],
            [
              110.858736002,
              -1.76937986
            ],
            [
              110.857981858,
              -1.769723596
            ],
            [
              110.856813561,
              -1.770121582
            ],
            [
              110.855714084,
              -1.770763847
            ],
            [
              110.854349939,
              -1.771333713
            ],
            [
              110.853331174,
              -1.770998887
            ],
            [
              110.85270575,
              -1.770835988
            ],
            [
              110.852217164,
              -1.770627863
            ],
            [
              110.851827747,
              -1.770573548
            ],
            [
              110.85105451,
              -1.770718241
            ],
            [
              110.850079805,
              -1.771052909
            ],
            [
              110.849600175,
              -1.771270001
            ],
            [
              110.849345289,
              -1.771858049
            ],
            [
              110.849177206,
              -1.772654189
            ],
            [
              110.848324708,
              -1.773124572
            ],
            [
              110.847500899,
              -1.773251165
            ],
            [
              110.846346095,
              -1.773540578
            ],
            [
              110.845221314,
              -1.774309497
            ],
            [
              110.844704324,
              -1.774399925
            ],
            [
              110.843735824,
              -1.774417936
            ],
            [
              110.843145503,
              -1.774481217
            ],
            [
              110.84308593,
              -1.774571683
            ],
            [
              110.842681327,
              -1.774671168
            ],
            [
              110.841871575,
              -1.774671099
            ],
            [
              110.84126441,
              -1.774571528
            ],
            [
              110.840454677,
              -1.774363372
            ],
            [
              110.839341198,
              -1.774363273
            ],
            [
              110.838430578,
              -1.774363196
            ],
            [
              110.837620844,
              -1.774164085
            ],
            [
              110.836608797,
              -1.774163997
            ],
            [
              110.835596747,
              -1.774163904
            ],
            [
              110.834989302,
              -1.774064333
            ],
            [
              110.834438067,
              -1.773783822
            ],
            [
              110.834401208,
              -1.774371884
            ],
            [
              110.834379169,
              -1.775765149
            ],
            [
              110.834280095,
              -1.777710286
            ],
            [
              110.834057759,
              -1.77869641
            ],
            [
              110.833767427,
              -1.779709666
            ],
            [
              110.833517829,
              -1.780804355
            ],
            [
              110.833550065,
              -1.781654793
            ],
            [
              110.834050147,
              -1.782143386
            ],
            [
              110.834531991,
              -1.782351516
            ],
            [
              110.83549119,
              -1.782704441
            ],
            [
              110.835977548,
              -1.78272258
            ],
            [
              110.836545892,
              -1.78337403
            ],
            [
              110.837041229,
              -1.783509781
            ],
            [
              110.837350532,
              -1.784034546
            ],
            [
              110.837273476,
              -1.784830693
            ],
            [
              110.83717395,
              -1.785527318
            ],
            [
              110.837033385,
              -1.786450117
            ],
            [
              110.836829313,
              -1.787427194
            ],
            [
              110.836729527,
              -1.787915736
            ],
            [
              110.836653187,
              -1.790132287
            ],
            [
              110.836517393,
              -1.791082231
            ],
            [
              110.836009233,
              -1.792936857
            ],
            [
              110.835773647,
              -1.794411529
            ],
            [
              110.835406492,
              -1.796727574
            ],
            [
              110.835175846,
              -1.799495994
            ],
            [
              110.83512656,
              -1.80078069
            ],
            [
              110.83499523,
              -1.802074426
            ],
            [
              110.834895937,
              -1.803295787
            ],
            [
              110.834868901,
              -1.803992417
            ],
            [
              110.834515021,
              -1.805476123
            ],
            [
              110.834397446,
              -1.80689652
            ],
            [
              110.833962537,
              -1.809565401
            ],
            [
              110.833880969,
              -1.810515348
            ],
            [
              110.833531619,
              -1.811600978
            ],
            [
              110.83316375,
              -1.812406143
            ],
            [
              110.832641369,
              -1.812948924
            ],
            [
              110.831201498,
              -1.814667757
            ],
            [
              110.830570081,
              -1.815382424
            ],
            [
              110.829784392,
              -1.816268974
            ],
            [
              110.8290392,
              -1.816766498
            ],
            [
              110.828453309,
              -1.81738165
            ],
            [
              110.827808123,
              -1.818105362
            ],
            [
              110.827404269,
              -1.81908242
            ],
            [
              110.827181946,
              -1.819842362
            ],
            [
              110.827091397,
              -1.82062041
            ],
            [
              110.826546681,
              -1.822565502
            ],
            [
              110.826279103,
              -1.823479241
            ],
            [
              110.826038526,
              -1.824139662
            ],
            [
              110.82583942,
              -1.825958126
            ],
            [
              110.825803374,
              -1.82679951
            ],
            [
              110.825644561,
              -1.827432796
            ],
            [
              110.825576776,
              -1.828147516
            ],
            [
              110.825363446,
              -1.828853176
            ],
            [
              110.825118362,
              -1.829604069
            ],
            [
              110.824828232,
              -1.831277768
            ],
            [
              110.824487865,
              -1.832336254
            ],
            [
              110.824033727,
              -1.833141408
            ],
            [
              110.823511306,
              -1.834000837
            ],
            [
              110.823043924,
              -1.835195019
            ],
            [
              110.822753333,
              -1.835810198
            ],
            [
              110.822485236,
              -1.836253483
            ],
            [
              110.822135624,
              -1.837022458
            ],
            [
              110.821976801,
              -1.837728123
            ],
            [
              110.821795489,
              -1.838551397
            ],
            [
              110.821968739,
              -1.839691359
            ],
            [
              110.822168989,
              -1.840578003
            ],
            [
              110.822301485,
              -1.841853666
            ],
            [
              110.822506216,
              -1.842885065
            ],
            [
              110.822893469,
              -1.845065474
            ],
            [
              110.823047932,
              -1.845843546
            ],
            [
              110.823098485,
              -1.846078777
            ],
            [
              110.823153236,
              -1.846485906
            ],
            [
              110.823198727,
              -1.846766374
            ],
            [
              110.823203503,
              -1.846766374
            ],
            [
              110.823253478,
              -1.847164455
            ],
            [
              110.823253732,
              -1.847426821
            ],
            [
              110.8231992,
              -1.847662044
            ],
            [
              110.823162931,
              -1.847879173
            ],
            [
              110.823094905,
              -1.848177721
            ],
            [
              110.823016217,
              -1.84832247
            ],
            [
              110.823025471,
              -1.848503414
            ],
            [
              110.82301812,
              -1.848964819
            ],
            [
              110.822800022,
              -1.849543816
            ],
            [
              110.822850299,
              -1.849733811
            ],
            [
              110.822773011,
              -1.849914747
            ],
            [
              110.822646191,
              -1.850900877
            ],
            [
              110.822578158,
              -1.85125371
            ],
            [
              110.82242383,
              -1.851968421
            ],
            [
              110.822469577,
              -1.852493162
            ],
            [
              110.822769895,
              -1.852990787
            ],
            [
              110.823233475,
              -1.853388909
            ],
            [
              110.823779093,
              -1.853850369
            ],
            [
              110.82363856,
              -1.854275575
            ],
            [
              110.823456717,
              -1.854764102
            ],
            [
              110.823184381,
              -1.855433566
            ],
            [
              110.822948324,
              -1.855768287
            ],
            [
              110.822648712,
              -1.856627739
            ],
            [
              110.822562672,
              -1.857233891
            ],
            [
              110.822410321,
              -1.85783099
            ],
            [
              110.822649413,
              -1.858057192
            ],
            [
              110.822853935,
              -1.858382912
            ],
            [
              110.822995219,
              -1.858871474
            ],
            [
              110.823108965,
              -1.859396222
            ],
            [
              110.823095437,
              -1.859794296
            ],
            [
              110.823031897,
              -1.860192364
            ],
            [
              110.822954861,
              -1.86066281
            ],
            [
              110.822909593,
              -1.860952315
            ],
            [
              110.822614501,
              -1.861576541
            ],
            [
              110.822323903,
              -1.862200765
            ],
            [
              110.822019814,
              -1.862861178
            ],
            [
              110.821706443,
              -1.863612064
            ],
            [
              110.821388837,
              -1.864580079
            ],
            [
              110.82131176,
              -1.865439551
            ],
            [
              110.821275971,
              -1.866479974
            ],
            [
              110.821199394,
              -1.867963701
            ],
            [
              110.821181331,
              -1.868750802
            ],
            [
              110.820908994,
              -1.869384077
            ],
            [
              110.820681907,
              -1.869908789
            ],
            [
              110.820714382,
              -1.871084925
            ],
            [
              110.821055895,
              -1.872677263
            ],
            [
              110.821434394,
              -1.875319077
            ],
            [
              110.821612116,
              -1.876712358
            ],
            [
              110.821698839,
              -1.877707555
            ],
            [
              110.821726818,
              -1.878883691
            ],
            [
              110.82172274,
              -1.880313144
            ],
            [
              110.82184213,
              -1.883353006
            ],
            [
              110.821931062,
              -1.884746282
            ],
            [
              110.821933867,
              -1.884791517
            ],
            [
              110.822175567,
              -1.887044287
            ],
            [
              110.821740936,
              -1.889055359
            ],
            [
              110.821739552,
              -1.889061761
            ],
            [
              110.821783844,
              -1.889074671
            ],
            [
              110.821801648,
              -1.889079861
            ],
            [
              110.822458845,
              -1.889378486
            ],
            [
              110.822579094,
              -1.889505159
            ],
            [
              110.822706366,
              -1.88964088
            ],
            [
              110.823078083,
              -1.88992138
            ],
            [
              110.823268013,
              -1.890084249
            ],
            [
              110.823420853,
              -1.890256161
            ],
            [
              110.823572564,
              -1.890473309
            ],
            [
              110.823704883,
              -1.890726642
            ],
            [
              110.823891426,
              -1.891034265
            ],
            [
              110.824160861,
              -1.891350944
            ],
            [
              110.824407255,
              -1.891658573
            ],
            [
              110.824699448,
              -1.891984302
            ],
            [
              110.824901173,
              -1.892219547
            ],
            [
              110.825079856,
              -1.892472886
            ],
            [
              110.825027848,
              -1.892717155
            ],
            [
              110.824883414,
              -1.892780471
            ],
            [
              110.824615632,
              -1.892798537
            ],
            [
              110.824325657,
              -1.892771367
            ],
            [
              110.824039329,
              -1.892789432
            ],
            [
              110.823766489,
              -1.892816545
            ],
            [
              110.823477642,
              -1.892744139
            ],
            [
              110.823255941,
              -1.892762212
            ],
            [
              110.823154222,
              -1.892771247
            ],
            [
              110.822766158,
              -1.89298834
            ],
            [
              110.822550061,
              -1.893160214
            ],
            [
              110.822354925,
              -1.893298271
            ],
            [
              110.823351926,
              -1.893875023
            ],
            [
              110.823687403,
              -1.894092189
            ],
            [
              110.824248224,
              -1.894372708
            ],
            [
              110.825125713,
              -1.894698495
            ],
            [
              110.825802004,
              -1.89515997
            ],
            [
              110.826337807,
              -1.895567147
            ],
            [
              110.82808209,
              -1.89643585
            ],
            [
              110.82922483,
              -1.896797852
            ],
            [
              110.830188877,
              -1.897024127
            ],
            [
              110.831143097,
              -1.897168974
            ],
            [
              110.83240865,
              -1.8973229
            ],
            [
              110.833303004,
              -1.897639639
            ],
            [
              110.834278572,
              -1.897847817
            ],
            [
              110.835514363,
              -1.89777556
            ],
            [
              110.836583517,
              -1.897838992
            ],
            [
              110.837569506,
              -1.897802897
            ],
            [
              110.83808512,
              -1.89778485
            ],
            [
              110.838560832,
              -1.897793943
            ],
            [
              110.839009859,
              -1.89771256
            ],
            [
              110.839460579,
              -1.897531658
            ],
            [
              110.840462634,
              -1.89696178
            ],
            [
              110.840927955,
              -1.896907541
            ],
            [
              110.841137007,
              -1.896925654
            ],
            [
              110.841526167,
              -1.89701616
            ],
            [
              110.841791416,
              -1.897061421
            ],
            [
              110.842146577,
              -1.897142879
            ],
            [
              110.842731574,
              -1.897351018
            ],
            [
              110.843495835,
              -1.89765869
            ],
            [
              110.844090122,
              -1.897676839
            ],
            [
              110.844895413,
              -1.897903091
            ],
            [
              110.845561881,
              -1.898292182
            ],
            [
              110.846475894,
              -1.898762715
            ],
            [
              110.847306487,
              -1.898862309
            ],
            [
              110.848488572,
              -1.899233348
            ],
            [
              110.849447004,
              -1.899450564
            ],
            [
              110.85063612,
              -1.899758271
            ],
            [
              110.851290222,
              -1.900201642
            ],
            [
              110.851742302,
              -1.900545473
            ],
            [
              110.851892891,
              -1.900807854
            ],
            [
              110.852125795,
              -1.901214997
            ],
            [
              110.852341547,
              -1.901775942
            ],
            [
              110.852626376,
              -1.902870675
            ],
            [
              110.852865738,
              -1.903359243
            ]
          ]
        ]
      }
    }
  ]
}