{
  "type": "FeatureCollection",
  "features": [
    {
      "type": "Feature",
      "properties": {
        "idx": "832",
        "nama_kewilayahan": "Kanayatn Benatu"
      },
      "geometry": {
        "type": "Polygon",
        "coordinates": [
          [
            [
              110.852865738,
              -1.903359243
            ],
            [
              110.852626376,
              -1.902870675
            ],
            [
              110.852341547,
              -1.901775942
            ],
            [
              110.852125795,
              -1.901214997
            ],
            [
              110.851892891,
              -1.900807854
            ],
            [
              110.851742302,
              -1.900545473
            ],
            [
              110.851290222,
              -1.900201642
            ],
            [
              110.85063612,
              -1.899758271
            ],
            [
              110.849447004,
              -1.899450564
            ],
            [
              110.848488572,
              -1.899233348
            ],
            [
              110.847306487,
              -1.898862309
            ],
            [
              110.846475894,
              -1.898762715
            ],
            [
              110.845561881,
              -1.898292182
            ],
            [
              110.844895413,
              -1.897903091
            ],
            [
              110.844090122,
              -1.897676839
            ],
            [
              110.843495835,
              -1.89765869
            ],
            [
              110.842731574,
              -1.897351018
            ],
            [
              110.842146577,
              -1.897142879
            ],
            [
              110.841791416,
              -1.897061421
            ],
            [
              110.841526167,
              -1.89701616
            ],
            [
              110.841137007,
              -1.896925654
            ],
            [
              110.840927955,
              -1.896907541
            ],
            [
              110.840462634,
              -1.89696178
            ],
            [
              110.839460579,
              -1.897531658
            ],
            [
              110.839009859,
              -1.89771256
            ],
            [
              110.838560832,
              -1.897793943
            ],
            [
              110.83808512,
              -1.89778485
            ],
            [
              110.837569506,
              -1.897802897
            ],
            [
              110.836583517,
              -1.897838992
            ],
            [
              110.835514363,
              -1.89777556
            ],
            [
              110.834278572,
              -1.897847817
            ],
            [
              110.833303004,
              -1.897639639
            ],
            [
              110.83240865,
              -1.8973229
            ],
            [
              110.831143097,
              -1.897168974
            ],
            [
              110.830188877,
              -1.897024127
            ],
            [
              110.82922483,
              -1.896797852
            ],
            [
              110.82808209,
              -1.89643585
            ],
            [
              110.826337807,
              -1.895567147
            ],
            [
              110.825802004,
              -1.89515997
            ],
            [
              110.825125713,
              -1.894698495
            ],
            [
              110.824248224,
              -1.894372708
            ],
            [
              110.823687403,
              -1.894092189
            ],
            [
              110.823351926,
              -1.893875023
            ],
            [
              110.822354925,
              -1.893298271
            ],
            [
              110.822268774,
              -1.893359222
            ],
            [
              110.822033569,
              -1.893549189
            ],
            [
              110.82164633,
              -1.89392913
            ],
            [
              110.821360827,
              -1.894110044
            ],
            [
              110.820881427,
              -1.894480927
            ],
            [
              110.820552927,
              -1.894734214
            ],
            [
              110.820094893,
              -1.89497844
            ],
            [
              110.819799835,
              -1.895177447
            ],
            [
              110.819469663,
              -1.895295025
            ],
            [
              110.819119535,
              -1.895466885
            ],
            [
              110.818788234,
              -1.895638746
            ],
            [
              110.818522952,
              -1.895928227
            ],
            [
              110.818350114,
              -1.896217718
            ],
            [
              110.818224769,
              -1.896452932
            ],
            [
              110.818085093,
              -1.896697191
            ],
            [
              110.817879941,
              -1.896995726
            ],
            [
              110.817475587,
              -1.897122343
            ],
            [
              110.81713636,
              -1.897827986
            ],
            [
              110.816966306,
              -1.898379846
            ],
            [
              110.816901072,
              -1.898805056
            ],
            [
              110.816946547,
              -1.89922123
            ],
            [
              110.816942575,
              -1.899583115
            ],
            [
              110.81696475,
              -1.899818345
            ],
            [
              110.816508948,
              -1.900180182
            ],
            [
              110.815555522,
              -1.900514826
            ],
            [
              110.814613603,
              -1.900958036
            ],
            [
              110.814577882,
              -1.901292777
            ],
            [
              110.81436263,
              -1.90142846
            ],
            [
              110.813889674,
              -1.901926004
            ],
            [
              110.813160747,
              -1.902333047
            ],
            [
              110.812632175,
              -1.902640593
            ],
            [
              110.812264868,
              -1.903156241
            ],
            [
              110.811476287,
              -1.904323238
            ],
            [
              110.811611364,
              -1.905056073
            ],
            [
              110.811685742,
              -1.905825092
            ],
            [
              110.812051794,
              -1.906530811
            ],
            [
              110.81235995,
              -1.907354134
            ],
            [
              110.812588601,
              -1.908032698
            ],
            [
              110.812640244,
              -1.908584581
            ],
            [
              110.812439888,
              -1.908665984
            ],
            [
              110.811867251,
              -1.908503071
            ],
            [
              110.811192046,
              -1.908385384
            ],
            [
              110.810432258,
              -1.908331019
            ],
            [
              110.809745806,
              -1.908285705
            ],
            [
              110.809236117,
              -1.908068518
            ],
            [
              110.808804534,
              -1.907914668
            ],
            [
              110.808558663,
              -1.907968922
            ],
            [
              110.808133241,
              -1.90801411
            ],
            [
              110.807747731,
              -1.90794169
            ],
            [
              110.806286051,
              -1.907715345
            ],
            [
              110.80552179,
              -1.907461939
            ],
            [
              110.804671837,
              -1.907127096
            ],
            [
              110.80431671,
              -1.906738028
            ],
            [
              110.803619643,
              -1.906167977
            ],
            [
              110.803276613,
              -1.90565225
            ],
            [
              110.802878163,
              -1.905733628
            ],
            [
              110.802429938,
              -1.906158794
            ],
            [
              110.801555725,
              -1.906656286
            ],
            [
              110.800911967,
              -1.906764777
            ],
            [
              110.800551478,
              -1.906601885
            ],
            [
              110.799780793,
              -1.906022777
            ],
            [
              110.799187094,
              -1.905769388
            ],
            [
              110.798602597,
              -1.906113112
            ],
            [
              110.797964114,
              -1.906782526
            ],
            [
              110.797018753,
              -1.907759507
            ],
            [
              110.796605639,
              -1.908266099
            ],
            [
              110.795769103,
              -1.908537414
            ],
            [
              110.794080335,
              -1.908754342
            ],
            [
              110.792884181,
              -1.908627538
            ],
            [
              110.792820957,
              -1.908627529
            ],
            [
              110.792811123,
              -1.908627529
            ],
            [
              110.79281702,
              -1.908663718
            ],
            [
              110.792838074,
              -1.908835615
            ],
            [
              110.792969512,
              -1.909378462
            ],
            [
              110.793003748,
              -1.909740353
            ],
            [
              110.793201249,
              -1.910029885
            ],
            [
              110.793307438,
              -1.91024703
            ],
            [
              110.793375401,
              -1.910536547
            ],
            [
              110.793464171,
              -1.910735594
            ],
            [
              110.793613352,
              -1.910943698
            ],
            [
              110.793728247,
              -1.911187985
            ],
            [
              110.793825726,
              -1.911396082
            ],
            [
              110.79391616,
              -1.911767025
            ],
            [
              110.793993946,
              -1.91216511
            ],
            [
              110.794101525,
              -1.912499866
            ],
            [
              110.794342812,
              -1.913205574
            ],
            [
              110.794476796,
              -1.913603666
            ],
            [
              110.794731608,
              -1.913983676
            ],
            [
              110.795033906,
              -1.914381788
            ],
            [
              110.795314017,
              -1.914689424
            ],
            [
              110.795528103,
              -1.914924675
            ],
            [
              110.795734593,
              -1.915232304
            ],
            [
              110.795889381,
              -1.915548973
            ],
            [
              110.796036573,
              -1.915956112
            ],
            [
              110.796124782,
              -1.916137066
            ],
            [
              110.796202294,
              -1.916480868
            ],
            [
              110.79633855,
              -1.916698016
            ],
            [
              110.796507097,
              -1.91709611
            ],
            [
              110.796665544,
              -1.917349451
            ],
            [
              110.79695691,
              -1.917539475
            ],
            [
              110.797563226,
              -1.918055234
            ],
            [
              110.79774331,
              -1.91832667
            ],
            [
              110.797993073,
              -1.91864335
            ],
            [
              110.798092775,
              -1.919059531
            ],
            [
              110.798149484,
              -1.919502849
            ],
            [
              110.798152822,
              -1.919792358
            ],
            [
              110.798173301,
              -1.920072823
            ],
            [
              110.798149952,
              -1.920298999
            ],
            [
              110.798155514,
              -1.920796593
            ],
            [
              110.798154077,
              -1.921058961
            ],
            [
              110.798173445,
              -1.921248953
            ],
            [
              110.79824002,
              -1.92141181
            ],
            [
              110.798299275,
              -1.921692279
            ],
            [
              110.798396756,
              -1.921900375
            ],
            [
              110.798521197,
              -1.922226087
            ],
            [
              110.798580453,
              -1.922497509
            ],
            [
              110.798626508,
              -1.922732739
            ],
            [
              110.798709069,
              -1.92317606
            ],
            [
              110.798833512,
              -1.923483679
            ],
            [
              110.798936873,
              -1.923854625
            ],
            [
              110.799090227,
              -1.924433659
            ],
            [
              110.79922588,
              -1.924985553
            ],
            [
              110.79934949,
              -1.925211747
            ],
            [
              110.799502056,
              -1.925329377
            ],
            [
              110.799575629,
              -1.925727461
            ],
            [
              110.799432842,
              -1.92608933
            ],
            [
              110.799244515,
              -1.926623092
            ],
            [
              110.799163253,
              -1.927093532
            ],
            [
              110.799198884,
              -1.927563988
            ],
            [
              110.799273293,
              -1.92803445
            ],
            [
              110.799286729,
              -1.928477761
            ],
            [
              110.799068611,
              -1.929056753
            ],
            [
              110.798706636,
              -1.929527163
            ],
            [
              110.797920377,
              -1.929898003
            ],
            [
              110.797520229,
              -1.930024615
            ],
            [
              110.796834592,
              -1.930142146
            ],
            [
              110.796567641,
              -1.930223537
            ],
            [
              110.796064085,
              -1.930368232
            ],
            [
              110.795788423,
              -1.930431529
            ],
            [
              110.79507777,
              -1.930621433
            ],
            [
              110.794892866,
              -1.930720928
            ],
            [
              110.794773431,
              -1.930829481
            ],
            [
              110.794554801,
              -1.930983254
            ],
            [
              110.794324635,
              -1.931254641
            ],
            [
              110.794495729,
              -1.931498935
            ],
            [
              110.794639863,
              -1.931625614
            ],
            [
              110.7949152,
              -1.931924203
            ],
            [
              110.795091301,
              -1.932611807
            ],
            [
              110.795297515,
              -1.93290134
            ],
            [
              110.795613301,
              -1.933317549
            ],
            [
              110.795866447,
              -1.933561853
            ],
            [
              110.79635166,
              -1.9340776
            ],
            [
              110.79677308,
              -1.934656668
            ],
            [
              110.797069498,
              -1.93491907
            ],
            [
              110.797410856,
              -1.935317187
            ],
            [
              110.797990449,
              -1.936140547
            ],
            [
              110.798342465,
              -1.936719607
            ],
            [
              110.798706294,
              -1.937208197
            ],
            [
              110.7991822,
              -1.938040591
            ],
            [
              110.799455548,
              -1.93852917
            ],
            [
              110.799596577,
              -1.938791555
            ],
            [
              110.799869371,
              -1.939225851
            ],
            [
              110.800128359,
              -1.939976796
            ],
            [
              110.800229777,
              -1.940157751
            ],
            [
              110.800290736,
              -1.940293466
            ],
            [
              110.800367145,
              -1.940474416
            ],
            [
              110.800526707,
              -1.94084537
            ],
            [
              110.800666626,
              -1.940990141
            ],
            [
              110.801043384,
              -1.941451591
            ],
            [
              110.801340918,
              -1.941795418
            ],
            [
              110.801608059,
              -1.942519222
            ],
            [
              110.801744597,
              -1.942727322
            ],
            [
              110.801869598,
              -1.94309827
            ],
            [
              110.801928298,
              -1.943333503
            ],
            [
              110.802112878,
              -1.943623034
            ],
            [
              110.802331187,
              -1.943831145
            ],
            [
              110.802376405,
              -1.944012093
            ],
            [
              110.802481483,
              -1.944138765
            ],
            [
              110.802839156,
              -1.944428316
            ],
            [
              110.80306029,
              -1.944509765
            ],
            [
              110.803381729,
              -1.944672652
            ],
            [
              110.803797589,
              -1.944772221
            ],
            [
              110.804178052,
              -1.944808453
            ],
            [
              110.80454559,
              -1.944835636
            ],
            [
              110.804943196,
              -1.944853777
            ],
            [
              110.805345573,
              -1.944926201
            ],
            [
              110.805638059,
              -1.94519765
            ],
            [
              110.805879995,
              -1.945197678
            ],
            [
              110.806499015,
              -1.945306316
            ],
            [
              110.806847157,
              -1.945405875
            ],
            [
              110.807035962,
              -1.94561398
            ],
            [
              110.807031184,
              -1.945623028
            ],
            [
              110.807159855,
              -1.945831127
            ],
            [
              110.807716444,
              -1.946392115
            ],
            [
              110.808087886,
              -1.946690714
            ],
            [
              110.808228652,
              -1.94679025
            ],
            [
              110.808860296,
              -1.947097924
            ],
            [
              110.809167417,
              -1.947152241
            ],
            [
              110.809703014,
              -1.946989454
            ],
            [
              110.810366726,
              -1.946980484
            ],
            [
              110.810643797,
              -1.946890042
            ],
            [
              110.811119538,
              -1.946754389
            ],
            [
              110.811541037,
              -1.946691106
            ],
            [
              110.81188919,
              -1.946700192
            ],
            [
              110.812182822,
              -1.946781651
            ],
            [
              110.812582854,
              -1.9477226
            ],
            [
              110.812653905,
              -1.94809354
            ],
            [
              110.81269236,
              -1.948473525
            ],
            [
              110.812827764,
              -1.948808286
            ],
            [
              110.813052236,
              -1.949197339
            ],
            [
              110.813199174,
              -1.949396392
            ],
            [
              110.813294694,
              -1.949568299
            ],
            [
              110.813424221,
              -1.949685927
            ],
            [
              110.813473672,
              -1.949731168
            ],
            [
              110.813818724,
              -1.949830725
            ],
            [
              110.814022728,
              -1.949821702
            ],
            [
              110.814181484,
              -1.949885048
            ],
            [
              110.814314376,
              -1.950056958
            ],
            [
              110.814404283,
              -1.950165536
            ],
            [
              110.81482662,
              -1.950165582
            ],
            [
              110.815036514,
              -1.95024703
            ],
            [
              110.815208731,
              -1.950563698
            ],
            [
              110.815357872,
              -1.95118797
            ],
            [
              110.815381441,
              -1.951495576
            ],
            [
              110.815712876,
              -1.952789356
            ],
            [
              110.815680777,
              -1.953395512
            ],
            [
              110.815721498,
              -1.953612649
            ],
            [
              110.815809976,
              -1.953929311
            ],
            [
              110.816024031,
              -1.954535493
            ],
            [
              110.816140051,
              -1.954825014
            ],
            [
              110.816272072,
              -1.955250247
            ],
            [
              110.816377983,
              -1.955494531
            ],
            [
              110.816415908,
              -1.95557596
            ],
            [
              110.81652238,
              -1.955820243
            ],
            [
              110.816665104,
              -1.956028345
            ],
            [
              110.816819051,
              -1.956381201
            ],
            [
              110.816881141,
              -1.956480726
            ],
            [
              110.817049139,
              -1.956824536
            ],
            [
              110.817212082,
              -1.957150253
            ],
            [
              110.817394967,
              -1.957557395
            ],
            [
              110.817523051,
              -1.958036909
            ],
            [
              110.817616587,
              -1.958362616
            ],
            [
              110.817665713,
              -1.958824028
            ],
            [
              110.817710342,
              -1.959285438
            ],
            [
              110.817805829,
              -1.959764949
            ],
            [
              110.817806885,
              -1.960398249
            ],
            [
              110.817822855,
              -1.960832516
            ],
            [
              110.817885751,
              -1.961266785
            ],
            [
              110.817955095,
              -1.96184581
            ],
            [
              110.817937355,
              -1.962189601
            ],
            [
              110.817943496,
              -1.962569583
            ],
            [
              110.817971282,
              -1.962859095
            ],
            [
              110.81805443,
              -1.963121472
            ],
            [
              110.818254187,
              -1.963429096
            ],
            [
              110.818532066,
              -1.963682448
            ],
            [
              110.819026296,
              -1.964107719
            ],
            [
              110.819365148,
              -1.964406311
            ],
            [
              110.819575607,
              -1.964505854
            ],
            [
              110.819889741,
              -1.964713971
            ],
            [
              110.820263452,
              -1.964867813
            ],
            [
              110.820649538,
              -1.964922138
            ],
            [
              110.821744562,
              -1.965184624
            ],
            [
              110.822355154,
              -1.965356586
            ],
            [
              110.822507175,
              -1.965356601
            ],
            [
              110.822522067,
              -1.965356603
            ],
            [
              110.822559439,
              -1.965356609
            ],
            [
              110.823299856,
              -1.965510488
            ],
            [
              110.82377585,
              -1.965673388
            ],
            [
              110.824196208,
              -1.965827236
            ],
            [
              110.82455925,
              -1.965899651
            ],
            [
              110.825270453,
              -1.965972103
            ],
            [
              110.825669471,
              -1.965963098
            ],
            [
              110.825928557,
              -1.965917888
            ],
            [
              110.826317746,
              -1.965863646
            ],
            [
              110.82657711,
              -1.965836532
            ],
            [
              110.827023054,
              -1.965854671
            ],
            [
              110.827208514,
              -1.965845647
            ],
            [
              110.827444835,
              -1.965836623
            ],
            [
              110.827880948,
              -1.965809526
            ],
            [
              110.828075401,
              -1.965791453
            ],
            [
              110.828599745,
              -1.965782459
            ],
            [
              110.829281731,
              -1.965764436
            ],
            [
              110.829773203,
              -1.965728297
            ],
            [
              110.830226743,
              -1.96564692
            ],
            [
              110.830647968,
              -1.965574583
            ],
            [
              110.831466255,
              -1.965384678
            ],
            [
              110.831995936,
              -1.965411872
            ],
            [
              110.832274125,
              -1.965402854
            ],
            [
              110.832676803,
              -1.965330517
            ],
            [
              110.833106463,
              -1.965212947
            ],
            [
              110.833503527,
              -1.965068231
            ],
            [
              110.833872214,
              -1.964914467
            ],
            [
              110.834748625,
              -1.965158827
            ],
            [
              110.835267607,
              -1.965394107
            ],
            [
              110.835908814,
              -1.965728914
            ],
            [
              110.836432013,
              -1.965946097
            ],
            [
              110.836970099,
              -1.966217566
            ],
            [
              110.837353366,
              -1.966380454
            ],
            [
              110.837756015,
              -1.966615719
            ],
            [
              110.838131406,
              -1.966869077
            ],
            [
              110.838305051,
              -1.966986706
            ],
            [
              110.838545285,
              -1.967203861
            ],
            [
              110.838740269,
              -1.967502438
            ],
            [
              110.838925675,
              -1.968063379
            ],
            [
              110.839058821,
              -1.968560988
            ],
            [
              110.839215011,
              -1.969040502
            ],
            [
              110.839490326,
              -1.969710021
            ],
            [
              110.839721009,
              -1.96990908
            ],
            [
              110.839794328,
              -1.970144313
            ],
            [
              110.84030038,
              -1.97044292
            ],
            [
              110.841008738,
              -1.970886299
            ],
            [
              110.841416748,
              -1.970904433
            ],
            [
              110.841839658,
              -1.970850191
            ],
            [
              110.842279987,
              -1.970832138
            ],
            [
              110.842927663,
              -1.971139803
            ],
            [
              110.843327485,
              -1.971565058
            ],
            [
              110.843612392,
              -1.971854595
            ],
            [
              110.843805408,
              -1.972198405
            ],
            [
              110.844372574,
              -1.974062176
            ],
            [
              110.844689483,
              -1.974695509
            ],
            [
              110.845437296,
              -1.975039031
            ],
            [
              110.845438038,
              -1.975039372
            ],
            [
              110.845480762,
              -1.97489462
            ],
            [
              110.845757889,
              -1.974252297
            ],
            [
              110.845990616,
              -1.973609969
            ],
            [
              110.846392178,
              -1.973474298
            ],
            [
              110.847005317,
              -1.973519592
            ],
            [
              110.847333266,
              -1.973275348
            ],
            [
              110.847671642,
              -1.972714455
            ],
            [
              110.847987511,
              -1.972434022
            ],
            [
              110.848032035,
              -1.972398918
            ],
            [
              110.848457939,
              -1.972063129
            ],
            [
              110.848866556,
              -1.971601762
            ],
            [
              110.848905105,
              -1.971022747
            ],
            [
              110.849127398,
              -1.97078754
            ],
            [
              110.849309227,
              -1.970534236
            ],
            [
              110.84941352,
              -1.970054745
            ],
            [
              110.849451223,
              -1.969511917
            ],
            [
              110.849649102,
              -1.968896728
            ],
            [
              110.849899821,
              -1.968145835
            ],
            [
              110.850642802,
              -1.967955911
            ],
            [
              110.851189093,
              -1.967630261
            ],
            [
              110.851762622,
              -1.967530795
            ],
            [
              110.852167547,
              -1.967467498
            ],
            [
              110.852763072,
              -1.966472363
            ],
            [
              110.852723479,
              -1.966173805
            ],
            [
              110.852656648,
              -1.965630966
            ],
            [
              110.852587296,
              -1.964997659
            ],
            [
              110.852482826,
              -1.964301017
            ],
            [
              110.852387066,
              -1.963613423
            ],
            [
              110.852217678,
              -1.9629982
            ],
            [
              110.85189376,
              -1.962156782
            ],
            [
              110.851575992,
              -1.961686302
            ],
            [
              110.85120877,
              -1.961197723
            ],
            [
              110.850720142,
              -1.960890073
            ],
            [
              110.850277317,
              -1.960564336
            ],
            [
              110.850029223,
              -1.960256709
            ],
            [
              110.849812882,
              -1.959949086
            ],
            [
              110.849703896,
              -1.959478623
            ],
            [
              110.84969158,
              -1.958944837
            ],
            [
              110.849703698,
              -1.958546763
            ],
            [
              110.849663538,
              -1.958284392
            ],
            [
              110.849485402,
              -1.95811248
            ],
            [
              110.84908808,
              -1.958012924
            ],
            [
              110.848789163,
              -1.957280075
            ],
            [
              110.849062924,
              -1.956502043
            ],
            [
              110.849449365,
              -1.955742116
            ],
            [
              110.849666332,
              -1.955316917
            ],
            [
              110.849974627,
              -1.954864586
            ],
            [
              110.850200304,
              -1.954457485
            ],
            [
              110.850314433,
              -1.953941805
            ],
            [
              110.850386972,
              -1.953471357
            ],
            [
              110.850335303,
              -1.95310042
            ],
            [
              110.850315145,
              -1.952259032
            ],
            [
              110.850398933,
              -1.951680019
            ],
            [
              110.85053161,
              -1.951155294
            ],
            [
              110.850579129,
              -1.950811505
            ],
            [
              110.8506483,
              -1.950286776
            ],
            [
              110.850788558,
              -1.94983443
            ],
            [
              110.851008891,
              -1.949463515
            ],
            [
              110.851327305,
              -1.9489569
            ],
            [
              110.851756439,
              -1.948350777
            ],
            [
              110.851759565,
              -1.947952703
            ],
            [
              110.851647192,
              -1.947663182
            ],
            [
              110.851578931,
              -1.94742795
            ],
            [
              110.851247958,
              -1.946948422
            ],
            [
              110.850958013,
              -1.946459845
            ],
            [
              110.850901566,
              -1.946097956
            ],
            [
              110.85077008,
              -1.945862717
            ],
            [
              110.850549266,
              -1.945310818
            ],
            [
              110.850402903,
              -1.944894636
            ],
            [
              110.850249243,
              -1.944406074
            ],
            [
              110.850100644,
              -1.943863231
            ],
            [
              110.849983493,
              -1.943591805
            ],
            [
              110.849896702,
              -1.943157534
            ],
            [
              110.849741067,
              -1.942759442
            ],
            [
              110.849569726,
              -1.941999464
            ],
            [
              110.849348067,
              -1.941492802
            ],
            [
              110.849051108,
              -1.940895662
            ],
            [
              110.848940993,
              -1.940488529
            ],
            [
              110.8485516,
              -1.939746626
            ],
            [
              110.848370119,
              -1.939285202
            ],
            [
              110.848158558,
              -1.938959486
            ],
            [
              110.847523031,
              -1.938036616
            ],
            [
              110.847243535,
              -1.937005212
            ],
            [
              110.846903857,
              -1.936507587
            ],
            [
              110.846704112,
              -1.936037115
            ],
            [
              110.846428525,
              -1.935277128
            ],
            [
              110.846200939,
              -1.935078069
            ],
            [
              110.845916296,
              -1.935023759
            ],
            [
              110.84548132,
              -1.934987531
            ],
            [
              110.84518656,
              -1.934969409
            ],
            [
              110.844730493,
              -1.935105075
            ],
            [
              110.844295808,
              -1.934978375
            ],
            [
              110.843759964,
              -1.934851663
            ],
            [
              110.843361802,
              -1.934788296
            ],
            [
              110.843060024,
              -1.934679704
            ],
            [
              110.842834953,
              -1.934616352
            ],
            [
              110.842709923,
              -1.934480634
            ],
            [
              110.842282332,
              -1.933603018
            ],
            [
              110.842166878,
              -1.933241119
            ],
            [
              110.842003098,
              -1.932797794
            ],
            [
              110.841882324,
              -1.932227809
            ],
            [
              110.841664945,
              -1.931033562
            ],
            [
              110.841606545,
              -1.930535962
            ],
            [
              110.84152988,
              -1.930047407
            ],
            [
              110.841500407,
              -1.929694563
            ],
            [
              110.841396791,
              -1.928952686
            ],
            [
              110.841490397,
              -1.928563667
            ],
            [
              110.841750366,
              -1.928020859
            ],
            [
              110.842039546,
              -1.927604717
            ],
            [
              110.842361041,
              -1.927170483
            ],
            [
              110.842937422,
              -1.92645581
            ],
            [
              110.843719779,
              -1.925650683
            ],
            [
              110.844534473,
              -1.924574143
            ],
            [
              110.845115046,
              -1.924112791
            ],
            [
              110.846095817,
              -1.922900558
            ],
            [
              110.846327723,
              -1.921923484
            ],
            [
              110.8461988,
              -1.921326357
            ],
            [
              110.845975166,
              -1.920928262
            ],
            [
              110.845527314,
              -1.92038539
            ],
            [
              110.845259288,
              -1.919942055
            ],
            [
              110.845169417,
              -1.919426357
            ],
            [
              110.846118457,
              -1.917969848
            ],
            [
              110.846652094,
              -1.917580867
            ],
            [
              110.847785995,
              -1.916422931
            ],
            [
              110.848223244,
              -1.916106319
            ],
            [
              110.84841658,
              -1.915952533
            ],
            [
              110.849397366,
              -1.914496022
            ],
            [
              110.849747545,
              -1.913754185
            ],
            [
              110.849940356,
              -1.913157088
            ],
            [
              110.850159313,
              -1.91240619
            ],
            [
              110.850445707,
              -1.9116553
            ],
            [
              110.850656518,
              -1.91085012
            ],
            [
              110.850765,
              -1.910632996
            ],
            [
              110.851009822,
              -1.909710206
            ],
            [
              110.851127032,
              -1.909275952
            ],
            [
              110.851379696,
              -1.908642671
            ],
            [
              110.851606495,
              -1.908181283
            ],
            [
              110.851733543,
              -1.907692745
            ],
            [
              110.851972719,
              -1.907059465
            ],
            [
              110.852231271,
              -1.906589033
            ],
            [
              110.852420128,
              -1.906209069
            ],
            [
              110.852642445,
              -1.90555769
            ],
            [
              110.852748215,
              -1.904173481
            ],
            [
              110.852865738,
              -1.903359243
            ]
          ]
        ]
      }
    }
  ]
}