{
  "type": "FeatureCollection",
  "features": [
    {
      "type": "Feature",
      "properties": {
        "idx": "857",
        "nama_kewilayahan": "Kanayatn Tarekng"
      },
      "geometry": {
        "type": "Polygon",
        "coordinates": [
          [
            [
              109.250631527,
              0.575862255
            ],
            [
              109.250590786,
              0.575800667
            ],
            [
              109.250519853,
              0.575693438
            ],
            [
              109.250314522,
              0.575600978
            ],
            [
              109.250176019,
              0.575538611
            ],
            [
              109.249717202,
              0.575026407
            ],
            [
              109.249495526,
              0.574724456
            ],
            [
              109.249135708,
              0.57452151
            ],
            [
              109.249076745,
              0.574512433
            ],
            [
              109.248581036,
              0.574436102
            ],
            [
              109.248415259,
              0.574492151
            ],
            [
              109.24818406,
              0.574570319
            ],
            [
              109.248137362,
              0.574607114
            ],
            [
              109.24813436,
              0.574609478
            ],
            [
              109.247824503,
              0.574427002
            ],
            [
              109.247350747,
              0.574116637
            ],
            [
              109.24696118,
              0.573886273
            ],
            [
              109.246559196,
              0.573880638
            ],
            [
              109.246073511,
              0.574022033
            ],
            [
              109.245768285,
              0.574302732
            ],
            [
              109.245447842,
              0.574776051
            ],
            [
              109.245277287,
              0.575301659
            ],
            [
              109.244936096,
              0.575692524
            ],
            [
              109.244158411,
              0.576013664
            ],
            [
              109.243659782,
              0.576260531
            ],
            [
              109.243405708,
              0.576339296
            ],
            [
              109.242985213,
              0.576276394
            ],
            [
              109.242782567,
              0.576176151
            ],
            [
              109.242620899,
              0.576089521
            ],
            [
              109.242541191,
              0.576041633
            ],
            [
              109.242319507,
              0.575774052
            ],
            [
              109.242223545,
              0.5756299
            ],
            [
              109.242164061,
              0.575540653
            ],
            [
              109.242079593,
              0.575449207
            ],
            [
              109.241969885,
              0.575277567
            ],
            [
              109.241942124,
              0.575176778
            ],
            [
              109.241884892,
              0.575066901
            ],
            [
              109.241786148,
              0.574844788
            ],
            [
              109.241740147,
              0.574727991
            ],
            [
              109.241637434,
              0.574629722
            ],
            [
              109.24151649,
              0.574478781
            ],
            [
              109.241441005,
              0.574394155
            ],
            [
              109.241343057,
              0.574318813
            ],
            [
              109.241263356,
              0.574245702
            ],
            [
              109.24103494,
              0.573962084
            ],
            [
              109.24088848,
              0.57371491
            ],
            [
              109.240889931,
              0.573563581
            ],
            [
              109.240877362,
              0.573354777
            ],
            [
              109.240860605,
              0.573072988
            ],
            [
              109.24085426,
              0.572703848
            ],
            [
              109.240731997,
              0.572282322
            ],
            [
              109.240661013,
              0.57216103
            ],
            [
              109.240432605,
              0.57184993
            ],
            [
              109.240300154,
              0.57169213
            ],
            [
              109.240224668,
              0.57160295
            ],
            [
              109.239960032,
              0.571344648
            ],
            [
              109.239594662,
              0.570942261
            ],
            [
              109.239273584,
              0.570739191
            ],
            [
              109.239141388,
              0.570668537
            ],
            [
              109.238884018,
              0.57051342
            ],
            [
              109.238617401,
              0.570307892
            ],
            [
              109.238417,
              0.57020532
            ],
            [
              109.238145876,
              0.570052563
            ],
            [
              109.237897504,
              0.569846972
            ],
            [
              109.237660349,
              0.56968031
            ],
            [
              109.2374215,
              0.569550384
            ],
            [
              109.237200343,
              0.569392839
            ],
            [
              109.237089177,
              0.569404675
            ],
            [
              109.23668215,
              0.569364668
            ],
            [
              109.236534501,
              0.569342193
            ],
            [
              109.2362659,
              0.569198588
            ],
            [
              109.236131454,
              0.569141674
            ],
            [
              109.236042231,
              0.568997524
            ],
            [
              109.235932792,
              0.568864848
            ],
            [
              109.23577959,
              0.568640633
            ],
            [
              109.235594131,
              0.56832937
            ],
            [
              109.235365451,
              0.567988456
            ],
            [
              109.235254321,
              0.567876798
            ],
            [
              109.235158943,
              0.56766048
            ],
            [
              109.235125008,
              0.567560431
            ],
            [
              109.235085481,
              0.56738401
            ],
            [
              109.235084696,
              0.567196015
            ],
            [
              109.23511087,
              0.566968924
            ],
            [
              109.235155029,
              0.566686769
            ],
            [
              109.235129268,
              0.566466726
            ],
            [
              109.235052476,
              0.56606111
            ],
            [
              109.234955708,
              0.565800035
            ],
            [
              109.234840706,
              0.565497732
            ],
            [
              109.234682749,
              0.565213924
            ],
            [
              109.23462896,
              0.564856391
            ],
            [
              109.234657383,
              0.564617855
            ],
            [
              109.234633595,
              0.564379446
            ],
            [
              109.234616815,
              0.564173148
            ],
            [
              109.234579287,
              0.56387977
            ],
            [
              109.234491782,
              0.563620958
            ],
            [
              109.234436264,
              0.563410197
            ],
            [
              109.234414987,
              0.563217639
            ],
            [
              109.234508842,
              0.562898656
            ],
            [
              109.234551549,
              0.562770123
            ],
            [
              109.23460772,
              0.562675931
            ],
            [
              109.234686643,
              0.562540416
            ],
            [
              109.234843032,
              0.562439013
            ],
            [
              109.234873646,
              0.562385399
            ],
            [
              109.235248195,
              0.562135102
            ],
            [
              109.23545006,
              0.56203357
            ],
            [
              109.235690384,
              0.561927352
            ],
            [
              109.23585297,
              0.561750287
            ],
            [
              109.235922651,
              0.561541437
            ],
            [
              109.235930848,
              0.561353409
            ],
            [
              109.235854831,
              0.56116101
            ],
            [
              109.235761127,
              0.560982489
            ],
            [
              109.235714061,
              0.560666217
            ],
            [
              109.23569728,
              0.560457624
            ],
            [
              109.235586771,
              0.560148396
            ],
            [
              109.235456305,
              0.559928711
            ],
            [
              109.235228689,
              0.559778092
            ],
            [
              109.235060007,
              0.559686904
            ],
            [
              109.234830128,
              0.559598205
            ],
            [
              109.234641507,
              0.559530009
            ],
            [
              109.234441373,
              0.559480175
            ],
            [
              109.234236475,
              0.559400564
            ],
            [
              109.234029328,
              0.559330136
            ],
            [
              109.233863437,
              0.559291687
            ],
            [
              109.233667533,
              0.559177637
            ],
            [
              109.233332171,
              0.55886686
            ],
            [
              109.233170517,
              0.558738973
            ],
            [
              109.233071773,
              0.558514565
            ],
            [
              109.232973298,
              0.558326857
            ],
            [
              109.232912689,
              0.558242379
            ],
            [
              109.232840576,
              0.558141544
            ],
            [
              109.232803829,
              0.558047675
            ],
            [
              109.232641641,
              0.557830347
            ],
            [
              109.23261612,
              0.55775019
            ],
            [
              109.232585857,
              0.55757144
            ],
            [
              109.232519106,
              0.557374452
            ],
            [
              109.232517452,
              0.557267702
            ],
            [
              109.232516079,
              0.557168088
            ],
            [
              109.232492545,
              0.557012268
            ],
            [
              109.23244962,
              0.556932033
            ],
            [
              109.23233708,
              0.556845209
            ],
            [
              109.232262147,
              0.556780576
            ],
            [
              109.232198171,
              0.556694438
            ],
            [
              109.232151882,
              0.556595058
            ],
            [
              109.232146272,
              0.556583328
            ],
            [
              109.232142064,
              0.55657453
            ],
            [
              109.232142135,
              0.556574471
            ],
            [
              109.232386907,
              0.556373998
            ],
            [
              109.232525353,
              0.555242505
            ],
            [
              109.232974308,
              0.553989267
            ],
            [
              109.233061724,
              0.553604967
            ],
            [
              109.233191301,
              0.553033851
            ],
            [
              109.232993143,
              0.551995828
            ],
            [
              109.233097783,
              0.551273832
            ],
            [
              109.233741703,
              0.550451643
            ],
            [
              109.234195153,
              0.550124891
            ],
            [
              109.234014244,
              0.549607549
            ],
            [
              109.23357716,
              0.548690441
            ],
            [
              109.233320465,
              0.548151495
            ],
            [
              109.23336214,
              0.547705328
            ],
            [
              109.233382995,
              0.546469414
            ],
            [
              109.233864408,
              0.545545864
            ],
            [
              109.23396899,
              0.545008052
            ],
            [
              109.234078071,
              0.544448868
            ],
            [
              109.234265599,
              0.543442218
            ],
            [
              109.234138565,
              0.542999428
            ],
            [
              109.23413859,
              0.542999399
            ],
            [
              109.234617628,
              0.542430426
            ],
            [
              109.235033469,
              0.542073033
            ],
            [
              109.235083159,
              0.542063651
            ],
            [
              109.235141834,
              0.5420459
            ],
            [
              109.23524177,
              0.542034097
            ],
            [
              109.235423967,
              0.541992749
            ],
            [
              109.235582572,
              0.541986897
            ],
            [
              109.235770646,
              0.542004684
            ],
            [
              109.235941036,
              0.542016568
            ],
            [
              109.236164192,
              0.542052135
            ],
            [
              109.23637584,
              0.542093598
            ],
            [
              109.236552132,
              0.542081815
            ],
            [
              109.236604906,
              0.542081831
            ],
            [
              109.236704842,
              0.54207596
            ],
            [
              109.236757053,
              0.542081168
            ],
            [
              109.236828081,
              0.542058228
            ],
            [
              109.237098412,
              0.542046474
            ],
            [
              109.237392308,
              0.54208796
            ],
            [
              109.237550907,
              0.542105776
            ],
            [
              109.237774067,
              0.542135406
            ],
            [
              109.237979824,
              0.542159135
            ],
            [
              109.238138427,
              0.542159181
            ],
            [
              109.238261374,
              0.542179032
            ],
            [
              109.238668365,
              0.542340019
            ],
            [
              109.239139431,
              0.542248844
            ],
            [
              109.23958946,
              0.542103476
            ],
            [
              109.240116674,
              0.541990417
            ],
            [
              109.240557994,
              0.541861223
            ],
            [
              109.240956354,
              0.541778609
            ],
            [
              109.241379699,
              0.541684029
            ],
            [
              109.241784798,
              0.541589901
            ],
            [
              109.242070019,
              0.54154424
            ],
            [
              109.242373759,
              0.541518612
            ],
            [
              109.24243046,
              0.541533183
            ],
            [
              109.242566029,
              0.541591614
            ],
            [
              109.242722674,
              0.541573396
            ],
            [
              109.242961003,
              0.541567178
            ],
            [
              109.243616212,
              0.541499829
            ],
            [
              109.244136422,
              0.541345897
            ],
            [
              109.24446038,
              0.541303849
            ],
            [
              109.244611167,
              0.541152104
            ],
            [
              109.244762565,
              0.540831721
            ],
            [
              109.244742163,
              0.540520083
            ],
            [
              109.244622168,
              0.539992162
            ],
            [
              109.244111183,
              0.539302837
            ],
            [
              109.243947964,
              0.538753141
            ],
            [
              109.24405669,
              0.538440661
            ],
            [
              109.244211425,
              0.53822957
            ],
            [
              109.244391416,
              0.53804749
            ],
            [
              109.24465255,
              0.537806477
            ],
            [
              109.244894353,
              0.53743377
            ],
            [
              109.245103007,
              0.537139366
            ],
            [
              109.245222862,
              0.537180129
            ],
            [
              109.24546616,
              0.537469789
            ],
            [
              109.245807741,
              0.537643967
            ],
            [
              109.246240606,
              0.53763798
            ],
            [
              109.246661703,
              0.537557139
            ],
            [
              109.247039037,
              0.537370241
            ],
            [
              109.247373687,
              0.537245924
            ],
            [
              109.247464924,
              0.53723175
            ],
            [
              109.247581988,
              0.537213523
            ],
            [
              109.247995532,
              0.537037125
            ],
            [
              109.248306359,
              0.53677214
            ],
            [
              109.248664906,
              0.536517343
            ],
            [
              109.249043939,
              0.536289397
            ],
            [
              109.249459453,
              0.536097034
            ],
            [
              109.249661913,
              0.535873384
            ],
            [
              109.250149299,
              0.535651829
            ],
            [
              109.250694832,
              0.535294958
            ],
            [
              109.250913283,
              0.535102786
            ],
            [
              109.251122443,
              0.535011286
            ],
            [
              109.251337189,
              0.535016715
            ],
            [
              109.251341647,
              0.535138447
            ],
            [
              109.251050776,
              0.535307496
            ],
            [
              109.251002142,
              0.535556803
            ],
            [
              109.25095461,
              0.535878771
            ],
            [
              109.250929816,
              0.536198591
            ],
            [
              109.250878893,
              0.53659541
            ],
            [
              109.250839771,
              0.536958253
            ],
            [
              109.250794483,
              0.53728478
            ],
            [
              109.250745564,
              0.537540903
            ],
            [
              109.250600337,
              0.537882624
            ],
            [
              109.250501161,
              0.538176993
            ],
            [
              109.250342464,
              0.538500481
            ],
            [
              109.250244438,
              0.538694986
            ],
            [
              109.250139387,
              0.538916688
            ],
            [
              109.250038297,
              0.539031779
            ],
            [
              109.249975095,
              0.539169773
            ],
            [
              109.249835793,
              0.539404889
            ],
            [
              109.249709434,
              0.539535658
            ],
            [
              109.249619857,
              0.539632668
            ],
            [
              109.249474108,
              0.539835952
            ],
            [
              109.24929606,
              0.540093487
            ],
            [
              109.249204767,
              0.540301664
            ],
            [
              109.24909522,
              0.540536964
            ],
            [
              109.248975314,
              0.540679145
            ],
            [
              109.248849514,
              0.540816661
            ],
            [
              109.248775101,
              0.540897956
            ],
            [
              109.248624856,
              0.541112543
            ],
            [
              109.248521524,
              0.541211705
            ],
            [
              109.248433908,
              0.541322316
            ],
            [
              109.248373238,
              0.541446746
            ],
            [
              109.248310319,
              0.541580219
            ],
            [
              109.248233361,
              0.541722696
            ],
            [
              109.248046283,
              0.542145826
            ],
            [
              109.247961438,
              0.542388092
            ],
            [
              109.247898759,
              0.542657741
            ],
            [
              109.247819795,
              0.542947731
            ],
            [
              109.247730461,
              0.543180882
            ],
            [
              109.247621206,
              0.543375311
            ],
            [
              109.247427724,
              0.543610053
            ],
            [
              109.247204245,
              0.54371522
            ],
            [
              109.246856364,
              0.543964829
            ],
            [
              109.246569156,
              0.544092265
            ],
            [
              109.246457973,
              0.544160337
            ],
            [
              109.246272105,
              0.544274132
            ],
            [
              109.246126927,
              0.544438842
            ],
            [
              109.246028893,
              0.544660581
            ],
            [
              109.246029134,
              0.544801279
            ],
            [
              109.24604003,
              0.544982918
            ],
            [
              109.246056219,
              0.545296216
            ],
            [
              109.246041795,
              0.545668319
            ],
            [
              109.246080152,
              0.546018076
            ],
            [
              109.246093246,
              0.546360832
            ],
            [
              109.246100174,
              0.546674055
            ],
            [
              109.246143024,
              0.54701477
            ],
            [
              109.246157592,
              0.54711863
            ],
            [
              109.246176081,
              0.547248734
            ],
            [
              109.246216117,
              0.547616686
            ],
            [
              109.246229251,
              0.547821006
            ],
            [
              109.24626766,
              0.547989197
            ],
            [
              109.24639636,
              0.548498434
            ],
            [
              109.246425209,
              0.548721022
            ],
            [
              109.246470025,
              0.549063999
            ],
            [
              109.246523858,
              0.549282249
            ],
            [
              109.246568717,
              0.549475452
            ],
            [
              109.246591701,
              0.549595066
            ],
            [
              109.246634025,
              0.54981402
            ],
            [
              109.246633975,
              0.549981952
            ],
            [
              109.246562603,
              0.550222065
            ],
            [
              109.246501358,
              0.550391853
            ],
            [
              109.246435049,
              0.550595654
            ],
            [
              109.246311748,
              0.550826321
            ],
            [
              109.246139286,
              0.551174675
            ],
            [
              109.24622537,
              0.551497528
            ],
            [
              109.246336491,
              0.551648046
            ],
            [
              109.246463898,
              0.551773695
            ],
            [
              109.246586532,
              0.551912981
            ],
            [
              109.246642901,
              0.552094883
            ],
            [
              109.246658852,
              0.552265222
            ],
            [
              109.246663611,
              0.55231291
            ],
            [
              109.246680687,
              0.552478693
            ],
            [
              109.246671946,
              0.552610274
            ],
            [
              109.246703333,
              0.552792027
            ],
            [
              109.246735031,
              0.55286403
            ],
            [
              109.24676056,
              0.552921755
            ],
            [
              109.246908751,
              0.553018058
            ],
            [
              109.247194193,
              0.553174311
            ],
            [
              109.247485554,
              0.553253385
            ],
            [
              109.247849061,
              0.55332619
            ],
            [
              109.248105886,
              0.553430014
            ],
            [
              109.248360702,
              0.553681352
            ],
            [
              109.248526233,
              0.553995648
            ],
            [
              109.248683071,
              0.554280374
            ],
            [
              109.248869619,
              0.554719618
            ],
            [
              109.248985656,
              0.555328611
            ],
            [
              109.24903013,
              0.555873574
            ],
            [
              109.249011445,
              0.55640679
            ],
            [
              109.248957655,
              0.55699648
            ],
            [
              109.248953874,
              0.557438988
            ],
            [
              109.248905716,
              0.557967463
            ],
            [
              109.248811888,
              0.558198316
            ],
            [
              109.248652613,
              0.558564936
            ],
            [
              109.248484118,
              0.55878393
            ],
            [
              109.248359953,
              0.559075885
            ],
            [
              109.248228516,
              0.559284577
            ],
            [
              109.248098203,
              0.559491716
            ],
            [
              109.247815145,
              0.559812094
            ],
            [
              109.24758684,
              0.56008745
            ],
            [
              109.24738748,
              0.56025631
            ],
            [
              109.247034486,
              0.560703305
            ],
            [
              109.246959498,
              0.560829674
            ],
            [
              109.24688844,
              0.56094972
            ],
            [
              109.246748562,
              0.561223405
            ],
            [
              109.246716169,
              0.561595361
            ],
            [
              109.246744682,
              0.561999518
            ],
            [
              109.246892773,
              0.562424902
            ],
            [
              109.247234537,
              0.562924174
            ],
            [
              109.247464365,
              0.563186704
            ],
            [
              109.247819077,
              0.563574886
            ],
            [
              109.24807079,
              0.563876137
            ],
            [
              109.24829221,
              0.56409617
            ],
            [
              109.248394922,
              0.564198288
            ],
            [
              109.248809732,
              0.564500615
            ],
            [
              109.248998048,
              0.564649387
            ],
            [
              109.249224256,
              0.564821133
            ],
            [
              109.249445966,
              0.565008702
            ],
            [
              109.249663188,
              0.565189417
            ],
            [
              109.249885469,
              0.565347491
            ],
            [
              109.250039823,
              0.565482443
            ],
            [
              109.250165561,
              0.565560441
            ],
            [
              109.25043552,
              0.565864066
            ],
            [
              109.250506227,
              0.565978009
            ],
            [
              109.250666451,
              0.566196963
            ],
            [
              109.250849129,
              0.566425109
            ],
            [
              109.250928767,
              0.566716137
            ],
            [
              109.250984803,
              0.567072823
            ],
            [
              109.25099822,
              0.567263544
            ],
            [
              109.251038876,
              0.567424955
            ],
            [
              109.251102794,
              0.567709053
            ],
            [
              109.251143681,
              0.568031613
            ],
            [
              109.251172198,
              0.568417613
            ],
            [
              109.251128006,
              0.568818991
            ],
            [
              109.251125659,
              0.569150334
            ],
            [
              109.251128614,
              0.56959288
            ],
            [
              109.25110635,
              0.569883241
            ],
            [
              109.251096168,
              0.57013736
            ],
            [
              109.251070798,
              0.570482156
            ],
            [
              109.251078579,
              0.570747728
            ],
            [
              109.251059419,
              0.570979096
            ],
            [
              109.25107757,
              0.571299212
            ],
            [
              109.251077755,
              0.57161692
            ],
            [
              109.251054107,
              0.571839175
            ],
            [
              109.25111826,
              0.572273085
            ],
            [
              109.251092077,
              0.572524799
            ],
            [
              109.251114477,
              0.572715593
            ],
            [
              109.251157798,
              0.573342263
            ],
            [
              109.251171167,
              0.57368502
            ],
            [
              109.251182874,
              0.573964263
            ],
            [
              109.251213684,
              0.57419141
            ],
            [
              109.251225144,
              0.574352634
            ],
            [
              109.251211621,
              0.574513674
            ],
            [
              109.251140536,
              0.57472196
            ],
            [
              109.251113541,
              0.574873847
            ],
            [
              109.251072785,
              0.575041521
            ],
            [
              109.250976423,
              0.575290528
            ],
            [
              109.250631527,
              0.575862255
            ]
          ]
        ]
      }
    }
  ]
}