{
  "type": "FeatureCollection",
  "features": [
    {
      "type": "Feature",
      "properties": {
        "idx": "885",
        "nama_kewilayahan": "Bukit Talaga Raden"
      },
      "geometry": {
        "type": "Polygon",
        "coordinates": [
          [
            [
              109.65307166,
              0.309720955
            ],
            [
              109.652970867,
              0.309710944
            ],
            [
              109.652687025,
              0.309647276
            ],
            [
              109.652414143,
              0.309500546
            ],
            [
              109.652227448,
              0.309400393
            ],
            [
              109.65216793,
              0.309383144
            ],
            [
              109.65204103,
              0.309346417
            ],
            [
              109.651963824,
              0.309318354
            ],
            [
              109.65191385,
              0.30929966
            ],
            [
              109.651843381,
              0.309285483
            ],
            [
              109.651747929,
              0.309234238
            ],
            [
              109.651695433,
              0.309183216
            ],
            [
              109.651366105,
              0.309144732
            ],
            [
              109.651279912,
              0.309139704
            ],
            [
              109.651193718,
              0.309130084
            ],
            [
              109.651163118,
              0.309116442
            ],
            [
              109.651125498,
              0.30909976
            ],
            [
              109.651002804,
              0.309106105
            ],
            [
              109.650898636,
              0.309144884
            ],
            [
              109.650669527,
              0.309208451
            ],
            [
              109.650544588,
              0.309212498
            ],
            [
              109.650342988,
              0.309313132
            ],
            [
              109.650199786,
              0.309420061
            ],
            [
              109.650127905,
              0.309473754
            ],
            [
              109.650077927,
              0.309480461
            ],
            [
              109.649962249,
              0.309514542
            ],
            [
              109.649923779,
              0.309565166
            ],
            [
              109.649833091,
              0.309578579
            ],
            [
              109.649737911,
              0.309598919
            ],
            [
              109.649674455,
              0.309630955
            ],
            [
              109.649617741,
              0.309637626
            ],
            [
              109.649561026,
              0.309641964
            ],
            [
              109.64948831,
              0.30963701
            ],
            [
              109.649433843,
              0.309629829
            ],
            [
              109.649388922,
              0.309620709
            ],
            [
              109.64931789,
              0.309606213
            ],
            [
              109.649270163,
              0.309596738
            ],
            [
              109.649236753,
              0.309596593
            ],
            [
              109.649215695,
              0.309596485
            ],
            [
              109.649097499,
              0.309561314
            ],
            [
              109.648977332,
              0.309572287
            ],
            [
              109.648886641,
              0.309611141
            ],
            [
              109.648809432,
              0.309610776
            ],
            [
              109.64873222,
              0.309624265
            ],
            [
              109.648650521,
              0.309614641
            ],
            [
              109.64855534,
              0.309630389
            ],
            [
              109.648489361,
              0.309639283
            ],
            [
              109.648441069,
              0.309645035
            ],
            [
              109.648396427,
              0.3096504
            ],
            [
              109.648316968,
              0.309677736
            ],
            [
              109.648215049,
              0.309700372
            ],
            [
              109.648094879,
              0.30972749
            ],
            [
              109.648018507,
              0.309774647
            ],
            [
              109.647920232,
              0.309835227
            ],
            [
              109.647878398,
              0.309848399
            ],
            [
              109.647841055,
              0.309860231
            ],
            [
              109.647802587,
              0.30988775
            ],
            [
              109.647718631,
              0.309954338
            ],
            [
              109.647587503,
              0.310048371
            ],
            [
              109.647526019,
              0.310027307
            ],
            [
              109.647419333,
              0.310001431
            ],
            [
              109.647374976,
              0.309977473
            ],
            [
              109.647341849,
              0.309959518
            ],
            [
              109.647228154,
              0.309855065
            ],
            [
              109.647196151,
              0.309820296
            ],
            [
              109.64700048,
              0.309673928
            ],
            [
              109.646902503,
              0.309590358
            ],
            [
              109.646888473,
              0.309537182
            ],
            [
              109.646838504,
              0.309476938
            ],
            [
              109.646788256,
              0.309423581
            ],
            [
              109.646724531,
              0.309360965
            ],
            [
              109.646638064,
              0.30930513
            ],
            [
              109.646533624,
              0.309276958
            ],
            [
              109.646519593,
              0.309216858
            ],
            [
              109.646387918,
              0.309200094
            ],
            [
              109.646328684,
              0.309148997
            ],
            [
              109.646260467,
              0.309086346
            ],
            [
              109.646189723,
              0.309030622
            ],
            [
              109.646112521,
              0.308972527
            ],
            [
              109.646057777,
              0.308942276
            ],
            [
              109.646012299,
              0.30890051
            ],
            [
              109.64588934,
              0.308784502
            ],
            [
              109.645695911,
              0.308665834
            ],
            [
              109.645620674,
              0.308610073
            ],
            [
              109.645570425,
              0.308549825
            ],
            [
              109.645531687,
              0.308498839
            ],
            [
              109.64545421,
              0.308387642
            ],
            [
              109.64540396,
              0.308336618
            ],
            [
              109.645333497,
              0.308280891
            ],
            [
              109.645212779,
              0.308206432
            ],
            [
              109.645121818,
              0.308157522
            ],
            [
              109.645028609,
              0.308129387
            ],
            [
              109.644874196,
              0.308089444
            ],
            [
              109.644783231,
              0.308082082
            ],
            [
              109.644690297,
              0.308095496
            ],
            [
              109.644558897,
              0.308131835
            ],
            [
              109.644492914,
              0.308154615
            ],
            [
              109.644338773,
              0.30818392
            ],
            [
              109.644214111,
              0.308215667
            ],
            [
              109.644102924,
              0.308261301
            ],
            [
              109.643939795,
              0.30831364
            ],
            [
              109.643805867,
              0.308363829
            ],
            [
              109.643699452,
              0.308418755
            ],
            [
              109.643581524,
              0.308485162
            ],
            [
              109.643445624,
              0.308572235
            ],
            [
              109.643310005,
              0.308663974
            ],
            [
              109.64320134,
              0.308751193
            ],
            [
              109.643083414,
              0.308799121
            ],
            [
              109.643033438,
              0.308810456
            ],
            [
              109.642969983,
              0.308830941
            ],
            [
              109.642917758,
              0.308853793
            ],
            [
              109.64278186,
              0.308940865
            ],
            [
              109.642677688,
              0.30901427
            ],
            [
              109.642459546,
              0.308937081
            ],
            [
              109.642398072,
              0.308844434
            ],
            [
              109.642274836,
              0.308700726
            ],
            [
              109.642163108,
              0.308587051
            ],
            [
              109.642097141,
              0.30850133
            ],
            [
              109.641989905,
              0.308376174
            ],
            [
              109.641946675,
              0.308329777
            ],
            [
              109.641903166,
              0.308246463
            ],
            [
              109.64186892,
              0.30819551
            ],
            [
              109.64183917,
              0.308121488
            ],
            [
              109.641733906,
              0.307952451
            ],
            [
              109.641692926,
              0.307862211
            ],
            [
              109.64167216,
              0.307776707
            ],
            [
              109.641596656,
              0.307626293
            ],
            [
              109.641528166,
              0.307501282
            ],
            [
              109.641473427,
              0.30742715
            ],
            [
              109.641370955,
              0.307382798
            ],
            [
              109.641293748,
              0.307361659
            ],
            [
              109.641214295,
              0.307347447
            ],
            [
              109.641091608,
              0.307309944
            ],
            [
              109.641041358,
              0.307256589
            ],
            [
              109.640884427,
              0.307149657
            ],
            [
              109.640822947,
              0.307093966
            ],
            [
              109.640781686,
              0.30701065
            ],
            [
              109.640746892,
              0.306851196
            ],
            [
              109.640739886,
              0.306740328
            ],
            [
              109.640727831,
              0.306601758
            ],
            [
              109.640706796,
              0.306428491
            ],
            [
              109.640699516,
              0.306276071
            ],
            [
              109.640687733,
              0.306197529
            ],
            [
              109.640633273,
              0.30614647
            ],
            [
              109.640582748,
              0.306051565
            ],
            [
              109.640528011,
              0.305956657
            ],
            [
              109.640402533,
              0.305789843
            ],
            [
              109.640386257,
              0.305720486
            ],
            [
              109.640091179,
              0.305709885
            ],
            [
              109.640011729,
              0.305677193
            ],
            [
              109.63994575,
              0.305676902
            ],
            [
              109.639880052,
              0.305676576
            ],
            [
              109.639845798,
              0.30567643
            ],
            [
              109.639564753,
              0.305723597
            ],
            [
              109.639373837,
              0.3057158
            ],
            [
              109.639255916,
              0.305731402
            ],
            [
              109.639153718,
              0.305735557
            ],
            [
              109.639019796,
              0.305725682
            ],
            [
              109.638908341,
              0.305681292
            ],
            [
              109.638783406,
              0.305643789
            ],
            [
              109.638690195,
              0.305641058
            ],
            [
              109.638531285,
              0.305633372
            ],
            [
              109.638386131,
              0.305639642
            ],
            [
              109.638324927,
              0.305637019
            ],
            [
              109.637911922,
              0.305683605
            ],
            [
              109.637644345,
              0.305788537
            ],
            [
              109.637494696,
              0.305822471
            ],
            [
              109.636753177,
              0.306075311
            ],
            [
              109.636569283,
              0.306055999
            ],
            [
              109.636430867,
              0.306066896
            ],
            [
              109.636281217,
              0.306105458
            ],
            [
              109.636156276,
              0.306121024
            ],
            [
              109.636085242,
              0.306142249
            ],
            [
              109.636027121,
              0.306159695
            ],
            [
              109.635825249,
              0.30621415
            ],
            [
              109.635695815,
              0.306243564
            ],
            [
              109.635371256,
              0.306246666
            ],
            [
              109.635274396,
              0.306237044
            ],
            [
              109.635176131,
              0.306227279
            ],
            [
              109.635007962,
              0.306180339
            ],
            [
              109.634791791,
              0.306068523
            ],
            [
              109.634732555,
              0.306028981
            ],
            [
              109.634560168,
              0.306032809
            ],
            [
              109.634385533,
              0.306059675
            ],
            [
              109.634110945,
              0.306106911
            ],
            [
              109.633906827,
              0.30614522
            ],
            [
              109.633909072,
              0.306147517
            ],
            [
              109.633797613,
              0.306142379
            ],
            [
              109.633645717,
              0.306183237
            ],
            [
              109.633459846,
              0.306233171
            ],
            [
              109.633269482,
              0.306317695
            ],
            [
              109.632970451,
              0.306480248
            ],
            [
              109.632791585,
              0.306657198
            ],
            [
              109.632456334,
              0.306858789
            ],
            [
              109.632238463,
              0.306869324
            ],
            [
              109.632187084,
              0.30687144
            ],
            [
              109.632036596,
              0.306877638
            ],
            [
              109.631723544,
              0.306915399
            ],
            [
              109.631494163,
              0.306928197
            ],
            [
              109.631221823,
              0.306952327
            ],
            [
              109.63107442,
              0.306990891
            ],
            [
              109.630875067,
              0.307098483
            ],
            [
              109.630618996,
              0.307247369
            ],
            [
              109.630267749,
              0.307386562
            ],
            [
              109.630065876,
              0.307445645
            ],
            [
              109.629721092,
              0.307527178
            ],
            [
              109.629505739,
              0.307623145
            ],
            [
              109.629168248,
              0.30776241
            ],
            [
              109.628848451,
              0.307862498
            ],
            [
              109.628549422,
              0.308020423
            ],
            [
              109.628268638,
              0.308224599
            ],
            [
              109.627892128,
              0.308317506
            ],
            [
              109.627610799,
              0.308385447
            ],
            [
              109.627340708,
              0.308395765
            ],
            [
              109.626867043,
              0.308585181
            ],
            [
              109.626615738,
              0.308794095
            ],
            [
              109.626502576,
              0.308921943
            ],
            [
              109.626539668,
              0.308660993
            ],
            [
              109.626916525,
              0.308053811
            ],
            [
              109.627042373,
              0.307522523
            ],
            [
              109.627243451,
              0.30709243
            ],
            [
              109.627293764,
              0.306637022
            ],
            [
              109.627419571,
              0.306434628
            ],
            [
              109.627444603,
              0.306080404
            ],
            [
              109.627595396,
              0.305878013
            ],
            [
              109.627796452,
              0.305625035
            ],
            [
              109.627821748,
              0.305397331
            ],
            [
              109.627771506,
              0.305296138
            ],
            [
              109.627746259,
              0.30511902
            ],
            [
              109.627846798,
              0.304916622
            ],
            [
              109.628249144,
              0.304764858
            ],
            [
              109.628450189,
              0.304587807
            ],
            [
              109.628701506,
              0.304284203
            ],
            [
              109.628726543,
              0.303904718
            ],
            [
              109.628952898,
              0.303398703
            ],
            [
              109.629128962,
              0.303171018
            ],
            [
              109.629254503,
              0.302842139
            ],
            [
              109.629304778,
              0.302690329
            ],
            [
              109.629344657,
              0.302599958
            ],
            [
              109.629405317,
              0.302462634
            ],
            [
              109.629656626,
              0.302234958
            ],
            [
              109.630033733,
              0.301855482
            ],
            [
              109.630385581,
              0.301400111
            ],
            [
              109.630712421,
              0.301096554
            ],
            [
              109.63091348,
              0.300818277
            ],
            [
              109.631164796,
              0.300514675
            ],
            [
              109.631956641,
              0.299679871
            ],
            [
              109.632258215,
              0.299376275
            ],
            [
              109.632365193,
              0.299293508
            ],
            [
              109.632585049,
              0.29912331
            ],
            [
              109.632886612,
              0.29889564
            ],
            [
              109.633263713,
              0.298566792
            ],
            [
              109.633389233,
              0.298389693
            ],
            [
              109.633489758,
              0.298288482
            ],
            [
              109.633690804,
              0.298111431
            ],
            [
              109.63391712,
              0.297909047
            ],
            [
              109.634093181,
              0.297706658
            ],
            [
              109.634319233,
              0.297377756
            ],
            [
              109.634445041,
              0.297150063
            ],
            [
              109.634759305,
              0.296391088
            ],
            [
              109.634759333,
              0.29616338
            ],
            [
              109.63478436,
              0.295834468
            ],
            [
              109.634784404,
              0.295480259
            ],
            [
              109.634784441,
              0.295176642
            ],
            [
              109.634809723,
              0.295050143
            ],
            [
              109.634834737,
              0.294847734
            ],
            [
              109.634834768,
              0.294594729
            ],
            [
              109.634860076,
              0.294265819
            ],
            [
              109.634957556,
              0.293796581
            ],
            [
              109.635210557,
              0.29349662
            ],
            [
              109.63561208,
              0.293179024
            ],
            [
              109.635899035,
              0.293034679
            ],
            [
              109.636185725,
              0.292745955
            ],
            [
              109.636558601,
              0.292514988
            ],
            [
              109.636817757,
              0.292394683
            ],
            [
              109.636931751,
              0.292341771
            ],
            [
              109.637046312,
              0.292255153
            ],
            [
              109.637304634,
              0.292053057
            ],
            [
              109.637419202,
              0.29190869
            ],
            [
              109.63761997,
              0.291706569
            ],
            [
              109.637906936,
              0.291446728
            ],
            [
              109.638193905,
              0.291186866
            ],
            [
              109.638310997,
              0.291059176
            ],
            [
              109.638538161,
              0.290811516
            ],
            [
              109.638767566,
              0.290609416
            ],
            [
              109.638900955,
              0.29036305
            ],
            [
              109.63893971,
              0.290291792
            ],
            [
              109.639111843,
              0.290060801
            ],
            [
              109.639269378,
              0.289822831
            ],
            [
              109.639381992,
              0.289570724
            ],
            [
              109.63930621,
              0.289377028
            ],
            [
              109.639226494,
              0.28920711
            ],
            [
              109.639810475,
              0.289196793
            ],
            [
              109.640596308,
              0.289318605
            ],
            [
              109.641080049,
              0.289379523
            ],
            [
              109.641822684,
              0.289182587
            ],
            [
              109.641845125,
              0.289339724
            ],
            [
              109.641964979,
              0.289603044
            ],
            [
              109.642237571,
              0.289825962
            ],
            [
              109.642280237,
              0.289902866
            ],
            [
              109.642368938,
              0.290062059
            ],
            [
              109.642339417,
              0.290409308
            ],
            [
              109.64228352,
              0.290611942
            ],
            [
              109.64224167,
              0.290764338
            ],
            [
              109.642219188,
              0.290938023
            ],
            [
              109.642211319,
              0.290999428
            ],
            [
              109.642198107,
              0.291138771
            ],
            [
              109.642413701,
              0.291392581
            ],
            [
              109.642694709,
              0.291668322
            ],
            [
              109.642908907,
              0.291844296
            ],
            [
              109.643243813,
              0.292189786
            ],
            [
              109.643447611,
              0.292470818
            ],
            [
              109.643741809,
              0.292799467
            ],
            [
              109.643920055,
              0.293098303
            ],
            [
              109.644078088,
              0.29338756
            ],
            [
              109.644192054,
              0.293570659
            ],
            [
              109.644353468,
              0.293773037
            ],
            [
              109.644419709,
              0.293927707
            ],
            [
              109.644538733,
              0.294076572
            ],
            [
              109.644500252,
              0.294222255
            ],
            [
              109.644398602,
              0.294339207
            ],
            [
              109.644287688,
              0.294458241
            ],
            [
              109.644192775,
              0.294584468
            ],
            [
              109.644070607,
              0.294888654
            ],
            [
              109.643892843,
              0.295248921
            ],
            [
              109.643733325,
              0.295630142
            ],
            [
              109.643546576,
              0.295981078
            ],
            [
              109.643461452,
              0.296418733
            ],
            [
              109.643399921,
              0.296783659
            ],
            [
              109.643464723,
              0.297224351
            ],
            [
              109.643442788,
              0.29752371
            ],
            [
              109.643511249,
              0.297884378
            ],
            [
              109.643509221,
              0.298399259
            ],
            [
              109.643524898,
              0.298774864
            ],
            [
              109.64346729,
              0.299194767
            ],
            [
              109.643388078,
              0.299504398
            ],
            [
              109.643284987,
              0.299925674
            ],
            [
              109.643215891,
              0.300162278
            ],
            [
              109.643278467,
              0.300422147
            ],
            [
              109.643399171,
              0.300612277
            ],
            [
              109.643622354,
              0.300788431
            ],
            [
              109.643919101,
              0.300918028
            ],
            [
              109.644245068,
              0.300894891
            ],
            [
              109.644505623,
              0.30082465
            ],
            [
              109.644788635,
              0.300775468
            ],
            [
              109.644936033,
              0.300788454
            ],
            [
              109.645025033,
              0.300796274
            ],
            [
              109.645294831,
              0.300907034
            ],
            [
              109.645610112,
              0.301009534
            ],
            [
              109.646003169,
              0.301072437
            ],
            [
              109.646321546,
              0.301113215
            ],
            [
              109.646666591,
              0.301200313
            ],
            [
              109.646926011,
              0.301228435
            ],
            [
              109.647317389,
              0.301241166
            ],
            [
              109.647446259,
              0.301243797
            ],
            [
              109.647673379,
              0.301371761
            ],
            [
              109.647897695,
              0.301461
            ],
            [
              109.648118916,
              0.301609629
            ],
            [
              109.648265176,
              0.301743059
            ],
            [
              109.648372689,
              0.301903157
            ],
            [
              109.648531574,
              0.302116895
            ],
            [
              109.648640483,
              0.302329672
            ],
            [
              109.648655069,
              0.302430651
            ],
            [
              109.648663201,
              0.302507392
            ],
            [
              109.648719334,
              0.302660984
            ],
            [
              109.648789232,
              0.302754868
            ],
            [
              109.648889457,
              0.302808406
            ],
            [
              109.649078127,
              0.302830549
            ],
            [
              109.649306388,
              0.302807716
            ],
            [
              109.649718262,
              0.302825223
            ],
            [
              109.650060802,
              0.302742944
            ],
            [
              109.650676235,
              0.302714227
            ],
            [
              109.650891023,
              0.302663659
            ],
            [
              109.651328735,
              0.302615309
            ],
            [
              109.651712265,
              0.302540702
            ],
            [
              109.652091042,
              0.302305797
            ],
            [
              109.652490313,
              0.302078174
            ],
            [
              109.652938708,
              0.301920229
            ],
            [
              109.653324224,
              0.301680871
            ],
            [
              109.653740895,
              0.301513135
            ],
            [
              109.653999489,
              0.301401661
            ],
            [
              109.653959587,
              0.30168141
            ],
            [
              109.653852313,
              0.301871195
            ],
            [
              109.653682955,
              0.302339207
            ],
            [
              109.653506871,
              0.302718678
            ],
            [
              109.65343159,
              0.303022307
            ],
            [
              109.653481824,
              0.303199392
            ],
            [
              109.653582323,
              0.303325924
            ],
            [
              109.653733046,
              0.303680174
            ],
            [
              109.653632509,
              0.30388254
            ],
            [
              109.653531937,
              0.304363279
            ],
            [
              109.65353189,
              0.304742772
            ],
            [
              109.653556837,
              0.30507171
            ],
            [
              109.653582076,
              0.305299422
            ],
            [
              109.653632286,
              0.305678957
            ],
            [
              109.653758025,
              0.306007871
            ],
            [
              109.653833261,
              0.306083772
            ],
            [
              109.653908751,
              0.306362121
            ],
            [
              109.653908707,
              0.306716317
            ],
            [
              109.653782888,
              0.307019938
            ],
            [
              109.653657059,
              0.307399415
            ],
            [
              109.653506252,
              0.307703033
            ],
            [
              109.653455961,
              0.307981331
            ],
            [
              109.653430954,
              0.308133145
            ],
            [
              109.65307166,
              0.309720955
            ]
          ]
        ]
      }
    }
  ]
}