{
  "type": "FeatureCollection",
  "features": [
    {
      "type": "Feature",
      "properties": {
        "idx": "912",
        "nama_kewilayahan": "Kanayatn Nangka"
      },
      "geometry": {
        "type": "Polygon",
        "coordinates": [
          [
            [
              109.119028276,
              0.6210985
            ],
            [
              109.118347251,
              0.621364635
            ],
            [
              109.11751232,
              0.621731896
            ],
            [
              109.11717488,
              0.621843038
            ],
            [
              109.116625487,
              0.622024041
            ],
            [
              109.115720441,
              0.622221872
            ],
            [
              109.115272721,
              0.622234214
            ],
            [
              109.114929702,
              0.622243627
            ],
            [
              109.114211094,
              0.622297976
            ],
            [
              109.113660341,
              0.622356483
            ],
            [
              109.11321009,
              0.622384648
            ],
            [
              109.112823279,
              0.622406199
            ],
            [
              109.112339625,
              0.622433079
            ],
            [
              109.111434436,
              0.622251694
            ],
            [
              109.110897768,
              0.622173368
            ],
            [
              109.110112975,
              0.622058784
            ],
            [
              109.109417697,
              0.622023212
            ],
            [
              109.108817575,
              0.621992477
            ],
            [
              109.108578422,
              0.621985469
            ],
            [
              109.108413935,
              0.621979051
            ],
            [
              109.108050102,
              0.62211618
            ],
            [
              109.10752745,
              0.622093172
            ],
            [
              109.107321699,
              0.622093099
            ],
            [
              109.10707272,
              0.622093011
            ],
            [
              109.106686479,
              0.62209287
            ],
            [
              109.10643636,
              0.622138486
            ],
            [
              109.106004632,
              0.622184107
            ],
            [
              109.105591698,
              0.622257848
            ],
            [
              109.105450263,
              0.622157838
            ],
            [
              109.104810255,
              0.62141769
            ],
            [
              109.104664071,
              0.621248518
            ],
            [
              109.104519571,
              0.621081325
            ],
            [
              109.104214763,
              0.620213716
            ],
            [
              109.103626584,
              0.61896849
            ],
            [
              109.10316298,
              0.617872085
            ],
            [
              109.102936628,
              0.617392266
            ],
            [
              109.102232944,
              0.616533559
            ],
            [
              109.101699554,
              0.615926544
            ],
            [
              109.100894375,
              0.61473684
            ],
            [
              109.100328955,
              0.613423384
            ],
            [
              109.099909522,
              0.61282849
            ],
            [
              109.098762772,
              0.611534186
            ],
            [
              109.098014539,
              0.610447362
            ],
            [
              109.09748149,
              0.609669535
            ],
            [
              109.097074241,
              0.608755697
            ],
            [
              109.096678191,
              0.607921686
            ],
            [
              109.095951453,
              0.60716541
            ],
            [
              109.095234687,
              0.606796401
            ],
            [
              109.094210888,
              0.606288823
            ],
            [
              109.093958929,
              0.60608615
            ],
            [
              109.093720732,
              0.60589455
            ],
            [
              109.093736761,
              0.605786005
            ],
            [
              109.093730797,
              0.605779672
            ],
            [
              109.093739778,
              0.605782997
            ],
            [
              109.09378564,
              0.605474516
            ],
            [
              109.093655783,
              0.605173462
            ],
            [
              109.093376369,
              0.604719906
            ],
            [
              109.09318957,
              0.604309407
            ],
            [
              109.092975561,
              0.60384422
            ],
            [
              109.092723104,
              0.603363196
            ],
            [
              109.092594705,
              0.602906799
            ],
            [
              109.092508931,
              0.602561468
            ],
            [
              109.092456796,
              0.602352275
            ],
            [
              109.092355356,
              0.601856965
            ],
            [
              109.092226453,
              0.601231592
            ],
            [
              109.092257794,
              0.600706163
            ],
            [
              109.092371327,
              0.600322047
            ],
            [
              109.092632838,
              0.59979126
            ],
            [
              109.092992677,
              0.599013399
            ],
            [
              109.093310867,
              0.598539499
            ],
            [
              109.093445536,
              0.597910896
            ],
            [
              109.093580212,
              0.597266329
            ],
            [
              109.09356189,
              0.596674831
            ],
            [
              109.093604736,
              0.596149336
            ],
            [
              109.093631064,
              0.59550056
            ],
            [
              109.093721346,
              0.594979464
            ],
            [
              109.093788642,
              0.594369417
            ],
            [
              109.09383372,
              0.593882773
            ],
            [
              109.093918992,
              0.593233737
            ],
            [
              109.094228721,
              0.592874063
            ],
            [
              109.094636069,
              0.592699078
            ],
            [
              109.095269099,
              0.59251185
            ],
            [
              109.09588641,
              0.592326942
            ],
            [
              109.096141967,
              0.591956051
            ],
            [
              109.096347333,
              0.591436861
            ],
            [
              109.096567628,
              0.590760003
            ],
            [
              109.096807872,
              0.59002367
            ],
            [
              109.096964067,
              0.58964854
            ],
            [
              109.097332876,
              0.588888938
            ],
            [
              109.097786103,
              0.588339173
            ],
            [
              109.098170904,
              0.587606952
            ],
            [
              109.098537991,
              0.586956987
            ],
            [
              109.098790261,
              0.58634852
            ],
            [
              109.098864486,
              0.585988937
            ],
            [
              109.098904972,
              0.585793093
            ],
            [
              109.099049691,
              0.585315207
            ],
            [
              109.099030568,
              0.584584402
            ],
            [
              109.099033488,
              0.584252275
            ],
            [
              109.099035231,
              0.584075032
            ],
            [
              109.099158671,
              0.58343505
            ],
            [
              109.09935279,
              0.582961561
            ],
            [
              109.099630794,
              0.582615716
            ],
            [
              109.100003949,
              0.582280925
            ],
            [
              109.100357142,
              0.582048982
            ],
            [
              109.100576483,
              0.581694183
            ],
            [
              109.10082002,
              0.581170269
            ],
            [
              109.101048368,
              0.580744654
            ],
            [
              109.101572273,
              0.580356788
            ],
            [
              109.101648123,
              0.580169256
            ],
            [
              109.102473483,
              0.57982282
            ],
            [
              109.102782833,
              0.579752034
            ],
            [
              109.102919074,
              0.579437894
            ],
            [
              109.103296434,
              0.579122918
            ],
            [
              109.103496388,
              0.57882201
            ],
            [
              109.103509867,
              0.57880598
            ],
            [
              109.103879846,
              0.578737511
            ],
            [
              109.104257181,
              0.578492256
            ],
            [
              109.104527267,
              0.578325029
            ],
            [
              109.10466599,
              0.578145185
            ],
            [
              109.10466627,
              0.578145327
            ],
            [
              109.105511513,
              0.578781539
            ],
            [
              109.106403922,
              0.578553484
            ],
            [
              109.106560036,
              0.578409425
            ],
            [
              109.106536296,
              0.578049313
            ],
            [
              109.106535056,
              0.577556648
            ],
            [
              109.106485522,
              0.577106739
            ],
            [
              109.10642309,
              0.576610767
            ],
            [
              109.106481371,
              0.576073298
            ],
            [
              109.106623586,
              0.575518868
            ],
            [
              109.106878297,
              0.575158743
            ],
            [
              109.107039571,
              0.574689407
            ],
            [
              109.106987264,
              0.574131769
            ],
            [
              109.10704554,
              0.573605706
            ],
            [
              109.107145622,
              0.573135361
            ],
            [
              109.107202137,
              0.572845319
            ],
            [
              109.107361684,
              0.572504238
            ],
            [
              109.107379935,
              0.572486194
            ],
            [
              109.107643532,
              0.572417262
            ],
            [
              109.107907988,
              0.5722933
            ],
            [
              109.108106469,
              0.572202626
            ],
            [
              109.108377665,
              0.572069658
            ],
            [
              109.108611499,
              0.572025408
            ],
            [
              109.108566067,
              0.571898623
            ],
            [
              109.108849822,
              0.57198808
            ],
            [
              109.109145426,
              0.571894436
            ],
            [
              109.109383222,
              0.571749448
            ],
            [
              109.109571582,
              0.571706735
            ],
            [
              109.109827005,
              0.571743025
            ],
            [
              109.110084061,
              0.571930599
            ],
            [
              109.11031923,
              0.572094885
            ],
            [
              109.110438791,
              0.572135058
            ],
            [
              109.110591755,
              0.57218646
            ],
            [
              109.11092438,
              0.572187348
            ],
            [
              109.111367358,
              0.572070968
            ],
            [
              109.111381113,
              0.572064296
            ],
            [
              109.111651159,
              0.572016066
            ],
            [
              109.111995628,
              0.57184992
            ],
            [
              109.112429971,
              0.571522526
            ],
            [
              109.11254312,
              0.571437367
            ],
            [
              109.112674011,
              0.571171439
            ],
            [
              109.112915491,
              0.570925678
            ],
            [
              109.113118514,
              0.57067927
            ],
            [
              109.113495038,
              0.570339529
            ],
            [
              109.113730641,
              0.570040961
            ],
            [
              109.113891825,
              0.569844061
            ],
            [
              109.113891825,
              0.569843919
            ],
            [
              109.113892947,
              0.56984625
            ],
            [
              109.114091936,
              0.569920104
            ],
            [
              109.114216271,
              0.569960801
            ],
            [
              109.114706587,
              0.570151028
            ],
            [
              109.11497799,
              0.570241965
            ],
            [
              109.115184853,
              0.570274742
            ],
            [
              109.115350455,
              0.570306938
            ],
            [
              109.115554505,
              0.570358011
            ],
            [
              109.115676025,
              0.570419265
            ],
            [
              109.115794192,
              0.570443886
            ],
            [
              109.116150342,
              0.570606943
            ],
            [
              109.116333587,
              0.570762879
            ],
            [
              109.116446095,
              0.570919991
            ],
            [
              109.116590603,
              0.571077646
            ],
            [
              109.116685152,
              0.571216209
            ],
            [
              109.116853219,
              0.571433637
            ],
            [
              109.116972749,
              0.571579447
            ],
            [
              109.117141639,
              0.57185632
            ],
            [
              109.117430656,
              0.572164706
            ],
            [
              109.117682677,
              0.572301097
            ],
            [
              109.11798912,
              0.572543435
            ],
            [
              109.118210309,
              0.572544426
            ],
            [
              109.11854799,
              0.572540335
            ],
            [
              109.118851427,
              0.572531144
            ],
            [
              109.118976346,
              0.572504658
            ],
            [
              109.119213832,
              0.572454228
            ],
            [
              109.119364021,
              0.57240246
            ],
            [
              109.11946504,
              0.572502595
            ],
            [
              109.11950351,
              0.573319602
            ],
            [
              109.119516092,
              0.573458247
            ],
            [
              109.119551896,
              0.573852873
            ],
            [
              109.119803681,
              0.574716011
            ],
            [
              109.120089067,
              0.575826344
            ],
            [
              109.120333892,
              0.576510964
            ],
            [
              109.120531357,
              0.576957497
            ],
            [
              109.120582962,
              0.577089936
            ],
            [
              109.120736935,
              0.57748418
            ],
            [
              109.120788775,
              0.577759532
            ],
            [
              109.120794658,
              0.577790899
            ],
            [
              109.120717335,
              0.578193544
            ],
            [
              109.120575364,
              0.578859243
            ],
            [
              109.1205362,
              0.579300824
            ],
            [
              109.120405518,
              0.579781193
            ],
            [
              109.120373164,
              0.580005406
            ],
            [
              109.120230743,
              0.580325551
            ],
            [
              109.120070592,
              0.580792101
            ],
            [
              109.119922244,
              0.581215208
            ],
            [
              109.119750638,
              0.581514713
            ],
            [
              109.119532417,
              0.58186906
            ],
            [
              109.119303479,
              0.582383588
            ],
            [
              109.119234331,
              0.582674087
            ],
            [
              109.119234774,
              0.583028789
            ],
            [
              109.119272006,
              0.583335501
            ],
            [
              109.119468093,
              0.583699665
            ],
            [
              109.119550208,
              0.584088834
            ],
            [
              109.119521624,
              0.584791307
            ],
            [
              109.119266229,
              0.585512104
            ],
            [
              109.119110014,
              0.585953149
            ],
            [
              109.118926702,
              0.586838466
            ],
            [
              109.118807237,
              0.587341728
            ],
            [
              109.118795013,
              0.58780624
            ],
            [
              109.118833036,
              0.588259399
            ],
            [
              109.118875042,
              0.588554668
            ],
            [
              109.118895974,
              0.588909412
            ],
            [
              109.118960134,
              0.589271059
            ],
            [
              109.119147749,
              0.589783962
            ],
            [
              109.119280692,
              0.590102256
            ],
            [
              109.119388592,
              0.590605877
            ],
            [
              109.118913531,
              0.590962113
            ],
            [
              109.118265279,
              0.591315745
            ],
            [
              109.118010627,
              0.591491564
            ],
            [
              109.117794998,
              0.591644537
            ],
            [
              109.117649827,
              0.591795312
            ],
            [
              109.117501022,
              0.591899637
            ],
            [
              109.117408931,
              0.59196428
            ],
            [
              109.117330229,
              0.592279924
            ],
            [
              109.117368405,
              0.593108376
            ],
            [
              109.117414314,
              0.5934792
            ],
            [
              109.117475299,
              0.594092549
            ],
            [
              109.117619408,
              0.595417804
            ],
            [
              109.117703989,
              0.595980863
            ],
            [
              109.117812969,
              0.596601222
            ],
            [
              109.117893422,
              0.59691943
            ],
            [
              109.117925577,
              0.597290178
            ],
            [
              109.117930144,
              0.597892065
            ],
            [
              109.11789996,
              0.598329054
            ],
            [
              109.117862462,
              0.598814151
            ],
            [
              109.117756176,
              0.599344862
            ],
            [
              109.117692964,
              0.599507251
            ],
            [
              109.117562782,
              0.60014547
            ],
            [
              109.117515148,
              0.600715195
            ],
            [
              109.117461719,
              0.600998882
            ],
            [
              109.117494445,
              0.601335368
            ],
            [
              109.117632317,
              0.602010628
            ],
            [
              109.117713857,
              0.602431834
            ],
            [
              109.117770119,
              0.602891885
            ],
            [
              109.117754558,
              0.603248841
            ],
            [
              109.11780467,
              0.603637965
            ],
            [
              109.117837115,
              0.603972122
            ],
            [
              109.117859415,
              0.604427569
            ],
            [
              109.117872961,
              0.605029388
            ],
            [
              109.117864065,
              0.605592343
            ],
            [
              109.117838802,
              0.60640926
            ],
            [
              109.117770452,
              0.606809572
            ],
            [
              109.117673437,
              0.607317466
            ],
            [
              109.117630359,
              0.60769497
            ],
            [
              109.117474614,
              0.608381219
            ],
            [
              109.11746325,
              0.608772509
            ],
            [
              109.117445443,
              0.609124945
            ],
            [
              109.117484833,
              0.609671881
            ],
            [
              109.117355521,
              0.610216358
            ],
            [
              109.116819418,
              0.610929458
            ],
            [
              109.116500972,
              0.611311102
            ],
            [
              109.116273762,
              0.611672295
            ],
            [
              109.116165591,
              0.611960411
            ],
            [
              109.116111647,
              0.612104505
            ],
            [
              109.116158137,
              0.612411257
            ],
            [
              109.116252625,
              0.612718024
            ],
            [
              109.116369857,
              0.613006575
            ],
            [
              109.116526626,
              0.613411842
            ],
            [
              109.116709813,
              0.613723374
            ],
            [
              109.116947169,
              0.614051034
            ],
            [
              109.117027905,
              0.614353206
            ],
            [
              109.117109729,
              0.614751524
            ],
            [
              109.117148899,
              0.615117684
            ],
            [
              109.117282064,
              0.61559846
            ],
            [
              109.117291279,
              0.615733604
            ],
            [
              109.117305522,
              0.615941796
            ],
            [
              109.117406673,
              0.616456825
            ],
            [
              109.117424488,
              0.61688253
            ],
            [
              109.117418986,
              0.617360785
            ],
            [
              109.117372795,
              0.617806954
            ],
            [
              109.117376923,
              0.61803803
            ],
            [
              109.117402634,
              0.618363072
            ],
            [
              109.117425222,
              0.618784186
            ],
            [
              109.117407918,
              0.61929903
            ],
            [
              109.11742301,
              0.619482004
            ],
            [
              109.117433912,
              0.619612557
            ],
            [
              109.117459401,
              0.619770525
            ],
            [
              109.117532026,
              0.619983472
            ],
            [
              109.117544627,
              0.620070438
            ],
            [
              109.117667789,
              0.620251403
            ],
            [
              109.117910503,
              0.620512657
            ],
            [
              109.118134462,
              0.620625202
            ],
            [
              109.118453563,
              0.620779037
            ],
            [
              109.118989592,
              0.621084269
            ],
            [
              109.119028323,
              0.621098482
            ],
            [
              109.119028276,
              0.6210985
            ]
          ]
        ]
      }
    }
  ]
}