{
  "type": "FeatureCollection",
  "features": [
    {
      "type": "Feature",
      "properties": {
        "idx": "913",
        "nama_kewilayahan": "Kanayatn Bawikng"
      },
      "geometry": {
        "type": "Polygon",
        "coordinates": [
          [
            [
              109.10466627,
              0.578145327
            ],
            [
              109.10466599,
              0.578145185
            ],
            [
              109.104527267,
              0.578325029
            ],
            [
              109.104257181,
              0.578492256
            ],
            [
              109.103879846,
              0.578737511
            ],
            [
              109.103509867,
              0.57880598
            ],
            [
              109.103496388,
              0.57882201
            ],
            [
              109.103296434,
              0.579122918
            ],
            [
              109.102919074,
              0.579437894
            ],
            [
              109.102782833,
              0.579752034
            ],
            [
              109.102473483,
              0.57982282
            ],
            [
              109.101648123,
              0.580169256
            ],
            [
              109.101572273,
              0.580356788
            ],
            [
              109.101048368,
              0.580744654
            ],
            [
              109.10082002,
              0.581170269
            ],
            [
              109.100576483,
              0.581694183
            ],
            [
              109.100357142,
              0.582048982
            ],
            [
              109.100003949,
              0.582280925
            ],
            [
              109.099630794,
              0.582615716
            ],
            [
              109.09935279,
              0.582961561
            ],
            [
              109.099158671,
              0.58343505
            ],
            [
              109.099035231,
              0.584075032
            ],
            [
              109.099033488,
              0.584252275
            ],
            [
              109.099030568,
              0.584584402
            ],
            [
              109.099049691,
              0.585315207
            ],
            [
              109.098904972,
              0.585793093
            ],
            [
              109.098864486,
              0.585988937
            ],
            [
              109.098790261,
              0.58634852
            ],
            [
              109.098537991,
              0.586956987
            ],
            [
              109.098170904,
              0.587606952
            ],
            [
              109.097786103,
              0.588339173
            ],
            [
              109.097332876,
              0.588888938
            ],
            [
              109.096964067,
              0.58964854
            ],
            [
              109.096807872,
              0.59002367
            ],
            [
              109.096567628,
              0.590760003
            ],
            [
              109.096347333,
              0.591436861
            ],
            [
              109.096141967,
              0.591956051
            ],
            [
              109.09588641,
              0.592326942
            ],
            [
              109.095269099,
              0.59251185
            ],
            [
              109.094636069,
              0.592699078
            ],
            [
              109.094228721,
              0.592874063
            ],
            [
              109.093918992,
              0.593233737
            ],
            [
              109.09383372,
              0.593882773
            ],
            [
              109.093788642,
              0.594369417
            ],
            [
              109.093721346,
              0.594979464
            ],
            [
              109.093631064,
              0.59550056
            ],
            [
              109.093604736,
              0.596149336
            ],
            [
              109.09356189,
              0.596674831
            ],
            [
              109.093580212,
              0.597266329
            ],
            [
              109.093445536,
              0.597910896
            ],
            [
              109.093310867,
              0.598539499
            ],
            [
              109.092992677,
              0.599013399
            ],
            [
              109.092632838,
              0.59979126
            ],
            [
              109.092371327,
              0.600322047
            ],
            [
              109.092257794,
              0.600706163
            ],
            [
              109.092226453,
              0.601231592
            ],
            [
              109.092355356,
              0.601856965
            ],
            [
              109.092456796,
              0.602352275
            ],
            [
              109.092508931,
              0.602561468
            ],
            [
              109.092594705,
              0.602906799
            ],
            [
              109.092723104,
              0.603363196
            ],
            [
              109.092975561,
              0.60384422
            ],
            [
              109.09318957,
              0.604309407
            ],
            [
              109.093376369,
              0.604719906
            ],
            [
              109.093655783,
              0.605173462
            ],
            [
              109.09378564,
              0.605474516
            ],
            [
              109.093739778,
              0.605782997
            ],
            [
              109.093730797,
              0.605779672
            ],
            [
              109.093736761,
              0.605786005
            ],
            [
              109.093720732,
              0.60589455
            ],
            [
              109.093597181,
              0.605795166
            ],
            [
              109.093063807,
              0.605142594
            ],
            [
              109.092199453,
              0.604613173
            ],
            [
              109.091322961,
              0.604277382
            ],
            [
              109.090492523,
              0.60388488
            ],
            [
              109.089412071,
              0.603251682
            ],
            [
              109.088559262,
              0.602619836
            ],
            [
              109.087957674,
              0.601989635
            ],
            [
              109.087496263,
              0.600232595
            ],
            [
              109.08625826,
              0.599028838
            ],
            [
              109.085770041,
              0.59849044
            ],
            [
              109.08570343,
              0.597931921
            ],
            [
              109.084424276,
              0.596413296
            ],
            [
              109.083774149,
              0.595723387
            ],
            [
              109.083594721,
              0.595100258
            ],
            [
              109.083568164,
              0.594785115
            ],
            [
              109.083288734,
              0.594379248
            ],
            [
              109.082353589,
              0.593205555
            ],
            [
              109.081613474,
              0.592186529
            ],
            [
              109.08128546,
              0.59184666
            ],
            [
              109.080743075,
              0.591284443
            ],
            [
              109.079842571,
              0.590599431
            ],
            [
              109.078933866,
              0.59008809
            ],
            [
              109.078171558,
              0.589941808
            ],
            [
              109.077219525,
              0.589725242
            ],
            [
              109.0762465,
              0.589344284
            ],
            [
              109.075482604,
              0.58892158
            ],
            [
              109.074983063,
              0.588658053
            ],
            [
              109.074243881,
              0.588196434
            ],
            [
              109.073448271,
              0.587767008
            ],
            [
              109.073380631,
              0.587748053
            ],
            [
              109.072834459,
              0.587595172
            ],
            [
              109.072341276,
              0.587621703
            ],
            [
              109.072049041,
              0.587729928
            ],
            [
              109.071178536,
              0.587972281
            ],
            [
              109.07034899,
              0.588280768
            ],
            [
              109.069566748,
              0.588161959
            ],
            [
              109.06879942,
              0.587928891
            ],
            [
              109.068144912,
              0.587754886
            ],
            [
              109.068059581,
              0.587757646
            ],
            [
              109.067449074,
              0.58777746
            ],
            [
              109.067158012,
              0.587737164
            ],
            [
              109.066484958,
              0.587624008
            ],
            [
              109.066474384,
              0.587547922
            ],
            [
              109.066451639,
              0.587384239
            ],
            [
              109.066544629,
              0.587145468
            ],
            [
              109.066696262,
              0.586965774
            ],
            [
              109.066993986,
              0.58640516
            ],
            [
              109.067406497,
              0.585887534
            ],
            [
              109.067725887,
              0.585169222
            ],
            [
              109.067939445,
              0.584485555
            ],
            [
              109.067984011,
              0.58385043
            ],
            [
              109.068019329,
              0.583171966
            ],
            [
              109.06801397,
              0.582422812
            ],
            [
              109.067923235,
              0.581813318
            ],
            [
              109.068038209,
              0.581305833
            ],
            [
              109.068237604,
              0.580994513
            ],
            [
              109.068714075,
              0.580581741
            ],
            [
              109.069013757,
              0.580032499
            ],
            [
              109.069187675,
              0.579527153
            ],
            [
              109.069155865,
              0.578969958
            ],
            [
              109.069069882,
              0.578410658
            ],
            [
              109.069238514,
              0.577765969
            ],
            [
              109.069582599,
              0.577054443
            ],
            [
              109.069960651,
              0.576331376
            ],
            [
              109.070118307,
              0.575768947
            ],
            [
              109.070087962,
              0.575024442
            ],
            [
              109.070053644,
              0.574407868
            ],
            [
              109.069953407,
              0.573661365
            ],
            [
              109.069941034,
              0.572891683
            ],
            [
              109.069942908,
              0.57232295
            ],
            [
              109.070032655,
              0.571703661
            ],
            [
              109.070283198,
              0.571200318
            ],
            [
              109.070772609,
              0.570691547
            ],
            [
              109.071309991,
              0.570267098
            ],
            [
              109.071617722,
              0.569980539
            ],
            [
              109.072030754,
              0.569567955
            ],
            [
              109.072415651,
              0.569349624
            ],
            [
              109.072791809,
              0.569252371
            ],
            [
              109.073082882,
              0.569253634
            ],
            [
              109.073406853,
              0.569088018
            ],
            [
              109.073669931,
              0.568872402
            ],
            [
              109.073996151,
              0.568699967
            ],
            [
              109.074119135,
              0.568574655
            ],
            [
              109.074121374,
              0.568571874
            ],
            [
              109.074122503,
              0.56857289
            ],
            [
              109.074602983,
              0.568756614
            ],
            [
              109.074818559,
              0.568740015
            ],
            [
              109.075224721,
              0.568731779
            ],
            [
              109.075548117,
              0.568606747
            ],
            [
              109.075829961,
              0.568515043
            ],
            [
              109.076136494,
              0.568456761
            ],
            [
              109.076608919,
              0.568381826
            ],
            [
              109.077122892,
              0.568298536
            ],
            [
              109.077389555,
              0.568274853
            ],
            [
              109.078219555,
              0.568280748
            ],
            [
              109.078940092,
              0.568268943
            ],
            [
              109.07944673,
              0.568295357
            ],
            [
              109.079847285,
              0.568263703
            ],
            [
              109.080583316,
              0.568084695
            ],
            [
              109.081022654,
              0.567917526
            ],
            [
              109.081224509,
              0.567798066
            ],
            [
              109.081533345,
              0.567571092
            ],
            [
              109.081806579,
              0.567200698
            ],
            [
              109.082129762,
              0.566872249
            ],
            [
              109.08252199,
              0.566562403
            ],
            [
              109.082922978,
              0.566074363
            ],
            [
              109.082960091,
              0.565887314
            ],
            [
              109.082984894,
              0.565575543
            ],
            [
              109.082920725,
              0.56523778
            ],
            [
              109.082896068,
              0.565105354
            ],
            [
              109.082861963,
              0.564682371
            ],
            [
              109.082907607,
              0.564156526
            ],
            [
              109.083066822,
              0.563962207
            ],
            [
              109.083134784,
              0.563859375
            ],
            [
              109.083271263,
              0.563665049
            ],
            [
              109.083532332,
              0.563585132
            ],
            [
              109.083702731,
              0.563528038
            ],
            [
              109.083885669,
              0.563750657
            ],
            [
              109.084020638,
              0.563882521
            ],
            [
              109.084293166,
              0.563951204
            ],
            [
              109.084588589,
              0.56353974
            ],
            [
              109.084679857,
              0.563406363
            ],
            [
              109.084849735,
              0.563219746
            ],
            [
              109.085065621,
              0.563116927
            ],
            [
              109.085565267,
              0.563071352
            ],
            [
              109.086014702,
              0.562926612
            ],
            [
              109.086262665,
              0.562581323
            ],
            [
              109.086433193,
              0.562124077
            ],
            [
              109.086774095,
              0.561689773
            ],
            [
              109.087648557,
              0.561358537
            ],
            [
              109.088091574,
              0.561095752
            ],
            [
              109.088398182,
              0.560810068
            ],
            [
              109.088568606,
              0.560672936
            ],
            [
              109.088784519,
              0.560490079
            ],
            [
              109.088943368,
              0.560558724
            ],
            [
              109.089113718,
              0.560650228
            ],
            [
              109.088994545,
              0.561139353
            ],
            [
              109.088783621,
              0.561525873
            ],
            [
              109.088771133,
              0.561949902
            ],
            [
              109.088944471,
              0.562349053
            ],
            [
              109.08917991,
              0.562536192
            ],
            [
              109.089353248,
              0.562935345
            ],
            [
              109.089538949,
              0.563297061
            ],
            [
              109.090046611,
              0.563633981
            ],
            [
              109.090381171,
              0.563708901
            ],
            [
              109.090666102,
              0.563621682
            ],
            [
              109.091211301,
              0.563335053
            ],
            [
              109.091490942,
              0.563115658
            ],
            [
              109.091954773,
              0.562724169
            ],
            [
              109.092462871,
              0.562587183
            ],
            [
              109.092765756,
              0.562537092
            ],
            [
              109.092920417,
              0.562537143
            ],
            [
              109.093006306,
              0.562545754
            ],
            [
              109.093342591,
              0.562502208
            ],
            [
              109.093624413,
              0.562480506
            ],
            [
              109.09399297,
              0.562458799
            ],
            [
              109.093852062,
              0.562458752
            ],
            [
              109.094383136,
              0.562448014
            ],
            [
              109.094578211,
              0.562469904
            ],
            [
              109.095120183,
              0.562611934
            ],
            [
              109.095467067,
              0.562775728
            ],
            [
              109.095694638,
              0.562994053
            ],
            [
              109.09595477,
              0.56321239
            ],
            [
              109.09617138,
              0.56347437
            ],
            [
              109.096605011,
              0.563594534
            ],
            [
              109.09690837,
              0.563812885
            ],
            [
              109.097504528,
              0.563922224
            ],
            [
              109.097795325,
              0.563927231
            ],
            [
              109.097944657,
              0.563918449
            ],
            [
              109.098172572,
              0.563945014
            ],
            [
              109.098462248,
              0.563945112
            ],
            [
              109.098777961,
              0.564148383
            ],
            [
              109.099260695,
              0.56433405
            ],
            [
              109.099681656,
              0.564581546
            ],
            [
              109.100471488,
              0.564705466
            ],
            [
              109.100514712,
              0.564715617
            ],
            [
              109.100734759,
              0.564767399
            ],
            [
              109.101613666,
              0.564603657
            ],
            [
              109.102347685,
              0.564594537
            ],
            [
              109.102577851,
              0.564602603
            ],
            [
              109.102617148,
              0.564603986
            ],
            [
              109.102895899,
              0.564538591
            ],
            [
              109.103295608,
              0.564538722
            ],
            [
              109.103583531,
              0.56475396
            ],
            [
              109.103797057,
              0.56500658
            ],
            [
              109.104001296,
              0.565334008
            ],
            [
              109.104307941,
              0.565811162
            ],
            [
              109.104521474,
              0.56604506
            ],
            [
              109.104846708,
              0.566325762
            ],
            [
              109.10510342,
              0.566705023
            ],
            [
              109.105278467,
              0.567035939
            ],
            [
              109.105442882,
              0.567256577
            ],
            [
              109.105858938,
              0.567918429
            ],
            [
              109.106099857,
              0.568525085
            ],
            [
              109.106285745,
              0.569175841
            ],
            [
              109.106358631,
              0.56946801
            ],
            [
              109.106367827,
              0.569673799
            ],
            [
              109.106395524,
              0.569954401
            ],
            [
              109.106293266,
              0.570216277
            ],
            [
              109.106209536,
              0.570468798
            ],
            [
              109.105977251,
              0.570927056
            ],
            [
              109.105586858,
              0.571619087
            ],
            [
              109.105432428,
              0.571761665
            ],
            [
              109.105187501,
              0.572254213
            ],
            [
              109.10486113,
              0.572869866
            ],
            [
              109.104656889,
              0.573403473
            ],
            [
              109.104616014,
              0.573937132
            ],
            [
              109.104618535,
              0.574804029
            ],
            [
              109.104742228,
              0.575084666
            ],
            [
              109.105028731,
              0.575349778
            ],
            [
              109.105049214,
              0.57537232
            ],
            [
              109.105276214,
              0.575622685
            ],
            [
              109.105028424,
              0.576277324
            ],
            [
              109.104982255,
              0.576687709
            ],
            [
              109.10490403,
              0.577263744
            ],
            [
              109.104777822,
              0.577796033
            ],
            [
              109.10466627,
              0.578145327
            ]
          ]
        ]
      }
    }
  ]
}