{
  "type": "FeatureCollection",
  "features": [
    {
      "type": "Feature",
      "properties": {
        "idx": "917",
        "nama_kewilayahan": "Kanayatn Palanyo "
      },
      "geometry": {
        "type": "Polygon",
        "coordinates": [
          [
            [
              109.304252166,
              0.679006536
            ],
            [
              109.304277129,
              0.679118014
            ],
            [
              109.304157052,
              0.679703456
            ],
            [
              109.304040133,
              0.680085847
            ],
            [
              109.303935021,
              0.680429102
            ],
            [
              109.303584395,
              0.681209318
            ],
            [
              109.303199533,
              0.681947835
            ],
            [
              109.303067738,
              0.682327113
            ],
            [
              109.302963201,
              0.682627624
            ],
            [
              109.302862315,
              0.682917398
            ],
            [
              109.302839648,
              0.683512625
            ],
            [
              109.302962483,
              0.683873058
            ],
            [
              109.302995294,
              0.683970004
            ],
            [
              109.303009317,
              0.684010843
            ],
            [
              109.303065685,
              0.684176256
            ],
            [
              109.303316355,
              0.685040759
            ],
            [
              109.303524297,
              0.686066542
            ],
            [
              109.303725302,
              0.686863767
            ],
            [
              109.303910602,
              0.687610261
            ],
            [
              109.303926126,
              0.688165653
            ],
            [
              109.304073379,
              0.688536482
            ],
            [
              109.303921461,
              0.689451778
            ],
            [
              109.303611059,
              0.689995255
            ],
            [
              109.303523086,
              0.690286447
            ],
            [
              109.30356173,
              0.690564261
            ],
            [
              109.304328245,
              0.691027864
            ],
            [
              109.30504535,
              0.691498163
            ],
            [
              109.305877544,
              0.691999094
            ],
            [
              109.306967651,
              0.692725353
            ],
            [
              109.307539831,
              0.693386357
            ],
            [
              109.308286136,
              0.693852217
            ],
            [
              109.308586711,
              0.694105468
            ],
            [
              109.308308504,
              0.694106145
            ],
            [
              109.307790602,
              0.693964727
            ],
            [
              109.307050966,
              0.693695069
            ],
            [
              109.306331802,
              0.693487872
            ],
            [
              109.305517508,
              0.693171629
            ],
            [
              109.304531417,
              0.692831301
            ],
            [
              109.303902603,
              0.692753854
            ],
            [
              109.302972898,
              0.692529272
            ],
            [
              109.302161074,
              0.692374537
            ],
            [
              109.301998194,
              0.692535136
            ],
            [
              109.302043051,
              0.693488447
            ],
            [
              109.30203385,
              0.694097594
            ],
            [
              109.301592741,
              0.694321185
            ],
            [
              109.300801012,
              0.694498938
            ],
            [
              109.300031787,
              0.694556805
            ],
            [
              109.299418875,
              0.694760976
            ],
            [
              109.298902964,
              0.695341819
            ],
            [
              109.298373618,
              0.695804884
            ],
            [
              109.297943841,
              0.695742415
            ],
            [
              109.297622837,
              0.69531366
            ],
            [
              109.297444351,
              0.694361861
            ],
            [
              109.297367628,
              0.693812241
            ],
            [
              109.296817915,
              0.693926708
            ],
            [
              109.295507994,
              0.694002254
            ],
            [
              109.294682621,
              0.694071333
            ],
            [
              109.293786806,
              0.694075388
            ],
            [
              109.292861531,
              0.694035416
            ],
            [
              109.292345001,
              0.693996512
            ],
            [
              109.291798433,
              0.693955407
            ],
            [
              109.290880176,
              0.693920102
            ],
            [
              109.290549478,
              0.693912421
            ],
            [
              109.289961913,
              0.693898643
            ],
            [
              109.289120301,
              0.693852274
            ],
            [
              109.288353619,
              0.693873187
            ],
            [
              109.288017003,
              0.693929445
            ],
            [
              109.287659051,
              0.693989154
            ],
            [
              109.286724902,
              0.694431437
            ],
            [
              109.285957798,
              0.694851598
            ],
            [
              109.285193215,
              0.695281012
            ],
            [
              109.284388015,
              0.69546794
            ],
            [
              109.283885956,
              0.695008106
            ],
            [
              109.283616954,
              0.694401973
            ],
            [
              109.28325509,
              0.693633731
            ],
            [
              109.282972603,
              0.693059808
            ],
            [
              109.28265151,
              0.692889495
            ],
            [
              109.282059017,
              0.692535322
            ],
            [
              109.281753361,
              0.692377166
            ],
            [
              109.281450511,
              0.692220283
            ],
            [
              109.280701908,
              0.691939105
            ],
            [
              109.280269922,
              0.691779632
            ],
            [
              109.279894104,
              0.691567616
            ],
            [
              109.279447885,
              0.691179867
            ],
            [
              109.279033119,
              0.690760549
            ],
            [
              109.278808728,
              0.690224517
            ],
            [
              109.278658956,
              0.689841681
            ],
            [
              109.278544565,
              0.689439005
            ],
            [
              109.27807892,
              0.688423313
            ],
            [
              109.277807684,
              0.687787154
            ],
            [
              109.277382643,
              0.687055492
            ],
            [
              109.276616147,
              0.685788815
            ],
            [
              109.276197601,
              0.685733344
            ],
            [
              109.275978044,
              0.686595122
            ],
            [
              109.275799656,
              0.687729762
            ],
            [
              109.275548526,
              0.688169891
            ],
            [
              109.275430266,
              0.688376924
            ],
            [
              109.274787757,
              0.688944289
            ],
            [
              109.274016309,
              0.689742845
            ],
            [
              109.273744738,
              0.69003898
            ],
            [
              109.273255987,
              0.690049964
            ],
            [
              109.272878761,
              0.689850736
            ],
            [
              109.272681729,
              0.689746666
            ],
            [
              109.272181809,
              0.689591478
            ],
            [
              109.271878415,
              0.689390088
            ],
            [
              109.27162105,
              0.689219021
            ],
            [
              109.271227326,
              0.688836027
            ],
            [
              109.270564782,
              0.688137624
            ],
            [
              109.270281929,
              0.687800875
            ],
            [
              109.270042573,
              0.687516142
            ],
            [
              109.269723229,
              0.687171465
            ],
            [
              109.269348324,
              0.68676679
            ],
            [
              109.268925358,
              0.686515124
            ],
            [
              109.268420923,
              0.686429171
            ],
            [
              109.267835115,
              0.686238839
            ],
            [
              109.266914664,
              0.686095084
            ],
            [
              109.266145546,
              0.685894513
            ],
            [
              109.265446923,
              0.685601982
            ],
            [
              109.264856639,
              0.685367846
            ],
            [
              109.264684634,
              0.685145309
            ],
            [
              109.26479354,
              0.684407557
            ],
            [
              109.264891,
              0.683496639
            ],
            [
              109.264956797,
              0.682414738
            ],
            [
              109.265020286,
              0.681503595
            ],
            [
              109.265137998,
              0.681261803
            ],
            [
              109.26529869,
              0.680930658
            ],
            [
              109.266002333,
              0.680533227
            ],
            [
              109.266529435,
              0.680030887
            ],
            [
              109.266780446,
              0.679913348
            ],
            [
              109.267045214,
              0.679789241
            ],
            [
              109.267461662,
              0.679422437
            ],
            [
              109.267486617,
              0.678718779
            ],
            [
              109.267377683,
              0.677965331
            ],
            [
              109.267360415,
              0.677580356
            ],
            [
              109.267350942,
              0.677373916
            ],
            [
              109.267336648,
              0.677312162
            ],
            [
              109.267152494,
              0.676513123
            ],
            [
              109.266897092,
              0.675558625
            ],
            [
              109.266743622,
              0.674521648
            ],
            [
              109.266766301,
              0.673891817
            ],
            [
              109.267175561,
              0.6740026
            ],
            [
              109.267899431,
              0.674350667
            ],
            [
              109.268543887,
              0.674608202
            ],
            [
              109.268892195,
              0.674812788
            ],
            [
              109.269122905,
              0.674948446
            ],
            [
              109.269489168,
              0.675185961
            ],
            [
              109.270145278,
              0.675037407
            ],
            [
              109.270796949,
              0.674741193
            ],
            [
              109.270874441,
              0.674706745
            ],
            [
              109.271468552,
              0.6744428
            ],
            [
              109.271878244,
              0.674124386
            ],
            [
              109.272396247,
              0.673949713
            ],
            [
              109.273022785,
              0.674075622
            ],
            [
              109.273689978,
              0.674340232
            ],
            [
              109.274037802,
              0.674333643
            ],
            [
              109.274343516,
              0.674327821
            ],
            [
              109.274859235,
              0.674257001
            ],
            [
              109.275255195,
              0.673876197
            ],
            [
              109.275451233,
              0.673617336
            ],
            [
              109.275569756,
              0.673460323
            ],
            [
              109.276062945,
              0.672798582
            ],
            [
              109.276721456,
              0.672213975
            ],
            [
              109.277320895,
              0.671968185
            ],
            [
              109.27807193,
              0.67171178
            ],
            [
              109.278648843,
              0.670856697
            ],
            [
              109.27886411,
              0.670200293
            ],
            [
              109.279151495,
              0.669620431
            ],
            [
              109.279291847,
              0.668850536
            ],
            [
              109.279481992,
              0.667780893
            ],
            [
              109.279653746,
              0.66763824
            ],
            [
              109.27966708,
              0.667627012
            ],
            [
              109.279667242,
              0.667627031
            ],
            [
              109.280456694,
              0.667732276
            ],
            [
              109.280598698,
              0.667858224
            ],
            [
              109.28076791,
              0.668050523
            ],
            [
              109.280907641,
              0.668256446
            ],
            [
              109.280957242,
              0.668505504
            ],
            [
              109.280999821,
              0.66877512
            ],
            [
              109.281058138,
              0.668983134
            ],
            [
              109.281089824,
              0.669090604
            ],
            [
              109.281113957,
              0.669118661
            ],
            [
              109.281113939,
              0.669170518
            ],
            [
              109.282504936,
              0.670000935
            ],
            [
              109.282968609,
              0.670260456
            ],
            [
              109.283866213,
              0.670732785
            ],
            [
              109.283875334,
              0.670739632
            ],
            [
              109.284204963,
              0.670987033
            ],
            [
              109.284468761,
              0.671232213
            ],
            [
              109.284728067,
              0.671486362
            ],
            [
              109.284750798,
              0.671506999
            ],
            [
              109.284788969,
              0.671529904
            ],
            [
              109.284938005,
              0.671617069
            ],
            [
              109.285247313,
              0.671775434
            ],
            [
              109.285592867,
              0.671838011
            ],
            [
              109.286089723,
              0.671935119
            ],
            [
              109.286335884,
              0.672045349
            ],
            [
              109.286496149,
              0.672134849
            ],
            [
              109.286611202,
              0.672267642
            ],
            [
              109.286807324,
              0.672576453
            ],
            [
              109.286929107,
              0.672727475
            ],
            [
              109.287046425,
              0.672803182
            ],
            [
              109.287154772,
              0.672844552
            ],
            [
              109.287217938,
              0.672837861
            ],
            [
              109.28754555,
              0.672836351
            ],
            [
              109.287852628,
              0.672946746
            ],
            [
              109.28801736,
              0.673109301
            ],
            [
              109.288170858,
              0.673283296
            ],
            [
              109.288400989,
              0.673473427
            ],
            [
              109.288619893,
              0.673658962
            ],
            [
              109.28894043,
              0.673817401
            ],
            [
              109.289127925,
              0.67390917
            ],
            [
              109.289324141,
              0.673950783
            ],
            [
              109.289612149,
              0.674006063
            ],
            [
              109.289781682,
              0.674084898
            ],
            [
              109.290029272,
              0.674124339
            ],
            [
              109.290276866,
              0.674148729
            ],
            [
              109.290407309,
              0.674426362
            ],
            [
              109.290524625,
              0.674505107
            ],
            [
              109.290785087,
              0.674666141
            ],
            [
              109.290811349,
              0.675030211
            ],
            [
              109.290954759,
              0.67514839
            ],
            [
              109.291019847,
              0.675266542
            ],
            [
              109.291228641,
              0.675466413
            ],
            [
              109.290980707,
              0.675607697
            ],
            [
              109.290912097,
              0.675924752
            ],
            [
              109.291154887,
              0.676047063
            ],
            [
              109.29131653,
              0.676209969
            ],
            [
              109.291640196,
              0.676250777
            ],
            [
              109.291680294,
              0.67638418
            ],
            [
              109.291699876,
              0.67658321
            ],
            [
              109.291877845,
              0.676623048
            ],
            [
              109.292055799,
              0.676702737
            ],
            [
              109.292325276,
              0.676772138
            ],
            [
              109.292499012,
              0.676875349
            ],
            [
              109.292677231,
              0.677001454
            ],
            [
              109.292864427,
              0.677145576
            ],
            [
              109.292966024,
              0.677223683
            ],
            [
              109.293241634,
              0.677413971
            ],
            [
              109.293566639,
              0.677643205
            ],
            [
              109.293877871,
              0.677922598
            ],
            [
              109.294128492,
              0.678126512
            ],
            [
              109.294446763,
              0.678346559
            ],
            [
              109.294706085,
              0.678550479
            ],
            [
              109.294909283,
              0.678694891
            ],
            [
              109.295150632,
              0.678923882
            ],
            [
              109.295331401,
              0.678985979
            ],
            [
              109.295532351,
              0.679137242
            ],
            [
              109.295830147,
              0.67930472
            ],
            [
              109.296164474,
              0.679367222
            ],
            [
              109.296426374,
              0.679431819
            ],
            [
              109.296702029,
              0.679496421
            ],
            [
              109.296929962,
              0.679551822
            ],
            [
              109.297286763,
              0.679575545
            ],
            [
              109.297664073,
              0.679549044
            ],
            [
              109.298161269,
              0.679490934
            ],
            [
              109.298635419,
              0.679501204
            ],
            [
              109.299387771,
              0.679519063
            ],
            [
              109.299895916,
              0.679460956
            ],
            [
              109.300255284,
              0.679363587
            ],
            [
              109.300596369,
              0.679373598
            ],
            [
              109.301430189,
              0.679238597
            ],
            [
              109.301611009,
              0.679156778
            ],
            [
              109.301988347,
              0.6790527
            ],
            [
              109.302135235,
              0.678863479
            ],
            [
              109.302519664,
              0.678558334
            ],
            [
              109.302833894,
              0.678296401
            ],
            [
              109.30304646,
              0.678143941
            ],
            [
              109.303134637,
              0.678066467
            ],
            [
              109.303323565,
              0.677950551
            ],
            [
              109.303351866,
              0.67823109
            ],
            [
              109.303763546,
              0.678668917
            ],
            [
              109.304252166,
              0.679006536
            ]
          ]
        ]
      }
    }
  ]
}