{
  "type": "FeatureCollection",
  "features": [
    {
      "type": "Feature",
      "properties": {
        "idx": "926",
        "nama_kewilayahan": "Kampung Sukamaju"
      },
      "geometry": {
        "type": "Polygon",
        "coordinates": [
          [
            [
              111.79169284,
              -0.087217217
            ],
            [
              111.791581074,
              -0.086972966
            ],
            [
              111.7915367,
              -0.086701573
            ],
            [
              111.791336195,
              -0.086366859
            ],
            [
              111.791025053,
              -0.086140706
            ],
            [
              111.790824557,
              -0.086231173
            ],
            [
              111.790824561,
              -0.086439241
            ],
            [
              111.790757735,
              -0.08672873
            ],
            [
              111.790958239,
              -0.087018212
            ],
            [
              111.791180644,
              -0.087244368
            ],
            [
              111.791314316,
              -0.087506713
            ],
            [
              111.791225021,
              -0.087687642
            ],
            [
              111.791002627,
              -0.087959042
            ],
            [
              111.7910251,
              -0.08836613
            ],
            [
              111.79115821,
              -0.088628474
            ],
            [
              111.791381181,
              -0.08903556
            ],
            [
              111.791603594,
              -0.089596435
            ],
            [
              111.791603605,
              -0.090175407
            ],
            [
              111.79155868,
              -0.090329198
            ],
            [
              111.791536779,
              -0.09040157
            ],
            [
              111.791407046,
              -0.090464897
            ],
            [
              111.791247547,
              -0.090537273
            ],
            [
              111.790958313,
              -0.090446814
            ],
            [
              111.790713443,
              -0.09029303
            ],
            [
              111.790446112,
              -0.090247804
            ],
            [
              111.790223713,
              -0.090401599
            ],
            [
              111.790090053,
              -0.09058253
            ],
            [
              111.790223724,
              -0.090890108
            ],
            [
              111.790313032,
              -0.091342427
            ],
            [
              111.790313039,
              -0.091659053
            ],
            [
              111.790246211,
              -0.091876168
            ],
            [
              111.790013702,
              -0.091912359
            ],
            [
              111.789956417,
              -0.091921408
            ],
            [
              111.789800848,
              -0.091903318
            ],
            [
              111.789444776,
              -0.091613839
            ],
            [
              111.789199906,
              -0.091432917
            ],
            [
              111.788910671,
              -0.091360551
            ],
            [
              111.78864334,
              -0.091405789
            ],
            [
              111.78846531,
              -0.09156863
            ],
            [
              111.788398485,
              -0.091858117
            ],
            [
              111.788598989,
              -0.092192831
            ],
            [
              111.788843866,
              -0.092645149
            ],
            [
              111.789222405,
              -0.092979859
            ],
            [
              111.789556007,
              -0.093070315
            ],
            [
              111.789734047,
              -0.093332659
            ],
            [
              111.789956458,
              -0.093803068
            ],
            [
              111.790068235,
              -0.094436317
            ],
            [
              111.790001411,
              -0.094861502
            ],
            [
              111.789890218,
              -0.095150991
            ],
            [
              111.789756561,
              -0.095558084
            ],
            [
              111.789667273,
              -0.09595613
            ],
            [
              111.789534182,
              -0.09649892
            ],
            [
              111.789355598,
              -0.096924108
            ],
            [
              111.789177573,
              -0.097276923
            ],
            [
              111.788999553,
              -0.097864947
            ],
            [
              111.788866462,
              -0.09839869
            ],
            [
              111.788933303,
              -0.098778638
            ],
            [
              111.789010816,
              -0.099158589
            ],
            [
              111.789144493,
              -0.099656141
            ],
            [
              111.789478096,
              -0.099764689
            ],
            [
              111.789589857,
              -0.09965613
            ],
            [
              111.789767884,
              -0.099411871
            ],
            [
              111.79003465,
              -0.099276168
            ],
            [
              111.790279517,
              -0.099366627
            ],
            [
              111.790724894,
              -0.099900356
            ],
            [
              111.790859128,
              -0.100207933
            ],
            [
              111.790969774,
              -0.10046123
            ],
            [
              111.791303387,
              -0.100994962
            ],
            [
              111.791703833,
              -0.101447273
            ],
            [
              111.792038007,
              -0.101944819
            ],
            [
              111.792705778,
              -0.102161917
            ],
            [
              111.793284253,
              -0.102478529
            ],
            [
              111.793306733,
              -0.103129872
            ],
            [
              111.793284285,
              -0.103781215
            ],
            [
              111.793248352,
              -0.104197353
            ],
            [
              111.79323993,
              -0.104296865
            ],
            [
              111.793083822,
              -0.105147234
            ],
            [
              111.792716528,
              -0.105328173
            ],
            [
              111.792516599,
              -0.105617663
            ],
            [
              111.791915683,
              -0.106241884
            ],
            [
              111.791581528,
              -0.106558518
            ],
            [
              111.790936233,
              -0.106802788
            ],
            [
              111.790357768,
              -0.106848037
            ],
            [
              111.789912404,
              -0.106866141
            ],
            [
              111.78951197,
              -0.106866151
            ],
            [
              111.789089077,
              -0.107119463
            ],
            [
              111.788465696,
              -0.107725591
            ],
            [
              111.787998443,
              -0.108322669
            ],
            [
              111.787598027,
              -0.109046396
            ],
            [
              111.787308804,
              -0.109426353
            ],
            [
              111.787267244,
              -0.109453495
            ],
            [
              111.786685419,
              -0.109914879
            ],
            [
              111.786173795,
              -0.110340077
            ],
            [
              111.785772809,
              -0.110747178
            ],
            [
              111.785405526,
              -0.111398531
            ],
            [
              111.785227504,
              -0.111796582
            ],
            [
              111.78518315,
              -0.11231223
            ],
            [
              111.785316823,
              -0.112601714
            ],
            [
              111.785628528,
              -0.112827866
            ],
            [
              111.786296304,
              -0.113207799
            ],
            [
              111.786830414,
              -0.11355155
            ],
            [
              111.787342055,
              -0.113813882
            ],
            [
              111.788521478,
              -0.114646124
            ],
            [
              111.788966859,
              -0.115225085
            ],
            [
              111.789026955,
              -0.115324593
            ],
            [
              111.789345407,
              -0.115831186
            ],
            [
              111.789968267,
              -0.116726765
            ],
            [
              111.790391184,
              -0.117360007
            ],
            [
              111.790792193,
              -0.117785177
            ],
            [
              111.791014595,
              -0.117848496
            ],
            [
              111.791125789,
              -0.1175771
            ],
            [
              111.79130381,
              -0.117179051
            ],
            [
              111.791571135,
              -0.11693479
            ],
            [
              111.791837898,
              -0.116726715
            ],
            [
              111.792216427,
              -0.116663378
            ],
            [
              111.792416369,
              -0.116907625
            ],
            [
              111.792438844,
              -0.117224252
            ],
            [
              111.792260819,
              -0.117531836
            ],
            [
              111.792071564,
              -0.117911792
            ],
            [
              111.791826712,
              -0.118382215
            ],
            [
              111.791937923,
              -0.118744068
            ],
            [
              111.792272096,
              -0.119105917
            ],
            [
              111.792650634,
              -0.119332066
            ],
            [
              111.792628175,
              -0.119549182
            ],
            [
              111.792806224,
              -0.120091963
            ],
            [
              111.793073561,
              -0.120318116
            ],
            [
              111.793340325,
              -0.120182412
            ],
            [
              111.793562713,
              -0.11971199
            ],
            [
              111.79383003,
              -0.119214429
            ],
            [
              111.793918766,
              -0.119214425
            ],
            [
              111.793985606,
              -0.119531049
            ],
            [
              111.793985622,
              -0.120046696
            ],
            [
              111.794096841,
              -0.120670897
            ],
            [
              111.794208618,
              -0.121213679
            ],
            [
              111.794675894,
              -0.121521245
            ],
            [
              111.795053873,
              -0.121855953
            ],
            [
              111.795120715,
              -0.122199715
            ],
            [
              111.794942702,
              -0.122869157
            ],
            [
              111.794720308,
              -0.123113417
            ],
            [
              111.794431085,
              -0.123430049
            ],
            [
              111.794253059,
              -0.123692403
            ],
            [
              111.794186235,
              -0.123963798
            ],
            [
              111.794297442,
              -0.124171863
            ],
            [
              111.794932073,
              -0.124253262
            ],
            [
              111.795732948,
              -0.124479397
            ],
            [
              111.79622268,
              -0.124506522
            ],
            [
              111.79657875,
              -0.124660301
            ],
            [
              111.797224068,
              -0.125239252
            ],
            [
              111.797780642,
              -0.125583
            ],
            [
              111.798025513,
              -0.125782015
            ],
            [
              111.798404043,
              -0.125736771
            ],
            [
              111.798603988,
              -0.126026249
            ],
            [
              111.798537165,
              -0.12636097
            ],
            [
              111.79844844,
              -0.126695691
            ],
            [
              111.798425987,
              -0.127120873
            ],
            [
              111.798670862,
              -0.127392259
            ],
            [
              111.798893274,
              -0.127799341
            ],
            [
              111.799049415,
              -0.128152147
            ],
            [
              111.799160628,
              -0.128532091
            ],
            [
              111.799427969,
              -0.128875849
            ],
            [
              111.799694741,
              -0.128966305
            ],
            [
              111.799872765,
              -0.128713
            ],
            [
              111.79985085,
              -0.128314956
            ],
            [
              111.800028868,
              -0.127817398
            ],
            [
              111.800273158,
              -0.127374115
            ],
            [
              111.800451179,
              -0.127012253
            ],
            [
              111.80062977,
              -0.126921783
            ],
            [
              111.800940903,
              -0.126767986
            ],
            [
              111.801118935,
              -0.126767978
            ],
            [
              111.801275067,
              -0.126813206
            ],
            [
              111.801453106,
              -0.127057455
            ],
            [
              111.801408744,
              -0.127256477
            ],
            [
              111.801408752,
              -0.127482637
            ],
            [
              111.801653069,
              -0.127889718
            ],
            [
              111.801987242,
              -0.128269658
            ],
            [
              111.80234331,
              -0.128314879
            ],
            [
              111.802610077,
              -0.128269638
            ],
            [
              111.802833033,
              -0.128088704
            ],
            [
              111.803055426,
              -0.127862535
            ],
            [
              111.803344653,
              -0.127618273
            ],
            [
              111.80358951,
              -0.127374012
            ],
            [
              111.803834366,
              -0.127102611
            ],
            [
              111.803801219,
              -0.126695524
            ],
            [
              111.803778742,
              -0.126297483
            ],
            [
              111.80366753,
              -0.12593563
            ],
            [
              111.803667518,
              -0.125510448
            ],
            [
              111.803711877,
              -0.125266192
            ],
            [
              111.804046032,
              -0.124976696
            ],
            [
              111.804423995,
              -0.12481385
            ],
            [
              111.804891256,
              -0.124660047
            ],
            [
              111.805269784,
              -0.124596708
            ],
            [
              111.805625846,
              -0.124506235
            ],
            [
              111.806004374,
              -0.124415759
            ],
            [
              111.806249233,
              -0.124207683
            ],
            [
              111.806538455,
              -0.123872959
            ],
            [
              111.806605276,
              -0.123520146
            ],
            [
              111.806672098,
              -0.123140196
            ],
            [
              111.806738923,
              -0.122932125
            ],
            [
              111.806850118,
              -0.122715008
            ],
            [
              111.80711688,
              -0.122506932
            ],
            [
              111.80742857,
              -0.122280763
            ],
            [
              111.807784627,
              -0.122018405
            ],
            [
              111.808096316,
              -0.121765098
            ],
            [
              111.808630399,
              -0.121231345
            ],
            [
              111.808986453,
              -0.120914709
            ],
            [
              111.809242545,
              -0.12071568
            ],
            [
              111.809464945,
              -0.12067044
            ],
            [
              111.809776642,
              -0.120670432
            ],
            [
              111.810021508,
              -0.120742796
            ],
            [
              111.81033321,
              -0.120896575
            ],
            [
              111.810644908,
              -0.120914658
            ],
            [
              111.810889206,
              -0.120742769
            ],
            [
              111.811178999,
              -0.120715621
            ],
            [
              111.811423865,
              -0.120760847
            ],
            [
              111.811623807,
              -0.121005092
            ],
            [
              111.811868682,
              -0.121321709
            ],
            [
              111.812069183,
              -0.1214574
            ],
            [
              111.812291583,
              -0.121502624
            ],
            [
              111.812536444,
              -0.121385015
            ],
            [
              111.812625173,
              -0.121122664
            ],
            [
              111.812736928,
              -0.120914596
            ],
            [
              111.812959323,
              -0.120742708
            ],
            [
              111.813337851,
              -0.120742695
            ],
            [
              111.813693919,
              -0.120806009
            ],
            [
              111.814027522,
              -0.120941696
            ],
            [
              111.814361692,
              -0.121213078
            ],
            [
              111.814606009,
              -0.121701576
            ],
            [
              111.814984546,
              -0.121927724
            ],
            [
              111.815206948,
              -0.122036274
            ],
            [
              111.815719139,
              -0.121927701
            ],
            [
              111.815985901,
              -0.121791997
            ],
            [
              111.816386891,
              -0.121638196
            ],
            [
              111.816809781,
              -0.121412024
            ],
            [
              111.81707654,
              -0.121140624
            ],
            [
              111.817410692,
              -0.120823991
            ],
            [
              111.817610614,
              -0.120380712
            ],
            [
              111.817811098,
              -0.119973618
            ],
            [
              111.817811086,
              -0.119593669
            ],
            [
              111.817721784,
              -0.119412745
            ],
            [
              111.817699866,
              -0.118924241
            ],
            [
              111.817569561,
              -0.118571436
            ],
            [
              111.817499354,
              -0.118381463
            ],
            [
              111.817365677,
              -0.117956287
            ],
            [
              111.817365671,
              -0.117712035
            ],
            [
              111.817477427,
              -0.117531104
            ],
            [
              111.817744192,
              -0.117440632
            ],
            [
              111.817828995,
              -0.117431584
            ],
            [
              111.81830075,
              -0.117359199
            ],
            [
              111.818445079,
              -0.117151127
            ],
            [
              111.818267039,
              -0.116888787
            ],
            [
              111.818044631,
              -0.11657217
            ],
            [
              111.817799755,
              -0.116210322
            ],
            [
              111.817421779,
              -0.115875616
            ],
            [
              111.817176909,
              -0.115694696
            ],
            [
              111.816820837,
              -0.11543236
            ],
            [
              111.816419834,
              -0.11508861
            ],
            [
              111.816086228,
              -0.114826274
            ],
            [
              111.815818894,
              -0.114645355
            ],
            [
              111.815418459,
              -0.114527762
            ],
            [
              111.815240428,
              -0.114618231
            ],
            [
              111.814861908,
              -0.114889635
            ],
            [
              111.814595143,
              -0.114998199
            ],
            [
              111.814127314,
              -0.114871562
            ],
            [
              111.814038573,
              -0.11470873
            ],
            [
              111.814038567,
              -0.114464478
            ],
            [
              111.814149759,
              -0.114193083
            ],
            [
              111.814216583,
              -0.113903596
            ],
            [
              111.814194106,
              -0.113433183
            ],
            [
              111.813994163,
              -0.113143705
            ],
            [
              111.813370759,
              -0.112827099
            ],
            [
              111.813037158,
              -0.112763783
            ],
            [
              111.812725461,
              -0.112736653
            ],
            [
              111.812191359,
              -0.112564787
            ],
            [
              111.811990852,
              -0.112175797
            ],
            [
              111.812013309,
              -0.111913451
            ],
            [
              111.812124504,
              -0.111705381
            ],
            [
              111.812146401,
              -0.111533497
            ],
            [
              111.812102026,
              -0.1112802
            ],
            [
              111.811946459,
              -0.111262112
            ],
            [
              111.811701596,
              -0.111325444
            ],
            [
              111.8114792,
              -0.111461145
            ],
            [
              111.811345539,
              -0.111578753
            ],
            [
              111.811066981,
              -0.11177778
            ],
            [
              111.810666557,
              -0.112067276
            ],
            [
              111.8103105,
              -0.11233868
            ],
            [
              111.80984324,
              -0.112492481
            ],
            [
              111.809397874,
              -0.112311566
            ],
            [
              111.808841864,
              -0.112004003
            ],
            [
              111.808396498,
              -0.11184118
            ],
            [
              111.807818031,
              -0.11173264
            ],
            [
              111.807372669,
              -0.111732651
            ],
            [
              111.807060971,
              -0.111705521
            ],
            [
              111.806771737,
              -0.111705529
            ],
            [
              111.806393208,
              -0.11170554
            ],
            [
              111.806237639,
              -0.111642218
            ],
            [
              111.805859112,
              -0.111750787
            ],
            [
              111.805614252,
              -0.11195886
            ],
            [
              111.805391863,
              -0.112338816
            ],
            [
              111.805147003,
              -0.112537844
            ],
            [
              111.80472411,
              -0.112691644
            ],
            [
              111.804412417,
              -0.11289972
            ],
            [
              111.804034452,
              -0.112990196
            ],
            [
              111.803678378,
              -0.112691674
            ],
            [
              111.803433504,
              -0.112356962
            ],
            [
              111.803188629,
              -0.112004159
            ],
            [
              111.802899382,
              -0.111443289
            ],
            [
              111.802721334,
              -0.110882417
            ],
            [
              111.802298417,
              -0.110185854
            ],
            [
              111.801997943,
              -0.109896377
            ],
            [
              111.801708699,
              -0.109425971
            ],
            [
              111.801575026,
              -0.109154581
            ],
            [
              111.801240852,
              -0.108684175
            ],
            [
              111.800907242,
              -0.108349467
            ],
            [
              111.80046187,
              -0.10796953
            ],
            [
              111.799994595,
              -0.107607685
            ],
            [
              111.799304911,
              -0.10695636
            ],
            [
              111.799081939,
              -0.106603556
            ],
            [
              111.798885925,
              -0.106205517
            ],
            [
              111.798770787,
              -0.105970314
            ],
            [
              111.798815148,
              -0.105726059
            ],
            [
              111.79897071,
              -0.105481801
            ],
            [
              111.799148734,
              -0.10511994
            ],
            [
              111.799660916,
              -0.104586187
            ],
            [
              111.799883305,
              -0.104179093
            ],
            [
              111.799832192,
              -0.103925794
            ],
            [
              111.799615965,
              -0.103708685
            ],
            [
              111.799337958,
              -0.103482532
            ],
            [
              111.79891505,
              -0.10312973
            ],
            [
              111.798692641,
              -0.102749786
            ],
            [
              111.798136063,
              -0.102116552
            ],
            [
              111.798002388,
              -0.101736604
            ],
            [
              111.798024842,
              -0.101311423
            ],
            [
              111.798158499,
              -0.100976701
            ],
            [
              111.798380889,
              -0.100524375
            ],
            [
              111.79842525,
              -0.100262026
            ],
            [
              111.7986482,
              -0.099746374
            ],
            [
              111.798714462,
              -0.099384514
            ],
            [
              111.798803754,
              -0.099158352
            ],
            [
              111.799048613,
              -0.098959325
            ],
            [
              111.799382206,
              -0.098579365
            ],
            [
              111.799671432,
              -0.098307966
            ],
            [
              111.79985002,
              -0.098018476
            ],
            [
              111.800005582,
              -0.097747081
            ],
            [
              111.799949974,
              -0.097439504
            ],
            [
              111.799927502,
              -0.097140972
            ],
            [
              111.799838761,
              -0.096878627
            ],
            [
              111.79928218,
              -0.096118741
            ],
            [
              111.798992937,
              -0.095684519
            ],
            [
              111.798725595,
              -0.095177926
            ],
            [
              111.798369523,
              -0.094879402
            ],
            [
              111.798302689,
              -0.094861312
            ],
            [
              111.798147129,
              -0.095132707
            ],
            [
              111.798012342,
              -0.095214127
            ],
            [
              111.797812971,
              -0.095331736
            ],
            [
              111.797568666,
              -0.095304602
            ],
            [
              111.797423761,
              -0.094997028
            ],
            [
              111.797390625,
              -0.094924657
            ],
            [
              111.797301319,
              -0.094617081
            ],
            [
              111.797190113,
              -0.094300458
            ],
            [
              111.797167642,
              -0.094029064
            ],
            [
              111.7973906,
              -0.093830039
            ],
            [
              111.797701728,
              -0.093540545
            ],
            [
              111.797857853,
              -0.093314381
            ],
            [
              111.797846058,
              -0.093260102
            ],
            [
              111.797768548,
              -0.092907294
            ],
            [
              111.797501774,
              -0.092690186
            ],
            [
              111.797190069,
              -0.092346427
            ],
            [
              111.796811529,
              -0.091921255
            ],
            [
              111.796811524,
              -0.091722232
            ],
            [
              111.796889024,
              -0.091550348
            ],
            [
              111.797012012,
              -0.091278953
            ],
            [
              111.797100739,
              -0.090853767
            ],
            [
              111.797100732,
              -0.090555237
            ],
            [
              111.796989525,
              -0.090247661
            ],
            [
              111.796655915,
              -0.089840579
            ],
            [
              111.796455411,
              -0.089551097
            ],
            [
              111.796233007,
              -0.089397313
            ],
            [
              111.795542769,
              -0.088899774
            ],
            [
              111.794919922,
              -0.088320813
            ],
            [
              111.79474188,
              -0.087958961
            ],
            [
              111.794610459,
              -0.08776899
            ],
            [
              111.794452639,
              -0.087533785
            ],
            [
              111.794296507,
              -0.087425231
            ],
            [
              111.794007269,
              -0.087244309
            ],
            [
              111.793539998,
              -0.086972925
            ],
            [
              111.793272667,
              -0.086954838
            ],
            [
              111.793005902,
              -0.087081494
            ],
            [
              111.792782942,
              -0.087244335
            ],
            [
              111.792627373,
              -0.087199104
            ],
            [
              111.792404968,
              -0.086972948
            ],
            [
              111.792204469,
              -0.086972954
            ],
            [
              111.792048905,
              -0.087108653
            ],
            [
              111.791892778,
              -0.087334818
            ],
            [
              111.791737212,
              -0.087398146
            ],
            [
              111.79169284,
              -0.087217217
            ]
          ]
        ]
      }
    }
  ]
}