{
  "type": "FeatureCollection",
  "features": [
    {
      "type": "Feature",
      "properties": {
        "idx": "978",
        "nama_kewilayahan": "Kampung Sigara- gara"
      },
      "geometry": {
        "type": "Polygon",
        "coordinates": [
          [
            [
              98.75284398,
              3.523952552
            ],
            [
              98.75274068,
              3.521958643
            ],
            [
              98.752541736,
              3.519132449
            ],
            [
              98.752528122,
              3.518939046
            ],
            [
              98.75240523,
              3.517223499
            ],
            [
              98.752400867,
              3.517162587
            ],
            [
              98.75220555,
              3.514436011
            ],
            [
              98.752093273,
              3.513069716
            ],
            [
              98.751147212,
              3.512606576
            ],
            [
              98.750021947,
              3.512047999
            ],
            [
              98.749786335,
              3.511919423
            ],
            [
              98.749756003,
              3.511896036
            ],
            [
              98.74973443,
              3.511862669
            ],
            [
              98.749716373,
              3.511815748
            ],
            [
              98.749703201,
              3.511730999
            ],
            [
              98.74969554,
              3.511655318
            ],
            [
              98.74968034,
              3.511438085
            ],
            [
              98.749671467,
              3.511287404
            ],
            [
              98.749604639,
              3.510484672
            ],
            [
              98.749481683,
              3.509149344
            ],
            [
              98.749459386,
              3.509015369
            ],
            [
              98.749428736,
              3.508947163
            ],
            [
              98.74938483,
              3.508895033
            ],
            [
              98.749356769,
              3.508859215
            ],
            [
              98.749314238,
              3.508808744
            ],
            [
              98.749296774,
              3.508781582
            ],
            [
              98.749288818,
              3.50875025
            ],
            [
              98.749268084,
              3.50857403
            ],
            [
              98.749255332,
              3.508414061
            ],
            [
              98.749238844,
              3.508302256
            ],
            [
              98.749187326,
              3.508068751
            ],
            [
              98.749300792,
              3.507972039
            ],
            [
              98.749171664,
              3.507632735
            ],
            [
              98.748783734,
              3.50733363
            ],
            [
              98.748767102,
              3.507320806
            ],
            [
              98.748085293,
              3.506795114
            ],
            [
              98.747476831,
              3.50626749
            ],
            [
              98.747170883,
              3.506002191
            ],
            [
              98.74707261,
              3.505889871
            ],
            [
              98.745528665,
              3.505071233
            ],
            [
              98.745343457,
              3.502522655
            ],
            [
              98.745072396,
              3.502353981
            ],
            [
              98.744852931,
              3.502380813
            ],
            [
              98.743737397,
              3.501798269
            ],
            [
              98.743670217,
              3.501763189
            ],
            [
              98.743177706,
              3.501505992
            ],
            [
              98.742892948,
              3.501385082
            ],
            [
              98.742459361,
              3.501311491
            ],
            [
              98.739786727,
              3.501483263
            ],
            [
              98.739667135,
              3.499868146
            ],
            [
              98.73963283,
              3.499439265
            ],
            [
              98.739591057,
              3.499346811
            ],
            [
              98.739488502,
              3.499128177
            ],
            [
              98.7394206,
              3.498983416
            ],
            [
              98.73934532,
              3.499049988
            ],
            [
              98.739179554,
              3.499094088
            ],
            [
              98.738455815,
              3.499295444
            ],
            [
              98.738111038,
              3.499386462
            ],
            [
              98.737901396,
              3.499445956
            ],
            [
              98.737831644,
              3.499477303
            ],
            [
              98.73777773,
              3.499551357
            ],
            [
              98.737771386,
              3.49960822
            ],
            [
              98.737779181,
              3.499791589
            ],
            [
              98.737784664,
              3.499953593
            ],
            [
              98.737774635,
              3.500174415
            ],
            [
              98.73775673,
              3.500626796
            ],
            [
              98.737760352,
              3.500848412
            ],
            [
              98.737541507,
              3.500880308
            ],
            [
              98.737463659,
              3.500904316
            ],
            [
              98.736522387,
              3.501184812
            ],
            [
              98.736031382,
              3.501328623
            ],
            [
              98.735849178,
              3.501375723
            ],
            [
              98.735726413,
              3.501435328
            ],
            [
              98.735628019,
              3.501442063
            ],
            [
              98.735537953,
              3.501448529
            ],
            [
              98.735501699,
              3.50142608
            ],
            [
              98.735436639,
              3.501410887
            ],
            [
              98.735327407,
              3.501383417
            ],
            [
              98.735243049,
              3.5014023
            ],
            [
              98.735231401,
              3.501405958
            ],
            [
              98.73512906,
              3.501445754
            ],
            [
              98.734104842,
              3.501822948
            ],
            [
              98.733895122,
              3.501771906
            ],
            [
              98.732942747,
              3.502039974
            ],
            [
              98.732536678,
              3.501416597
            ],
            [
              98.732271433,
              3.501815043
            ],
            [
              98.731732482,
              3.502654674
            ],
            [
              98.731344126,
              3.503245683
            ],
            [
              98.731005501,
              3.503536666
            ],
            [
              98.730717341,
              3.503680828
            ],
            [
              98.730487692,
              3.503802677
            ],
            [
              98.730265785,
              3.503855751
            ],
            [
              98.729783152,
              3.503846492
            ],
            [
              98.729241256,
              3.503900013
            ],
            [
              98.729113047,
              3.503923318
            ],
            [
              98.728870721,
              3.503942072
            ],
            [
              98.72876123,
              3.503794259
            ],
            [
              98.728728569,
              3.503636481
            ],
            [
              98.72871924,
              3.503482644
            ],
            [
              98.728686207,
              3.503319926
            ],
            [
              98.728651663,
              3.503224071
            ],
            [
              98.728554046,
              3.503149448
            ],
            [
              98.728464631,
              3.503136614
            ],
            [
              98.728433124,
              3.503083762
            ],
            [
              98.728412864,
              3.502869777
            ],
            [
              98.728426389,
              3.502390038
            ],
            [
              98.727236244,
              3.502225891
            ],
            [
              98.726723582,
              3.50217948
            ],
            [
              98.72632022,
              3.502129842
            ],
            [
              98.725860209,
              3.50211357
            ],
            [
              98.725121798,
              3.50208745
            ],
            [
              98.725007683,
              3.502020601
            ],
            [
              98.724826016,
              3.501981787
            ],
            [
              98.724760479,
              3.502005076
            ],
            [
              98.723956318,
              3.501990082
            ],
            [
              98.723583349,
              3.501964694
            ],
            [
              98.721847242,
              3.501846732
            ],
            [
              98.721763034,
              3.501846758
            ],
            [
              98.72162763,
              3.501858274
            ],
            [
              98.721441525,
              3.501868228
            ],
            [
              98.721383111,
              3.501869902
            ],
            [
              98.721342035,
              3.501855073
            ],
            [
              98.721322995,
              3.501824169
            ],
            [
              98.721317128,
              3.501778065
            ],
            [
              98.721304458,
              3.501702979
            ],
            [
              98.72125492,
              3.501673316
            ],
            [
              98.720814217,
              3.501698736
            ],
            [
              98.720335436,
              3.50172926
            ],
            [
              98.719392549,
              3.501793638
            ],
            [
              98.718645755,
              3.501799104
            ],
            [
              98.718027776,
              3.501803626
            ],
            [
              98.717745352,
              3.501805271
            ],
            [
              98.71759738,
              3.501786803
            ],
            [
              98.717422303,
              3.501706708
            ],
            [
              98.717277452,
              3.501737811
            ],
            [
              98.717147755,
              3.501745802
            ],
            [
              98.716999541,
              3.501707823
            ],
            [
              98.716870588,
              3.501741656
            ],
            [
              98.716483156,
              3.501862104
            ],
            [
              98.715965962,
              3.501911763
            ],
            [
              98.715417505,
              3.501964425
            ],
            [
              98.714722454,
              3.502015886
            ],
            [
              98.714460195,
              3.502035303
            ],
            [
              98.714278839,
              3.50200989
            ],
            [
              98.714179276,
              3.501945643
            ],
            [
              98.714091306,
              3.501849959
            ],
            [
              98.714010679,
              3.501776854
            ],
            [
              98.713840542,
              3.501730307
            ],
            [
              98.713649179,
              3.501766564
            ],
            [
              98.713456829,
              3.501807577
            ],
            [
              98.713273162,
              3.501889336
            ],
            [
              98.71292929,
              3.502086523
            ],
            [
              98.712383665,
              3.501317358
            ],
            [
              98.711838237,
              3.501379899
            ],
            [
              98.711053904,
              3.501469834
            ],
            [
              98.710869518,
              3.501490977
            ],
            [
              98.71073978,
              3.501531287
            ],
            [
              98.710505314,
              3.501634017
            ],
            [
              98.710488907,
              3.501651671
            ],
            [
              98.71033307,
              3.50179014
            ],
            [
              98.71023525,
              3.501925613
            ],
            [
              98.710111181,
              3.502047865
            ],
            [
              98.70988016,
              3.50217968
            ],
            [
              98.70958226,
              3.502272513
            ],
            [
              98.709088945,
              3.502433644
            ],
            [
              98.708959157,
              3.502489543
            ],
            [
              98.708848135,
              3.502564995
            ],
            [
              98.708699905,
              3.502751854
            ],
            [
              98.708467941,
              3.503008472
            ],
            [
              98.708577126,
              3.503053293
            ],
            [
              98.708731341,
              3.503116602
            ],
            [
              98.708940518,
              3.503116619
            ],
            [
              98.709367524,
              3.503135227
            ],
            [
              98.710282455,
              3.503261091
            ],
            [
              98.710654404,
              3.503379327
            ],
            [
              98.710906345,
              3.503551614
            ],
            [
              98.711085765,
              3.503840272
            ],
            [
              98.710835996,
              3.504080893
            ],
            [
              98.710773986,
              3.504331855
            ],
            [
              98.710935356,
              3.504775823
            ],
            [
              98.711178588,
              3.505121004
            ],
            [
              98.71134895,
              3.505466515
            ],
            [
              98.71141481,
              3.505690683
            ],
            [
              98.711292514,
              3.505874181
            ],
            [
              98.711396904,
              3.506446159
            ],
            [
              98.711517396,
              3.506616274
            ],
            [
              98.711804323,
              3.506949634
            ],
            [
              98.712175141,
              3.507237765
            ],
            [
              98.712545838,
              3.5075309
            ],
            [
              98.712570093,
              3.507791589
            ],
            [
              98.712542587,
              3.508213187
            ],
            [
              98.712356533,
              3.508702567
            ],
            [
              98.712076083,
              3.509088297
            ],
            [
              98.711669352,
              3.509578867
            ],
            [
              98.711197881,
              3.509999668
            ],
            [
              98.710946624,
              3.510364183
            ],
            [
              98.710738166,
              3.510533501
            ],
            [
              98.710263257,
              3.510819987
            ],
            [
              98.710104973,
              3.511037837
            ],
            [
              98.710112614,
              3.511303349
            ],
            [
              98.710478036,
              3.512392586
            ],
            [
              98.710616194,
              3.512724863
            ],
            [
              98.710755666,
              3.51287327
            ],
            [
              98.71114166,
              3.512918676
            ],
            [
              98.711405576,
              3.512820749
            ],
            [
              98.711700205,
              3.512657681
            ],
            [
              98.712122671,
              3.512797653
            ],
            [
              98.712501013,
              3.513039814
            ],
            [
              98.712683667,
              3.513216036
            ],
            [
              98.712675294,
              3.513583964
            ],
            [
              98.712539132,
              3.514383397
            ],
            [
              98.712427069,
              3.514639784
            ],
            [
              98.71224345,
              3.514753455
            ],
            [
              98.712005446,
              3.51473912
            ],
            [
              98.711722246,
              3.51476169
            ],
            [
              98.711494208,
              3.514898558
            ],
            [
              98.711424936,
              3.515042912
            ],
            [
              98.711500046,
              3.515421459
            ],
            [
              98.711680062,
              3.515777283
            ],
            [
              98.712119834,
              3.516287154
            ],
            [
              98.712365623,
              3.516563535
            ],
            [
              98.712449558,
              3.516788076
            ],
            [
              98.712583344,
              3.517146548
            ],
            [
              98.712764849,
              3.517441166
            ],
            [
              98.712698417,
              3.518042163
            ],
            [
              98.712673222,
              3.518304474
            ],
            [
              98.712814904,
              3.518729201
            ],
            [
              98.712970213,
              3.518970171
            ],
            [
              98.712989159,
              3.519227647
            ],
            [
              98.713095021,
              3.519637851
            ],
            [
              98.71353561,
              3.520505238
            ],
            [
              98.713382548,
              3.520697412
            ],
            [
              98.713242125,
              3.520932656
            ],
            [
              98.713194264,
              3.521112611
            ],
            [
              98.713220652,
              3.521282103
            ],
            [
              98.713950922,
              3.522063558
            ],
            [
              98.714206385,
              3.522389004
            ],
            [
              98.714095781,
              3.523075162
            ],
            [
              98.713925831,
              3.523458636
            ],
            [
              98.713785181,
              3.523811517
            ],
            [
              98.713555477,
              3.524113428
            ],
            [
              98.713365956,
              3.524627347
            ],
            [
              98.713320736,
              3.524839458
            ],
            [
              98.713571263,
              3.525051729
            ],
            [
              98.715041151,
              3.525979089
            ],
            [
              98.715439706,
              3.52618104
            ],
            [
              98.715640706,
              3.526396238
            ],
            [
              98.715681872,
              3.526518257
            ],
            [
              98.715657769,
              3.526725565
            ],
            [
              98.715700755,
              3.527062727
            ],
            [
              98.715725819,
              3.527358988
            ],
            [
              98.715823548,
              3.527627437
            ],
            [
              98.715684968,
              3.528004215
            ],
            [
              98.715394083,
              3.528505143
            ],
            [
              98.714988716,
              3.528853631
            ],
            [
              98.714950506,
              3.529081637
            ],
            [
              98.714954193,
              3.529081598
            ],
            [
              98.716342174,
              3.529066655
            ],
            [
              98.718413024,
              3.529229097
            ],
            [
              98.718423873,
              3.529229948
            ],
            [
              98.718771848,
              3.529257243
            ],
            [
              98.718719239,
              3.529880099
            ],
            [
              98.7186882,
              3.530354786
            ],
            [
              98.718687224,
              3.530369711
            ],
            [
              98.718734566,
              3.530414662
            ],
            [
              98.71888278,
              3.530394998
            ],
            [
              98.719894332,
              3.530393677
            ],
            [
              98.720565364,
              3.53037308
            ],
            [
              98.720815908,
              3.530331152
            ],
            [
              98.721272691,
              3.530290463
            ],
            [
              98.721361266,
              3.530278772
            ],
            [
              98.721468084,
              3.530279986
            ],
            [
              98.721588125,
              3.530274879
            ],
            [
              98.721725952,
              3.530279683
            ],
            [
              98.721915416,
              3.530332026
            ],
            [
              98.72203995,
              3.530404677
            ],
            [
              98.722183286,
              3.530448044
            ],
            [
              98.722328491,
              3.530512944
            ],
            [
              98.72263241,
              3.530629391
            ],
            [
              98.72278892,
              3.530698477
            ],
            [
              98.722857123,
              3.530720655
            ],
            [
              98.722923321,
              3.53068828
            ],
            [
              98.722980331,
              3.530498913
            ],
            [
              98.722985905,
              3.53033269
            ],
            [
              98.723021924,
              3.530224672
            ],
            [
              98.723072467,
              3.530195144
            ],
            [
              98.723240186,
              3.530187662
            ],
            [
              98.723532625,
              3.530168714
            ],
            [
              98.724236424,
              3.530144116
            ],
            [
              98.725592472,
              3.530068268
            ],
            [
              98.727446951,
              3.529987926
            ],
            [
              98.730953535,
              3.529836001
            ],
            [
              98.731719352,
              3.529795678
            ],
            [
              98.734136546,
              3.5296684
            ],
            [
              98.734158296,
              3.529716962
            ],
            [
              98.73418407,
              3.529726448
            ],
            [
              98.734312457,
              3.529661693
            ],
            [
              98.735724165,
              3.529584273
            ],
            [
              98.737898133,
              3.529493735
            ],
            [
              98.739794212,
              3.529367603
            ],
            [
              98.740449888,
              3.529347052
            ],
            [
              98.741184976,
              3.529322264
            ],
            [
              98.742141105,
              3.529265139
            ],
            [
              98.742405959,
              3.52926141
            ],
            [
              98.742422592,
              3.529211246
            ],
            [
              98.74250753,
              3.529177666
            ],
            [
              98.742581287,
              3.529143786
            ],
            [
              98.74267662,
              3.529037817
            ],
            [
              98.742682693,
              3.528934295
            ],
            [
              98.742676073,
              3.528848237
            ],
            [
              98.742634641,
              3.528789454
            ],
            [
              98.742580516,
              3.528731251
            ],
            [
              98.742507697,
              3.528637264
            ],
            [
              98.742462223,
              3.528533093
            ],
            [
              98.742462921,
              3.528529628
            ],
            [
              98.742420281,
              3.528422079
            ],
            [
              98.742440633,
              3.528267757
            ],
            [
              98.742468127,
              3.528162984
            ],
            [
              98.742464822,
              3.528112982
            ],
            [
              98.742479009,
              3.528043138
            ],
            [
              98.742535907,
              3.528037639
            ],
            [
              98.742633364,
              3.528043624
            ],
            [
              98.742755441,
              3.528022411
            ],
            [
              98.742857563,
              3.528021536
            ],
            [
              98.743032097,
              3.528024685
            ],
            [
              98.74335786,
              3.528008108
            ],
            [
              98.743609617,
              3.5279869
            ],
            [
              98.743836447,
              3.527998429
            ],
            [
              98.744026867,
              3.528004764
            ],
            [
              98.744054391,
              3.527954048
            ],
            [
              98.744067298,
              3.527833711
            ],
            [
              98.744042644,
              3.527649592
            ],
            [
              98.743949146,
              3.527472243
            ],
            [
              98.743949298,
              3.527466411
            ],
            [
              98.743863772,
              3.527306286
            ],
            [
              98.743961379,
              3.527205224
            ],
            [
              98.744170175,
              3.52713306
            ],
            [
              98.744502071,
              3.52703511
            ],
            [
              98.745904857,
              3.52661255
            ],
            [
              98.746055446,
              3.526577691
            ],
            [
              98.746045277,
              3.526455532
            ],
            [
              98.745974325,
              3.526378942
            ],
            [
              98.745949657,
              3.526218716
            ],
            [
              98.745944392,
              3.526212029
            ],
            [
              98.74587755,
              3.526029979
            ],
            [
              98.745814702,
              3.525838648
            ],
            [
              98.745805895,
              3.525813254
            ],
            [
              98.745744674,
              3.52564597
            ],
            [
              98.745706725,
              3.525484433
            ],
            [
              98.74566403,
              3.525385383
            ],
            [
              98.745692073,
              3.525317012
            ],
            [
              98.745779141,
              3.525277989
            ],
            [
              98.745964979,
              3.525213779
            ],
            [
              98.746097545,
              3.525144438
            ],
            [
              98.746246285,
              3.525125009
            ],
            [
              98.746461922,
              3.525031651
            ],
            [
              98.746548315,
              3.52495839
            ],
            [
              98.746633227,
              3.524896305
            ],
            [
              98.746731793,
              3.524850447
            ],
            [
              98.746819902,
              3.524825517
            ],
            [
              98.74688034,
              3.524881744
            ],
            [
              98.746926614,
              3.524938566
            ],
            [
              98.74736201,
              3.525421651
            ],
            [
              98.747419894,
              3.525495341
            ],
            [
              98.747505161,
              3.525495826
            ],
            [
              98.747600529,
              3.525464915
            ],
            [
              98.747744743,
              3.525424195
            ],
            [
              98.7480032,
              3.525345184
            ],
            [
              98.748536197,
              3.525177367
            ],
            [
              98.748835258,
              3.525090536
            ],
            [
              98.748986419,
              3.525073404
            ],
            [
              98.74913881,
              3.525092565
            ],
            [
              98.749294792,
              3.525070333
            ],
            [
              98.749354389,
              3.525051072
            ],
            [
              98.749487402,
              3.525002844
            ],
            [
              98.75063809,
              3.524641309
            ],
            [
              98.751130888,
              3.524487318
            ],
            [
              98.751325067,
              3.524445638
            ],
            [
              98.751555006,
              3.524352343
            ],
            [
              98.751953077,
              3.524185446
            ],
            [
              98.75205104,
              3.524195762
            ],
            [
              98.752277798,
              3.524125302
            ],
            [
              98.752510298,
              3.524053659
            ],
            [
              98.75284398,
              3.523952552
            ]
          ]
        ]
      }
    }
  ]
}