{
  "type": "FeatureCollection",
  "features": [
    {
      "type": "Feature",
      "properties": {
        "idx": "980",
        "nama_kewilayahan": "Masyarakat Adat Rakyat Penunggu (MARP) Kampong Menteng Tualang Pusu"
      },
      "geometry": {
        "type": "Polygon",
        "coordinates": [
          [
            [
              98.756433177,
              3.581314748
            ],
            [
              98.754612761,
              3.581326191
            ],
            [
              98.754589616,
              3.581326479
            ],
            [
              98.75310695,
              3.581344921
            ],
            [
              98.752425007,
              3.581346962
            ],
            [
              98.751673496,
              3.581349211
            ],
            [
              98.751147245,
              3.581347965
            ],
            [
              98.748679528,
              3.58136346
            ],
            [
              98.747401423,
              3.581371486
            ],
            [
              98.746009936,
              3.581393147
            ],
            [
              98.744916319,
              3.581390949
            ],
            [
              98.744193708,
              3.581401992
            ],
            [
              98.743716875,
              3.581409281
            ],
            [
              98.742572185,
              3.581398845
            ],
            [
              98.741339409,
              3.581419999
            ],
            [
              98.739897631,
              3.581438662
            ],
            [
              98.739449456,
              3.581441573
            ],
            [
              98.738652674,
              3.581446749
            ],
            [
              98.736258293,
              3.581418192
            ],
            [
              98.734040104,
              3.581416063
            ],
            [
              98.732462066,
              3.581428382
            ],
            [
              98.731044808,
              3.581424731
            ],
            [
              98.729713325,
              3.581425024
            ],
            [
              98.729709901,
              3.581423236
            ],
            [
              98.729676788,
              3.581405938
            ],
            [
              98.729654395,
              3.581351017
            ],
            [
              98.729580548,
              3.581239755
            ],
            [
              98.729518233,
              3.581101923
            ],
            [
              98.729484329,
              3.581005541
            ],
            [
              98.729417292,
              3.580888148
            ],
            [
              98.729360413,
              3.580783309
            ],
            [
              98.729310926,
              3.580803761
            ],
            [
              98.729192422,
              3.580846553
            ],
            [
              98.729057612,
              3.580904518
            ],
            [
              98.728986685,
              3.580942645
            ],
            [
              98.728852956,
              3.581006205
            ],
            [
              98.72874174,
              3.58106972
            ],
            [
              98.728614467,
              3.581106762
            ],
            [
              98.728507123,
              3.581133499
            ],
            [
              98.728379785,
              3.581141224
            ],
            [
              98.728280408,
              3.581142822
            ],
            [
              98.728167885,
              3.58115813
            ],
            [
              98.728023954,
              3.581177358
            ],
            [
              98.727864465,
              3.581178921
            ],
            [
              98.727857064,
              3.581166631
            ],
            [
              98.727842377,
              3.581070286
            ],
            [
              98.727865593,
              3.581015908
            ],
            [
              98.72779369,
              3.580838957
            ],
            [
              98.727787802,
              3.580826446
            ],
            [
              98.727705581,
              3.580651741
            ],
            [
              98.727611559,
              3.580492756
            ],
            [
              98.727516158,
              3.580349382
            ],
            [
              98.727435381,
              3.580250929
            ],
            [
              98.727371507,
              3.580121673
            ],
            [
              98.727310113,
              3.57985534
            ],
            [
              98.727270936,
              3.579523352
            ],
            [
              98.727178568,
              3.579288822
            ],
            [
              98.726913565,
              3.578829239
            ],
            [
              98.726782399,
              3.578633956
            ],
            [
              98.72665787,
              3.578452576
            ],
            [
              98.726500642,
              3.578329874
            ],
            [
              98.726190036,
              3.578111688
            ],
            [
              98.725791424,
              3.577943809
            ],
            [
              98.725485504,
              3.577796291
            ],
            [
              98.725198029,
              3.57768794
            ],
            [
              98.724990855,
              3.577714652
            ],
            [
              98.724900802,
              3.577738879
            ],
            [
              98.724657472,
              3.577804341
            ],
            [
              98.724544314,
              3.577881632
            ],
            [
              98.72445311,
              3.577929207
            ],
            [
              98.724379046,
              3.577954837
            ],
            [
              98.724271767,
              3.577960782
            ],
            [
              98.724061153,
              3.577771124
            ],
            [
              98.723798286,
              3.577508228
            ],
            [
              98.723647976,
              3.577352883
            ],
            [
              98.723568895,
              3.577223682
            ],
            [
              98.723550292,
              3.577108531
            ],
            [
              98.723618021,
              3.576852532
            ],
            [
              98.723714116,
              3.576640662
            ],
            [
              98.723831756,
              3.576510224
            ],
            [
              98.724001431,
              3.576233308
            ],
            [
              98.724051219,
              3.576044741
            ],
            [
              98.7240057,
              3.575795484
            ],
            [
              98.723934947,
              3.575595412
            ],
            [
              98.723836271,
              3.575471762
            ],
            [
              98.723758072,
              3.575308028
            ],
            [
              98.723699251,
              3.575123141
            ],
            [
              98.723704737,
              3.574972452
            ],
            [
              98.723751835,
              3.574781028
            ],
            [
              98.723828597,
              3.57463093
            ],
            [
              98.723939315,
              3.574495625
            ],
            [
              98.72403635,
              3.574424275
            ],
            [
              98.724139335,
              3.574371288
            ],
            [
              98.724312641,
              3.574282698
            ],
            [
              98.724546809,
              3.574170698
            ],
            [
              98.724704779,
              3.573946257
            ],
            [
              98.724779609,
              3.573705667
            ],
            [
              98.724768777,
              3.573471149
            ],
            [
              98.724717032,
              3.573234099
            ],
            [
              98.724593932,
              3.573058317
            ],
            [
              98.724594077,
              3.573054092
            ],
            [
              98.724477671,
              3.572866168
            ],
            [
              98.724473712,
              3.57286607
            ],
            [
              98.724117444,
              3.572341927
            ],
            [
              98.724272775,
              3.571759964
            ],
            [
              98.724276441,
              3.571542476
            ],
            [
              98.72419379,
              3.571432135
            ],
            [
              98.723882039,
              3.570974929
            ],
            [
              98.723807171,
              3.570803435
            ],
            [
              98.72373558,
              3.570496841
            ],
            [
              98.723668393,
              3.570278886
            ],
            [
              98.723537626,
              3.570127883
            ],
            [
              98.722580796,
              3.56963529
            ],
            [
              98.721758357,
              3.569215327
            ],
            [
              98.721513413,
              3.568969989
            ],
            [
              98.72140489,
              3.568816223
            ],
            [
              98.721296009,
              3.568615367
            ],
            [
              98.721232185,
              3.56838818
            ],
            [
              98.721184732,
              3.568293046
            ],
            [
              98.721038452,
              3.567892382
            ],
            [
              98.720965504,
              3.567769275
            ],
            [
              98.720923485,
              3.567618641
            ],
            [
              98.720996012,
              3.567390143
            ],
            [
              98.721110287,
              3.567174695
            ],
            [
              98.72130137,
              3.566993601
            ],
            [
              98.721487691,
              3.56683544
            ],
            [
              98.721653095,
              3.566711067
            ],
            [
              98.721774707,
              3.566626098
            ],
            [
              98.721868541,
              3.566515481
            ],
            [
              98.72186135,
              3.56621114
            ],
            [
              98.721704932,
              3.565940966
            ],
            [
              98.721459303,
              3.565788827
            ],
            [
              98.721289484,
              3.565616382
            ],
            [
              98.721163219,
              3.565461949
            ],
            [
              98.721082974,
              3.565237748
            ],
            [
              98.72105293,
              3.565001994
            ],
            [
              98.721028458,
              3.564720656
            ],
            [
              98.720987399,
              3.564427515
            ],
            [
              98.720875904,
              3.563950249
            ],
            [
              98.720755973,
              3.563644166
            ],
            [
              98.720577104,
              3.563491736
            ],
            [
              98.720400357,
              3.563339409
            ],
            [
              98.720276023,
              3.563212117
            ],
            [
              98.720208687,
              3.563076212
            ],
            [
              98.7200365,
              3.562691159
            ],
            [
              98.719927051,
              3.562368956
            ],
            [
              98.719901513,
              3.562058055
            ],
            [
              98.719840112,
              3.561938798
            ],
            [
              98.719720272,
              3.561784384
            ],
            [
              98.719524188,
              3.561684424
            ],
            [
              98.719167537,
              3.561606048
            ],
            [
              98.718936738,
              3.561614166
            ],
            [
              98.718779388,
              3.561627985
            ],
            [
              98.718631158,
              3.561565236
            ],
            [
              98.71844934,
              3.561345872
            ],
            [
              98.718333999,
              3.56120133
            ],
            [
              98.718273278,
              3.561063897
            ],
            [
              98.718181081,
              3.560930784
            ],
            [
              98.717590001,
              3.560062912
            ],
            [
              98.717454525,
              3.559898605
            ],
            [
              98.717512871,
              3.559808431
            ],
            [
              98.71741947,
              3.559842493
            ],
            [
              98.717367821,
              3.559759816
            ],
            [
              98.717009453,
              3.558670717
            ],
            [
              98.716707762,
              3.558084923
            ],
            [
              98.716470111,
              3.557773092
            ],
            [
              98.716227602,
              3.557537446
            ],
            [
              98.715984295,
              3.557332044
            ],
            [
              98.7150699,
              3.556205786
            ],
            [
              98.714282307,
              3.555037219
            ],
            [
              98.71418048,
              3.554930259
            ],
            [
              98.714090163,
              3.554852743
            ],
            [
              98.714005263,
              3.554804012
            ],
            [
              98.71390799,
              3.554696876
            ],
            [
              98.713822395,
              3.554610065
            ],
            [
              98.713763648,
              3.554504936
            ],
            [
              98.713740559,
              3.554428748
            ],
            [
              98.713786292,
              3.554332172
            ],
            [
              98.713888328,
              3.554279521
            ],
            [
              98.71397887,
              3.554200029
            ],
            [
              98.714198127,
              3.554081371
            ],
            [
              98.714369326,
              3.553976298
            ],
            [
              98.714426648,
              3.553919076
            ],
            [
              98.714563125,
              3.553873797
            ],
            [
              98.714717568,
              3.553805189
            ],
            [
              98.714845404,
              3.553695218
            ],
            [
              98.71492192,
              3.553521491
            ],
            [
              98.714935168,
              3.553375304
            ],
            [
              98.714869878,
              3.553227147
            ],
            [
              98.714768782,
              3.553151238
            ],
            [
              98.714660461,
              3.553127231
            ],
            [
              98.714496211,
              3.553131654
            ],
            [
              98.714312704,
              3.553152737
            ],
            [
              98.714185042,
              3.553179372
            ],
            [
              98.71401602,
              3.553117743
            ],
            [
              98.713909987,
              3.55305923
            ],
            [
              98.713705201,
              3.552822658
            ],
            [
              98.713478237,
              3.552563941
            ],
            [
              98.713279923,
              3.552346396
            ],
            [
              98.71312594,
              3.552214629
            ],
            [
              98.713055368,
              3.552133789
            ],
            [
              98.71334117,
              3.552035611
            ],
            [
              98.713631782,
              3.551946146
            ],
            [
              98.71385992,
              3.551845438
            ],
            [
              98.713987959,
              3.551767146
            ],
            [
              98.714177445,
              3.551634535
            ],
            [
              98.714331281,
              3.551490213
            ],
            [
              98.714408462,
              3.551373276
            ],
            [
              98.71441741,
              3.551371178
            ],
            [
              98.714520201,
              3.551347079
            ],
            [
              98.714624202,
              3.551319447
            ],
            [
              98.714770979,
              3.551278348
            ],
            [
              98.71490233,
              3.551305624
            ],
            [
              98.71498925,
              3.551415493
            ],
            [
              98.715019346,
              3.551453534
            ],
            [
              98.715074678,
              3.551500106
            ],
            [
              98.715086652,
              3.551510184
            ],
            [
              98.715328642,
              3.551481639
            ],
            [
              98.715854667,
              3.551465114
            ],
            [
              98.716109076,
              3.551456753
            ],
            [
              98.716175812,
              3.551697327
            ],
            [
              98.716275264,
              3.551973183
            ],
            [
              98.716286285,
              3.551973081
            ],
            [
              98.716601058,
              3.551970108
            ],
            [
              98.716852789,
              3.551936853
            ],
            [
              98.71718784,
              3.551938227
            ],
            [
              98.717279311,
              3.551953535
            ],
            [
              98.717347363,
              3.551944872
            ],
            [
              98.717642453,
              3.551967474
            ],
            [
              98.717914064,
              3.552022512
            ],
            [
              98.718028469,
              3.552017898
            ],
            [
              98.718172289,
              3.5519655
            ],
            [
              98.718319088,
              3.551982385
            ],
            [
              98.718385514,
              3.551971855
            ],
            [
              98.718408572,
              3.551877223
            ],
            [
              98.718460233,
              3.551522299
            ],
            [
              98.719237391,
              3.551493368
            ],
            [
              98.719208781,
              3.550694637
            ],
            [
              98.720182114,
              3.55078443
            ],
            [
              98.720231417,
              3.550784851
            ],
            [
              98.720297176,
              3.550795727
            ],
            [
              98.72047843,
              3.550825705
            ],
            [
              98.720653791,
              3.550843393
            ],
            [
              98.720700578,
              3.550848114
            ],
            [
              98.720936477,
              3.550877022
            ],
            [
              98.721156345,
              3.550892231
            ],
            [
              98.721469817,
              3.550965642
            ],
            [
              98.721454777,
              3.551551863
            ],
            [
              98.721581383,
              3.55156072
            ],
            [
              98.721805014,
              3.551547004
            ],
            [
              98.722023876,
              3.551495783
            ],
            [
              98.722208335,
              3.551482722
            ],
            [
              98.722426211,
              3.55153667
            ],
            [
              98.722461313,
              3.551715142
            ],
            [
              98.722535913,
              3.551874164
            ],
            [
              98.72324704,
              3.551944424
            ],
            [
              98.723862447,
              3.551942602
            ],
            [
              98.724390196,
              3.551927158
            ],
            [
              98.724980026,
              3.551917291
            ],
            [
              98.724989441,
              3.551735016
            ],
            [
              98.725000156,
              3.551527563
            ],
            [
              98.725160772,
              3.551547523
            ],
            [
              98.725340652,
              3.551569878
            ],
            [
              98.72552621,
              3.55157745
            ],
            [
              98.725636287,
              3.551578912
            ],
            [
              98.725639735,
              3.551578958
            ],
            [
              98.725880976,
              3.551582165
            ],
            [
              98.726098917,
              3.551561757
            ],
            [
              98.726288625,
              3.551541317
            ],
            [
              98.726481971,
              3.55152097
            ],
            [
              98.726733149,
              3.551504708
            ],
            [
              98.727116007,
              3.55153738
            ],
            [
              98.727439419,
              3.551551487
            ],
            [
              98.727703275,
              3.55159739
            ],
            [
              98.727866713,
              3.551633443
            ],
            [
              98.728661243,
              3.551661261
            ],
            [
              98.729032011,
              3.551693357
            ],
            [
              98.729324601,
              3.551682461
            ],
            [
              98.72937599,
              3.551689164
            ],
            [
              98.729572297,
              3.551714765
            ],
            [
              98.729778149,
              3.551714682
            ],
            [
              98.729918186,
              3.551736356
            ],
            [
              98.730087009,
              3.551736287
            ],
            [
              98.730258901,
              3.551748467
            ],
            [
              98.730409355,
              3.551729706
            ],
            [
              98.730445986,
              3.55171715
            ],
            [
              98.731990949,
              3.551767288
            ],
            [
              98.731990983,
              3.551767289
            ],
            [
              98.732337883,
              3.55178092
            ],
            [
              98.735047504,
              3.551937149
            ],
            [
              98.735064009,
              3.551938101
            ],
            [
              98.736664107,
              3.552034116
            ],
            [
              98.738142036,
              3.552111137
            ],
            [
              98.738690195,
              3.552139704
            ],
            [
              98.738862164,
              3.552148666
            ],
            [
              98.740698197,
              3.552244349
            ],
            [
              98.743820078,
              3.552392605
            ],
            [
              98.747137434,
              3.552922155
            ],
            [
              98.747612295,
              3.552947859
            ],
            [
              98.750044449,
              3.552875602
            ],
            [
              98.750236761,
              3.552573222
            ],
            [
              98.750276365,
              3.552500266
            ],
            [
              98.750312931,
              3.552505658
            ],
            [
              98.750392989,
              3.552499333
            ],
            [
              98.750455147,
              3.552562246
            ],
            [
              98.750555291,
              3.552791255
            ],
            [
              98.750614435,
              3.552835081
            ],
            [
              98.750798306,
              3.552828238
            ],
            [
              98.751003327,
              3.552821677
            ],
            [
              98.751534608,
              3.552800838
            ],
            [
              98.751611209,
              3.553097507
            ],
            [
              98.75181189,
              3.553158825
            ],
            [
              98.752001795,
              3.553331997
            ],
            [
              98.75215725,
              3.553527162
            ],
            [
              98.752186903,
              3.55368803
            ],
            [
              98.752326718,
              3.553772989
            ],
            [
              98.752424882,
              3.553967872
            ],
            [
              98.752566527,
              3.554167949
            ],
            [
              98.752672086,
              3.554275143
            ],
            [
              98.752799712,
              3.554324809
            ],
            [
              98.753006116,
              3.55430819
            ],
            [
              98.753195365,
              3.554290461
            ],
            [
              98.753412583,
              3.554302703
            ],
            [
              98.753622881,
              3.554316859
            ],
            [
              98.753893242,
              3.554297445
            ],
            [
              98.754869165,
              3.554227365
            ],
            [
              98.754899453,
              3.554294462
            ],
            [
              98.754946348,
              3.554398343
            ],
            [
              98.755096668,
              3.55455901
            ],
            [
              98.755221498,
              3.554756582
            ],
            [
              98.755459062,
              3.554917197
            ],
            [
              98.755773188,
              3.554960108
            ],
            [
              98.756028331,
              3.555053751
            ],
            [
              98.756255778,
              3.555138857
            ],
            [
              98.756363723,
              3.555105911
            ],
            [
              98.756735587,
              3.555061696
            ],
            [
              98.75681234,
              3.555036649
            ],
            [
              98.75706011,
              3.554955791
            ],
            [
              98.757775582,
              3.554716715
            ],
            [
              98.757966449,
              3.554654139
            ],
            [
              98.758168577,
              3.55453474
            ],
            [
              98.759088154,
              3.553835828
            ],
            [
              98.759761982,
              3.553827986
            ],
            [
              98.760153776,
              3.553955943
            ],
            [
              98.760182616,
              3.553964605
            ],
            [
              98.7604627,
              3.554011208
            ],
            [
              98.760705232,
              3.554000822
            ],
            [
              98.760997234,
              3.553856848
            ],
            [
              98.761364166,
              3.553718848
            ],
            [
              98.761646814,
              3.553666815
            ],
            [
              98.761957562,
              3.553594224
            ],
            [
              98.762139009,
              3.553584085
            ],
            [
              98.762380368,
              3.55368678
            ],
            [
              98.762462459,
              3.553774695
            ],
            [
              98.762578008,
              3.553917661
            ],
            [
              98.762756244,
              3.554139776
            ],
            [
              98.762893264,
              3.554269476
            ],
            [
              98.763010277,
              3.554394809
            ],
            [
              98.763305867,
              3.554547589
            ],
            [
              98.763490204,
              3.554646699
            ],
            [
              98.763788299,
              3.554770641
            ],
            [
              98.764430898,
              3.554988463
            ],
            [
              98.764715398,
              3.555101346
            ],
            [
              98.765339156,
              3.555370991
            ],
            [
              98.765961186,
              3.55555173
            ],
            [
              98.766408035,
              3.555627633
            ],
            [
              98.766894917,
              3.55566637
            ],
            [
              98.767301027,
              3.555699333
            ],
            [
              98.767672477,
              3.555964133
            ],
            [
              98.767748598,
              3.555932021
            ],
            [
              98.767897794,
              3.555975574
            ],
            [
              98.768094045,
              3.556036668
            ],
            [
              98.768306657,
              3.556090122
            ],
            [
              98.768557577,
              3.55608668
            ],
            [
              98.768792741,
              3.556042507
            ],
            [
              98.769063138,
              3.556020181
            ],
            [
              98.769369955,
              3.555967161
            ],
            [
              98.76971549,
              3.555864556
            ],
            [
              98.770163554,
              3.555817519
            ],
            [
              98.770252078,
              3.555840774
            ],
            [
              98.770419861,
              3.555987534
            ],
            [
              98.77063979,
              3.556270313
            ],
            [
              98.770903333,
              3.556622287
            ],
            [
              98.771249167,
              3.557092742
            ],
            [
              98.77156944,
              3.557484526
            ],
            [
              98.771706967,
              3.557730451
            ],
            [
              98.771765885,
              3.557835809
            ],
            [
              98.772124945,
              3.558361452
            ],
            [
              98.772409278,
              3.558784737
            ],
            [
              98.772973153,
              3.559665158
            ],
            [
              98.773050467,
              3.559799843
            ],
            [
              98.773009297,
              3.559948338
            ],
            [
              98.772920925,
              3.560127332
            ],
            [
              98.772884974,
              3.560386461
            ],
            [
              98.772911267,
              3.560620073
            ],
            [
              98.773131683,
              3.560703283
            ],
            [
              98.773377481,
              3.560645777
            ],
            [
              98.773375314,
              3.560914372
            ],
            [
              98.77339459,
              3.561334781
            ],
            [
              98.773456003,
              3.561598963
            ],
            [
              98.773611601,
              3.56160099
            ],
            [
              98.773833997,
              3.561505195
            ],
            [
              98.773995315,
              3.561359843
            ],
            [
              98.774057434,
              3.56143371
            ],
            [
              98.774065269,
              3.561443026
            ],
            [
              98.774187494,
              3.561588373
            ],
            [
              98.774235561,
              3.561987967
            ],
            [
              98.774301185,
              3.562380559
            ],
            [
              98.774415788,
              3.562804221
            ],
            [
              98.774469178,
              3.563203483
            ],
            [
              98.774623027,
              3.563592846
            ],
            [
              98.774434723,
              3.563859228
            ],
            [
              98.774113251,
              3.564026791
            ],
            [
              98.773681583,
              3.56432594
            ],
            [
              98.773401824,
              3.564513484
            ],
            [
              98.773082618,
              3.56474121
            ],
            [
              98.773044209,
              3.565151428
            ],
            [
              98.773015766,
              3.565316485
            ],
            [
              98.772998412,
              3.565473784
            ],
            [
              98.773047089,
              3.565537016
            ],
            [
              98.773051463,
              3.565637071
            ],
            [
              98.773051633,
              3.565884546
            ],
            [
              98.773157274,
              3.566032373
            ],
            [
              98.773365311,
              3.566096084
            ],
            [
              98.773478493,
              3.566160491
            ],
            [
              98.773571677,
              3.566305544
            ],
            [
              98.773658932,
              3.566485691
            ],
            [
              98.773665985,
              3.566693278
            ],
            [
              98.773609711,
              3.56684017
            ],
            [
              98.773554663,
              3.567003708
            ],
            [
              98.773561256,
              3.567125068
            ],
            [
              98.773610392,
              3.567206725
            ],
            [
              98.773682549,
              3.567364914
            ],
            [
              98.773789146,
              3.567544642
            ],
            [
              98.773793224,
              3.567549723
            ],
            [
              98.773925309,
              3.567763211
            ],
            [
              98.774034778,
              3.567876185
            ],
            [
              98.774159374,
              3.567958092
            ],
            [
              98.774253332,
              3.568054644
            ],
            [
              98.774303664,
              3.568154375
            ],
            [
              98.774295042,
              3.568266328
            ],
            [
              98.774367499,
              3.568351983
            ],
            [
              98.774475862,
              3.568414472
            ],
            [
              98.774475961,
              3.568513534
            ],
            [
              98.77452838,
              3.568661658
            ],
            [
              98.77460188,
              3.568750343
            ],
            [
              98.774724249,
              3.568846519
            ],
            [
              98.774845391,
              3.568969559
            ],
            [
              98.77488857,
              3.569052339
            ],
            [
              98.774898645,
              3.569158093
            ],
            [
              98.774791751,
              3.569330841
            ],
            [
              98.774842277,
              3.569413418
            ],
            [
              98.775077666,
              3.569483317
            ],
            [
              98.775233174,
              3.569568931
            ],
            [
              98.775312247,
              3.569635325
            ],
            [
              98.77536543,
              3.569749848
            ],
            [
              98.775430351,
              3.569899683
            ],
            [
              98.775535252,
              3.570036145
            ],
            [
              98.775591609,
              3.570114279
            ],
            [
              98.775665572,
              3.570233933
            ],
            [
              98.775640689,
              3.570333593
            ],
            [
              98.775648534,
              3.570502231
            ],
            [
              98.775690306,
              3.570674034
            ],
            [
              98.775648158,
              3.570769827
            ],
            [
              98.775716638,
              3.570934804
            ],
            [
              98.7757876,
              3.570908166
            ],
            [
              98.775864398,
              3.57085463
            ],
            [
              98.775922468,
              3.570871007
            ],
            [
              98.775982565,
              3.570914833
            ],
            [
              98.776040563,
              3.5709987
            ],
            [
              98.776034522,
              3.571087637
            ],
            [
              98.776039477,
              3.571258728
            ],
            [
              98.776064403,
              3.571392436
            ],
            [
              98.776088169,
              3.571489757
            ],
            [
              98.776134111,
              3.571667452
            ],
            [
              98.776206915,
              3.571780323
            ],
            [
              98.776349291,
              3.571828311
            ],
            [
              98.776443785,
              3.57191537
            ],
            [
              98.776517219,
              3.572065503
            ],
            [
              98.776537488,
              3.57209199
            ],
            [
              98.776603819,
              3.572117974
            ],
            [
              98.776689091,
              3.572131521
            ],
            [
              98.776742353,
              3.572191899
            ],
            [
              98.776793817,
              3.572270571
            ],
            [
              98.776819556,
              3.57235926
            ],
            [
              98.776827461,
              3.572458723
            ],
            [
              98.776816339,
              3.572541663
            ],
            [
              98.776807791,
              3.572640031
            ],
            [
              98.776835025,
              3.572705971
            ],
            [
              98.776880337,
              3.572811544
            ],
            [
              98.77690227,
              3.572888579
            ],
            [
              98.776926566,
              3.572973917
            ],
            [
              98.777113445,
              3.573015629
            ],
            [
              98.777266256,
              3.573086554
            ],
            [
              98.77739737,
              3.573172341
            ],
            [
              98.777529745,
              3.57331765
            ],
            [
              98.777579009,
              3.573654617
            ],
            [
              98.777673014,
              3.573890058
            ],
            [
              98.777822583,
              3.574220288
            ],
            [
              98.777937825,
              3.574409837
            ],
            [
              98.777966571,
              3.57452273
            ],
            [
              98.77794193,
              3.574665808
            ],
            [
              98.778028154,
              3.574722117
            ],
            [
              98.778159427,
              3.574735718
            ],
            [
              98.778268912,
              3.574769323
            ],
            [
              98.778343682,
              3.574851171
            ],
            [
              98.778329846,
              3.574937396
            ],
            [
              98.778289425,
              3.574987347
            ],
            [
              98.778247919,
              3.575154977
            ],
            [
              98.778249257,
              3.575306983
            ],
            [
              98.778304484,
              3.575440694
            ],
            [
              98.778379421,
              3.575492443
            ],
            [
              98.778504649,
              3.575506925
            ],
            [
              98.778537109,
              3.575599586
            ],
            [
              98.778556794,
              3.575710452
            ],
            [
              98.778575402,
              3.575800505
            ],
            [
              98.778644382,
              3.575921366
            ],
            [
              98.778715902,
              3.576037151
            ],
            [
              98.778716535,
              3.57612964
            ],
            [
              98.778636298,
              3.576236528
            ],
            [
              98.778641432,
              3.576369245
            ],
            [
              98.778657743,
              3.576478345
            ],
            [
              98.778727158,
              3.57652946
            ],
            [
              98.778767718,
              3.576628126
            ],
            [
              98.778812569,
              3.576743377
            ],
            [
              98.778800605,
              3.57685644
            ],
            [
              98.778784154,
              3.576967209
            ],
            [
              98.7786784,
              3.57722338
            ],
            [
              98.778700346,
              3.577304692
            ],
            [
              98.778745459,
              3.577413987
            ],
            [
              98.778878988,
              3.57756575
            ],
            [
              98.778989796,
              3.577765816
            ],
            [
              98.779042633,
              3.577927785
            ],
            [
              98.779162035,
              3.5779529
            ],
            [
              98.779269664,
              3.577932214
            ],
            [
              98.779283513,
              3.57784562
            ],
            [
              98.779317992,
              3.577765327
            ],
            [
              98.779335283,
              3.577673432
            ],
            [
              98.779463447,
              3.577666075
            ],
            [
              98.779707954,
              3.577688411
            ],
            [
              98.779795645,
              3.577728034
            ],
            [
              98.781849381,
              3.581201313
            ],
            [
              98.78183297,
              3.581204253
            ],
            [
              98.781708244,
              3.581130905
            ],
            [
              98.78159325,
              3.58111669
            ],
            [
              98.781262605,
              3.581125974
            ],
            [
              98.780873629,
              3.581123655
            ],
            [
              98.780491079,
              3.581128239
            ],
            [
              98.779931258,
              3.581144197
            ],
            [
              98.77852044,
              3.581157662
            ],
            [
              98.777923002,
              3.581153168
            ],
            [
              98.7765526,
              3.581159186
            ],
            [
              98.775354059,
              3.581193577
            ],
            [
              98.774915871,
              3.581205089
            ],
            [
              98.773534499,
              3.581197321
            ],
            [
              98.77193226,
              3.581224262
            ],
            [
              98.770271213,
              3.581242508
            ],
            [
              98.76825187,
              3.581264168
            ],
            [
              98.765582934,
              3.581257693
            ],
            [
              98.76323495,
              3.581249378
            ],
            [
              98.762214566,
              3.581243206
            ],
            [
              98.761076619,
              3.581254034
            ],
            [
              98.760626267,
              3.581286616
            ],
            [
              98.760562028,
              3.581282817
            ],
            [
              98.760420212,
              3.5812724
            ],
            [
              98.759060523,
              3.581266037
            ],
            [
              98.757962451,
              3.581292622
            ],
            [
              98.756648101,
              3.581320228
            ],
            [
              98.756640147,
              3.581320395
            ],
            [
              98.756433177,
              3.581314748
            ]
          ]
        ]
      }
    }
  ]
}